<?xml version='1.0' encoding='UTF-8'?>
<kml xmlns:xsd="http://www.w3.org/2001/XMLSchema" xmlns:gx="http://www.google.com/kml/ext/2.2" xmlns:atom="http://www.w3.org/2005/Atom" xmlns="http://www.opengis.net/kml/2.2">
<Document>
<name>aguas_frias_4200556_localidades_2022</name>
<visibility>1</visibility>
<Schema name="Povoados" id="kml_schema_ft_Povoados">
<SimpleField type="xsd:string" name="CD_UF">
<displayName>CD_UF</displayName>
</SimpleField>
<SimpleField type="xsd:string" name="NM_UF">
<displayName>NM_UF</displayName>
</SimpleField>
<SimpleField type="xsd:string" name="SIGLA_UF">
<displayName>SIGLA_UF</displayName>
</SimpleField>
<SimpleField type="xsd:string" name="CD_MUN">
<displayName>CD_MUN</displayName>
</SimpleField>
<SimpleField type="xsd:string" name="NM_MUN">
<displayName>NM_MUN</displayName>
</SimpleField>
<SimpleField type="xsd:string" name="CD_RGINT">
<displayName>CD_RGINT</displayName>
</SimpleField>
<SimpleField type="xsd:string" name="NM_RGINT">
<displayName>NM_RGINT</displayName>
</SimpleField>
<SimpleField type="xsd:string" name="CD_RGI">
<displayName>CD_RGI</displayName>
</SimpleField>
<SimpleField type="xsd:string" name="NM_RGI">
<displayName>NM_RGI</displayName>
</SimpleField>
<SimpleField type="xsd:string" name="CT_LOCALIDADE">
<displayName>CT_LOCALIDADE</displayName>
</SimpleField>
<SimpleField type="xsd:string" name="CD_LOCALIDADE">
<displayName>CD_LOCALIDADE</displayName>
</SimpleField>
<SimpleField type="xsd:string" name="NM_LOCALIDADE">
<displayName>NM_LOCALIDADE</displayName>
</SimpleField>
<SimpleField type="xsd:string" name="LAT_LOCALIDADE">
<displayName>LAT_LOCALIDADE</displayName>
</SimpleField>
<SimpleField type="xsd:string" name="LONG_LOCALIDADE">
<displayName>LONG_LOCALIDADE</displayName>
</SimpleField>
</Schema>
<Schema name="01. Cidade" id="kml_schema_ft_01._Cidade">
<SimpleField type="xsd:string" name="CD_UF">
<displayName>CD_UF</displayName>
</SimpleField>
<SimpleField type="xsd:string" name="NM_UF">
<displayName>NM_UF</displayName>
</SimpleField>
<SimpleField type="xsd:string" name="SIGLA_UF">
<displayName>SIGLA_UF</displayName>
</SimpleField>
<SimpleField type="xsd:string" name="CD_MUN">
<displayName>CD_MUN</displayName>
</SimpleField>
<SimpleField type="xsd:string" name="NM_MUN">
<displayName>NM_MUN</displayName>
</SimpleField>
<SimpleField type="xsd:string" name="CD_RGINT">
<displayName>CD_RGINT</displayName>
</SimpleField>
<SimpleField type="xsd:string" name="NM_RGINT">
<displayName>NM_RGINT</displayName>
</SimpleField>
<SimpleField type="xsd:string" name="CD_RGI">
<displayName>CD_RGI</displayName>
</SimpleField>
<SimpleField type="xsd:string" name="NM_RGI">
<displayName>NM_RGI</displayName>
</SimpleField>
<SimpleField type="xsd:string" name="CT_LOCALIDADE">
<displayName>CT_LOCALIDADE</displayName>
</SimpleField>
<SimpleField type="xsd:string" name="SCT_LOCALIDADE">
<displayName>SCT_LOCALIDADE</displayName>
</SimpleField>
<SimpleField type="xsd:string" name="CD_LOCALIDADE">
<displayName>CD_LOCALIDADE</displayName>
</SimpleField>
<SimpleField type="xsd:string" name="NM_LOCALIDADE">
<displayName>NM_LOCALIDADE</displayName>
</SimpleField>
<SimpleField type="xsd:string" name="LAT_LOCALIDADE">
<displayName>LAT_LOCALIDADE</displayName>
</SimpleField>
<SimpleField type="xsd:string" name="LONG_LOCALIDADE">
<displayName>LONG_LOCALIDADE</displayName>
</SimpleField>
</Schema>
<Schema name="Município" id="kml_schema_ft_Município">
<SimpleField type="xsd:string" name="CD_UF">
<displayName>CD_UF</displayName>
</SimpleField>
<SimpleField type="xsd:string" name="NM_UF">
<displayName>NM_UF</displayName>
</SimpleField>
<SimpleField type="xsd:string" name="CD_MUN">
<displayName>CD_MUN</displayName>
</SimpleField>
<SimpleField type="xsd:string" name="NM_MUN">
<displayName>NM_MUN</displayName>
</SimpleField>
<SimpleField type="xsd:string" name="CD_RGINT">
<displayName>CD_RGINT</displayName>
</SimpleField>
<SimpleField type="xsd:string" name="NM_RGINT">
<displayName>NM_RGINT</displayName>
</SimpleField>
<SimpleField type="xsd:string" name="CD_RGI">
<displayName>CD_RGI</displayName>
</SimpleField>
<SimpleField type="xsd:string" name="NM_RGI">
<displayName>NM_RGI</displayName>
</SimpleField>
</Schema>
<Folder id="01. Cidade">
<name>01. Cidade</name>
<Folder id="01.03. Sede Municipal">
<name>01.03. Sede Municipal</name>
<Placemark id="01.03. Sede Municipal">
<name>Águas Frias [4200556]</name>
<visibility>1</visibility>
<snippet> </snippet>
<description>&lt;center&gt;&lt;table&gt;&lt;tr&gt;&lt;th colspan='2' align='center'&gt;&lt;em&gt;Atributos&lt;/em&gt;&lt;/th&gt;&lt;/tr&gt;&lt;tr bgcolor="#E3E3F3"&gt;
&lt;th&gt;CD_UF&lt;/th&gt;
&lt;td&gt;42&lt;/td&gt;
&lt;/tr&gt;&lt;tr bgcolor=""&gt;
&lt;th&gt;NM_UF&lt;/th&gt;
&lt;td&gt;Santa Catarina&lt;/td&gt;
&lt;/tr&gt;&lt;tr bgcolor="#E3E3F3"&gt;
&lt;th&gt;SIGLA_UF&lt;/th&gt;
&lt;td&gt;SC&lt;/td&gt;
&lt;/tr&gt;&lt;tr bgcolor=""&gt;
&lt;th&gt;CD_MUN&lt;/th&gt;
&lt;td&gt;4200556&lt;/td&gt;
&lt;/tr&gt;&lt;tr bgcolor="#E3E3F3"&gt;
&lt;th&gt;NM_MUN&lt;/th&gt;
&lt;td&gt;Águas Frias&lt;/td&gt;
&lt;/tr&gt;&lt;tr bgcolor=""&gt;
&lt;th&gt;CD_RGINT&lt;/th&gt;
&lt;td&gt;4204&lt;/td&gt;
&lt;/tr&gt;&lt;tr bgcolor="#E3E3F3"&gt;
&lt;th&gt;NM_RGINT&lt;/th&gt;
&lt;td&gt;Chapecó&lt;/td&gt;
&lt;/tr&gt;&lt;tr bgcolor=""&gt;
&lt;th&gt;CD_RGI&lt;/th&gt;
&lt;td&gt;420007&lt;/td&gt;
&lt;/tr&gt;&lt;tr bgcolor="#E3E3F3"&gt;
&lt;th&gt;NM_RGI&lt;/th&gt;
&lt;td&gt;Chapecó&lt;/td&gt;
&lt;/tr&gt;&lt;tr bgcolor=""&gt;
&lt;th&gt;CT_LOCALIDADE&lt;/th&gt;
&lt;td&gt;Cidade&lt;/td&gt;
&lt;/tr&gt;&lt;tr bgcolor="#E3E3F3"&gt;
&lt;th&gt;SCT_LOCALIDADE&lt;/th&gt;
&lt;td&gt;Sede Municipal&lt;/td&gt;
&lt;/tr&gt;&lt;tr bgcolor=""&gt;
&lt;th&gt;CD_LOCALIDADE&lt;/th&gt;
&lt;td&gt;4200556&lt;/td&gt;
&lt;/tr&gt;&lt;tr bgcolor="#E3E3F3"&gt;
&lt;th&gt;NM_LOCALIDADE&lt;/th&gt;
&lt;td&gt;Águas Frias&lt;/td&gt;
&lt;/tr&gt;&lt;tr bgcolor=""&gt;
&lt;th&gt;LAT_LOCALIDADE&lt;/th&gt;
&lt;td&gt;-26.8819&lt;/td&gt;
&lt;/tr&gt;&lt;tr bgcolor="#E3E3F3"&gt;
&lt;th&gt;LONG_LOCALIDADE&lt;/th&gt;
&lt;td&gt;-52.8595&lt;/td&gt;
&lt;/tr&gt;&lt;/table&gt;&lt;/center&gt;</description>
<Style>
<IconStyle>
<color>ff00aaff</color>
<scale>1.0</scale>
<Icon>
<href>http://maps.google.com/mapfiles/kml/shapes/placemark_circle.png</href>
</Icon>
</IconStyle>
<LabelStyle>
<scale>1.0</scale>
</LabelStyle>
<LineStyle>
<color>ffffffff</color>
<width>3</width>
<gx:labelVisibility>1</gx:labelVisibility>
</LineStyle>
<PolyStyle>
<color>00ffffff</color>
</PolyStyle>
</Style>
<ExtendedData>
<SchemaData schemaUrl="#kml_schema_ft_01._Cidade">
<SimpleData name="CD_UF">42</SimpleData>
<SimpleData name="NM_UF">Santa Catarina</SimpleData>
<SimpleData name="SIGLA_UF">SC</SimpleData>
<SimpleData name="CD_MUN">4200556</SimpleData>
<SimpleData name="NM_MUN">Águas Frias</SimpleData>
<SimpleData name="CD_RGINT">4204</SimpleData>
<SimpleData name="NM_RGINT">Chapecó</SimpleData>
<SimpleData name="CD_RGI">420007</SimpleData>
<SimpleData name="NM_RGI">Chapecó</SimpleData>
<SimpleData name="CT_LOCALIDADE">Cidade</SimpleData>
<SimpleData name="SCT_LOCALIDADE">Sede Municipal</SimpleData>
<SimpleData name="CD_LOCALIDADE">4200556</SimpleData>
<SimpleData name="NM_LOCALIDADE">Águas Frias</SimpleData>
<SimpleData name="LAT_LOCALIDADE">-26.8819</SimpleData>
<SimpleData name="LONG_LOCALIDADE">-52.8595</SimpleData>
</SchemaData>
</ExtendedData>
<Point>
<extrude>0</extrude>
<coordinates>-52.8595,-26.8818999992377,0.0</coordinates>
</Point>
</Placemark>
</Folder>
</Folder>
<Folder id="06. Povoados">
<name>06. Povoados</name>
<Placemark id="06. Povoados">
<name>Linha Tarumãzinho [420055600001]</name>
<visibility>1</visibility>
<snippet> </snippet>
<description>&lt;center&gt;&lt;table&gt;&lt;tr&gt;&lt;th colspan='2' align='center'&gt;&lt;em&gt;Atributos&lt;/em&gt;&lt;/th&gt;&lt;/tr&gt;&lt;tr bgcolor="#E3E3F3"&gt;
&lt;th&gt;CD_UF&lt;/th&gt;
&lt;td&gt;42&lt;/td&gt;
&lt;/tr&gt;&lt;tr bgcolor=""&gt;
&lt;th&gt;NM_UF&lt;/th&gt;
&lt;td&gt;Santa Catarina&lt;/td&gt;
&lt;/tr&gt;&lt;tr bgcolor="#E3E3F3"&gt;
&lt;th&gt;SIGLA_UF&lt;/th&gt;
&lt;td&gt;SC&lt;/td&gt;
&lt;/tr&gt;&lt;tr bgcolor=""&gt;
&lt;th&gt;CD_MUN&lt;/th&gt;
&lt;td&gt;4200556&lt;/td&gt;
&lt;/tr&gt;&lt;tr bgcolor="#E3E3F3"&gt;
&lt;th&gt;NM_MUN&lt;/th&gt;
&lt;td&gt;Águas Frias&lt;/td&gt;
&lt;/tr&gt;&lt;tr bgcolor=""&gt;
&lt;th&gt;CD_RGINT&lt;/th&gt;
&lt;td&gt;4204&lt;/td&gt;
&lt;/tr&gt;&lt;tr bgcolor="#E3E3F3"&gt;
&lt;th&gt;NM_RGINT&lt;/th&gt;
&lt;td&gt;Chapecó&lt;/td&gt;
&lt;/tr&gt;&lt;tr bgcolor=""&gt;
&lt;th&gt;CD_RGI&lt;/th&gt;
&lt;td&gt;420007&lt;/td&gt;
&lt;/tr&gt;&lt;tr bgcolor="#E3E3F3"&gt;
&lt;th&gt;NM_RGI&lt;/th&gt;
&lt;td&gt;Chapecó&lt;/td&gt;
&lt;/tr&gt;&lt;tr bgcolor=""&gt;
&lt;th&gt;CT_LOCALIDADE&lt;/th&gt;
&lt;td&gt;Povoado&lt;/td&gt;
&lt;/tr&gt;&lt;tr bgcolor="#E3E3F3"&gt;
&lt;th&gt;CD_LOCALIDADE&lt;/th&gt;
&lt;td&gt;420055600001&lt;/td&gt;
&lt;/tr&gt;&lt;tr bgcolor=""&gt;
&lt;th&gt;NM_LOCALIDADE&lt;/th&gt;
&lt;td&gt;Linha Tarumãzinho&lt;/td&gt;
&lt;/tr&gt;&lt;tr bgcolor="#E3E3F3"&gt;
&lt;th&gt;LAT_LOCALIDADE&lt;/th&gt;
&lt;td&gt;-26.8434&lt;/td&gt;
&lt;/tr&gt;&lt;tr bgcolor=""&gt;
&lt;th&gt;LONG_LOCALIDADE&lt;/th&gt;
&lt;td&gt;-52.8781&lt;/td&gt;
&lt;/tr&gt;&lt;/table&gt;&lt;/center&gt;</description>
<Style>
<IconStyle>
<color>ff00ff54</color>
<scale>0.8</scale>
<Icon>
<href>http://maps.google.com/mapfiles/kml/shapes/placemark_circle.png</href>
</Icon>
</IconStyle>
<LabelStyle>
<scale>0.8</scale>
</LabelStyle>
<LineStyle>
<color>72ff54ff</color>
<width>1.0</width>
<gx:labelVisibility>1</gx:labelVisibility>
</LineStyle>
<PolyStyle>
<color>66ff54ff</color>
</PolyStyle>
</Style>
<ExtendedData>
<SchemaData schemaUrl="#kml_schema_ft_Povoados">
<SimpleData name="CD_UF">42</SimpleData>
<SimpleData name="NM_UF">Santa Catarina</SimpleData>
<SimpleData name="SIGLA_UF">SC</SimpleData>
<SimpleData name="CD_MUN">4200556</SimpleData>
<SimpleData name="NM_MUN">Águas Frias</SimpleData>
<SimpleData name="CD_RGINT">4204</SimpleData>
<SimpleData name="NM_RGINT">Chapecó</SimpleData>
<SimpleData name="CD_RGI">420007</SimpleData>
<SimpleData name="NM_RGI">Chapecó</SimpleData>
<SimpleData name="CT_LOCALIDADE">Povoado</SimpleData>
<SimpleData name="CD_LOCALIDADE">420055600001</SimpleData>
<SimpleData name="NM_LOCALIDADE">Linha Tarumãzinho</SimpleData>
<SimpleData name="LAT_LOCALIDADE">-26.8434</SimpleData>
<SimpleData name="LONG_LOCALIDADE">-52.8781</SimpleData>
</SchemaData>
</ExtendedData>
<Point>
<extrude>0</extrude>
<coordinates>-52.8781412048192,-26.8434237341782,0.0</coordinates>
</Point>
</Placemark>
</Folder>
<Folder id="13. Referência">
<name>13. Referência</name>
<Placemark id="13. Referência">
<name>Águas Frias [4200556]</name>
<visibility>1</visibility>
<snippet> </snippet>
<description>&lt;center&gt;&lt;table&gt;&lt;tr&gt;&lt;th colspan='2' align='center'&gt;&lt;em&gt;Attributes&lt;/em&gt;&lt;/th&gt;&lt;/tr&gt;&lt;tr bgcolor="#E3E3F3"&gt;
&lt;th&gt;CD_UF&lt;/th&gt;
&lt;td&gt;42&lt;/td&gt;
&lt;/tr&gt;&lt;tr bgcolor=""&gt;
&lt;th&gt;NM_UF&lt;/th&gt;
&lt;td&gt;Santa Catarina&lt;/td&gt;
&lt;/tr&gt;&lt;tr bgcolor="#E3E3F3"&gt;
&lt;th&gt;CD_MUN&lt;/th&gt;
&lt;td&gt;4200556&lt;/td&gt;
&lt;/tr&gt;&lt;tr bgcolor=""&gt;
&lt;th&gt;NM_MUN&lt;/th&gt;
&lt;td&gt;Águas Frias&lt;/td&gt;
&lt;/tr&gt;&lt;tr bgcolor="#E3E3F3"&gt;
&lt;th&gt;CD_RGINT&lt;/th&gt;
&lt;td&gt;4204&lt;/td&gt;
&lt;/tr&gt;&lt;tr bgcolor=""&gt;
&lt;th&gt;NM_RGINT&lt;/th&gt;
&lt;td&gt;Chapecó&lt;/td&gt;
&lt;/tr&gt;&lt;tr bgcolor="#E3E3F3"&gt;
&lt;th&gt;CD_RGI&lt;/th&gt;
&lt;td&gt;420007&lt;/td&gt;
&lt;/tr&gt;&lt;tr bgcolor=""&gt;
&lt;th&gt;NM_RGI&lt;/th&gt;
&lt;td&gt;Chapecó&lt;/td&gt;
&lt;/tr&gt;&lt;/table&gt;&lt;/center&gt;</description>
<Style>
<IconStyle>
<scale>0.7</scale>
</IconStyle>
<LabelStyle>
<scale>0.7</scale>
</LabelStyle>
<LineStyle>
<color>ffffffff</color>
<width>3</width>
<gx:labelVisibility>1</gx:labelVisibility>
</LineStyle>
<PolyStyle>
<color>00ffffff</color>
</PolyStyle>
</Style>
<ExtendedData>
<SchemaData schemaUrl="#kml_schema_ft_Município">
<SimpleData name="CD_UF">42</SimpleData>
<SimpleData name="NM_UF">Santa Catarina</SimpleData>
<SimpleData name="CD_MUN">4200556</SimpleData>
<SimpleData name="NM_MUN">Águas Frias</SimpleData>
<SimpleData name="CD_RGINT">4204</SimpleData>
<SimpleData name="NM_RGINT">Chapecó</SimpleData>
<SimpleData name="CD_RGI">420007</SimpleData>
<SimpleData name="NM_RGI">Chapecó</SimpleData>
</SchemaData>
</ExtendedData>
<MultiGeometry>
<Polygon>
<extrude>0</extrude>
<tessellate>1</tessellate>
<outerBoundaryIs>
<LinearRing>
<coordinates>-52.8755196,-26.8638208992381,0.0 -52.8756163,-26.8636663992381,0.0 -52.8762988,-26.8632754992381,0.0 -52.877506,-26.8627531992381,0.0 -52.8782808,-26.8625385992381,0.0 -52.8786434,-26.8624678992381,0.0 -52.8788772,-26.8624456992381,0.0 -52.8791801,-26.8624399992381,0.0 -52.8794706,-26.8624482992381,0.0 -52.8797238,-26.8624327992381,0.0 -52.8799064,-26.8624045992381,0.0 -52.8801543,-26.8623663992381,0.0 -52.8804896,-26.8622402992381,0.0 -52.8809025,-26.8620423992381,0.0 -52.8817452,-26.8616471992381,0.0 -52.8823685,-26.8613107992381,0.0 -52.8826995,-26.8611052992381,0.0 -52.882935,-26.8609297992381,0.0 -52.8829857,-26.8608918992381,0.0 -52.8832898,-26.8605933992381,0.0 -52.883328,-26.8605466992381,0.0 -52.8835203,-26.8603118992381,0.0 -52.8839127,-26.8598481992382,0.0 -52.8840868,-26.8596422992382,0.0 -52.8844573,-26.8591539992382,0.0 -52.8850328,-26.8580977992382,0.0 -52.8853891,-26.8570336992382,0.0 -52.8855565,-26.8563285992382,0.0 -52.8856015,-26.8561389992382,0.0 -52.8855956,-26.8559682992382,0.0 -52.8855226,-26.8557424992382,0.0 -52.8854665,-26.8555760992382,0.0 -52.8854579,-26.8553803992382,0.0 -52.8855042,-26.8550683992382,0.0 -52.8856809,-26.8544129992383,0.0 -52.8860173,-26.8535927992383,0.0 -52.8862005,-26.8531376992383,0.0 -52.886296,-26.8529004992383,0.0 -52.8866631,-26.8521298992383,0.0 -52.8869205,-26.8517139992383,0.0 -52.8873574,-26.8512228992383,0.0 -52.8880092,-26.8506701992383,0.0 -52.8887339,-26.8502009992383,0.0 -52.8890828,-26.8500224992383,0.0 -52.889304,-26.8499092992383,0.0 -52.8897057,-26.8498365992383,0.0 -52.8901619,-26.8498015992383,0.0 -52.8905657,-26.8498539992383,0.0 -52.8914353,-26.8501214992383,0.0 -52.8927015,-26.8509807992383,0.0 -52.8943765,-26.8522640992383,0.0 -52.8956662,-26.8532479992383,0.0 -52.896,-26.8534713992383,0.0 -52.8961853,-26.8535765992383,0.0 -52.8964948,-26.8537277992383,0.0 -52.8966575,-26.8538810992383,0.0 -52.8969652,-26.8541280992383,0.0 -52.8972622,-26.8544872992383,0.0 -52.8973906,-26.8547873992382,0.0 -52.897418,-26.8551159992382,0.0 -52.8974205,-26.8551460992382,0.0 -52.8973465,-26.8555508992382,0.0 -52.8970033,-26.8567547992382,0.0 -52.89651,-26.8585216992382,0.0 -52.8962065,-26.8596089992382,0.0 -52.8956032,-26.8618857992381,0.0 -52.8953541,-26.8630952992381,0.0 -52.8952831,-26.8638381992381,0.0 -52.8953338,-26.8643515992381,0.0 -52.8955164,-26.864870099238,0.0 -52.8958639,-26.865181499238,0.0 -52.8963771,-26.865330299238,0.0 -52.8970463,-26.865354299238,0.0 -52.8979229,-26.865191599238,0.0 -52.8983086,-26.865047799238,0.0 -52.8986421,-26.8648711992381,0.0 -52.8988893,-26.864695199238,0.0 -52.8990551,-26.8645900992381,0.0 -52.8992577,-26.8644907992381,0.0 -52.8995576,-26.8644476992381,0.0 -52.8997145,-26.8644536992381,0.0 -52.8998715,-26.8644596992381,0.0 -52.9005395,-26.8646130992381,0.0 -52.9011294,-26.8648525992381,0.0 -52.9016125,-26.865061899238,0.0 -52.9022513,-26.865204699238,0.0 -52.9024247,-26.865242499238,0.0 -52.9025084,-26.865274299238,0.0 -52.9025379,-26.865313999238,0.0 -52.9025755,-26.865366599238,0.0 -52.9026452,-26.865421499238,0.0 -52.9027629,-26.865472999238,0.0 -52.90308,-26.865495899238,0.0 -52.9034545,-26.865469499238,0.0 -52.9035999,-26.865450999238,0.0 -52.9038329,-26.865421399238,0.0 -52.9040936,-26.865363399238,0.0 -52.9045257,-26.865181299238,0.0 -52.9048669,-26.8649900992381,0.0 -52.9049941,-26.8648464992381,0.0 -52.9054167,-26.8644831992381,0.0 -52.9055415,-26.8642785992381,0.0 -52.9055985,-26.8641850992381,0.0 -52.9056065,-26.8641636992381,0.0 -52.9057581,-26.8637598992381,0.0 -52.9059255,-26.8633504992381,0.0 -52.9060365,-26.8629478992381,0.0 -52.9060366,-26.8627730992381,0.0 -52.9060366,-26.8626651992381,0.0 -52.9059288,-26.8620918992381,0.0 -52.9055147,-26.8612437992381,0.0 -52.9050524,-26.8605003992381,0.0 -52.9046757,-26.8599860992381,0.0 -52.9040327,-26.8595083992382,0.0 -52.9031361,-26.8589595992382,0.0 -52.9028279,-26.8586859992382,0.0 -52.9025402,-26.8584756992382,0.0 -52.9021487,-26.8582379992382,0.0 -52.9017569,-26.8579828992382,0.0 -52.9013104,-26.8576451992382,0.0 -52.9009537,-26.8571697992382,0.0 -52.9005921,-26.8564543992382,0.0 -52.9004216,-26.8559127992382,0.0 -52.9004182,-26.8553424992382,0.0 -52.9005022,-26.8549536992382,0.0 -52.9005242,-26.8547276992382,0.0 -52.9005607,-26.8545940992383,0.0 -52.9006404,-26.8543384992383,0.0 -52.9006358,-26.8540607992383,0.0 -52.9007064,-26.8536343992383,0.0 -52.9009701,-26.8531794992383,0.0 -52.9017724,-26.8520312992383,0.0 -52.9022531,-26.8514230992383,0.0 -52.9025769,-26.8510888992383,0.0 -52.9029252,-26.8506182992383,0.0 -52.9031784,-26.8503139992383,0.0 -52.90374,-26.8499071992383,0.0 -52.9042903,-26.8495902992384,0.0 -52.9045774,-26.8494076992384,0.0 -52.9048021,-26.8492909992384,0.0 -52.9050639,-26.8492305992384,0.0 -52.9054081,-26.8492096992383,0.0 -52.9057715,-26.8492575992384,0.0 -52.9063414,-26.8494529992384,0.0 -52.9070902,-26.8498182992383,0.0 -52.9071407,-26.8498626992383,0.0 -52.9075078,-26.8501862992383,0.0 -52.9081169,-26.8508776992383,0.0 -52.9084713,-26.8513954992383,0.0 -52.9088579,-26.8520581992383,0.0 -52.9089984,-26.8523995992383,0.0 -52.909213,-26.8527060992383,0.0 -52.909468,-26.8531005992383,0.0 -52.9096753,-26.8534846992383,0.0 -52.9099338,-26.8538132992383,0.0 -52.9101914,-26.8540433992383,0.0 -52.9107061,-26.8543397992383,0.0 -52.9111267,-26.8544678992382,0.0 -52.911571,-26.8544524992383,0.0 -52.9119676,-26.8543122992383,0.0 -52.9122452,-26.8540909992383,0.0 -52.9125213,-26.8536544992383,0.0 -52.9127528,-26.8531593992383,0.0 -52.9131128,-26.8521408992383,0.0 -52.9137577,-26.8508229992383,0.0 -52.9144096,-26.8497804992383,0.0 -52.9150399,-26.8489092992384,0.0 -52.9159028,-26.8481188992384,0.0 -52.9167337,-26.8476247992384,0.0 -52.9177663,-26.8470408992384,0.0 -52.9190313,-26.8464256992384,0.0 -52.9190611,-26.8463127992384,0.0 -52.9190647,-26.8462465992384,0.0 -52.9190684,-26.8461491992384,0.0 -52.9190655,-26.8460544992384,0.0 -52.9190541,-26.8460047992384,0.0 -52.9190154,-26.8459357992384,0.0 -52.9189905,-26.8458728992384,0.0 -52.9189834,-26.8458179992384,0.0 -52.9189717,-26.8457373992384,0.0 -52.9189466,-26.8456779992384,0.0 -52.9189049,-26.8456196992384,0.0 -52.918863,-26.8455723992384,0.0 -52.9187314,-26.8454820992384,0.0 -52.9186405,-26.8454089992384,0.0 -52.9185928,-26.8453577992384,0.0 -52.9185562,-26.8453252992384,0.0 -52.9185439,-26.8452919992384,0.0 -52.9185514,-26.8452650992384,0.0 -52.9185851,-26.8452391992384,0.0 -52.9186353,-26.8452241992384,0.0 -52.9187305,-26.8452191992384,0.0 -52.9187975,-26.8452129992384,0.0 -52.9188619,-26.8451948992384,0.0 -52.9189698,-26.8451360992384,0.0 -52.9190683,-26.8450693992384,0.0 -52.9191192,-26.8450242992384,0.0 -52.9191563,-26.8449749992384,0.0 -52.9191768,-26.8449322992384,0.0 -52.9191992,-26.8448549992384,0.0 -52.9192079,-26.8448062992384,0.0 -52.9192,-26.8447294992384,0.0 -52.9191762,-26.8446484992385,0.0 -52.9191522,-26.8445709992384,0.0 -52.9191497,-26.8445417992384,0.0 -52.9191788,-26.8443064992384,0.0 -52.9192038,-26.8442183992384,0.0 -52.919236,-26.8441608992384,0.0 -52.9192874,-26.8441066992385,0.0 -52.9193807,-26.8440269992385,0.0 -52.9194091,-26.8439881992385,0.0 -52.9194327,-26.8439030992385,0.0 -52.9194402,-26.8438396992385,0.0 -52.9194543,-26.8437656992385,0.0 -52.9194673,-26.8437256992385,0.0 -52.9195171,-26.8436658992385,0.0 -52.9195598,-26.8436239992385,0.0 -52.9195839,-26.8435904992385,0.0 -52.9196015,-26.8435397992385,0.0 -52.9196091,-26.8434745992385,0.0 -52.9196023,-26.8434265992385,0.0 -52.9195773,-26.8433308992385,0.0 -52.9195553,-26.8432170992385,0.0 -52.9195594,-26.8431167992385,0.0 -52.9195852,-26.8429919992385,0.0 -52.9196093,-26.8429202992385,0.0 -52.9196422,-26.8428484992385,0.0 -52.9196945,-26.8427415992385,0.0 -52.91972,-26.8426825992385,0.0 -52.9197298,-26.8426262992385,0.0 -52.9197231,-26.8425641992385,0.0 -52.9197083,-26.8425159992385,0.0 -52.9196879,-26.8424823992385,0.0 -52.9196538,-26.8424552992385,0.0 -52.9195539,-26.8424001992385,0.0 -52.9194121,-26.8423360992385,0.0 -52.919268,-26.8422791992385,0.0 -52.9191905,-26.8422357992385,0.0 -52.9190868,-26.8421567992385,0.0 -52.9190463,-26.8421223992385,0.0 -52.918993,-26.8420655992385,0.0 -52.9189611,-26.8420224992385,0.0 -52.9189475,-26.8419764992385,0.0 -52.9189461,-26.8418909992385,0.0 -52.9189173,-26.8417533992385,0.0 -52.9188798,-26.8416444992385,0.0 -52.9188232,-26.8415003992385,0.0 -52.9187708,-26.8414054992385,0.0 -52.9187123,-26.8412594992385,0.0 -52.9186969,-26.8412079992385,0.0 -52.9186891,-26.8411477992385,0.0 -52.9187042,-26.8410891992385,0.0 -52.9187097,-26.8410523992385,0.0 -52.9186975,-26.8410148992385,0.0 -52.9186483,-26.8409633992385,0.0 -52.9185983,-26.8409294992385,0.0 -52.9185457,-26.8409113992385,0.0 -52.918474,-26.8408783992385,0.0 -52.9184084,-26.8408402992385,0.0 -52.9183259,-26.8407820992385,0.0 -52.9182906,-26.8407277992385,0.0 -52.9182648,-26.8407027992385,0.0 -52.9182376,-26.8406927992385,0.0 -52.9181791,-26.8406743992385,0.0 -52.9181526,-26.8406467992385,0.0 -52.9180776,-26.8405977992385,0.0 -52.9180376,-26.8405643992385,0.0 -52.9180192,-26.8405318992385,0.0 -52.9180163,-26.8405070992385,0.0 -52.9180213,-26.8404807992385,0.0 -52.9180587,-26.8404329992385,0.0 -52.9181179,-26.8403878992385,0.0 -52.9181351,-26.8403533992385,0.0 -52.9181349,-26.8403110992385,0.0 -52.9181163,-26.8402838992385,0.0 -52.9180739,-26.8402591992385,0.0 -52.9180118,-26.8402335992385,0.0 -52.917995,-26.8402099992385,0.0 -52.9179845,-26.8401319992385,0.0 -52.9179926,-26.8400794992385,0.0 -52.9180264,-26.8400279992385,0.0 -52.9180464,-26.8399741992385,0.0 -52.91805,-26.8399355992385,0.0 -52.9180491,-26.8398598992385,0.0 -52.9180576,-26.8397967992385,0.0 -52.9180729,-26.8397621992385,0.0 -52.9180973,-26.8397455992385,0.0 -52.9181372,-26.8397366992385,0.0 -52.9181673,-26.8397255992385,0.0 -52.9181819,-26.8397067992385,0.0 -52.9181873,-26.8396717992385,0.0 -52.9181813,-26.8396274992385,0.0 -52.9181575,-26.8395823992385,0.0 -52.918118,-26.8395365992385,0.0 -52.9180623,-26.8394989992385,0.0 -52.9179989,-26.8394575992385,0.0 -52.9179392,-26.8394214992385,0.0 -52.9179227,-26.8394064992385,0.0 -52.9178792,-26.8393686992385,0.0 -52.9178045,-26.8393125992385,0.0 -52.9176406,-26.8391939992385,0.0 -52.9175302,-26.8391198992386,0.0 -52.9174271,-26.8390620992385,0.0 -52.9173148,-26.8390097992385,0.0 -52.9171988,-26.8389796992386,0.0 -52.9171066,-26.8389687992386,0.0 -52.9170485,-26.8389709992386,0.0 -52.9169789,-26.8389838992386,0.0 -52.9168926,-26.8390008992386,0.0 -52.9168167,-26.8390258992386,0.0 -52.9166903,-26.8390621992386,0.0 -52.916617,-26.8390731992386,0.0 -52.9165554,-26.8390681992386,0.0 -52.9164889,-26.8390418992386,0.0 -52.9164463,-26.8390225992385,0.0 -52.9163979,-26.8389864992386,0.0 -52.9163545,-26.8389259992386,0.0 -52.9163236,-26.8388630992386,0.0 -52.9162519,-26.8387423992386,0.0 -52.91624,-26.8386943992386,0.0 -52.9162299,-26.8386371992386,0.0 -52.916214,-26.8385779992386,0.0 -52.9161941,-26.8385366992386,0.0 -52.9161719,-26.8385041992386,0.0 -52.916147,-26.8384872992386,0.0 -52.9160983,-26.8384781992386,0.0 -52.9160611,-26.8384748992386,0.0 -52.9159995,-26.8384753992386,0.0 -52.9159664,-26.8384686992386,0.0 -52.9159267,-26.8384647992386,0.0 -52.9158842,-26.8384471992386,0.0 -52.9158322,-26.8384239992386,0.0 -52.9158028,-26.8384081992386,0.0 -52.9157648,-26.8383784992386,0.0 -52.915711,-26.8383481992386,0.0 -52.9155961,-26.8382739992386,0.0 -52.9155355,-26.8382471992386,0.0 -52.9154448,-26.8382207992386,0.0 -52.9154116,-26.8382054992386,0.0 -52.9153829,-26.8381744992386,0.0 -52.9153692,-26.8381646992386,0.0 -52.9153674,-26.8381633992386,0.0 -52.9153343,-26.8381463992386,0.0 -52.915315,-26.8381315992386,0.0 -52.9153033,-26.8381149992386,0.0 -52.9152941,-26.8380951992386,0.0 -52.9152886,-26.8380927992386,0.0 -52.9152726,-26.8380855992386,0.0 -52.9152133,-26.8380818992386,0.0 -52.915098,-26.8380847992386,0.0 -52.9150584,-26.8380851992386,0.0 -52.9150553,-26.8380828992386,0.0 -52.9150117,-26.8380514992386,0.0 -52.9149471,-26.8380298992386,0.0 -52.9148998,-26.8380247992386,0.0 -52.9147826,-26.8380328992386,0.0 -52.9146993,-26.8380332992386,0.0 -52.9146541,-26.8380246992386,0.0 -52.9146249,-26.8380113992386,0.0 -52.9146057,-26.8379948992386,0.0 -52.9145947,-26.8379679992386,0.0 -52.9145986,-26.8379081992386,0.0 -52.9146,-26.8379023992386,0.0 -52.9146123,-26.8378521992386,0.0 -52.9146423,-26.8377825992386,0.0 -52.9147307,-26.8376705992386,0.0 -52.9148602,-26.8375140992386,0.0 -52.914967,-26.8373832992386,0.0 -52.915005,-26.8373086992386,0.0 -52.9150248,-26.8372403992386,0.0 -52.9150388,-26.8371737992386,0.0 -52.9150363,-26.8371295992386,0.0 -52.9150177,-26.8370864992386,0.0 -52.9149457,-26.8369834992386,0.0 -52.9147954,-26.8368055992386,0.0 -52.9146092,-26.8366336992386,0.0 -52.914536,-26.8365766992386,0.0 -52.9143334,-26.8364272992386,0.0 -52.9142577,-26.8363860992386,0.0 -52.914217,-26.8363653992386,0.0 -52.9141876,-26.8363559992386,0.0 -52.9141426,-26.8363470992386,0.0 -52.9141033,-26.8363440992386,0.0 -52.9140091,-26.8363495992386,0.0 -52.9140064,-26.8363497992386,0.0 -52.9139507,-26.8363655992386,0.0 -52.9138806,-26.8363986992386,0.0 -52.9137862,-26.8364537992386,0.0 -52.9137201,-26.8364903992386,0.0 -52.9136499,-26.8365303992386,0.0 -52.9135444,-26.8365673992386,0.0 -52.9134911,-26.8365726992386,0.0 -52.9134364,-26.8365603992386,0.0 -52.9134033,-26.8365469992386,0.0 -52.9133743,-26.8365319992386,0.0 -52.9132928,-26.8364378992386,0.0 -52.913257,-26.8363909992386,0.0 -52.9132051,-26.8363505992386,0.0 -52.9131609,-26.8363191992386,0.0 -52.9131008,-26.8362908992386,0.0 -52.9130209,-26.8362689992386,0.0 -52.9129507,-26.8362525992386,0.0 -52.9128765,-26.8362432992386,0.0 -52.9127529,-26.8362357992386,0.0 -52.9126616,-26.8362206992386,0.0 -52.9126502,-26.8362186992386,0.0 -52.9126245,-26.8362141992386,0.0 -52.9125757,-26.8362126992386,0.0 -52.9124593,-26.8362228992386,0.0 -52.9123511,-26.8362422992386,0.0 -52.9122307,-26.8362753992386,0.0 -52.9121458,-26.8362936992386,0.0 -52.912085,-26.8363075992386,0.0 -52.9119927,-26.8363256992386,0.0 -52.9119028,-26.8363191992386,0.0 -52.9118519,-26.8363157992386,0.0 -52.9117996,-26.8362965992386,0.0 -52.91173,-26.8362679992386,0.0 -52.9116627,-26.8362289992386,0.0 -52.9116152,-26.8361976992386,0.0 -52.9115695,-26.8361558992386,0.0 -52.9115145,-26.8361156992386,0.0 -52.9114683,-26.8360913992386,0.0 -52.9114225,-26.8360689992386,0.0 -52.9113662,-26.8360548992386,0.0 -52.9113297,-26.8360520992386,0.0 -52.9112569,-26.8360689992386,0.0 -52.9112144,-26.8360711992386,0.0 -52.9111891,-26.8360668992386,0.0 -52.9111608,-26.8360520992386,0.0 -52.9110643,-26.8359719992386,0.0 -52.9109693,-26.8358831992386,0.0 -52.9109049,-26.8358409992386,0.0 -52.9108432,-26.8358144992386,0.0 -52.9107754,-26.8357965992386,0.0 -52.9107132,-26.8357875992386,0.0 -52.9105754,-26.8357884992386,0.0 -52.9104976,-26.8357790992386,0.0 -52.9104396,-26.8357596992386,0.0 -52.9103898,-26.8357300992386,0.0 -52.9103229,-26.8356757992386,0.0 -52.910285,-26.8356392992386,0.0 -52.9102165,-26.8355731992386,0.0 -52.9101802,-26.8355408992386,0.0 -52.9101323,-26.8355166992386,0.0 -52.9100811,-26.8355012992386,0.0 -52.9099503,-26.8354763992386,0.0 -52.9098674,-26.8354479992386,0.0 -52.9097676,-26.8354063992386,0.0 -52.9096922,-26.8353917992386,0.0 -52.9096261,-26.8353914992386,0.0 -52.9093476,-26.8354144992386,0.0 -52.9092331,-26.8354125992386,0.0 -52.9091443,-26.8353957992386,0.0 -52.909102,-26.8353822992386,0.0 -52.909065,-26.8353551992386,0.0 -52.9089905,-26.8352885992386,0.0 -52.9089685,-26.8352722992386,0.0 -52.9089366,-26.8352487992386,0.0 -52.9089007,-26.8352321992386,0.0 -52.9088803,-26.8352227992386,0.0 -52.908787,-26.8352061992386,0.0 -52.9086734,-26.8351933992386,0.0 -52.90859,-26.8351984992386,0.0 -52.9085662,-26.8352030992386,0.0 -52.9085403,-26.8352146992386,0.0 -52.9085064,-26.8352330992386,0.0 -52.9084702,-26.8352584992386,0.0 -52.908453,-26.8352663992386,0.0 -52.9082411,-26.8347994992386,0.0 -52.9079415,-26.8343185992386,0.0 -52.9078551,-26.8341581992387,0.0 -52.9076516,-26.8336385992387,0.0 -52.907615,-26.8334422992387,0.0 -52.9074591,-26.8328504992387,0.0 -52.9074176,-26.8319393992387,0.0 -52.9074722,-26.8309477992387,0.0 -52.9074661,-26.8302158992387,0.0 -52.9072233,-26.8293388992387,0.0 -52.9069006,-26.8287392992388,0.0 -52.9066918,-26.8282487992388,0.0 -52.906492,-26.8277346992388,0.0 -52.9062165,-26.8274188992388,0.0 -52.9051748,-26.8267110992388,0.0 -52.9040875,-26.8266273992388,0.0 -52.90306,-26.8267819992388,0.0 -52.9022318,-26.8270114992388,0.0 -52.9017179,-26.8269278992388,0.0 -52.9009356,-26.8264690992388,0.0 -52.9005081,-26.8258497992388,0.0 -52.8993939,-26.8249125992388,0.0 -52.8985625,-26.8243178992388,0.0 -52.8980242,-26.8238094992388,0.0 -52.8974469,-26.8233074992389,0.0 -52.8970092,-26.8229301992389,0.0 -52.8964962,-26.8227614992389,0.0 -52.895782,-26.8227538992389,0.0 -52.8951896,-26.8225351992389,0.0 -52.8948394,-26.8215185992389,0.0 -52.8944351,-26.8198428992389,0.0 -52.8939185,-26.8182050992389,0.0 -52.8937509,-26.817518299239,0.0 -52.8938347,-26.816483099239,0.0 -52.8940994,-26.814847099239,0.0 -52.8940693,-26.814452999239,0.0 -52.8935726,-26.814047499239,0.0 -52.8931404,-26.813491099239,0.0 -52.8925728,-26.8126256992391,0.0 -52.8922136,-26.8120518992391,0.0 -52.8920169,-26.8113771992391,0.0 -52.8919616,-26.8104195992391,0.0 -52.8922626,-26.8080385992392,0.0 -52.8921342,-26.8074918992392,0.0 -52.8913554,-26.8071405992392,0.0 -52.889975,-26.8066674992392,0.0 -52.8891069,-26.8066173992392,0.0 -52.8879399,-26.8065002992392,0.0 -52.8868354,-26.8063515992392,0.0 -52.8851018,-26.8061231992392,0.0 -52.8844101,-26.8059503992392,0.0 -52.883836,-26.8054594992392,0.0 -52.8831799,-26.8052072992392,0.0 -52.8825283,-26.8046647992392,0.0 -52.8821833,-26.8037151992392,0.0 -52.882192,-26.8022991992393,0.0 -52.8816479,-26.8010199992393,0.0 -52.8806446,-26.7998368992393,0.0 -52.8794441,-26.7988105992393,0.0 -52.8779825,-26.7976724992394,0.0 -52.8771701,-26.7973330992394,0.0 -52.8760619,-26.7971402992394,0.0 -52.874937,-26.7973790992394,0.0 -52.8749123,-26.7973843992394,0.0 -52.8744003,-26.7975029992394,0.0 -52.8734162,-26.7977309992394,0.0 -52.8719383,-26.7977714992394,0.0 -52.8704648,-26.7988943992393,0.0 -52.8691051,-26.8001270992393,0.0 -52.8681983,-26.8005823992393,0.0 -52.8680458,-26.8006588992393,0.0 -52.8679312,-26.8007169992393,0.0 -52.8668263,-26.8012766992393,0.0 -52.8661499,-26.8017895992393,0.0 -52.8655589,-26.8023634992393,0.0 -52.8649985,-26.8033393992392,0.0 -52.8647648,-26.8040817992392,0.0 -52.8646594,-26.8049083992392,0.0 -52.8642458,-26.8058961992392,0.0 -52.8639072,-26.8068880992392,0.0 -52.8630214,-26.8075276992392,0.0 -52.8624471,-26.8082073992392,0.0 -52.8617627,-26.8084329992392,0.0 -52.8608828,-26.8083871992391,0.0 -52.8586394,-26.8082410992392,0.0 -52.8571056,-26.8083486992391,0.0 -52.856199,-26.8084607992391,0.0 -52.8548679,-26.8091563992391,0.0 -52.8537121,-26.8099346992391,0.0 -52.8527221,-26.8104585992391,0.0 -52.8522757,-26.8109088992391,0.0 -52.8520833,-26.8116037992391,0.0 -52.852213,-26.8130853992391,0.0 -52.8521521,-26.814607999239,0.0 -52.8520323,-26.816218599239,0.0 -52.8515784,-26.817158899239,0.0 -52.850955,-26.818154699239,0.0 -52.8502571,-26.8187657992389,0.0 -52.8493368,-26.8199526992389,0.0 -52.8486781,-26.8208947992389,0.0 -52.8481013,-26.8217029992389,0.0 -52.8474711,-26.8225688992389,0.0 -52.8470841,-26.8233047992389,0.0 -52.8467753,-26.8238438992389,0.0 -52.8465319,-26.8239457992388,0.0 -52.8453085,-26.8239440992388,0.0 -52.8442118,-26.8237976992388,0.0 -52.8432121,-26.8237974992389,0.0 -52.842534,-26.8239352992389,0.0 -52.8420311,-26.8242685992388,0.0 -52.8418613,-26.8256073992388,0.0 -52.8416811,-26.8259476992388,0.0 -52.8412592,-26.8263835992388,0.0 -52.8406604,-26.8269128992388,0.0 -52.8396799,-26.8280649992388,0.0 -52.8391535,-26.8285953992388,0.0 -52.8385436,-26.8289989992388,0.0 -52.8378881,-26.8293897992387,0.0 -52.8370623,-26.8299417992387,0.0 -52.8366221,-26.8302773992387,0.0 -52.8361987,-26.8302963992387,0.0 -52.8354989,-26.8306665992387,0.0 -52.835125,-26.8308869992387,0.0 -52.8349424,-26.8314964992387,0.0 -52.8347504,-26.8321363992387,0.0 -52.8344564,-26.8327962992387,0.0 -52.8342866,-26.8332279992387,0.0 -52.8340803,-26.8340000992387,0.0 -52.8338825,-26.8346645992386,0.0 -52.8338191,-26.8350208992386,0.0 -52.8338897,-26.8352413992386,0.0 -52.8340979,-26.8355581992386,0.0 -52.818551,-26.8329648992387,0.0 -52.8047987,-26.8306709992387,0.0 -52.8045549,-26.8313102992387,0.0 -52.8042195,-26.8318335992387,0.0 -52.8039008,-26.8321032992387,0.0 -52.8036179,-26.8323581992387,0.0 -52.8033564,-26.8327174992387,0.0 -52.8031334,-26.8330952992387,0.0 -52.8031061,-26.8333334992387,0.0 -52.8033766,-26.8336971992387,0.0 -52.8039185,-26.8345011992386,0.0 -52.804204,-26.8350619992386,0.0 -52.8045766,-26.8358573992386,0.0 -52.804943,-26.8367576992386,0.0 -52.8052807,-26.8378680992386,0.0 -52.8055504,-26.8386780992386,0.0 -52.8057686,-26.8390894992386,0.0 -52.8058426,-26.8392711992385,0.0 -52.8059228,-26.8394681992385,0.0 -52.8059269,-26.8395127992385,0.0 -52.8059465,-26.8396590992385,0.0 -52.8059907,-26.8398362992385,0.0 -52.8060077,-26.8399407992385,0.0 -52.8059964,-26.8399831992385,0.0 -52.8059439,-26.8400832992385,0.0 -52.8058941,-26.8402604992385,0.0 -52.8058491,-26.8404473992385,0.0 -52.8058177,-26.8405962992385,0.0 -52.8057978,-26.8406661992385,0.0 -52.8057527,-26.8407310992385,0.0 -52.8056743,-26.8408401992385,0.0 -52.8056171,-26.8409610992385,0.0 -52.8056098,-26.8409708992385,0.0 -52.8055773,-26.8410142992385,0.0 -52.8054692,-26.8410949992385,0.0 -52.8053281,-26.8412059992385,0.0 -52.8053129,-26.8412344992385,0.0 -52.8053331,-26.8412973992385,0.0 -52.8053299,-26.8413537992385,0.0 -52.8052991,-26.8413754992385,0.0 -52.8051584,-26.8414254992385,0.0 -52.805041,-26.8414892992385,0.0 -52.804995,-26.8415394992385,0.0 -52.8049453,-26.8416108992385,0.0 -52.8049227,-26.8416676992385,0.0 -52.8049238,-26.8417591992385,0.0 -52.8049128,-26.8418087992385,0.0 -52.8048822,-26.8418515992385,0.0 -52.8048033,-26.8419008992385,0.0 -52.8047921,-26.8419363992385,0.0 -52.8047889,-26.8419927992385,0.0 -52.8047698,-26.8420213992385,0.0 -52.8046889,-26.8420791992385,0.0 -52.8046661,-26.8421218992385,0.0 -52.8046301,-26.8421989992385,0.0 -52.8045838,-26.8422350992385,0.0 -52.8045491,-26.8422567992385,0.0 -52.8045301,-26.8422923992385,0.0 -52.804527,-26.8423559992385,0.0 -52.8045515,-26.8424471992385,0.0 -52.8045368,-26.8425179992385,0.0 -52.8045179,-26.8425557992385,0.0 -52.8044588,-26.8426737992385,0.0 -52.8044111,-26.8427656992385,0.0 -52.8044,-26.8428009992385,0.0 -52.804416,-26.8428432992385,0.0 -52.804443,-26.8429906992385,0.0 -52.8044438,-26.8430542992385,0.0 -52.8044213,-26.8431253992385,0.0 -52.8043483,-26.8432113992385,0.0 -52.8043025,-26.8432382992385,0.0 -52.8042864,-26.8432477992385,0.0 -52.8041018,-26.8433213992385,0.0 -52.804005,-26.8433724992385,0.0 -52.8039291,-26.8434302992385,0.0 -52.8038676,-26.8435020992385,0.0 -52.8037871,-26.8436164992385,0.0 -52.8037303,-26.8437447992385,0.0 -52.8036827,-26.8439014992385,0.0 -52.8036532,-26.8440363992385,0.0 -52.8036335,-26.8442426992384,0.0 -52.8036125,-26.8444341992384,0.0 -52.8035966,-26.8446336992384,0.0 -52.80357,-26.8446907992384,0.0 -52.8034238,-26.8448004992384,0.0 -52.8033661,-26.8448651992384,0.0 -52.8033283,-26.8449649992384,0.0 -52.8032372,-26.8451789992384,0.0 -52.8031959,-26.8453070992384,0.0 -52.8031617,-26.8453819992384,0.0 -52.8031294,-26.8454258992384,0.0 -52.8030869,-26.8454618992384,0.0 -52.8030034,-26.8455020992384,0.0 -52.8028773,-26.8455605992384,0.0 -52.8028444,-26.8455858992384,0.0 -52.8028233,-26.8456179992384,0.0 -52.802792,-26.8457434992384,0.0 -52.8027808,-26.8457861992384,0.0 -52.8027576,-26.8458006992384,0.0 -52.8026893,-26.8458086992384,0.0 -52.802589,-26.8458214992384,0.0 -52.8024998,-26.8458509992384,0.0 -52.8024464,-26.8458800992384,0.0 -52.8024148,-26.8459125992384,0.0 -52.8023973,-26.8459520992384,0.0 -52.802378,-26.8460464992384,0.0 -52.8023436,-26.8462220992384,0.0 -52.8022968,-26.8463560992384,0.0 -52.8022403,-26.8464996992384,0.0 -52.8022385,-26.8465140992384,0.0 -52.8022447,-26.8465461992384,0.0 -52.8022668,-26.8465781992384,0.0 -52.8022948,-26.8466028992384,0.0 -52.8023109,-26.8466241992384,0.0 -52.8023092,-26.8466563992384,0.0 -52.8022875,-26.8466780992384,0.0 -52.8022833,-26.8466803992384,0.0 -52.8022538,-26.8466962992384,0.0 -52.8021603,-26.8467093992384,0.0 -52.8021128,-26.8467312992384,0.0 -52.8020832,-26.8467636992384,0.0 -52.8019768,-26.8469128992384,0.0 -52.8019158,-26.8469920992384,0.0 -52.8018983,-26.8470315992384,0.0 -52.8018966,-26.8470673992384,0.0 -52.8018989,-26.8471031992384,0.0 -52.8018911,-26.8471318992384,0.0 -52.801846,-26.8472001992384,0.0 -52.80183,-26.8472341992384,0.0 -52.8018225,-26.8472879992384,0.0 -52.8018233,-26.8473844992384,0.0 -52.8018398,-26.8474630992384,0.0 -52.8018503,-26.8475308992384,0.0 -52.8018506,-26.8475702992384,0.0 -52.8018444,-26.8476276992384,0.0 -52.8018345,-26.8476420992384,0.0 -52.8017929,-26.8476567992384,0.0 -52.8017552,-26.8476713992384,0.0 -52.8017415,-26.8476929992384,0.0 -52.8017259,-26.8477396992384,0.0 -52.8017067,-26.8478669992384,0.0 -52.8016909,-26.8478814992384,0.0 -52.8016511,-26.8478817992384,0.0 -52.8016073,-26.8478785992384,0.0 -52.8015755,-26.8478895992384,0.0 -52.8015499,-26.8479148992384,0.0 -52.8015245,-26.8479723992384,0.0 -52.8014897,-26.8480942992384,0.0 -52.8014836,-26.8481429992384,0.0 -52.8014822,-26.8482073992384,0.0 -52.801494,-26.8482559992384,0.0 -52.8015226,-26.8483452992384,0.0 -52.8015645,-26.8484223992384,0.0 -52.8016012,-26.8485258992384,0.0 -52.8016057,-26.8485831992384,0.0 -52.8015981,-26.8486261992384,0.0 -52.8015667,-26.8486836992384,0.0 -52.8015252,-26.8487198992384,0.0 -52.8015115,-26.8487485992384,0.0 -52.8015119,-26.8487879992384,0.0 -52.8015255,-26.8488153992384,0.0 -52.8015754,-26.8488328992384,0.0 -52.8016473,-26.8488573992384,0.0 -52.8016595,-26.8488787992384,0.0 -52.8016517,-26.8489038992384,0.0 -52.8016321,-26.8489362992384,0.0 -52.8015945,-26.8489723992384,0.0 -52.8015709,-26.8490047992384,0.0 -52.8015613,-26.8490513992384,0.0 -52.8015558,-26.8491051992384,0.0 -52.8015438,-26.8491579992384,0.0 -52.8015142,-26.8491939992384,0.0 -52.8014483,-26.8492436992384,0.0 -52.8014108,-26.8492797992384,0.0 -52.8013646,-26.8493113992384,0.0 -52.801337,-26.8493545992384,0.0 -52.8013131,-26.8494290992383,0.0 -52.8013011,-26.8495070992384,0.0 -52.8012858,-26.8495860992383,0.0 -52.8012576,-26.8496355992383,0.0 -52.8012101,-26.8496789992383,0.0 -52.8011545,-26.8497080992383,0.0 -52.8010868,-26.8497193992384,0.0 -52.8010184,-26.8497476992383,0.0 -52.8009628,-26.8497839992383,0.0 -52.8009146,-26.8498481992383,0.0 -52.8008658,-26.8499403992383,0.0 -52.8008112,-26.8500951992383,0.0 -52.8007734,-26.8501788992383,0.0 -52.8006944,-26.8502417992383,0.0 -52.8005566,-26.8503608992383,0.0 -52.8004634,-26.8504549992383,0.0 -52.8004299,-26.8505018992383,0.0 -52.8004044,-26.8505559992383,0.0 -52.8002845,-26.8507831992383,0.0 -52.8002301,-26.8508586992383,0.0 -52.8001492,-26.8509705992383,0.0 -52.8000245,-26.8511042992383,0.0 -52.7999852,-26.8511691992383,0.0 -52.7999641,-26.8512626992383,0.0 -52.7999505,-26.8513130992383,0.0 -52.7999268,-26.8513419992383,0.0 -52.799879,-26.8513529992383,0.0 -52.7998098,-26.8513497992383,0.0 -52.7997557,-26.8513428992383,0.0 -52.7997179,-26.8513502992383,0.0 -52.799668,-26.8513577992383,0.0 -52.7996362,-26.8513759992383,0.0 -52.7996125,-26.8514083992383,0.0 -52.7996137,-26.8515340992383,0.0 -52.7996214,-26.8516490992383,0.0 -52.7996322,-26.8517387992383,0.0 -52.799627,-26.8517568992383,0.0 -52.7996218,-26.8517591992383,0.0 -52.7996012,-26.8517678992383,0.0 -52.7994852,-26.8517684992383,0.0 -52.7993235,-26.8517837992383,0.0 -52.7992737,-26.8517984992383,0.0 -52.7992145,-26.8518312992383,0.0 -52.799042,-26.8519687992383,0.0 -52.7989055,-26.8520739992383,0.0 -52.7987567,-26.8521825992383,0.0 -52.7986775,-26.8522476992383,0.0 -52.7986538,-26.8522837992383,0.0 -52.7986027,-26.8523594992383,0.0 -52.7985395,-26.8524315992383,0.0 -52.7984939,-26.8524677992383,0.0 -52.7984403,-26.8525003992383,0.0 -52.7983868,-26.8525401992383,0.0 -52.7983376,-26.8526085992383,0.0 -52.7982947,-26.8527093992383,0.0 -52.7982692,-26.8527494992383,0.0 -52.7982434,-26.8527711992383,0.0 -52.7981858,-26.8527965992383,0.0 -52.7980707,-26.8528617992383,0.0 -52.7980132,-26.8529051992383,0.0 -52.7979678,-26.8529562992383,0.0 -52.797891,-26.8530643992383,0.0 -52.7978383,-26.8531759992383,0.0 -52.7977345,-26.8533162992383,0.0 -52.7976214,-26.8534145992383,0.0 -52.7975502,-26.8534794992383,0.0 -52.7974553,-26.8535624992383,0.0 -52.797348,-26.8536714992383,0.0 -52.7972562,-26.8535122992383,0.0 -52.7971593,-26.8533428992383,0.0 -52.7971026,-26.8532523992383,0.0 -52.7970229,-26.8531608992383,0.0 -52.7969165,-26.8531147992383,0.0 -52.7966791,-26.8531232992383,0.0 -52.7965118,-26.8531271992383,0.0 -52.7963584,-26.8531229992383,0.0 -52.7961599,-26.8530959992383,0.0 -52.7960167,-26.8530462992383,0.0 -52.7959641,-26.8530088992383,0.0 -52.7958196,-26.8529682992383,0.0 -52.7956769,-26.8529449992383,0.0 -52.7954137,-26.8529512992383,0.0 -52.7952642,-26.8529341992383,0.0 -52.7950892,-26.8528723992383,0.0 -52.7950155,-26.8528009992383,0.0 -52.7949787,-26.8526275992383,0.0 -52.7948586,-26.8526204992383,0.0 -52.7947116,-26.8525939992383,0.0 -52.7946174,-26.8526053992383,0.0 -52.7944653,-26.8526477992383,0.0 -52.7942559,-26.8526708992383,0.0 -52.7940944,-26.8526570992383,0.0 -52.7940221,-26.8526467992383,0.0 -52.7939055,-26.8526079992383,0.0 -52.7937733,-26.8525832992383,0.0 -52.7935255,-26.8526187992383,0.0 -52.7933293,-26.8525928992383,0.0 -52.7932355,-26.8525932992383,0.0 -52.7931318,-26.8525955992383,0.0 -52.7928481,-26.8525431992383,0.0 -52.7927246,-26.8525350992383,0.0 -52.7925614,-26.8525593992383,0.0 -52.7923197,-26.8527745992383,0.0 -52.7922233,-26.8528590992383,0.0 -52.7920667,-26.8528919992383,0.0 -52.7919168,-26.8529945992383,0.0 -52.7918423,-26.8530519992383,0.0 -52.7917323,-26.8530787992383,0.0 -52.7915857,-26.8530811992383,0.0 -52.7914557,-26.8531387992383,0.0 -52.7913186,-26.8532031992383,0.0 -52.79123,-26.8532685992383,0.0 -52.7911644,-26.8533127992383,0.0 -52.7910642,-26.8534812992383,0.0 -52.7909578,-26.8537584992383,0.0 -52.7908519,-26.8540214992383,0.0 -52.79068,-26.8542385992383,0.0 -52.790162,-26.8547071992382,0.0 -52.7898651,-26.8549047992382,0.0 -52.7895824,-26.8550866992382,0.0 -52.7888025,-26.8553291992382,0.0 -52.7869996,-26.8555746992382,0.0 -52.7859526,-26.8555340992382,0.0 -52.7876097,-26.8570343992382,0.0 -52.790364,-26.8595281992382,0.0 -52.7902412,-26.8597651992381,0.0 -52.7901777,-26.8598248992381,0.0 -52.7901101,-26.8598814992381,0.0 -52.7900032,-26.8599631992381,0.0 -52.7899122,-26.8600057992381,0.0 -52.7898366,-26.8600592992381,0.0 -52.7897706,-26.8601333992381,0.0 -52.7896921,-26.8602265992381,0.0 -52.7896074,-26.8603533992381,0.0 -52.7894982,-26.8604948992381,0.0 -52.7893716,-26.8606274992381,0.0 -52.7893286,-26.8606791992381,0.0 -52.789245,-26.8607557992381,0.0 -52.7892069,-26.8607896992381,0.0 -52.7891481,-26.8608317992381,0.0 -52.7891313,-26.8608421992381,0.0 -52.7890967,-26.8608480992381,0.0 -52.789051,-26.8608516992381,0.0 -52.7890213,-26.8608599992381,0.0 -52.7889339,-26.8609041992381,0.0 -52.7888956,-26.8609309992381,0.0 -52.788814,-26.8609806992381,0.0 -52.7887086,-26.8610061992381,0.0 -52.7886552,-26.8610376992381,0.0 -52.788573,-26.8610908992381,0.0 -52.788504,-26.8611375992381,0.0 -52.788445,-26.8611913992381,0.0 -52.7884082,-26.8612478992381,0.0 -52.7884063,-26.8612530992381,0.0 -52.7883597,-26.8613794992381,0.0 -52.7883315,-26.8615067992381,0.0 -52.7882961,-26.8615948992381,0.0 -52.7882454,-26.8616825992381,0.0 -52.7882217,-26.8617452992381,0.0 -52.788218,-26.8618012992381,0.0 -52.7882158,-26.8619503992381,0.0 -52.7882034,-26.8621265992381,0.0 -52.7881909,-26.8623101992381,0.0 -52.7881857,-26.8625298992381,0.0 -52.7881793,-26.8627006992381,0.0 -52.7881642,-26.8629210992381,0.0 -52.7881664,-26.8631843992381,0.0 -52.7881901,-26.8633344992381,0.0 -52.7882074,-26.8634452992381,0.0 -52.7882102,-26.8634633992381,0.0 -52.7881994,-26.8635276992381,0.0 -52.7881456,-26.8636624992381,0.0 -52.7880479,-26.8637964992381,0.0 -52.7880027,-26.8638885992381,0.0 -52.7879734,-26.8639880992381,0.0 -52.7879368,-26.8640374992381,0.0 -52.7878872,-26.8641508992381,0.0 -52.7878295,-26.8644010992381,0.0 -52.7877928,-26.8644575992381,0.0 -52.7876961,-26.8645131992381,0.0 -52.787591,-26.8645972992381,0.0 -52.7875581,-26.8646681992381,0.0 -52.7875314,-26.864853799238,0.0 -52.7875209,-26.864943499238,0.0 -52.7875098,-26.864975799238,0.0 -52.7874875,-26.865002299238,0.0 -52.7874572,-26.865023199238,0.0 -52.7874123,-26.8650370992381,0.0 -52.7873713,-26.865056399238,0.0 -52.787339,-26.865082699238,0.0 -52.7873084,-26.865119799238,0.0 -52.7872696,-26.865174699238,0.0 -52.7872238,-26.865252999238,0.0 -52.7871946,-26.865334899238,0.0 -52.7871853,-26.865424299238,0.0 -52.7871814,-26.865505199238,0.0 -52.7871777,-26.865568299238,0.0 -52.7871556,-26.865657999238,0.0 -52.7870904,-26.865737599238,0.0 -52.7870386,-26.865803499238,0.0 -52.7870049,-26.865866199238,0.0 -52.7869902,-26.865914399238,0.0 -52.7869823,-26.865988299238,0.0 -52.786982,-26.865990899238,0.0 -52.7869734,-26.866075399238,0.0 -52.7869543,-26.866237199238,0.0 -52.7869593,-26.866331799238,0.0 -52.7869555,-26.866457399238,0.0 -52.7869541,-26.866552599238,0.0 -52.7869435,-26.866650799238,0.0 -52.7869343,-26.866711399238,0.0 -52.7869283,-26.866768299238,0.0 -52.7869282,-26.866798799238,0.0 -52.7869299,-26.866829299238,0.0 -52.7869315,-26.866851499238,0.0 -52.7869319,-26.866874199238,0.0 -52.7869297,-26.866891499238,0.0 -52.7869241,-26.866914499238,0.0 -52.7869047,-26.866951999238,0.0 -52.7868785,-26.866981899238,0.0 -52.786845,-26.867021699238,0.0 -52.7868254,-26.867068999238,0.0 -52.7868178,-26.867118199238,0.0 -52.7867949,-26.867171799238,0.0 -52.7867521,-26.867239399238,0.0 -52.7867168,-26.867310899238,0.0 -52.7866948,-26.867385199238,0.0 -52.7866764,-26.867486699238,0.0 -52.7866688,-26.867596399238,0.0 -52.7866531,-26.867705999238,0.0 -52.7866401,-26.867780199238,0.0 -52.7866298,-26.867808499238,0.0 -52.7865971,-26.867840399238,0.0 -52.7865102,-26.867880799238,0.0 -52.7864087,-26.867929799238,0.0 -52.7863376,-26.867971999238,0.0 -52.786214,-26.868029999238,0.0 -52.7861732,-26.868061899238,0.0 -52.7861384,-26.868097499238,0.0 -52.7860908,-26.868181899238,0.0 -52.7860638,-26.868239299238,0.0 -52.7860432,-26.868267799238,0.0 -52.7860146,-26.868292699238,0.0 -52.7859592,-26.868356899238,0.0 -52.7859305,-26.868388999238,0.0 -52.7858855,-26.868423099238,0.0 -52.7858408,-26.868444099238,0.0 -52.7857375,-26.868462999238,0.0 -52.7856729,-26.868458499238,0.0 -52.7855235,-26.868441999238,0.0 -52.7854466,-26.868435999238,0.0 -52.7853213,-26.868430599238,0.0 -52.7851373,-26.868441199238,0.0 -52.7849705,-26.868484999238,0.0 -52.7847364,-26.868584199238,0.0 -52.7847489,-26.868655199238,0.0 -52.784909,-26.869502599238,0.0 -52.7849472,-26.869859899238,0.0 -52.7851031,-26.8704491992379,0.0 -52.7853524,-26.8712709992379,0.0 -52.7856376,-26.8722517992379,0.0 -52.7866474,-26.8730066992379,0.0 -52.7874514,-26.8736223992379,0.0 -52.788324,-26.8742493992379,0.0 -52.7893162,-26.8746417992379,0.0 -52.7898061,-26.8747609992379,0.0 -52.7903036,-26.8748820992379,0.0 -52.7908012,-26.8750030992379,0.0 -52.7911152,-26.8751055992379,0.0 -52.7920329,-26.8752744992379,0.0 -52.7928668,-26.8753527992378,0.0 -52.7938185,-26.8753583992378,0.0 -52.7943732,-26.8753335992378,0.0 -52.7957171,-26.8750678992379,0.0 -52.7958825,-26.8750026992379,0.0 -52.7969489,-26.8746850992379,0.0 -52.7983749,-26.8739072992379,0.0 -52.7999174,-26.8725791992379,0.0 -52.8016591,-26.8708124992379,0.0 -52.80243,-26.869960199238,0.0 -52.803206,-26.869102299238,0.0 -52.8042097,-26.867978099238,0.0 -52.8051307,-26.867063599238,0.0 -52.806271,-26.866371999238,0.0 -52.8073302,-26.865853299238,0.0 -52.8089748,-26.865071199238,0.0 -52.8099629,-26.8647162992381,0.0 -52.8108846,-26.8643851992381,0.0 -52.8116222,-26.8642298992381,0.0 -52.8121689,-26.8641597992381,0.0 -52.8124999,-26.8641338992381,0.0 -52.8132506,-26.8640887992381,0.0 -52.8143405,-26.8640606992381,0.0 -52.8151653,-26.8642482992381,0.0 -52.8159126,-26.8645359992381,0.0 -52.8161634,-26.8646746992381,0.0 -52.8163604,-26.8649063992381,0.0 -52.816647,-26.865270399238,0.0 -52.8168259,-26.865553399238,0.0 -52.8170624,-26.865927499238,0.0 -52.8171911,-26.866110399238,0.0 -52.8173197,-26.866293399238,0.0 -52.8176976,-26.866729799238,0.0 -52.8181199,-26.867140599238,0.0 -52.8184555,-26.867486799238,0.0 -52.8187551,-26.867866399238,0.0 -52.8189096,-26.868357299238,0.0 -52.8189926,-26.868958699238,0.0 -52.8189408,-26.869554799238,0.0 -52.8187391,-26.869940799238,0.0 -52.8182468,-26.8705057992379,0.0 -52.8175495,-26.8712486992379,0.0 -52.8171646,-26.8717176992379,0.0 -52.8165795,-26.8726014992379,0.0 -52.8157614,-26.8734335992379,0.0 -52.8145918,-26.8742196992379,0.0 -52.8140773,-26.8746989992379,0.0 -52.8136834,-26.8750002992379,0.0 -52.8134978,-26.8751395992378,0.0 -52.8128425,-26.8755413992378,0.0 -52.8125,-26.8757126992378,0.0 -52.8122754,-26.8758335992378,0.0 -52.8119116,-26.8760322992378,0.0 -52.8113707,-26.8764512992378,0.0 -52.8111298,-26.8767430992378,0.0 -52.8106051,-26.8772998992378,0.0 -52.8099236,-26.8784299992378,0.0 -52.8093604,-26.8792836992378,0.0 -52.8088181,-26.8799062992378,0.0 -52.8080397,-26.8804108992378,0.0 -52.8071862,-26.8807969992377,0.0 -52.8063522,-26.8810247992377,0.0 -52.8059223,-26.8810658992377,0.0 -52.8046795,-26.8811843992377,0.0 -52.8030235,-26.8810080992377,0.0 -52.8009806,-26.8806012992377,0.0 -52.7997887,-26.8804979992377,0.0 -52.7977819,-26.8804445992377,0.0 -52.7967684,-26.8802159992378,0.0 -52.7957311,-26.8799272992378,0.0 -52.7949443,-26.8796743992378,0.0 -52.7944432,-26.8796125992378,0.0 -52.7942867,-26.8796262992378,0.0 -52.7939002,-26.8797154992378,0.0 -52.7934401,-26.8798648992378,0.0 -52.7926119,-26.8801736992378,0.0 -52.7907502,-26.8809463992377,0.0 -52.7894968,-26.8815554992377,0.0 -52.7887364,-26.8821721992377,0.0 -52.786983,-26.8838313992377,0.0 -52.7865307,-26.8844579992377,0.0 -52.7860861,-26.8855673992377,0.0 -52.7858781,-26.8870324992376,0.0 -52.7859034,-26.8879353992376,0.0 -52.7859132,-26.8882875992376,0.0 -52.7861883,-26.8890235992376,0.0 -52.7867944,-26.8893608992376,0.0 -52.7879522,-26.8897875992376,0.0 -52.7890036,-26.8899784992376,0.0 -52.7905338,-26.8901767992376,0.0 -52.7915102,-26.8902061992376,0.0 -52.7922853,-26.8902166992376,0.0 -52.7929841,-26.8902078992376,0.0 -52.7937593,-26.8902252992376,0.0 -52.794064,-26.8902757992376,0.0 -52.7947113,-26.8903696992376,0.0 -52.7954661,-26.8905437992375,0.0 -52.7957424,-26.8907171992376,0.0 -52.796427,-26.8912528992375,0.0 -52.7971483,-26.8917751992375,0.0 -52.7977791,-26.8923414992375,0.0 -52.7984958,-26.8934288992375,0.0 -52.7993113,-26.8946193992375,0.0 -52.7999892,-26.8957071992375,0.0 -52.8005861,-26.8965871992374,0.0 -52.8009173,-26.8969270992374,0.0 -52.8013565,-26.8973778992374,0.0 -52.801984,-26.8977353992374,0.0 -52.8029598,-26.8980013992374,0.0 -52.8038341,-26.8979902992374,0.0 -52.805297,-26.8977525992374,0.0 -52.8054621,-26.8977257992374,0.0 -52.8066611,-26.8973623992374,0.0 -52.8074521,-26.8970041992374,0.0 -52.8082037,-26.8966116992374,0.0 -52.8089935,-26.8961837992374,0.0 -52.8097068,-26.8958265992375,0.0 -52.8099588,-26.8955091992375,0.0 -52.8100783,-26.8951900992375,0.0 -52.8102215,-26.8945529992375,0.0 -52.8103012,-26.8941399992375,0.0 -52.8104324,-26.8939580992375,0.0 -52.8108021,-26.8937043992375,0.0 -52.8115999,-26.8932477992375,0.0 -52.8121085,-26.8929409992375,0.0 -52.8124999,-26.8926768992375,0.0 -52.8131026,-26.8922529992375,0.0 -52.8137773,-26.8917924992375,0.0 -52.8145487,-26.8912794992375,0.0 -52.8154528,-26.8908670992375,0.0 -52.8167486,-26.8904305992376,0.0 -52.8181226,-26.8901703992376,0.0 -52.8188232,-26.8901315992376,0.0 -52.8197581,-26.8901195992376,0.0 -52.8207691,-26.8901219992376,0.0 -52.8209118,-26.8901382992376,0.0 -52.8210444,-26.8901423992376,0.0 -52.8210962,-26.8901452992376,0.0 -52.8211261,-26.8901462992376,0.0 -52.8211481,-26.8901509992376,0.0 -52.8211878,-26.8901645992376,0.0 -52.8212091,-26.8901729992376,0.0 -52.8212219,-26.8901743992376,0.0 -52.8212283,-26.8901727992376,0.0 -52.8212442,-26.8901651992376,0.0 -52.8212804,-26.8901517992376,0.0 -52.8214257,-26.8901114992376,0.0 -52.821714,-26.8900844992376,0.0 -52.8221803,-26.8900194992376,0.0 -52.8226302,-26.8899673992376,0.0 -52.8229734,-26.8899275992376,0.0 -52.8233862,-26.8898606992376,0.0 -52.8239279,-26.8896719992376,0.0 -52.8245451,-26.8894570992376,0.0 -52.8249408,-26.8892795992376,0.0 -52.8251377,-26.8891912992376,0.0 -52.8256458,-26.8887647992376,0.0 -52.8259165,-26.8883532992376,0.0 -52.8260474,-26.8878724992376,0.0 -52.8260606,-26.8874555992376,0.0 -52.826001,-26.8870364992376,0.0 -52.8258275,-26.8865123992376,0.0 -52.8255893,-26.8860718992376,0.0 -52.8252861,-26.8856913992376,0.0 -52.8249741,-26.8853760992377,0.0 -52.8247701,-26.8852121992377,0.0 -52.8245404,-26.8850556992377,0.0 -52.8242621,-26.8849273992377,0.0 -52.8240951,-26.8848679992377,0.0 -52.8237391,-26.8847740992377,0.0 -52.8233949,-26.8846665992377,0.0 -52.8231296,-26.8845428992377,0.0 -52.8229473,-26.8844457992377,0.0 -52.8227642,-26.8842588992377,0.0 -52.8226038,-26.8840499992377,0.0 -52.8225116,-26.8838495992377,0.0 -52.8223776,-26.8836496992377,0.0 -52.8220525,-26.8832881992377,0.0 -52.8218111,-26.8828404992377,0.0 -52.821635,-26.8819268992377,0.0 -52.8216552,-26.8813406992377,0.0 -52.8218116,-26.8809131992377,0.0 -52.8221577,-26.8805175992377,0.0 -52.8225438,-26.8802567992377,0.0 -52.8236004,-26.8798850992378,0.0 -52.8247955,-26.8796198992378,0.0 -52.8260835,-26.8794104992378,0.0 -52.8280024,-26.8793569992378,0.0 -52.831391,-26.8794566992378,0.0 -52.8338216,-26.8793869992378,0.0 -52.8339951,-26.8793924992378,0.0 -52.8361585,-26.8794616992378,0.0 -52.8377302,-26.8796991992378,0.0 -52.8387802,-26.8799912992378,0.0 -52.839676,-26.8804529992377,0.0 -52.8408047,-26.8810019992377,0.0 -52.8410947,-26.8811435992377,0.0 -52.8424819,-26.8818208992377,0.0 -52.8432587,-26.8822723992377,0.0 -52.8443632,-26.8832898992377,0.0 -52.8449306,-26.8840110992377,0.0 -52.8452067,-26.8845902992377,0.0 -52.8453968,-26.8857915992376,0.0 -52.8453856,-26.8870599992376,0.0 -52.8452183,-26.8885812992376,0.0 -52.8450707,-26.8902671992376,0.0 -52.8450986,-26.8919829992375,0.0 -52.8452894,-26.8928745992375,0.0 -52.8453669,-26.8928007992375,0.0 -52.8454527,-26.8927192992375,0.0 -52.8462871,-26.8919255992375,0.0 -52.8472143,-26.8911704992375,0.0 -52.8485895,-26.8901942992376,0.0 -52.8495198,-26.8896298992376,0.0 -52.850181,-26.8892087992376,0.0 -52.850788,-26.8888872992376,0.0 -52.8513834,-26.8885299992376,0.0 -52.8518072,-26.8883435992376,0.0 -52.8522412,-26.8882227992376,0.0 -52.8527265,-26.8881465992376,0.0 -52.8528727,-26.8881598992376,0.0 -52.8530804,-26.8881788992376,0.0 -52.8534141,-26.8883277992376,0.0 -52.8536274,-26.8884480992376,0.0 -52.8538273,-26.8886853992376,0.0 -52.8541007,-26.8890212992376,0.0 -52.8542983,-26.8894890992376,0.0 -52.8544348,-26.8898443992376,0.0 -52.8544796,-26.8901890992376,0.0 -52.8544448,-26.8904588992376,0.0 -52.8543584,-26.8907148992376,0.0 -52.8542519,-26.8909504992375,0.0 -52.854087,-26.8913488992375,0.0 -52.8539867,-26.8915562992375,0.0 -52.8539493,-26.8917548992375,0.0 -52.8538917,-26.8920855992375,0.0 -52.8538734,-26.8925459992375,0.0 -52.8537816,-26.8930133992375,0.0 -52.8537304,-26.8933416992375,0.0 -52.8537139,-26.8935926992375,0.0 -52.8536573,-26.8939074992375,0.0 -52.8536035,-26.8940715992375,0.0 -52.8535152,-26.8943280992375,0.0 -52.853464,-26.8946323992375,0.0 -52.853373,-26.8948738992375,0.0 -52.8532885,-26.8952595992375,0.0 -52.853252,-26.8955466992375,0.0 -52.8532644,-26.8958016992375,0.0 -52.8533046,-26.8959896992375,0.0 -52.8534127,-26.8961143992374,0.0 -52.8535931,-26.8962599992374,0.0 -52.8537197,-26.8964224992374,0.0 -52.8538757,-26.8966068992374,0.0 -52.8540364,-26.8967036992374,0.0 -52.8542633,-26.8967680992374,0.0 -52.8545489,-26.8968229992374,0.0 -52.8548634,-26.8968422992374,0.0 -52.8552691,-26.8968369992374,0.0 -52.8558507,-26.8967587992374,0.0 -52.8562447,-26.8966840992374,0.0 -52.8565857,-26.8965273992374,0.0 -52.8568119,-26.8963523992374,0.0 -52.8570664,-26.8961081992374,0.0 -52.8572283,-26.8959500992374,0.0 -52.8575002,-26.8957418992375,0.0 -52.8577523,-26.8955785992375,0.0 -52.8580954,-26.8953763992375,0.0 -52.858366,-26.8952705992375,0.0 -52.8587394,-26.8951790992375,0.0 -52.8590131,-26.8950887992375,0.0 -52.8595005,-26.8948889992375,0.0 -52.8597662,-26.8947610992375,0.0 -52.8601051,-26.8946618992375,0.0 -52.8603571,-26.8946348992375,0.0 -52.8606049,-26.8946286992375,0.0 -52.8607966,-26.8946290992375,0.0 -52.8609711,-26.8945852992375,0.0 -52.8612187,-26.8945642992375,0.0 -52.8616425,-26.8946060992375,0.0 -52.8620038,-26.8946605992375,0.0 -52.8625758,-26.8947785992375,0.0 -52.8633416,-26.8948913992375,0.0 -52.8642669,-26.8949193992375,0.0 -52.8643018,-26.8949202992375,0.0 -52.864887,-26.8949365992375,0.0 -52.8656889,-26.8949216992375,0.0 -52.8665213,-26.8949022992375,0.0 -52.8668712,-26.8948933992375,0.0 -52.8673272,-26.8949217992375,0.0 -52.8678425,-26.8949828992375,0.0 -52.868073,-26.8950030992375,0.0 -52.8688032,-26.8949784992375,0.0 -52.8689967,-26.8949621992375,0.0 -52.869731,-26.8948480992375,0.0 -52.8700776,-26.8947771992375,0.0 -52.8703577,-26.8947071992375,0.0 -52.8706153,-26.8946275992375,0.0 -52.87082,-26.8945250992375,0.0 -52.8710087,-26.8944165992375,0.0 -52.8712067,-26.8943078992375,0.0 -52.8714199,-26.8942205992375,0.0 -52.8715277,-26.8942008992375,0.0 -52.8716515,-26.8941942992375,0.0 -52.8717996,-26.8942005992375,0.0 -52.8718962,-26.8942216992375,0.0 -52.8719927,-26.8942427992375,0.0 -52.8721532,-26.8943300992375,0.0 -52.8724804,-26.8944932992375,0.0 -52.8727175,-26.8945876992375,0.0 -52.8729343,-26.8946690992375,0.0 -52.8731351,-26.8947318992375,0.0 -52.8732399,-26.8947507992375,0.0 -52.8733126,-26.8947578992375,0.0 -52.8733864,-26.8947744992375,0.0 -52.8734433,-26.8948002992375,0.0 -52.8735037,-26.8948491992375,0.0 -52.8735287,-26.8948795992375,0.0 -52.8735499,-26.8949270992375,0.0 -52.8735711,-26.8949735992375,0.0 -52.8736004,-26.8950162992375,0.0 -52.8736746,-26.8950926992375,0.0 -52.8737167,-26.8951283992375,0.0 -52.8737611,-26.8951503992375,0.0 -52.8738363,-26.8951707992375,0.0 -52.8739581,-26.8951826992375,0.0 -52.8741639,-26.8951762992375,0.0 -52.8743008,-26.8951471992375,0.0 -52.8744376,-26.8951179992375,0.0 -52.8746564,-26.8950664992375,0.0 -52.8747517,-26.8950439992375,0.0 -52.8749999,-26.8949305992375,0.0 -52.8752532,-26.8948394992375,0.0 -52.8756624,-26.8946192992375,0.0 -52.8759335,-26.8943159992375,0.0 -52.8762019,-26.8937725992375,0.0 -52.8762654,-26.8934133992375,0.0 -52.8762013,-26.8930869992375,0.0 -52.8760361,-26.8927738992375,0.0 -52.8756201,-26.8924592992375,0.0 -52.8749999,-26.8920659992375,0.0 -52.8748951,-26.8919708992375,0.0 -52.8745235,-26.8916335992375,0.0 -52.8743235,-26.8915050992375,0.0 -52.8739397,-26.8912522992375,0.0 -52.873416,-26.8909894992375,0.0 -52.8729889,-26.8907328992375,0.0 -52.8725179,-26.8902822992376,0.0 -52.8722246,-26.8900167992376,0.0 -52.8720529,-26.8897881992376,0.0 -52.8719456,-26.8894969992376,0.0 -52.8719265,-26.8893963992376,0.0 -52.8718786,-26.8891441992376,0.0 -52.8718532,-26.8889471992376,0.0 -52.8719051,-26.8887223992376,0.0 -52.8719554,-26.8886469992376,0.0 -52.872019,-26.8885514992376,0.0 -52.8723928,-26.8882875992376,0.0 -52.8730862,-26.8878499992376,0.0 -52.8732354,-26.8877425992376,0.0 -52.8738387,-26.8873078992376,0.0 -52.8742613,-26.8870001992376,0.0 -52.8744156,-26.8868912992376,0.0 -52.8749999,-26.8864788992376,0.0 -52.8754879,-26.8862842992376,0.0 -52.8759146,-26.8859862992376,0.0 -52.876266,-26.8854716992376,0.0 -52.8765583,-26.8848854992377,0.0 -52.8767437,-26.8846251992377,0.0 -52.8768528,-26.8844947992377,0.0 -52.8769619,-26.8843643992377,0.0 -52.8771808,-26.8841445992377,0.0 -52.8773964,-26.8837314992377,0.0 -52.8777199,-26.8830019992377,0.0 -52.8779758,-26.8824826992377,0.0 -52.8780048,-26.8824237992377,0.0 -52.8781193,-26.8819882992377,0.0 -52.8781786,-26.8816414992377,0.0 -52.8781953,-26.8815437992377,0.0 -52.8782102,-26.8812132992377,0.0 -52.8782254,-26.8810873992377,0.0 -52.8782321,-26.8810317992377,0.0 -52.8782787,-26.8808385992377,0.0 -52.8783073,-26.8804605992377,0.0 -52.8783329,-26.8801209992378,0.0 -52.8786635,-26.8793949992378,0.0 -52.879233,-26.8785580992378,0.0 -52.8794885,-26.8783357992378,0.0 -52.8798375,-26.8780321992378,0.0 -52.8808767,-26.8776036992378,0.0 -52.8824312,-26.8772556992378,0.0 -52.8827678,-26.8771803992378,0.0 -52.8852149,-26.8770553992378,0.0 -52.8854045,-26.8770456992378,0.0 -52.8869488,-26.8771450992378,0.0 -52.8880348,-26.8771533992378,0.0 -52.8884429,-26.8771564992378,0.0 -52.8888954,-26.8770964992378,0.0 -52.8897588,-26.8769820992378,0.0 -52.8912144,-26.8767848992378,0.0 -52.89224,-26.8764551992378,0.0 -52.893133,-26.8761190992378,0.0 -52.8935722,-26.8758622992378,0.0 -52.8938131,-26.8756081992378,0.0 -52.8938996,-26.8753807992378,0.0 -52.8938965,-26.8751953992378,0.0 -52.8938643,-26.8750028992378,0.0 -52.8934165,-26.8745186992379,0.0 -52.8933831,-26.8744825992379,0.0 -52.8928545,-26.8741254992379,0.0 -52.8917167,-26.8738025992379,0.0 -52.8916013,-26.8737541992379,0.0 -52.8906056,-26.8733362992379,0.0 -52.890293,-26.8731981992379,0.0 -52.889377,-26.8727934992379,0.0 -52.8892665,-26.8727533992379,0.0 -52.8882377,-26.8723795992379,0.0 -52.8873896,-26.8720137992379,0.0 -52.8868768,-26.8717345992379,0.0 -52.8865512,-26.8713617992379,0.0 -52.8862695,-26.8709457992379,0.0 -52.8859516,-26.8703221992379,0.0 -52.8854617,-26.869338899238,0.0 -52.8853513,-26.868889499238,0.0 -52.8852706,-26.868162899238,0.0 -52.8851864,-26.867614099238,0.0 -52.8851803,-26.867574599238,0.0 -52.8851004,-26.867282099238,0.0 -52.8850463,-26.867084499238,0.0 -52.8848593,-26.866840999238,0.0 -52.8844445,-26.866662099238,0.0 -52.8827189,-26.866080499238,0.0 -52.8825777,-26.866057699238,0.0 -52.8815917,-26.865898999238,0.0 -52.8808927,-26.865826299238,0.0 -52.8804252,-26.865817499238,0.0 -52.8800817,-26.865832199238,0.0 -52.8797614,-26.865886899238,0.0 -52.8795236,-26.865971999238,0.0 -52.8793804,-26.866023199238,0.0 -52.8789394,-26.866081899238,0.0 -52.8781959,-26.866088299238,0.0 -52.8770434,-26.865932599238,0.0 -52.8766374,-26.865774999238,0.0 -52.8760667,-26.865470799238,0.0 -52.8757505,-26.865195499238,0.0 -52.8756931,-26.865145499238,0.0 -52.8753888,-26.8646853992381,0.0 -52.8753649,-26.8643568992381,0.0 -52.8754156,-26.8639871992381,0.0 -52.8755108,-26.8638349992381,0.0 -52.8755196,-26.8638208992381,0.0</coordinates>
</LinearRing>
</outerBoundaryIs>
</Polygon>
</MultiGeometry>
</Placemark>
</Folder>
</Document></kml>
