<?xml version='1.0' encoding='UTF-8'?>
<kml xmlns:xsd="http://www.w3.org/2001/XMLSchema" xmlns:gx="http://www.google.com/kml/ext/2.2" xmlns:atom="http://www.w3.org/2005/Atom" xmlns="http://www.opengis.net/kml/2.2">
<Document>
<name>aguas_de_chapeco_4200507_localidades_2022</name>
<visibility>1</visibility>
<Schema name="Localidades" id="kml_schema_ft_Localidades">
<SimpleField type="xsd:string" name="CD_UF">
<displayName>CD_UF</displayName>
</SimpleField>
<SimpleField type="xsd:string" name="NM_UF">
<displayName>NM_UF</displayName>
</SimpleField>
<SimpleField type="xsd:string" name="SIGLA_UF">
<displayName>SIGLA_UF</displayName>
</SimpleField>
<SimpleField type="xsd:string" name="CD_MUN">
<displayName>CD_MUN</displayName>
</SimpleField>
<SimpleField type="xsd:string" name="NM_MUN">
<displayName>NM_MUN</displayName>
</SimpleField>
<SimpleField type="xsd:string" name="CD_RGINT">
<displayName>CD_RGINT</displayName>
</SimpleField>
<SimpleField type="xsd:string" name="NM_RGINT">
<displayName>NM_RGINT</displayName>
</SimpleField>
<SimpleField type="xsd:string" name="CD_RGI">
<displayName>CD_RGI</displayName>
</SimpleField>
<SimpleField type="xsd:string" name="NM_RGI">
<displayName>NM_RGI</displayName>
</SimpleField>
<SimpleField type="xsd:string" name="CT_LOCALIDADE">
<displayName>CT_LOCALIDADE</displayName>
</SimpleField>
<SimpleField type="xsd:string" name="SCT_LOCALIDADE">
<displayName>SCT_LOCALIDADE</displayName>
</SimpleField>
<SimpleField type="xsd:string" name="CD_LOCALIDADE">
<displayName>CD_LOCALIDADE</displayName>
</SimpleField>
<SimpleField type="xsd:string" name="NM_LOCALIDADE">
<displayName>NM_LOCALIDADE</displayName>
</SimpleField>
</Schema>
<Schema name="01. Cidade" id="kml_schema_ft_01._Cidade">
<SimpleField type="xsd:string" name="CD_UF">
<displayName>CD_UF</displayName>
</SimpleField>
<SimpleField type="xsd:string" name="NM_UF">
<displayName>NM_UF</displayName>
</SimpleField>
<SimpleField type="xsd:string" name="SIGLA_UF">
<displayName>SIGLA_UF</displayName>
</SimpleField>
<SimpleField type="xsd:string" name="CD_MUN">
<displayName>CD_MUN</displayName>
</SimpleField>
<SimpleField type="xsd:string" name="NM_MUN">
<displayName>NM_MUN</displayName>
</SimpleField>
<SimpleField type="xsd:string" name="CD_RGINT">
<displayName>CD_RGINT</displayName>
</SimpleField>
<SimpleField type="xsd:string" name="NM_RGINT">
<displayName>NM_RGINT</displayName>
</SimpleField>
<SimpleField type="xsd:string" name="CD_RGI">
<displayName>CD_RGI</displayName>
</SimpleField>
<SimpleField type="xsd:string" name="NM_RGI">
<displayName>NM_RGI</displayName>
</SimpleField>
<SimpleField type="xsd:string" name="CT_LOCALIDADE">
<displayName>CT_LOCALIDADE</displayName>
</SimpleField>
<SimpleField type="xsd:string" name="SCT_LOCALIDADE">
<displayName>SCT_LOCALIDADE</displayName>
</SimpleField>
<SimpleField type="xsd:string" name="CD_LOCALIDADE">
<displayName>CD_LOCALIDADE</displayName>
</SimpleField>
<SimpleField type="xsd:string" name="NM_LOCALIDADE">
<displayName>NM_LOCALIDADE</displayName>
</SimpleField>
<SimpleField type="xsd:string" name="LAT_LOCALIDADE">
<displayName>LAT_LOCALIDADE</displayName>
</SimpleField>
<SimpleField type="xsd:string" name="LONG_LOCALIDADE">
<displayName>LONG_LOCALIDADE</displayName>
</SimpleField>
</Schema>
<Schema name="Município" id="kml_schema_ft_Município">
<SimpleField type="xsd:string" name="CD_UF">
<displayName>CD_UF</displayName>
</SimpleField>
<SimpleField type="xsd:string" name="NM_UF">
<displayName>NM_UF</displayName>
</SimpleField>
<SimpleField type="xsd:string" name="CD_MUN">
<displayName>CD_MUN</displayName>
</SimpleField>
<SimpleField type="xsd:string" name="NM_MUN">
<displayName>NM_MUN</displayName>
</SimpleField>
<SimpleField type="xsd:string" name="CD_RGINT">
<displayName>CD_RGINT</displayName>
</SimpleField>
<SimpleField type="xsd:string" name="NM_RGINT">
<displayName>NM_RGINT</displayName>
</SimpleField>
<SimpleField type="xsd:string" name="CD_RGI">
<displayName>CD_RGI</displayName>
</SimpleField>
<SimpleField type="xsd:string" name="NM_RGI">
<displayName>NM_RGI</displayName>
</SimpleField>
</Schema>
<Folder id="01. Cidade">
<name>01. Cidade</name>
<Folder id="01.03. Sede Municipal">
<name>01.03. Sede Municipal</name>
<Placemark id="01.03. Sede Municipal">
<name>Águas de Chapecó [4200507]</name>
<visibility>1</visibility>
<snippet> </snippet>
<description>&lt;center&gt;&lt;table&gt;&lt;tr&gt;&lt;th colspan='2' align='center'&gt;&lt;em&gt;Atributos&lt;/em&gt;&lt;/th&gt;&lt;/tr&gt;&lt;tr bgcolor="#E3E3F3"&gt;
&lt;th&gt;CD_UF&lt;/th&gt;
&lt;td&gt;42&lt;/td&gt;
&lt;/tr&gt;&lt;tr bgcolor=""&gt;
&lt;th&gt;NM_UF&lt;/th&gt;
&lt;td&gt;Santa Catarina&lt;/td&gt;
&lt;/tr&gt;&lt;tr bgcolor="#E3E3F3"&gt;
&lt;th&gt;SIGLA_UF&lt;/th&gt;
&lt;td&gt;SC&lt;/td&gt;
&lt;/tr&gt;&lt;tr bgcolor=""&gt;
&lt;th&gt;CD_MUN&lt;/th&gt;
&lt;td&gt;4200507&lt;/td&gt;
&lt;/tr&gt;&lt;tr bgcolor="#E3E3F3"&gt;
&lt;th&gt;NM_MUN&lt;/th&gt;
&lt;td&gt;Águas de Chapecó&lt;/td&gt;
&lt;/tr&gt;&lt;tr bgcolor=""&gt;
&lt;th&gt;CD_RGINT&lt;/th&gt;
&lt;td&gt;4204&lt;/td&gt;
&lt;/tr&gt;&lt;tr bgcolor="#E3E3F3"&gt;
&lt;th&gt;NM_RGINT&lt;/th&gt;
&lt;td&gt;Chapecó&lt;/td&gt;
&lt;/tr&gt;&lt;tr bgcolor=""&gt;
&lt;th&gt;CD_RGI&lt;/th&gt;
&lt;td&gt;420007&lt;/td&gt;
&lt;/tr&gt;&lt;tr bgcolor="#E3E3F3"&gt;
&lt;th&gt;NM_RGI&lt;/th&gt;
&lt;td&gt;Chapecó&lt;/td&gt;
&lt;/tr&gt;&lt;tr bgcolor=""&gt;
&lt;th&gt;CT_LOCALIDADE&lt;/th&gt;
&lt;td&gt;Cidade&lt;/td&gt;
&lt;/tr&gt;&lt;tr bgcolor="#E3E3F3"&gt;
&lt;th&gt;SCT_LOCALIDADE&lt;/th&gt;
&lt;td&gt;Sede Municipal&lt;/td&gt;
&lt;/tr&gt;&lt;tr bgcolor=""&gt;
&lt;th&gt;CD_LOCALIDADE&lt;/th&gt;
&lt;td&gt;4200507&lt;/td&gt;
&lt;/tr&gt;&lt;tr bgcolor="#E3E3F3"&gt;
&lt;th&gt;NM_LOCALIDADE&lt;/th&gt;
&lt;td&gt;Águas de Chapecó&lt;/td&gt;
&lt;/tr&gt;&lt;tr bgcolor=""&gt;
&lt;th&gt;LAT_LOCALIDADE&lt;/th&gt;
&lt;td&gt;-27.0742&lt;/td&gt;
&lt;/tr&gt;&lt;tr bgcolor="#E3E3F3"&gt;
&lt;th&gt;LONG_LOCALIDADE&lt;/th&gt;
&lt;td&gt;-52.9879&lt;/td&gt;
&lt;/tr&gt;&lt;/table&gt;&lt;/center&gt;</description>
<Style>
<IconStyle>
<color>ff00aaff</color>
<scale>1.0</scale>
<Icon>
<href>http://maps.google.com/mapfiles/kml/shapes/placemark_circle.png</href>
</Icon>
</IconStyle>
<LabelStyle>
<scale>1.0</scale>
</LabelStyle>
<LineStyle>
<color>ffffffff</color>
<width>3</width>
<gx:labelVisibility>1</gx:labelVisibility>
</LineStyle>
<PolyStyle>
<color>00ffffff</color>
</PolyStyle>
</Style>
<ExtendedData>
<SchemaData schemaUrl="#kml_schema_ft_01._Cidade">
<SimpleData name="CD_UF">42</SimpleData>
<SimpleData name="NM_UF">Santa Catarina</SimpleData>
<SimpleData name="SIGLA_UF">SC</SimpleData>
<SimpleData name="CD_MUN">4200507</SimpleData>
<SimpleData name="NM_MUN">Águas de Chapecó</SimpleData>
<SimpleData name="CD_RGINT">4204</SimpleData>
<SimpleData name="NM_RGINT">Chapecó</SimpleData>
<SimpleData name="CD_RGI">420007</SimpleData>
<SimpleData name="NM_RGI">Chapecó</SimpleData>
<SimpleData name="CT_LOCALIDADE">Cidade</SimpleData>
<SimpleData name="SCT_LOCALIDADE">Sede Municipal</SimpleData>
<SimpleData name="CD_LOCALIDADE">4200507</SimpleData>
<SimpleData name="NM_LOCALIDADE">Águas de Chapecó</SimpleData>
<SimpleData name="LAT_LOCALIDADE">-27.0742</SimpleData>
<SimpleData name="LONG_LOCALIDADE">-52.9879</SimpleData>
</SchemaData>
</ExtendedData>
<Point>
<extrude>0</extrude>
<coordinates>-52.9879,-27.074199999234,0.0</coordinates>
</Point>
</Placemark>
</Folder>
</Folder>
<Folder id="12. Outras Localidades">
<name>12. Outras Localidades</name>
<Placemark id="12. Outras Localidades">
<name>Linha Maidana [420050700001]</name>
<visibility>1</visibility>
<snippet> </snippet>
<description>&lt;center&gt;&lt;table&gt;&lt;tr&gt;&lt;th colspan='2' align='center'&gt;&lt;em&gt;Attributes&lt;/em&gt;&lt;/th&gt;&lt;/tr&gt;&lt;tr bgcolor="#E3E3F3"&gt;
&lt;th&gt;CD_UF&lt;/th&gt;
&lt;td&gt;42&lt;/td&gt;
&lt;/tr&gt;&lt;tr bgcolor=""&gt;
&lt;th&gt;NM_UF&lt;/th&gt;
&lt;td&gt;Santa Catarina&lt;/td&gt;
&lt;/tr&gt;&lt;tr bgcolor="#E3E3F3"&gt;
&lt;th&gt;SIGLA_UF&lt;/th&gt;
&lt;td&gt;SC&lt;/td&gt;
&lt;/tr&gt;&lt;tr bgcolor=""&gt;
&lt;th&gt;CD_MUN&lt;/th&gt;
&lt;td&gt;4200507&lt;/td&gt;
&lt;/tr&gt;&lt;tr bgcolor="#E3E3F3"&gt;
&lt;th&gt;NM_MUN&lt;/th&gt;
&lt;td&gt;Águas de Chapecó&lt;/td&gt;
&lt;/tr&gt;&lt;tr bgcolor=""&gt;
&lt;th&gt;CD_RGINT&lt;/th&gt;
&lt;td&gt;4204&lt;/td&gt;
&lt;/tr&gt;&lt;tr bgcolor="#E3E3F3"&gt;
&lt;th&gt;NM_RGINT&lt;/th&gt;
&lt;td&gt;Chapecó&lt;/td&gt;
&lt;/tr&gt;&lt;tr bgcolor=""&gt;
&lt;th&gt;CD_RGI&lt;/th&gt;
&lt;td&gt;420007&lt;/td&gt;
&lt;/tr&gt;&lt;tr bgcolor="#E3E3F3"&gt;
&lt;th&gt;NM_RGI&lt;/th&gt;
&lt;td&gt;Chapecó&lt;/td&gt;
&lt;/tr&gt;&lt;tr bgcolor=""&gt;
&lt;th&gt;CT_LOCALIDADE&lt;/th&gt;
&lt;td&gt;Outras Localidades&lt;/td&gt;
&lt;/tr&gt;&lt;tr bgcolor="#E3E3F3"&gt;
&lt;th&gt;SCT_LOCALIDADE&lt;/th&gt;
&lt;td&gt;&lt;/td&gt;
&lt;/tr&gt;&lt;tr bgcolor=""&gt;
&lt;th&gt;CD_LOCALIDADE&lt;/th&gt;
&lt;td&gt;420050700001&lt;/td&gt;
&lt;/tr&gt;&lt;tr bgcolor="#E3E3F3"&gt;
&lt;th&gt;NM_LOCALIDADE&lt;/th&gt;
&lt;td&gt;Linha Maidana&lt;/td&gt;
&lt;/tr&gt;&lt;/table&gt;&lt;/center&gt;</description>
<Style>
<IconStyle>
<color>ff0069d3</color>
<scale>0.6</scale>
<Icon>
<href>http://maps.google.com/mapfiles/kml/shapes/placemark_circle.png</href>
</Icon>
</IconStyle>
<LabelStyle>
<scale>0.6</scale>
</LabelStyle>
<LineStyle>
<width>1.0</width>
<gx:labelVisibility>1</gx:labelVisibility>
</LineStyle>
</Style>
<ExtendedData>
<SchemaData schemaUrl="#kml_schema_ft_Localidades">
<SimpleData name="CD_UF">42</SimpleData>
<SimpleData name="NM_UF">Santa Catarina</SimpleData>
<SimpleData name="SIGLA_UF">SC</SimpleData>
<SimpleData name="CD_MUN">4200507</SimpleData>
<SimpleData name="NM_MUN">Águas de Chapecó</SimpleData>
<SimpleData name="CD_RGINT">4204</SimpleData>
<SimpleData name="NM_RGINT">Chapecó</SimpleData>
<SimpleData name="CD_RGI">420007</SimpleData>
<SimpleData name="NM_RGI">Chapecó</SimpleData>
<SimpleData name="CT_LOCALIDADE">Outras Localidades</SimpleData>
<SimpleData name="CD_LOCALIDADE">420050700001</SimpleData>
<SimpleData name="NM_LOCALIDADE">Linha Maidana</SimpleData>
</SchemaData>
</ExtendedData>
<Point>
<extrude>0</extrude>
<coordinates>-52.9334691806558,-26.9932368821596,0.0</coordinates>
</Point>
</Placemark>
</Folder>
<Folder id="13. Referência">
<name>13. Referência</name>
<Placemark id="13. Referência">
<name>Águas de Chapecó [4200507]</name>
<visibility>1</visibility>
<snippet> </snippet>
<description>&lt;center&gt;&lt;table&gt;&lt;tr&gt;&lt;th colspan='2' align='center'&gt;&lt;em&gt;Attributes&lt;/em&gt;&lt;/th&gt;&lt;/tr&gt;&lt;tr bgcolor="#E3E3F3"&gt;
&lt;th&gt;CD_UF&lt;/th&gt;
&lt;td&gt;42&lt;/td&gt;
&lt;/tr&gt;&lt;tr bgcolor=""&gt;
&lt;th&gt;NM_UF&lt;/th&gt;
&lt;td&gt;Santa Catarina&lt;/td&gt;
&lt;/tr&gt;&lt;tr bgcolor="#E3E3F3"&gt;
&lt;th&gt;CD_MUN&lt;/th&gt;
&lt;td&gt;4200507&lt;/td&gt;
&lt;/tr&gt;&lt;tr bgcolor=""&gt;
&lt;th&gt;NM_MUN&lt;/th&gt;
&lt;td&gt;Águas de Chapecó&lt;/td&gt;
&lt;/tr&gt;&lt;tr bgcolor="#E3E3F3"&gt;
&lt;th&gt;CD_RGINT&lt;/th&gt;
&lt;td&gt;4204&lt;/td&gt;
&lt;/tr&gt;&lt;tr bgcolor=""&gt;
&lt;th&gt;NM_RGINT&lt;/th&gt;
&lt;td&gt;Chapecó&lt;/td&gt;
&lt;/tr&gt;&lt;tr bgcolor="#E3E3F3"&gt;
&lt;th&gt;CD_RGI&lt;/th&gt;
&lt;td&gt;420007&lt;/td&gt;
&lt;/tr&gt;&lt;tr bgcolor=""&gt;
&lt;th&gt;NM_RGI&lt;/th&gt;
&lt;td&gt;Chapecó&lt;/td&gt;
&lt;/tr&gt;&lt;/table&gt;&lt;/center&gt;</description>
<Style>
<IconStyle>
<scale>0.7</scale>
</IconStyle>
<LabelStyle>
<scale>0.7</scale>
</LabelStyle>
<LineStyle>
<color>ffffffff</color>
<width>3</width>
<gx:labelVisibility>1</gx:labelVisibility>
</LineStyle>
<PolyStyle>
<color>00ffffff</color>
</PolyStyle>
</Style>
<ExtendedData>
<SchemaData schemaUrl="#kml_schema_ft_Município">
<SimpleData name="CD_UF">42</SimpleData>
<SimpleData name="NM_UF">Santa Catarina</SimpleData>
<SimpleData name="CD_MUN">4200507</SimpleData>
<SimpleData name="NM_MUN">Águas de Chapecó</SimpleData>
<SimpleData name="CD_RGINT">4204</SimpleData>
<SimpleData name="NM_RGINT">Chapecó</SimpleData>
<SimpleData name="CD_RGI">420007</SimpleData>
<SimpleData name="NM_RGI">Chapecó</SimpleData>
</SchemaData>
</ExtendedData>
<MultiGeometry>
<Polygon>
<extrude>0</extrude>
<tessellate>1</tessellate>
<outerBoundaryIs>
<LinearRing>
<coordinates>-52.9571761,-27.0299623992349,0.0 -52.9577569,-27.0298423992349,0.0 -52.9582752,-27.0297386992349,0.0 -52.9587791,-27.0296404992349,0.0 -52.9592652,-27.0295481992349,0.0 -52.9597302,-27.0294619992349,0.0 -52.9605934,-27.0293044992349,0.0 -52.9609977,-27.0292282992349,0.0 -52.9615821,-27.0291079992349,0.0 -52.9617556,-27.0290702992349,0.0 -52.9621455,-27.0289765992349,0.0 -52.9625187,-27.0288757992349,0.0 -52.9628933,-27.0287618992349,0.0 -52.9632718,-27.0286332992349,0.0 -52.9636026,-27.0285100992349,0.0 -52.9640285,-27.0283409992349,0.0 -52.9643992,-27.0281836992349,0.0 -52.9647594,-27.0280229992349,0.0 -52.9652345,-27.0278002992349,0.0 -52.9654337,-27.0277044992349,0.0 -52.9657399,-27.0275527992349,0.0 -52.9660214,-27.0274095992349,0.0 -52.9662795,-27.0272743992349,0.0 -52.9665166,-27.0271458992349,0.0 -52.9667352,-27.0270227992349,0.0 -52.9669375,-27.0269038992349,0.0 -52.9671259,-27.0267877992349,0.0 -52.9673028,-27.0266734992349,0.0 -52.9674706,-27.0265594992349,0.0 -52.9676314,-27.0264444992349,0.0 -52.9677859,-27.0263272992349,0.0 -52.9679349,-27.0262064992349,0.0 -52.9680789,-27.0260805992349,0.0 -52.9682185,-27.0259482992349,0.0 -52.9683542,-27.0258082992349,0.0 -52.9684866,-27.0256590992349,0.0 -52.9686164,-27.0254993992349,0.0 -52.9687437,-27.0253282992349,0.0 -52.9688678,-27.025147499235,0.0 -52.9689876,-27.024958999235,0.0 -52.9691018,-27.024764999235,0.0 -52.9691591,-27.024659999235,0.0 -52.9693094,-27.024369099235,0.0 -52.9694005,-27.024171299235,0.0 -52.9694816,-27.023976599235,0.0 -52.9695519,-27.023786299235,0.0 -52.9695974,-27.023643399235,0.0 -52.9696615,-27.023412399235,0.0 -52.969702,-27.023224599235,0.0 -52.9697337,-27.023033199235,0.0 -52.9697573,-27.022836199235,0.0 -52.9697733,-27.022631299235,0.0 -52.9697823,-27.022416499235,0.0 -52.9697848,-27.022190399235,0.0 -52.9697807,-27.021954999235,0.0 -52.96977,-27.021713199235,0.0 -52.9697455,-27.021397699235,0.0 -52.969728,-27.021221499235,0.0 -52.9696965,-27.020977499235,0.0 -52.9696577,-27.020738299235,0.0 -52.9696117,-27.020506999235,0.0 -52.9695583,-27.020285899235,0.0 -52.9694981,-27.0200757992351,0.0 -52.9694317,-27.0198769992351,0.0 -52.9693597,-27.0196898992351,0.0 -52.9692829,-27.0195147992351,0.0 -52.9692017,-27.0193519992351,0.0 -52.969117,-27.0192018992351,0.0 -52.9690292,-27.0190648992351,0.0 -52.9689388,-27.0189405992351,0.0 -52.968845,-27.0188267992351,0.0 -52.9687467,-27.0187206992351,0.0 -52.968643,-27.0186194992351,0.0 -52.9685328,-27.0185200992351,0.0 -52.9684151,-27.0184198992351,0.0 -52.9682887,-27.0183158992351,0.0 -52.9679825,-27.0180667992351,0.0 -52.9676794,-27.0178238992351,0.0 -52.9674979,-27.0176834992351,0.0 -52.9673038,-27.0175383992351,0.0 -52.9670965,-27.0173899992351,0.0 -52.9668756,-27.0172392992351,0.0 -52.9666404,-27.0170875992351,0.0 -52.9663912,-27.0169359992351,0.0 -52.9661307,-27.0167856992351,0.0 -52.9658623,-27.0166377992351,0.0 -52.9655892,-27.0164932992351,0.0 -52.9653148,-27.0163532992351,0.0 -52.9649827,-27.0161901992351,0.0 -52.9647758,-27.0160910992351,0.0 -52.9644591,-27.0159445992351,0.0 -52.9642716,-27.0158596992351,0.0 -52.9640378,-27.0157561992351,0.0 -52.9634146,-27.0154848992351,0.0 -52.963234,-27.0154046992351,0.0 -52.9630555,-27.0153223992351,0.0 -52.9629155,-27.0152544992351,0.0 -52.9627778,-27.0151829992351,0.0 -52.9626937,-27.0151359992351,0.0 -52.9625418,-27.0150465992351,0.0 -52.9624408,-27.0149821992351,0.0 -52.9623495,-27.0149206992351,0.0 -52.9622667,-27.0148622992351,0.0 -52.962191,-27.0148070992351,0.0 -52.9619947,-27.0146622992351,0.0 -52.9618778,-27.0145780992352,0.0 -52.9617616,-27.0144969992352,0.0 -52.961701,-27.0144557992352,0.0 -52.9614944,-27.0143187992352,0.0 -52.9614114,-27.0142631992352,0.0 -52.9613178,-27.0141990992352,0.0 -52.9612115,-27.0141243992352,0.0 -52.9610904,-27.0140369992352,0.0 -52.9609525,-27.0139348992352,0.0 -52.9607957,-27.0138158992352,0.0 -52.9606186,-27.0136785992352,0.0 -52.9604228,-27.0135244992352,0.0 -52.9602108,-27.0133556992352,0.0 -52.959985,-27.0131741992352,0.0 -52.9597477,-27.0129822992352,0.0 -52.9595014,-27.0127820992352,0.0 -52.9582031,-27.0117171992352,0.0 -52.9579207,-27.0114853992352,0.0 -52.9576528,-27.0112656992352,0.0 -52.9574548,-27.0111038992352,0.0 -52.9557206,-27.0097011992352,0.0 -52.9551328,-27.0092247992353,0.0 -52.9548038,-27.0089554992353,0.0 -52.9545955,-27.0087830992353,0.0 -52.9543493,-27.0085772992353,0.0 -52.9538634,-27.0081657992353,0.0 -52.9535725,-27.0079130992353,0.0 -52.9532509,-27.0076278992353,0.0 -52.9530292,-27.0074279992353,0.0 -52.9527778,-27.0071968992353,0.0 -52.9524574,-27.0068944992353,0.0 -52.9523181,-27.0067607992353,0.0 -52.9521107,-27.0065568992353,0.0 -52.9519188,-27.0063631992353,0.0 -52.9517425,-27.0061786992353,0.0 -52.9516326,-27.0060582992353,0.0 -52.9514354,-27.0058324992353,0.0 -52.9513043,-27.0056684992353,0.0 -52.9511879,-27.0055089992353,0.0 -52.9511259,-27.0054141992353,0.0 -52.9509983,-27.0051988992353,0.0 -52.9509248,-27.0050460992353,0.0 -52.9508444,-27.0048296992353,0.0 -52.9508175,-27.0047438992353,0.0 -52.9507827,-27.0045947992353,0.0 -52.9507595,-27.0044471992354,0.0 -52.9507475,-27.0043011992354,0.0 -52.9507459,-27.0041569992354,0.0 -52.9507543,-27.0040146992354,0.0 -52.950766,-27.0039226992354,0.0 -52.9508004,-27.0037349992354,0.0 -52.95084,-27.0035964992354,0.0 -52.9508921,-27.0034579992354,0.0 -52.9509575,-27.0033187992354,0.0 -52.9510374,-27.0031780992354,0.0 -52.9511328,-27.0030353992354,0.0 -52.9512448,-27.0028897992354,0.0 -52.9513737,-27.0027409992354,0.0 -52.9515179,-27.0025891992354,0.0 -52.9516749,-27.0024346992354,0.0 -52.9518599,-27.0022621992354,0.0 -52.9520179,-27.0021193992354,0.0 -52.9521614,-27.0019927992354,0.0 -52.9525697,-27.0016364992354,0.0 -52.9527552,-27.0014738992354,0.0 -52.9529436,-27.0013075992354,0.0 -52.9539653,-27.0005965992354,0.0 -52.9548047,-27.0000027992354,0.0 -52.9566734,-26.9987704992355,0.0 -52.9600245,-26.9972837992355,0.0 -52.961959,-26.9963298992355,0.0 -52.9637601,-26.9958242992355,0.0 -52.9654269,-26.9956052992355,0.0 -52.9669341,-26.9953528992355,0.0 -52.9689365,-26.9949867992355,0.0 -52.9691969,-26.9948698992355,0.0 -52.9709219,-26.9940952992355,0.0 -52.9711129,-26.9940094992356,0.0 -52.9724895,-26.9931181992356,0.0 -52.9737627,-26.9919969992356,0.0 -52.9757417,-26.9902964992356,0.0 -52.9773693,-26.9885380992357,0.0 -52.9791966,-26.9861276992357,0.0 -52.9801522,-26.9844975992357,0.0 -52.9802884,-26.9836881992357,0.0 -52.9801779,-26.9816709992358,0.0 -52.9797498,-26.9801570992358,0.0 -52.9788092,-26.9779720992359,0.0 -52.9762415,-26.9744639992359,0.0 -52.9728673,-26.970983399236,0.0 -52.9714859,-26.969558299236,0.0 -52.9699944,-26.9679099992361,0.0 -52.9696397,-26.9675179992361,0.0 -52.9682158,-26.9659441992361,0.0 -52.9678747,-26.9656271992361,0.0 -52.9674863,-26.9652661992361,0.0 -52.9652431,-26.9631814992361,0.0 -52.9617925,-26.9597826992362,0.0 -52.9605239,-26.9583365992362,0.0 -52.9595972,-26.9572083992363,0.0 -52.9586612,-26.9562974992363,0.0 -52.9571166,-26.9548652992363,0.0 -52.9560639,-26.9541491992363,0.0 -52.9554807,-26.9537524992363,0.0 -52.9532224,-26.9520963992364,0.0 -52.9493143,-26.9499092992364,0.0 -52.9477605,-26.9492182992364,0.0 -52.945313,-26.9482124992364,0.0 -52.9421883,-26.9472870992365,0.0 -52.9393486,-26.9467589992365,0.0 -52.9374999,-26.9465535992365,0.0 -52.9370908,-26.9465948992365,0.0 -52.9363113,-26.9468360992365,0.0 -52.9351834,-26.9472506992365,0.0 -52.9349542,-26.9473997992365,0.0 -52.9345421,-26.9476676992364,0.0 -52.9343121,-26.9483479992364,0.0 -52.9342956,-26.9485133992364,0.0 -52.9342588,-26.9488831992364,0.0 -52.9346396,-26.9504108992364,0.0 -52.9350833,-26.9514425992364,0.0 -52.9356712,-26.9526247992363,0.0 -52.9367121,-26.9542341992363,0.0 -52.9375,-26.9555108992363,0.0 -52.9383943,-26.9566144992363,0.0 -52.9389711,-26.9575111992363,0.0 -52.9397401,-26.9583337992362,0.0 -52.9404091,-26.9592362992362,0.0 -52.941491,-26.9603352992362,0.0 -52.9424425,-26.9611895992362,0.0 -52.9432105,-26.9621303992362,0.0 -52.9435634,-26.9630537992362,0.0 -52.943709,-26.9639799992361,0.0 -52.9435411,-26.9647713992361,0.0 -52.943211,-26.9651050992361,0.0 -52.9430059,-26.9653124992361,0.0 -52.9421572,-26.9657186992361,0.0 -52.9412528,-26.9658935992361,0.0 -52.9406039,-26.9659024992361,0.0 -52.9400863,-26.9659095992361,0.0 -52.9391252,-26.9658067992361,0.0 -52.9374999,-26.9654899992361,0.0 -52.9364098,-26.9653949992361,0.0 -52.9344166,-26.9651940992361,0.0 -52.9335249,-26.9650961992361,0.0 -52.9307193,-26.9647881992361,0.0 -52.9274932,-26.9644666992361,0.0 -52.9268016,-26.9644968992361,0.0 -52.9249611,-26.9645773992361,0.0 -52.9226915,-26.9651257992361,0.0 -52.9201989,-26.9659400992361,0.0 -52.9172234,-26.9669851992361,0.0 -52.9145,-26.968185299236,0.0 -52.9139001,-26.968527399236,0.0 -52.9119564,-26.969635399236,0.0 -52.9089339,-26.971341799236,0.0 -52.9064247,-26.972821799236,0.0 -52.9052357,-26.9735546992359,0.0 -52.9043718,-26.9845142992357,0.0 -52.9041229,-26.9869601992357,0.0 -52.9032048,-26.9993615992355,0.0 -52.9030689,-27.0007061992354,0.0 -52.9021316,-27.0096585992353,0.0 -52.9008374,-27.025048499235,0.0 -52.9007918,-27.0255559992349,0.0 -52.9002387,-27.0317034992348,0.0 -52.9001646,-27.0325271992348,0.0 -52.9001179,-27.0330467992348,0.0 -52.9000558,-27.0336706992348,0.0 -52.9000477,-27.0337525992348,0.0 -52.8989626,-27.0446581992346,0.0 -52.896734,-27.0654099992342,0.0 -52.899303,-27.0653809992342,0.0 -52.8992354,-27.0661834992342,0.0 -52.8991677,-27.0669859992341,0.0 -52.8984033,-27.0861686992338,0.0 -52.8985823,-27.0861556992338,0.0 -52.8987375,-27.0861361992338,0.0 -52.898806,-27.0861194992338,0.0 -52.8989249,-27.0860904992338,0.0 -52.8990766,-27.0860478992338,0.0 -52.899244,-27.0860015992338,0.0 -52.8994201,-27.0859619992338,0.0 -52.8995393,-27.0859426992338,0.0 -52.8995856,-27.0859300992338,0.0 -52.8996871,-27.0859032992338,0.0 -52.8998279,-27.0858604992338,0.0 -52.8999738,-27.0858000992338,0.0 -52.9000972,-27.0857414992338,0.0 -52.9001624,-27.0857052992338,0.0 -52.900265,-27.0856544992338,0.0 -52.9002809,-27.0856466992338,0.0 -52.9004175,-27.0855770992338,0.0 -52.9005547,-27.0854997992338,0.0 -52.9006379,-27.0854485992338,0.0 -52.9006919,-27.0854045992338,0.0 -52.9007841,-27.0853327992338,0.0 -52.9008959,-27.0852447992338,0.0 -52.9010006,-27.0851507992338,0.0 -52.9010822,-27.0850722992338,0.0 -52.9011105,-27.0850458992338,0.0 -52.9011747,-27.0849929992338,0.0 -52.9016763,-27.0847466992338,0.0 -52.9017084,-27.0847336992338,0.0 -52.9017489,-27.0847175992338,0.0 -52.9017929,-27.0847017992338,0.0 -52.9018447,-27.0846819992338,0.0 -52.9019012,-27.0846615992338,0.0 -52.9019658,-27.0846454992338,0.0 -52.9020471,-27.0846353992338,0.0 -52.9021438,-27.0846281992338,0.0 -52.9022361,-27.0846230992338,0.0 -52.9022888,-27.0846169992338,0.0 -52.902328,-27.0846074992338,0.0 -52.9023993,-27.0845902992338,0.0 -52.9024986,-27.0845583992338,0.0 -52.9027345,-27.0844534992338,0.0 -52.9028151,-27.0844085992338,0.0 -52.902852,-27.0843806992338,0.0 -52.9028986,-27.0843459992338,0.0 -52.9029658,-27.0843019992338,0.0 -52.9030477,-27.0842588992338,0.0 -52.9031361,-27.0842194992338,0.0 -52.9032357,-27.0841872992338,0.0 -52.9032983,-27.0841656992338,0.0 -52.9033353,-27.0841461992338,0.0 -52.9033868,-27.0841131992338,0.0 -52.9033993,-27.0841033992338,0.0 -52.90345,-27.0840621992338,0.0 -52.9035055,-27.0839957992338,0.0 -52.9035611,-27.0839150992338,0.0 -52.9036045,-27.0838445992338,0.0 -52.9036218,-27.0838083992338,0.0 -52.9036282,-27.0837960992338,0.0 -52.9036558,-27.0837543992338,0.0 -52.9037005,-27.0836959992338,0.0 -52.9038309,-27.0835537992338,0.0 -52.9039032,-27.0834815992338,0.0 -52.9039141,-27.0834674992338,0.0 -52.9039366,-27.0834438992338,0.0 -52.9039623,-27.0834214992338,0.0 -52.903986,-27.0833987992338,0.0 -52.9040056,-27.0833795992338,0.0 -52.9040214,-27.0833651992338,0.0 -52.9040567,-27.0833367992338,0.0 -52.904096,-27.0833052992338,0.0 -52.904112,-27.0832964992338,0.0 -52.9041412,-27.0832732992338,0.0 -52.904185,-27.0832467992338,0.0 -52.9042393,-27.0832231992338,0.0 -52.9043011,-27.0832032992338,0.0 -52.9043645,-27.0831868992338,0.0 -52.9044305,-27.0831715992338,0.0 -52.9044965,-27.0831582992338,0.0 -52.9045606,-27.0831483992338,0.0 -52.904622,-27.0831388992338,0.0 -52.9046761,-27.0831282992338,0.0 -52.9047196,-27.0831149992338,0.0 -52.9047534,-27.0830970992338,0.0 -52.9047746,-27.0830773992338,0.0 -52.9047912,-27.0830509992338,0.0 -52.9047999,-27.0830190992338,0.0 -52.9048001,-27.0829871992338,0.0 -52.9047915,-27.0829536992338,0.0 -52.904766,-27.0829189992338,0.0 -52.9047253,-27.0828846992338,0.0 -52.9046732,-27.0828547992338,0.0 -52.9046125,-27.0828314992338,0.0 -52.9045545,-27.0828171992338,0.0 -52.9045046,-27.0828025992338,0.0 -52.9044626,-27.0827866992338,0.0 -52.9044355,-27.0827703992338,0.0 -52.9044219,-27.0827513992338,0.0 -52.9044189,-27.0827277992338,0.0 -52.9044221,-27.0826978992338,0.0 -52.9044324,-27.0826655992338,0.0 -52.9044491,-27.0826341992338,0.0 -52.9044687,-27.0826044992338,0.0 -52.9044909,-27.0825771992338,0.0 -52.9045175,-27.0825530992338,0.0 -52.9045456,-27.0825330992338,0.0 -52.904569,-27.0825176992339,0.0 -52.904589,-27.0825076992338,0.0 -52.9046079,-27.0824995992338,0.0 -52.9046245,-27.0824932992338,0.0 -52.9046416,-27.0824894992339,0.0 -52.9046603,-27.0824849992338,0.0 -52.9046801,-27.0824807992339,0.0 -52.9047008,-27.0824754992338,0.0 -52.9047206,-27.0824708992338,0.0 -52.9047397,-27.0824677992338,0.0 -52.9047556,-27.0824643992338,0.0 -52.9047688,-27.0824617992339,0.0 -52.904781,-27.0824567992338,0.0 -52.9047924,-27.0824516992338,0.0 -52.904803,-27.0824463992338,0.0 -52.9048168,-27.0824397992338,0.0 -52.9048238,-27.0824359992339,0.0 -52.904832,-27.0824303992338,0.0 -52.904858,-27.0824175992338,0.0 -52.9048691,-27.0824213992338,0.0 -52.9049739,-27.0824262992338,0.0 -52.9050139,-27.0824196992338,0.0 -52.9050521,-27.0824086992338,0.0 -52.9050865,-27.0823942992339,0.0 -52.9051253,-27.0823785992339,0.0 -52.9051685,-27.0823609992338,0.0 -52.90522,-27.0823409992338,0.0 -52.9052827,-27.0823188992339,0.0 -52.9053959,-27.0822831992338,0.0 -52.9054058,-27.0822774992339,0.0 -52.9054151,-27.0822702992339,0.0 -52.9054255,-27.0822591992339,0.0 -52.905433,-27.0822459992339,0.0 -52.9054376,-27.0822295992338,0.0 -52.9054384,-27.0822111992338,0.0 -52.905438,-27.0821902992339,0.0 -52.9054366,-27.0821672992339,0.0 -52.9054331,-27.0821395992339,0.0 -52.9054255,-27.0821037992338,0.0 -52.9054142,-27.0820634992339,0.0 -52.9054013,-27.0820227992339,0.0 -52.9053864,-27.0819857992339,0.0 -52.9053691,-27.0819549992339,0.0 -52.9053526,-27.0819269992339,0.0 -52.9053402,-27.0818989992339,0.0 -52.9053338,-27.0818713992339,0.0 -52.9053339,-27.0818439992339,0.0 -52.9053406,-27.0818210992339,0.0 -52.9053547,-27.0818014992339,0.0 -52.9053762,-27.0817860992339,0.0 -52.9054179,-27.0817720992339,0.0 -52.9054826,-27.0817610992339,0.0 -52.9055624,-27.0817530992339,0.0 -52.9056353,-27.0817453992339,0.0 -52.9056501,-27.0817434992339,0.0 -52.9056677,-27.0817407992339,0.0 -52.9056897,-27.0817364992339,0.0 -52.9057201,-27.0817318992339,0.0 -52.9057533,-27.0817261992339,0.0 -52.9057943,-27.0817237992339,0.0 -52.905839,-27.0817248992339,0.0 -52.9058883,-27.0817293992339,0.0 -52.9059361,-27.0817379992339,0.0 -52.9059853,-27.0817490992339,0.0 -52.9060338,-27.0817622992339,0.0 -52.9060834,-27.0817761992339,0.0 -52.9061306,-27.0817883992339,0.0 -52.9061909,-27.0818041992339,0.0 -52.9062696,-27.0818300992339,0.0 -52.9066173,-27.0819419992339,0.0 -52.9067252,-27.0819637992339,0.0 -52.9068017,-27.0819720992339,0.0 -52.9068861,-27.0819798992339,0.0 -52.9069698,-27.0819876992339,0.0 -52.9070483,-27.0819973992338,0.0 -52.9071274,-27.0820129992339,0.0 -52.9072086,-27.0820478992339,0.0 -52.9073015,-27.0821046992338,0.0 -52.9073721,-27.0821572992339,0.0 -52.9074589,-27.0822110992338,0.0 -52.9074764,-27.0822248992339,0.0 -52.9075288,-27.0822661992338,0.0 -52.9076073,-27.0823338992338,0.0 -52.9076956,-27.0824067992338,0.0 -52.9078689,-27.0825090992338,0.0 -52.9078901,-27.0825155992338,0.0 -52.9079337,-27.0825282992338,0.0 -52.9079797,-27.0825390992338,0.0 -52.9080226,-27.0825441992338,0.0 -52.908062,-27.0825450992338,0.0 -52.9080975,-27.0825449992338,0.0 -52.9081351,-27.0825491992338,0.0 -52.9081844,-27.0825631992338,0.0 -52.9082476,-27.0825931992338,0.0 -52.9085242,-27.0827591992338,0.0 -52.9085437,-27.0827726992338,0.0 -52.908598,-27.0828112992338,0.0 -52.9086613,-27.0828622992338,0.0 -52.9087304,-27.0829158992338,0.0 -52.9088842,-27.0830436992338,0.0 -52.9089625,-27.0831060992338,0.0 -52.9090283,-27.0831571992338,0.0 -52.9090484,-27.0831669992338,0.0 -52.9090872,-27.0831862992338,0.0 -52.9091345,-27.0832100992338,0.0 -52.9091939,-27.0832334992338,0.0 -52.9092598,-27.0832550992338,0.0 -52.9093208,-27.0832755992338,0.0 -52.9093835,-27.0833022992338,0.0 -52.9094383,-27.0833367992338,0.0 -52.9094432,-27.0833397992338,0.0 -52.9094979,-27.0833867992338,0.0 -52.909557,-27.0834513992338,0.0 -52.9096142,-27.0835202992338,0.0 -52.9096496,-27.0835649992338,0.0 -52.9096868,-27.0836049992338,0.0 -52.9097521,-27.0836723992338,0.0 -52.9098909,-27.0837868992338,0.0 -52.9099557,-27.0838356992338,0.0 -52.9100453,-27.0839020992338,0.0 -52.9100789,-27.0839148992338,0.0 -52.9101214,-27.0839220992338,0.0 -52.9101619,-27.0839220992338,0.0 -52.9102055,-27.0839160992338,0.0 -52.9102461,-27.0839033992338,0.0 -52.9102872,-27.0838852992338,0.0 -52.9103254,-27.0838628992338,0.0 -52.910362,-27.0838390992338,0.0 -52.9103991,-27.0838120992338,0.0 -52.9104385,-27.0837842992338,0.0 -52.9104837,-27.0837559992338,0.0 -52.9105449,-27.0837255992338,0.0 -52.9106163,-27.0836949992338,0.0 -52.9106853,-27.0836683992338,0.0 -52.9107083,-27.0836608992338,0.0 -52.9107556,-27.0836493992338,0.0 -52.9108187,-27.0836389992338,0.0 -52.9109029,-27.0836225992338,0.0 -52.9109996,-27.0836002992338,0.0 -52.9111045,-27.0835735992338,0.0 -52.9111813,-27.0835555992338,0.0 -52.911211,-27.0835447992338,0.0 -52.9112691,-27.0835241992338,0.0 -52.9113522,-27.0834962992338,0.0 -52.9114493,-27.0834624992338,0.0 -52.9115477,-27.0834297992338,0.0 -52.9116215,-27.0834074992338,0.0 -52.9116722,-27.0833857992338,0.0 -52.9117448,-27.0833628992338,0.0 -52.9118382,-27.0833366992338,0.0 -52.9119447,-27.0833144992338,0.0 -52.9120642,-27.0832972992338,0.0 -52.9121633,-27.0832881992338,0.0 -52.912217,-27.0832871992338,0.0 -52.9122615,-27.0832813992338,0.0 -52.9123411,-27.0832768992338,0.0 -52.9124544,-27.0832747992338,0.0 -52.9125867,-27.0832744992338,0.0 -52.9127066,-27.0832811992338,0.0 -52.9127856,-27.0832843992338,0.0 -52.9128149,-27.0832851992338,0.0 -52.9128698,-27.0832852992338,0.0 -52.9129276,-27.0832836992338,0.0 -52.9130029,-27.0832774992338,0.0 -52.9130927,-27.0832655992338,0.0 -52.9131958,-27.0832512992338,0.0 -52.9132843,-27.0832416992338,0.0 -52.9133347,-27.0832372992338,0.0 -52.9133751,-27.0832341992338,0.0 -52.9134367,-27.0832333992338,0.0 -52.9135141,-27.0832328992338,0.0 -52.9135458,-27.0832330992338,0.0 -52.9136082,-27.0832335992338,0.0 -52.9136992,-27.0832363992338,0.0 -52.9137409,-27.0832386992338,0.0 -52.9137699,-27.0832431992338,0.0 -52.91381,-27.0832579992338,0.0 -52.9138478,-27.0832772992338,0.0 -52.9138782,-27.0833096992338,0.0 -52.9138903,-27.0833365992338,0.0 -52.9139005,-27.0833591992338,0.0 -52.9139152,-27.0834395992338,0.0 -52.9139228,-27.0835355992338,0.0 -52.9139239,-27.0836077992338,0.0 -52.9139218,-27.0836394992338,0.0 -52.9139218,-27.0836794992338,0.0 -52.9139222,-27.0837211992338,0.0 -52.9139237,-27.0837602992338,0.0 -52.9139269,-27.0838008992338,0.0 -52.9139314,-27.0838430992338,0.0 -52.9139389,-27.0838890992338,0.0 -52.9139489,-27.0839343992338,0.0 -52.913952,-27.0839458992338,0.0 -52.9139535,-27.0839598992338,0.0 -52.9139594,-27.0839903992338,0.0 -52.9139654,-27.0840276992338,0.0 -52.9139715,-27.0840681992338,0.0 -52.9139798,-27.0841218992338,0.0 -52.9139889,-27.0841951992338,0.0 -52.9139958,-27.0842660992338,0.0 -52.9139951,-27.0842822992338,0.0 -52.9139922,-27.0843262992338,0.0 -52.9139839,-27.0843902992338,0.0 -52.9139634,-27.0844725992338,0.0 -52.9139371,-27.0845581992338,0.0 -52.91391,-27.0846318992338,0.0 -52.9138905,-27.0846839992338,0.0 -52.9138657,-27.0847611992338,0.0 -52.9138378,-27.0848426992338,0.0 -52.9138219,-27.0848981992338,0.0 -52.9138091,-27.0849233992338,0.0 -52.9137889,-27.0849633992338,0.0 -52.9137636,-27.0850071992338,0.0 -52.9137353,-27.0850483992338,0.0 -52.9137082,-27.0850852992338,0.0 -52.9136837,-27.0851181992338,0.0 -52.9136623,-27.0851471992338,0.0 -52.9136425,-27.0851721992338,0.0 -52.9136242,-27.0851948992338,0.0 -52.9136062,-27.0852167992338,0.0 -52.9135851,-27.0852423992338,0.0 -52.9135624,-27.0852714992338,0.0 -52.9135385,-27.0853033992338,0.0 -52.9135248,-27.0853300992338,0.0 -52.9135209,-27.0853439992338,0.0 -52.9135158,-27.0853690992338,0.0 -52.913513,-27.0853984992338,0.0 -52.9135146,-27.0854343992338,0.0 -52.9135245,-27.0854742992338,0.0 -52.9135464,-27.0855234992338,0.0 -52.9135722,-27.0855662992338,0.0 -52.913582,-27.0855810992338,0.0 -52.9136095,-27.0856152992338,0.0 -52.9136377,-27.0856525992338,0.0 -52.9136717,-27.0856923992338,0.0 -52.9137226,-27.0857397992338,0.0 -52.9137814,-27.0857832992338,0.0 -52.9138408,-27.0858245992338,0.0 -52.9138557,-27.0858363992338,0.0 -52.9138655,-27.0858420992338,0.0 -52.9138865,-27.0858541992338,0.0 -52.9139115,-27.0858681992338,0.0 -52.9139419,-27.0858818992338,0.0 -52.9139694,-27.0858947992338,0.0 -52.9139946,-27.0859076992338,0.0 -52.9140199,-27.0859222992338,0.0 -52.9140458,-27.0859382992338,0.0 -52.9140714,-27.0859523992338,0.0 -52.9140947,-27.0859646992338,0.0 -52.9141132,-27.0859733992338,0.0 -52.9141293,-27.0859806992338,0.0 -52.9141445,-27.0859864992338,0.0 -52.9141591,-27.0859911992338,0.0 -52.914172,-27.0859950992338,0.0 -52.9141784,-27.0859966992338,0.0 -52.9141897,-27.0859990992338,0.0 -52.9142116,-27.0860028992338,0.0 -52.9142348,-27.0860062992338,0.0 -52.9142592,-27.0860099992338,0.0 -52.9142833,-27.0860125992338,0.0 -52.9143081,-27.0860138992338,0.0 -52.9143331,-27.0860138992338,0.0 -52.9143572,-27.0860126992338,0.0 -52.9143825,-27.0860091992338,0.0 -52.9144091,-27.0860050992338,0.0 -52.9144364,-27.0860038992338,0.0 -52.9144685,-27.0860039992338,0.0 -52.9144991,-27.0860061992338,0.0 -52.9145299,-27.0860097992338,0.0 -52.914556,-27.0860122992338,0.0 -52.9145788,-27.0860128992338,0.0 -52.9146009,-27.0860099992338,0.0 -52.9146271,-27.0860024992338,0.0 -52.9146635,-27.0859880992338,0.0 -52.9147085,-27.0859664992338,0.0 -52.9147451,-27.0859467992338,0.0 -52.9147582,-27.0859416992338,0.0 -52.9147844,-27.0859332992338,0.0 -52.9148154,-27.0859244992338,0.0 -52.9148512,-27.0859147992338,0.0 -52.9148906,-27.0859084992338,0.0 -52.9149355,-27.0859035992338,0.0 -52.9149817,-27.0859020992338,0.0 -52.9150402,-27.0859024992338,0.0 -52.9151009,-27.0859053992338,0.0 -52.9151601,-27.0859129992338,0.0 -52.9151962,-27.0859201992338,0.0 -52.9152097,-27.0859225992338,0.0 -52.9152342,-27.0859271992338,0.0 -52.9152619,-27.0859313992338,0.0 -52.915296,-27.0859358992338,0.0 -52.9153343,-27.0859401992338,0.0 -52.9153735,-27.0859451992338,0.0 -52.9154176,-27.0859511992338,0.0 -52.9154634,-27.0859597992338,0.0 -52.915514,-27.0859717992338,0.0 -52.915562,-27.0859854992338,0.0 -52.9156157,-27.0860066992338,0.0 -52.9156765,-27.0860365992338,0.0 -52.9157416,-27.0860734992338,0.0 -52.9157922,-27.0861061992338,0.0 -52.9158065,-27.0861168992338,0.0 -52.9158338,-27.0861337992338,0.0 -52.9158883,-27.0861718992338,0.0 -52.915955,-27.0862259992338,0.0 -52.9160286,-27.0862937992338,0.0 -52.916099,-27.0863592992338,0.0 -52.9161508,-27.0864100992338,0.0 -52.9161801,-27.0864297992338,0.0 -52.9162209,-27.0864542992338,0.0 -52.9162634,-27.0864787992338,0.0 -52.9163152,-27.0865114992338,0.0 -52.916375,-27.0865549992338,0.0 -52.9164354,-27.0865993992338,0.0 -52.9164773,-27.0866289992338,0.0 -52.9164969,-27.0866488992338,0.0 -52.9165415,-27.0866885992338,0.0 -52.9166084,-27.0867379992338,0.0 -52.9166756,-27.0867845992338,0.0 -52.9167252,-27.0868135992338,0.0 -52.916741,-27.0868193992338,0.0 -52.9167752,-27.0868278992338,0.0 -52.9168242,-27.0868363992338,0.0 -52.9168779,-27.0868408992338,0.0 -52.9169418,-27.0868419992338,0.0 -52.9170098,-27.0868352992338,0.0 -52.917076,-27.0868180992338,0.0 -52.9171353,-27.0867927992338,0.0 -52.9171557,-27.0867812992338,0.0 -52.9171869,-27.0867629992338,0.0 -52.9172302,-27.0867379992338,0.0 -52.9172821,-27.0867110992338,0.0 -52.9173568,-27.0866835992338,0.0 -52.917445,-27.0866579992338,0.0 -52.9175435,-27.0866280992338,0.0 -52.9176218,-27.0866016992338,0.0 -52.9176412,-27.0865899992338,0.0 -52.9176765,-27.0865721992338,0.0 -52.9177294,-27.0865449992338,0.0 -52.9178001,-27.0865043992338,0.0 -52.9178701,-27.0864627992338,0.0 -52.9178862,-27.0864596992338,0.0 -52.9179062,-27.0864559992338,0.0 -52.9179333,-27.0864503992338,0.0 -52.9179631,-27.0864476992338,0.0 -52.9179922,-27.0864467992338,0.0 -52.9180245,-27.0864480992338,0.0 -52.9180583,-27.0864533992338,0.0 -52.9180901,-27.0864616992338,0.0 -52.9181245,-27.0864838992338,0.0 -52.9181327,-27.0864923992338,0.0 -52.918144,-27.0865142992338,0.0 -52.9181457,-27.0865385992338,0.0 -52.9181415,-27.0865635992338,0.0 -52.9181258,-27.0865915992338,0.0 -52.9181004,-27.0866242992338,0.0 -52.9180699,-27.0866600992338,0.0 -52.9180362,-27.0866992992338,0.0 -52.9179954,-27.0867397992338,0.0 -52.9179469,-27.0867856992338,0.0 -52.9178979,-27.0868349992338,0.0 -52.9178395,-27.0869075992338,0.0 -52.9177859,-27.0869985992338,0.0 -52.9177328,-27.0871209992338,0.0 -52.9177034,-27.0872284992338,0.0 -52.9177019,-27.0872591992338,0.0 -52.9177011,-27.0873304992338,0.0 -52.9177103,-27.0874259992338,0.0 -52.9177296,-27.0875392992338,0.0 -52.9177613,-27.0876627992338,0.0 -52.917781,-27.0877279992337,0.0 -52.9177865,-27.0877446992337,0.0 -52.9177972,-27.0877665992337,0.0 -52.9178013,-27.0877804992337,0.0 -52.9178129,-27.0878019992337,0.0 -52.9178334,-27.0878306992337,0.0 -52.9178664,-27.0878711992337,0.0 -52.9179105,-27.0879177992337,0.0 -52.9179575,-27.0879646992337,0.0 -52.917994,-27.0879989992337,0.0 -52.9180193,-27.0880252992337,0.0 -52.9180493,-27.0880619992337,0.0 -52.9180769,-27.0881073992337,0.0 -52.9181009,-27.0881710992337,0.0 -52.9181219,-27.0882539992337,0.0 -52.9181405,-27.0883440992337,0.0 -52.9181477,-27.0883920992337,0.0 -52.9181537,-27.0884270992337,0.0 -52.9181586,-27.0884889992337,0.0 -52.9181636,-27.0885827992337,0.0 -52.9181679,-27.0886965992337,0.0 -52.9181742,-27.0887865992337,0.0 -52.9181758,-27.0888088992337,0.0 -52.9181902,-27.0888807992337,0.0 -52.9182201,-27.0889895992337,0.0 -52.9182539,-27.0891038992337,0.0 -52.9182818,-27.0891947992337,0.0 -52.9182853,-27.0892094992337,0.0 -52.9182998,-27.0892443992337,0.0 -52.9183206,-27.0892941992337,0.0 -52.9183495,-27.0893610992337,0.0 -52.9183796,-27.0894266992337,0.0 -52.9183994,-27.0894681992337,0.0 -52.9184107,-27.0894931992337,0.0 -52.918439,-27.0895478992337,0.0 -52.9184668,-27.0895984992337,0.0 -52.9184986,-27.0896516992337,0.0 -52.9185363,-27.0896992992337,0.0 -52.9185805,-27.0897342992337,0.0 -52.9186303,-27.0897539992337,0.0 -52.9186424,-27.0897578992337,0.0 -52.9186748,-27.0897617992337,0.0 -52.9187224,-27.0897646992337,0.0 -52.9187774,-27.0897607992337,0.0 -52.9188432,-27.0897503992337,0.0 -52.9189235,-27.0897286992337,0.0 -52.9190055,-27.0896954992337,0.0 -52.91907,-27.0896596992337,0.0 -52.9190841,-27.0896504992337,0.0 -52.9191209,-27.0896270992337,0.0 -52.9191692,-27.0895931992337,0.0 -52.9192175,-27.0895534992337,0.0 -52.9192695,-27.0895075992337,0.0 -52.919321,-27.0894648992337,0.0 -52.9193743,-27.0894204992337,0.0 -52.9194248,-27.0893775992337,0.0 -52.9194717,-27.0893378992337,0.0 -52.9195168,-27.0892995992337,0.0 -52.9195512,-27.0892684992337,0.0 -52.9195691,-27.0892508992337,0.0 -52.9195808,-27.0892390992337,0.0 -52.9196207,-27.0892005992337,0.0 -52.9196504,-27.0891732992337,0.0 -52.9197137,-27.0891172992337,0.0 -52.9197982,-27.0890500992337,0.0 -52.9198899,-27.0889766992337,0.0 -52.9199554,-27.0889165992337,0.0 -52.9199914,-27.0888794992337,0.0 -52.9200507,-27.0888173992337,0.0 -52.9201257,-27.0887318992337,0.0 -52.9201905,-27.0886395992337,0.0 -52.9202393,-27.0885551992337,0.0 -52.9202676,-27.0885086992337,0.0 -52.9203003,-27.0884386992337,0.0 -52.9203315,-27.0883499992337,0.0 -52.9203509,-27.0882637992337,0.0 -52.9203537,-27.0882162992337,0.0 -52.9203502,-27.0881639992337,0.0 -52.9203436,-27.0881016992337,0.0 -52.9203351,-27.0880260992337,0.0 -52.9203283,-27.0879536992337,0.0 -52.920327,-27.0879143992337,0.0 -52.9203321,-27.0878685992338,0.0 -52.9203398,-27.0877946992338,0.0 -52.9203597,-27.0877029992337,0.0 -52.9203867,-27.0876137992337,0.0 -52.9204102,-27.0875390992338,0.0 -52.9204199,-27.0875102992337,0.0 -52.9204346,-27.0874735992337,0.0 -52.920456,-27.0874352992337,0.0 -52.9204807,-27.0874001992337,0.0 -52.9205055,-27.0873687992338,0.0 -52.9205337,-27.0873416992338,0.0 -52.9205639,-27.0873211992338,0.0 -52.9205987,-27.0873028992338,0.0 -52.9206362,-27.0872879992338,0.0 -52.9206747,-27.0872783992338,0.0 -52.9207198,-27.0872725992338,0.0 -52.9207716,-27.0872725992338,0.0 -52.9208302,-27.0872772992338,0.0 -52.9208759,-27.0872859992338,0.0 -52.9208938,-27.0872893992338,0.0 -52.9209114,-27.0872965992338,0.0 -52.9209697,-27.0873160992338,0.0 -52.9210716,-27.0873474992338,0.0 -52.9211954,-27.0873792992338,0.0 -52.9213375,-27.0874148992338,0.0 -52.9214611,-27.0874510992337,0.0 -52.9215083,-27.0874791992338,0.0 -52.9216068,-27.0875328992338,0.0 -52.9217374,-27.0876067992338,0.0 -52.9218705,-27.0876858992338,0.0 -52.9219923,-27.0877573992337,0.0 -52.9220553,-27.0877984992337,0.0 -52.9220876,-27.0878273992337,0.0 -52.9221753,-27.0878867992337,0.0 -52.9222994,-27.0879593992337,0.0 -52.9224436,-27.0880316992337,0.0 -52.92255,-27.0880779992337,0.0 -52.9226134,-27.0881198992337,0.0 -52.9227237,-27.0881800992337,0.0 -52.9228656,-27.0882517992337,0.0 -52.9230152,-27.0883210992337,0.0 -52.9231403,-27.0883800992337,0.0 -52.9231704,-27.0883959992337,0.0 -52.9232475,-27.0884301992337,0.0 -52.9233645,-27.0884759992337,0.0 -52.9235048,-27.0885306992337,0.0 -52.9236046,-27.0885728992337,0.0 -52.9236416,-27.0885938992337,0.0 -52.9236945,-27.0886180992337,0.0 -52.9237554,-27.0886391992337,0.0 -52.9238113,-27.0886496992337,0.0 -52.9238689,-27.0886547992337,0.0 -52.9239325,-27.0886498992337,0.0 -52.9239919,-27.0886331992337,0.0 -52.9240369,-27.0886100992337,0.0 -52.9240695,-27.0885929992337,0.0 -52.9241194,-27.0885723992337,0.0 -52.9241694,-27.0885541992337,0.0 -52.92422,-27.0885320992337,0.0 -52.9242662,-27.0885055992337,0.0 -52.9243085,-27.0884741992337,0.0 -52.9243505,-27.0884305992337,0.0 -52.9243882,-27.0883723992337,0.0 -52.9244203,-27.0883055992337,0.0 -52.9244407,-27.0882346992337,0.0 -52.9244466,-27.0881821992337,0.0 -52.9244667,-27.0881283992337,0.0 -52.9244986,-27.0880684992337,0.0 -52.9245359,-27.0880044992337,0.0 -52.9245745,-27.0879407992337,0.0 -52.9246037,-27.0878751992337,0.0 -52.9246144,-27.0878050992337,0.0 -52.924614,-27.0877466992337,0.0 -52.9246131,-27.0877055992337,0.0 -52.9246232,-27.0876525992337,0.0 -52.9246486,-27.0875913992337,0.0 -52.9246841,-27.0875204992338,0.0 -52.9247249,-27.0874367992338,0.0 -52.9247567,-27.0873615992338,0.0 -52.9247721,-27.0873283992338,0.0 -52.9247923,-27.0872790992338,0.0 -52.9248106,-27.0872162992338,0.0 -52.9248218,-27.0871530992338,0.0 -52.924824,-27.0870836992338,0.0 -52.9248111,-27.0870115992338,0.0 -52.9247761,-27.0869364992338,0.0 -52.9247301,-27.0868635992338,0.0 -52.9246858,-27.0868042992338,0.0 -52.9246683,-27.0867736992338,0.0 -52.9246439,-27.0867266992338,0.0 -52.9246243,-27.0866732992338,0.0 -52.924615,-27.0866219992338,0.0 -52.9246162,-27.0865730992338,0.0 -52.9246339,-27.0865305992338,0.0 -52.9246654,-27.0864941992338,0.0 -52.924724,-27.0864563992338,0.0 -52.9248044,-27.0864259992338,0.0 -52.9249003,-27.0864086992338,0.0 -52.9249915,-27.0863971992338,0.0 -52.9250225,-27.0863945992338,0.0 -52.9251094,-27.0863941992338,0.0 -52.9252317,-27.0863979992338,0.0 -52.92537,-27.0863971992338,0.0 -52.925506,-27.0863831992338,0.0 -52.9255598,-27.0863731992338,0.0 -52.9256282,-27.0863557992338,0.0 -52.9256861,-27.0863289992338,0.0 -52.9257353,-27.0862910992338,0.0 -52.9257753,-27.0862478992338,0.0 -52.9258138,-27.0862046992338,0.0 -52.925857,-27.0861578992338,0.0 -52.9259112,-27.0861126992338,0.0 -52.9259652,-27.0860720992338,0.0 -52.9260035,-27.0860363992338,0.0 -52.9260381,-27.0859929992338,0.0 -52.9260747,-27.0859278992338,0.0 -52.9261113,-27.0858487992338,0.0 -52.9261492,-27.0857668992338,0.0 -52.9261853,-27.0856942992338,0.0 -52.9262014,-27.0856635992338,0.0 -52.9262333,-27.0856170992338,0.0 -52.9262835,-27.0855504992338,0.0 -52.9265497,-27.0852631992338,0.0 -52.926563,-27.0852522992338,0.0 -52.9265808,-27.0852377992338,0.0 -52.9266101,-27.0852082992338,0.0 -52.9266536,-27.0851592992338,0.0 -52.9266975,-27.0850997992338,0.0 -52.9267647,-27.0849883992338,0.0 -52.9267796,-27.0849455992338,0.0 -52.9267938,-27.0848903992338,0.0 -52.9268011,-27.0848275992338,0.0 -52.9268045,-27.0847629992338,0.0 -52.9268152,-27.0846954992338,0.0 -52.9268381,-27.0846354992338,0.0 -52.9268746,-27.0845786992338,0.0 -52.9269209,-27.0845263992338,0.0 -52.9269593,-27.0844950992338,0.0 -52.9269813,-27.0844801992338,0.0 -52.9270134,-27.0844584992338,0.0 -52.9270726,-27.0844212992338,0.0 -52.927126,-27.0843835992338,0.0 -52.927181,-27.0843409992338,0.0 -52.9272323,-27.0842975992338,0.0 -52.9272744,-27.0842574992338,0.0 -52.927319,-27.0842181992338,0.0 -52.9273684,-27.0841860992338,0.0 -52.9274224,-27.0841610992338,0.0 -52.9274795,-27.0841412992338,0.0 -52.9275249,-27.0841322992338,0.0 -52.9275903,-27.0841247992338,0.0 -52.9276622,-27.0841182992338,0.0 -52.9277301,-27.0841184992338,0.0 -52.9277998,-27.0841284992338,0.0 -52.9278653,-27.0841541992338,0.0 -52.9279264,-27.0841940992338,0.0 -52.9280017,-27.0842531992338,0.0 -52.928071,-27.0843154992338,0.0 -52.9280809,-27.0843349992338,0.0 -52.9281139,-27.0843788992338,0.0 -52.9281551,-27.0844286992338,0.0 -52.9281998,-27.0844773992338,0.0 -52.9282428,-27.0845190992338,0.0 -52.9282824,-27.0845694992338,0.0 -52.928314,-27.0846377992338,0.0 -52.9283337,-27.0847206992338,0.0 -52.9283421,-27.0848051992338,0.0 -52.9283447,-27.0848481992338,0.0 -52.9283467,-27.0849184992338,0.0 -52.9283461,-27.0849947992338,0.0 -52.9283404,-27.0850818992338,0.0 -52.9283378,-27.0851654992338,0.0 -52.9283434,-27.0852258992338,0.0 -52.9283454,-27.0852414992338,0.0 -52.9283554,-27.0852737992338,0.0 -52.9283727,-27.0853140992338,0.0 -52.9283993,-27.0853520992338,0.0 -52.9284411,-27.0853851992338,0.0 -52.9284952,-27.0854075992338,0.0 -52.9285698,-27.0854178992338,0.0 -52.9286529,-27.0854088992338,0.0 -52.9287084,-27.0853858992338,0.0 -52.9287331,-27.0853742992338,0.0 -52.9287603,-27.0853612992338,0.0 -52.9287871,-27.0853429992338,0.0 -52.9288124,-27.0853194992338,0.0 -52.9288323,-27.0852975992338,0.0 -52.9288489,-27.0852757992338,0.0 -52.9288645,-27.0852553992338,0.0 -52.9288837,-27.0852320992338,0.0 -52.9289073,-27.0852062992338,0.0 -52.9289336,-27.0851795992338,0.0 -52.9289656,-27.0851539992338,0.0 -52.9290021,-27.0851339992338,0.0 -52.9290488,-27.0851207992338,0.0 -52.9291132,-27.0851153992338,0.0 -52.9291782,-27.0851189992338,0.0 -52.9292023,-27.0851236992338,0.0 -52.9292619,-27.0851447992338,0.0 -52.9293514,-27.0851796992338,0.0 -52.9294611,-27.0852179992338,0.0 -52.9295687,-27.0852482992338,0.0 -52.9296436,-27.0852715992338,0.0 -52.9296686,-27.0852852992338,0.0 -52.9297239,-27.0853044992338,0.0 -52.9298175,-27.0853224992338,0.0 -52.9299397,-27.0853294992338,0.0 -52.9300544,-27.0853223992338,0.0 -52.9301203,-27.0853017992338,0.0 -52.9301477,-27.0852930992338,0.0 -52.9301927,-27.0852790992338,0.0 -52.9302579,-27.0852669992338,0.0 -52.9303437,-27.0852592992338,0.0 -52.930446,-27.0852646992338,0.0 -52.9305623,-27.0852819992338,0.0 -52.9306582,-27.0853028992338,0.0 -52.9306745,-27.0853056992338,0.0 -52.9307353,-27.0853101992338,0.0 -52.9308457,-27.0853153992338,0.0 -52.9309694,-27.0853165992338,0.0 -52.9310469,-27.0853157992338,0.0 -52.9310661,-27.0853173992338,0.0 -52.931102,-27.0853252992338,0.0 -52.9311411,-27.0853340992338,0.0 -52.931182,-27.0853462992338,0.0 -52.931222,-27.0853607992338,0.0 -52.9312594,-27.0853771992338,0.0 -52.931294,-27.0853961992338,0.0 -52.9313235,-27.0854181992338,0.0 -52.9313528,-27.0854494992338,0.0 -52.9313801,-27.0854982992338,0.0 -52.9314078,-27.0855754992338,0.0 -52.931429,-27.0856635992338,0.0 -52.9314269,-27.0857210992338,0.0 -52.9314171,-27.0858008992338,0.0 -52.9313843,-27.0858987992338,0.0 -52.9313256,-27.0860077992338,0.0 -52.9312697,-27.0861009992338,0.0 -52.9312554,-27.0861239992338,0.0 -52.9312232,-27.0861809992338,0.0 -52.9311776,-27.0862571992338,0.0 -52.931109,-27.0863500992338,0.0 -52.9310186,-27.0864524992338,0.0 -52.930949,-27.0865174992338,0.0 -52.9309043,-27.0865671992338,0.0 -52.9308385,-27.0866571992338,0.0 -52.9307771,-27.0867615992338,0.0 -52.9307389,-27.0868500992338,0.0 -52.9307266,-27.0868976992338,0.0 -52.9307162,-27.0870069992338,0.0 -52.9307132,-27.0871382992338,0.0 -52.9307176,-27.0872653992338,0.0 -52.9307163,-27.0872767992338,0.0 -52.9307112,-27.0873163992337,0.0 -52.9307013,-27.0873600992337,0.0 -52.9306809,-27.0874084992337,0.0 -52.93065,-27.0874552992338,0.0 -52.9306218,-27.0875045992337,0.0 -52.9306139,-27.0875602992337,0.0 -52.9306283,-27.0876272992338,0.0 -52.9306389,-27.0876700992337,0.0 -52.9306391,-27.0876793992337,0.0 -52.9306469,-27.0877369992338,0.0 -52.9306741,-27.0879799992337,0.0 -52.9306675,-27.0880953992337,0.0 -52.9306581,-27.0881219992337,0.0 -52.930635,-27.0881781992337,0.0 -52.9306034,-27.0882357992337,0.0 -52.9305603,-27.0882985992337,0.0 -52.9305166,-27.0883743992337,0.0 -52.9304825,-27.0884682992337,0.0 -52.9304721,-27.0885407992337,0.0 -52.930468,-27.0886044992337,0.0 -52.9304733,-27.0887201992337,0.0 -52.9304963,-27.0888372992337,0.0 -52.9305275,-27.0889138992337,0.0 -52.9305344,-27.0889285992337,0.0 -52.9305764,-27.0889816992337,0.0 -52.9306538,-27.0890734992337,0.0 -52.93073,-27.0891693992337,0.0 -52.9307782,-27.0892362992337,0.0 -52.930808,-27.0892722992337,0.0 -52.9308672,-27.0893511992337,0.0 -52.930934,-27.0894568992337,0.0 -52.930982,-27.0895423992337,0.0 -52.9309858,-27.0895518992337,0.0 -52.931014,-27.0895991992337,0.0 -52.9310588,-27.0896838992337,0.0 -52.9311085,-27.0897817992337,0.0 -52.9311528,-27.0898751992337,0.0 -52.9311709,-27.0898951992337,0.0 -52.9312082,-27.0899311992337,0.0 -52.9312494,-27.0899686992337,0.0 -52.9313034,-27.0900126992337,0.0 -52.9313586,-27.0900496992337,0.0 -52.931413,-27.0900818992337,0.0 -52.9314366,-27.0900912992337,0.0 -52.9314775,-27.0901013992337,0.0 -52.9315288,-27.0901046992337,0.0 -52.9315874,-27.0901002992337,0.0 -52.9316572,-27.0900874992337,0.0 -52.9317257,-27.0900679992337,0.0 -52.9317709,-27.0900446992337,0.0 -52.9317975,-27.0900234992337,0.0 -52.9318297,-27.0899884992337,0.0 -52.9318593,-27.0899315992337,0.0 -52.93188,-27.0898559992337,0.0 -52.9318997,-27.0897660992337,0.0 -52.9319124,-27.0896842992337,0.0 -52.9319218,-27.0896375992337,0.0 -52.9319491,-27.0895765992337,0.0 -52.9320001,-27.0895055992337,0.0 -52.9320667,-27.0894260992337,0.0 -52.9321316,-27.0893532992337,0.0 -52.9321467,-27.0893357992337,0.0 -52.9321665,-27.0893132992337,0.0 -52.9321895,-27.0892866992337,0.0 -52.9322197,-27.0892531992337,0.0 -52.9322539,-27.0892196992337,0.0 -52.9322984,-27.0891856992337,0.0 -52.9323622,-27.0891470992337,0.0 -52.9324418,-27.0891120992337,0.0 -52.932546,-27.0890778992337,0.0 -52.9325912,-27.0890653992337,0.0 -52.9326403,-27.0890517992337,0.0 -52.9326864,-27.0890414992337,0.0 -52.9327711,-27.0890292992337,0.0 -52.9328946,-27.0890001992337,0.0 -52.9330326,-27.0889571992337,0.0 -52.9331665,-27.0889063992337,0.0 -52.9332116,-27.0888935992337,0.0 -52.93329,-27.0888779992337,0.0 -52.9333978,-27.0888550992337,0.0 -52.9335336,-27.0888274992337,0.0 -52.9336691,-27.0888109992337,0.0 -52.9337512,-27.0888111992337,0.0 -52.9338186,-27.0888184992337,0.0 -52.9339311,-27.0888401992337,0.0 -52.9340795,-27.0888814992337,0.0 -52.9342327,-27.0889344992337,0.0 -52.9343579,-27.0889826992337,0.0 -52.9344134,-27.0890055992337,0.0 -52.9345098,-27.0890446992337,0.0 -52.934641,-27.0890967992337,0.0 -52.9347689,-27.0891486992337,0.0 -52.9348283,-27.0891740992337,0.0 -52.9348577,-27.0891943992337,0.0 -52.9349059,-27.0892368992337,0.0 -52.9349573,-27.0893022992337,0.0 -52.9350012,-27.0893907992337,0.0 -52.9350334,-27.0894910992337,0.0 -52.9350339,-27.0895093992337,0.0 -52.9350304,-27.0895617992337,0.0 -52.9350133,-27.0896363992337,0.0 -52.9349769,-27.0897181992337,0.0 -52.9349313,-27.0897952992337,0.0 -52.9349203,-27.0898108992337,0.0 -52.9349001,-27.0898307992337,0.0 -52.9348753,-27.0898483992337,0.0 -52.9348495,-27.0898663992337,0.0 -52.9348259,-27.0898828992337,0.0 -52.9348042,-27.0898975992337,0.0 -52.9347877,-27.0899106992337,0.0 -52.9347732,-27.0899237992337,0.0 -52.9347596,-27.0899370992337,0.0 -52.9347441,-27.0899519992337,0.0 -52.9347276,-27.0899653992337,0.0 -52.9347094,-27.0899776992337,0.0 -52.9346937,-27.0899843992337,0.0 -52.9346804,-27.0899866992337,0.0 -52.9346692,-27.0899900992337,0.0 -52.934659,-27.0899969992337,0.0 -52.9346431,-27.0900098992337,0.0 -52.934622,-27.0900334992337,0.0 -52.9345968,-27.0900743992337,0.0 -52.9345784,-27.0901276992337,0.0 -52.9345707,-27.0902148992337,0.0 -52.9345668,-27.0903232992337,0.0 -52.9345687,-27.0904410992337,0.0 -52.9345701,-27.0904947992337,0.0 -52.9345645,-27.0905404992337,0.0 -52.9345557,-27.0906327992337,0.0 -52.9345356,-27.0907550992337,0.0 -52.934516,-27.0908713992337,0.0 -52.9345136,-27.0909163992337,0.0 -52.934507,-27.0909589992337,0.0 -52.9345061,-27.0910599992337,0.0 -52.9345172,-27.0911941992337,0.0 -52.9345412,-27.0913167992337,0.0 -52.9345422,-27.0913286992337,0.0 -52.9345886,-27.0917886992337,0.0 -52.9345858,-27.0918041992337,0.0 -52.9345742,-27.0918458992337,0.0 -52.9345484,-27.0919100992337,0.0 -52.9345055,-27.0919928992337,0.0 -52.9344394,-27.0920920992337,0.0 -52.9343687,-27.0921676992337,0.0 -52.9343439,-27.0922099992337,0.0 -52.9343127,-27.0922898992337,0.0 -52.934309,-27.0926252992337,0.0 -52.9343148,-27.0926611992337,0.0 -52.9343516,-27.0927518992336,0.0 -52.9344141,-27.0928683992336,0.0 -52.9344777,-27.0929648992336,0.0 -52.9344848,-27.0929737992336,0.0 -52.9345169,-27.0929988992336,0.0 -52.934575,-27.0930353992336,0.0 -52.9346404,-27.0930775992336,0.0 -52.9346554,-27.0930888992336,0.0 -52.9347109,-27.0931308992336,0.0 -52.9347212,-27.0931382992336,0.0 -52.9347499,-27.0931570992336,0.0 -52.9347897,-27.0931776992336,0.0 -52.9348324,-27.0931962992336,0.0 -52.9348825,-27.0932122992336,0.0 -52.934933,-27.0932210992336,0.0 -52.9349853,-27.0932257992336,0.0 -52.9350421,-27.0932248992336,0.0 -52.9351045,-27.0932162992336,0.0 -52.9351411,-27.0932044992336,0.0 -52.9351568,-27.0931939992336,0.0 -52.9351841,-27.0931716992336,0.0 -52.9352129,-27.0931442992336,0.0 -52.9352446,-27.0931073992336,0.0 -52.9352708,-27.0930663992336,0.0 -52.9352958,-27.0930205992336,0.0 -52.9353189,-27.0929742992336,0.0 -52.9353503,-27.0929227992336,0.0 -52.93539,-27.0928655992337,0.0 -52.9354372,-27.0928009992337,0.0 -52.9354759,-27.0927432992337,0.0 -52.9355011,-27.0927156992336,0.0 -52.935548,-27.0926606992337,0.0 -52.935613,-27.0925907992337,0.0 -52.9356943,-27.0925141992337,0.0 -52.935783,-27.0924338992337,0.0 -52.9358359,-27.0923868992337,0.0 -52.9358735,-27.0923480992337,0.0 -52.9359363,-27.0922970992337,0.0 -52.936029,-27.0922317992337,0.0 -52.9361231,-27.0921597992337,0.0 -52.9361765,-27.0921052992337,0.0 -52.9361919,-27.0920866992337,0.0 -52.9362123,-27.0920617992337,0.0 -52.9362335,-27.0920302992337,0.0 -52.9362549,-27.0919917992337,0.0 -52.9362765,-27.0919518992337,0.0 -52.9363032,-27.0919082992337,0.0 -52.9363377,-27.0918643992337,0.0 -52.9363864,-27.0918162992337,0.0 -52.9364371,-27.0917701992337,0.0 -52.9364743,-27.0917318992337,0.0 -52.9364978,-27.0917110992337,0.0 -52.9365338,-27.0916853992337,0.0 -52.9365842,-27.0916546992337,0.0 -52.9366411,-27.0916235992337,0.0 -52.9366968,-27.0915967992337,0.0 -52.9367525,-27.0915776992337,0.0 -52.9367887,-27.0915704992337,0.0 -52.9368038,-27.0915675992337,0.0 -52.9368543,-27.0915626992337,0.0 -52.9369052,-27.0915615992337,0.0 -52.9369543,-27.0915666992337,0.0 -52.9369987,-27.0915764992337,0.0 -52.9370403,-27.0915932992337,0.0 -52.9370766,-27.0916145992337,0.0 -52.9371075,-27.0916312992337,0.0 -52.9371398,-27.0916503992337,0.0 -52.9371762,-27.0916739992337,0.0 -52.9372089,-27.0916958992337,0.0 -52.9372301,-27.0917182992337,0.0 -52.9372719,-27.0917590992337,0.0 -52.9373274,-27.0918184992337,0.0 -52.9374015,-27.0919003992337,0.0 -52.937486,-27.0919940992337,0.0 -52.9374999,-27.0920088992337,0.0 -52.9375534,-27.0920658992337,0.0 -52.9375864,-27.0920900992337,0.0 -52.9376472,-27.0921351992337,0.0 -52.9377528,-27.0922124992336,0.0 -52.9378716,-27.0922980992337,0.0 -52.9379607,-27.0923639992337,0.0 -52.9379977,-27.0923922992337,0.0 -52.938037,-27.0924245992337,0.0 -52.9380714,-27.0924531992336,0.0 -52.9381019,-27.0924792992337,0.0 -52.9381277,-27.0925026992337,0.0 -52.9381432,-27.0925146992337,0.0 -52.9381632,-27.0925297992337,0.0 -52.9381995,-27.0925609992337,0.0 -52.9382433,-27.0925898992337,0.0 -52.938253,-27.0925944992337,0.0 -52.9382692,-27.0925986992336,0.0 -52.9382924,-27.0925998992337,0.0 -52.9383217,-27.0925932992337,0.0 -52.9383571,-27.0925733992337,0.0 -52.9384299,-27.0925286992337,0.0 -52.9385688,-27.0924282992337,0.0 -52.938654,-27.0923666992337,0.0 -52.9387863,-27.0922342992337,0.0 -52.938906,-27.0921098992337,0.0 -52.9389465,-27.0920564992337,0.0 -52.9389951,-27.0919630992337,0.0 -52.939023,-27.0918739992337,0.0 -52.9390552,-27.0917793992337,0.0 -52.9390766,-27.0917318992337,0.0 -52.9390974,-27.0917079992337,0.0 -52.9391332,-27.0916799992337,0.0 -52.9391985,-27.0916487992337,0.0 -52.9392541,-27.0916251992337,0.0 -52.9392878,-27.0916120992337,0.0 -52.9393193,-27.0916077992337,0.0 -52.9393708,-27.0916066992337,0.0 -52.9394112,-27.0916018992337,0.0 -52.9394401,-27.0915863992337,0.0 -52.9394616,-27.0915648992337,0.0 -52.939475,-27.0915374992337,0.0 -52.9394919,-27.0914729992337,0.0 -52.9395152,-27.0913826992337,0.0 -52.9395329,-27.0913209992337,0.0 -52.9395705,-27.0912135992337,0.0 -52.939622,-27.0911152992337,0.0 -52.9396429,-27.0910802992337,0.0 -52.9396994,-27.0910053992337,0.0 -52.9397545,-27.0909424992337,0.0 -52.9397921,-27.0909049992337,0.0 -52.9398239,-27.0908784992337,0.0 -52.9399086,-27.0908155992337,0.0 -52.940054,-27.0907099992337,0.0 -52.9402898,-27.0905446992337,0.0 -52.9404404,-27.0904341992337,0.0 -52.9406445,-27.0902632992337,0.0 -52.9407938,-27.0901066992337,0.0 -52.9409364,-27.0899385992337,0.0 -52.9409851,-27.0898835992337,0.0 -52.9410931,-27.0897509992337,0.0 -52.9411418,-27.0896557992337,0.0 -52.9412002,-27.0895830992337,0.0 -52.9412439,-27.0895454992337,0.0 -52.94128,-27.0895254992337,0.0 -52.9413705,-27.0894921992337,0.0 -52.9414431,-27.0894753992337,0.0 -52.9414841,-27.0894625992337,0.0 -52.9415416,-27.0894393992337,0.0 -52.9415967,-27.0894269992337,0.0 -52.9416372,-27.0894248992337,0.0 -52.941672,-27.0894351992337,0.0 -52.9417077,-27.0894509992337,0.0 -52.9417516,-27.0894837992337,0.0 -52.9418431,-27.0895799992337,0.0 -52.9419993,-27.0897110992337,0.0 -52.9421833,-27.0898561992337,0.0 -52.942272,-27.0899279992337,0.0 -52.9423116,-27.0899668992337,0.0 -52.942444,-27.0901281992337,0.0 -52.9424894,-27.0901989992337,0.0 -52.9427057,-27.0904101992337,0.0 -52.9427981,-27.0904981992337,0.0 -52.9429691,-27.0906434992337,0.0 -52.9430777,-27.0907538992337,0.0 -52.9433511,-27.0911191992337,0.0 -52.9434493,-27.0913151992337,0.0 -52.943531,-27.0915583992337,0.0 -52.9435494,-27.0916516992337,0.0 -52.9435823,-27.0921548992337,0.0 -52.943605,-27.0923371992337,0.0 -52.9435998,-27.0924587992336,0.0 -52.9435873,-27.0925867992336,0.0 -52.943565,-27.0926561992337,0.0 -52.9435079,-27.0927881992337,0.0 -52.9433882,-27.0930133992336,0.0 -52.9433071,-27.0931719992336,0.0 -52.9432114,-27.0933926992336,0.0 -52.9431749,-27.0935138992336,0.0 -52.9431416,-27.0937470992336,0.0 -52.9431342,-27.0939002992336,0.0 -52.9431268,-27.0940473992336,0.0 -52.9431312,-27.0941544992336,0.0 -52.9431429,-27.0942577992336,0.0 -52.9432241,-27.0946289992336,0.0 -52.9432983,-27.0949438992336,0.0 -52.9433461,-27.0951330992336,0.0 -52.94337,-27.0952815992336,0.0 -52.943376,-27.0954116992336,0.0 -52.9433707,-27.0956088992336,0.0 -52.9433344,-27.0958903992336,0.0 -52.9433172,-27.0959807992336,0.0 -52.9432476,-27.0963164992336,0.0 -52.9432176,-27.0965061992336,0.0 -52.9432165,-27.0965695992336,0.0 -52.9432285,-27.0966599992336,0.0 -52.9432439,-27.0967055992336,0.0 -52.9432794,-27.0967577992336,0.0 -52.9433532,-27.0968156992336,0.0 -52.94342,-27.0968540992336,0.0 -52.9434807,-27.0968785992336,0.0 -52.9435628,-27.0968960992336,0.0 -52.9436295,-27.0969056992336,0.0 -52.9437501,-27.0969083992336,0.0 -52.9438697,-27.0969017992336,0.0 -52.9439542,-27.0968999992336,0.0 -52.9440331,-27.0968951992336,0.0 -52.9441015,-27.0968836992336,0.0 -52.9441539,-27.0968680992336,0.0 -52.9442908,-27.0968288992336,0.0 -52.9443865,-27.0967946992336,0.0 -52.9445931,-27.0967445992336,0.0 -52.9446952,-27.0967215992336,0.0 -52.9448418,-27.0966782992336,0.0 -52.9449354,-27.0966385992336,0.0 -52.9450391,-27.0965844992336,0.0 -52.9451558,-27.0965107992336,0.0 -52.9452511,-27.0964517992336,0.0 -52.945377,-27.0963854992336,0.0 -52.9454816,-27.0963412992336,0.0 -52.9456504,-27.0962767992336,0.0 -52.9458281,-27.0962010992336,0.0 -52.9459862,-27.0961256992336,0.0 -52.9460308,-27.0960996992336,0.0 -52.9461707,-27.0959988992336,0.0 -52.9462941,-27.0959089992336,0.0 -52.946371,-27.0958569992336,0.0 -52.9464191,-27.0958352992336,0.0 -52.9464868,-27.0958218992336,0.0 -52.9465561,-27.0958196992336,0.0 -52.9467531,-27.0958678992336,0.0 -52.9468033,-27.0958863992336,0.0 -52.9468721,-27.0959229992336,0.0 -52.9469297,-27.0959686992336,0.0 -52.947074,-27.0961377992336,0.0 -52.9471752,-27.0962440992336,0.0 -52.9473444,-27.0964096992336,0.0 -52.9474346,-27.0965289992336,0.0 -52.9475612,-27.0967170992336,0.0 -52.9476259,-27.0968019992336,0.0 -52.9476952,-27.0968706992336,0.0 -52.9479518,-27.0971067992336,0.0 -52.9480129,-27.0971536992336,0.0 -52.9480661,-27.0971795992336,0.0 -52.9483174,-27.0972592992336,0.0 -52.9485585,-27.0973199992336,0.0 -52.9486183,-27.0973352992336,0.0 -52.948667,-27.0973419992336,0.0 -52.9487376,-27.0973385992336,0.0 -52.9489786,-27.0973184992336,0.0 -52.9490509,-27.0973180992336,0.0 -52.9491892,-27.0973384992336,0.0 -52.9492957,-27.0973692992336,0.0 -52.9493847,-27.0974269992336,0.0 -52.9494233,-27.0974886992336,0.0 -52.9494489,-27.0975663992336,0.0 -52.9494567,-27.0976730992336,0.0 -52.9494537,-27.0977409992336,0.0 -52.9494287,-27.0978392992336,0.0 -52.9493722,-27.0979806992335,0.0 -52.9493161,-27.0981629992335,0.0 -52.9492739,-27.0983284992335,0.0 -52.9492344,-27.0984925992335,0.0 -52.9492094,-27.0985849992335,0.0 -52.9491818,-27.0986619992335,0.0 -52.9491033,-27.0988799992335,0.0 -52.9490877,-27.0989422992335,0.0 -52.9490707,-27.0990529992335,0.0 -52.949041,-27.0992006992335,0.0 -52.9490182,-27.0992970992335,0.0 -52.9489884,-27.0993740992335,0.0 -52.9489532,-27.0994871992335,0.0 -52.9489465,-27.0995223992335,0.0 -52.9489381,-27.0996140992335,0.0 -52.9489369,-27.0996727992335,0.0 -52.9489465,-27.0997144992335,0.0 -52.9489726,-27.0997448992335,0.0 -52.9490163,-27.0997621992335,0.0 -52.9491097,-27.0997618992335,0.0 -52.9492096,-27.0997495992335,0.0 -52.9492758,-27.0997207992335,0.0 -52.9493871,-27.0996474992335,0.0 -52.9496226,-27.0994956992335,0.0 -52.9499038,-27.0993513992335,0.0 -52.9501192,-27.0992487992335,0.0 -52.9502498,-27.0992035992335,0.0 -52.9503876,-27.0991725992335,0.0 -52.9505498,-27.0991591992335,0.0 -52.9506477,-27.0991586992335,0.0 -52.9507803,-27.0991812992335,0.0 -52.9508725,-27.0992122992335,0.0 -52.9509233,-27.0992423992335,0.0 -52.9509835,-27.0993008992335,0.0 -52.9510092,-27.0993596992335,0.0 -52.9510227,-27.0994304992335,0.0 -52.9510158,-27.0995411992335,0.0 -52.9510027,-27.0996004992335,0.0 -52.9509684,-27.0996560992335,0.0 -52.950933,-27.0996983992335,0.0 -52.9508207,-27.0997973992335,0.0 -52.9507712,-27.0998390992335,0.0 -52.9507412,-27.0998883992335,0.0 -52.9506571,-27.1000716992335,0.0 -52.9506221,-27.1001600992335,0.0 -52.9505961,-27.1002469992335,0.0 -52.9505509,-27.1003364992335,0.0 -52.9505016,-27.1004218992335,0.0 -52.9502762,-27.1008044992335,0.0 -52.9501324,-27.1010218992335,0.0 -52.9500659,-27.1010915992335,0.0 -52.9498378,-27.1013093992335,0.0 -52.9497186,-27.1014055992335,0.0 -52.9496483,-27.1014562992335,0.0 -52.9495081,-27.1015186992335,0.0 -52.9494052,-27.1015812992335,0.0 -52.9493355,-27.1016569992335,0.0 -52.9492535,-27.1018088992335,0.0 -52.9492365,-27.1018575992335,0.0 -52.9491859,-27.1020633992335,0.0 -52.9491459,-27.1022671992335,0.0 -52.9491259,-27.1023437992335,0.0 -52.9490699,-27.1025038992335,0.0 -52.9490604,-27.1025715992335,0.0 -52.9490482,-27.1027393992335,0.0 -52.9490554,-27.1028438992335,0.0 -52.9490678,-27.1028913992335,0.0 -52.9491017,-27.1029520992334,0.0 -52.9491288,-27.1029811992335,0.0 -52.9491816,-27.1030018992335,0.0 -52.9492334,-27.1030170992335,0.0 -52.9493473,-27.1030281992334,0.0 -52.949446,-27.1030331992335,0.0 -52.9496988,-27.1030837992335,0.0 -52.949803,-27.1030974992335,0.0 -52.9502092,-27.1031205992334,0.0 -52.9504786,-27.1031334992335,0.0 -52.95094,-27.1031660992334,0.0 -52.9514137,-27.1031889992335,0.0 -52.9518247,-27.1032062992334,0.0 -52.9520948,-27.1032270992335,0.0 -52.9523509,-27.1032419992335,0.0 -52.9524645,-27.1032316992335,0.0 -52.9525397,-27.1032138992334,0.0 -52.9527086,-27.1031451992335,0.0 -52.9527745,-27.1031052992334,0.0 -52.9527989,-27.1030731992334,0.0 -52.9528043,-27.1030309992335,0.0 -52.9528011,-27.1029968992335,0.0 -52.9527751,-27.1029358992335,0.0 -52.952739,-27.1028489992335,0.0 -52.9527243,-27.1027717992334,0.0 -52.9527306,-27.1027222992335,0.0 -52.9527521,-27.1026838992335,0.0 -52.9527818,-27.1026516992335,0.0 -52.9528415,-27.1026086992335,0.0 -52.9529665,-27.1025409992335,0.0 -52.9530908,-27.1024883992335,0.0 -52.9534011,-27.1023722992335,0.0 -52.9535561,-27.1022933992335,0.0 -52.9536303,-27.1022409992335,0.0 -52.9536971,-27.1021828992335,0.0 -52.9537382,-27.1021150992335,0.0 -52.9538066,-27.1019856992335,0.0 -52.9538374,-27.1019354992335,0.0 -52.9538862,-27.1018711992335,0.0 -52.9540123,-27.1017095992335,0.0 -52.9540596,-27.1016387992335,0.0 -52.9540868,-27.1015881992335,0.0 -52.9541467,-27.1014405992335,0.0 -52.9542707,-27.1011614992335,0.0 -52.9543441,-27.1010434992335,0.0 -52.954396,-27.1009892992335,0.0 -52.9545766,-27.1008442992335,0.0 -52.9546365,-27.1007762992335,0.0 -52.9546669,-27.1007144992335,0.0 -52.95469,-27.1006325992335,0.0 -52.9547113,-27.1004178992335,0.0 -52.9547371,-27.1001279992335,0.0 -52.9547468,-27.0998649992335,0.0 -52.954748,-27.0995493992335,0.0 -52.9547544,-27.0994970992335,0.0 -52.9547857,-27.0994321992335,0.0 -52.9548199,-27.0993991992335,0.0 -52.9548939,-27.0993691992335,0.0 -52.954965,-27.0993594992335,0.0 -52.9550105,-27.0993660992335,0.0 -52.9550488,-27.0993785992335,0.0 -52.9551094,-27.0994205992335,0.0 -52.9552247,-27.0995436992335,0.0 -52.9554351,-27.0998503992335,0.0 -52.9555298,-27.0999829992335,0.0 -52.9556072,-27.1000558992335,0.0 -52.9559977,-27.1003377992335,0.0 -52.9564188,-27.1005696992335,0.0 -52.9565826,-27.1006381992335,0.0 -52.9568243,-27.1007200992335,0.0 -52.957067,-27.1008005992335,0.0 -52.9573296,-27.1009006992335,0.0 -52.9576825,-27.1010435992335,0.0 -52.9578156,-27.1010897992335,0.0 -52.9578984,-27.1011038992335,0.0 -52.9579481,-27.1010973992335,0.0 -52.9579819,-27.1010827992335,0.0 -52.9580337,-27.1010504992335,0.0 -52.9580936,-27.1010249992335,0.0 -52.9581563,-27.1010182992335,0.0 -52.9584834,-27.1010540992335,0.0 -52.9585362,-27.1010668992335,0.0 -52.9585905,-27.1011001992335,0.0 -52.958628,-27.1011464992335,0.0 -52.9586383,-27.1012098992335,0.0 -52.95863,-27.1012627992335,0.0 -52.9586176,-27.1013027992335,0.0 -52.9585648,-27.1013538992335,0.0 -52.9583351,-27.1015077992335,0.0 -52.9580431,-27.1016711992335,0.0 -52.9578563,-27.1017995992335,0.0 -52.9577597,-27.1018923992335,0.0 -52.95772,-27.1019467992335,0.0 -52.9576768,-27.1020345992335,0.0 -52.9576532,-27.1021052992335,0.0 -52.957644,-27.1021815992335,0.0 -52.9576503,-27.1022411992335,0.0 -52.9576742,-27.1023369992335,0.0 -52.9577073,-27.1024201992335,0.0 -52.9577407,-27.1024595992335,0.0 -52.9577927,-27.1025068992335,0.0 -52.9579158,-27.1025824992335,0.0 -52.9582545,-27.1028220992335,0.0 -52.9583225,-27.1028890992334,0.0 -52.9583787,-27.1029562992335,0.0 -52.9584269,-27.1030188992335,0.0 -52.9584767,-27.1030631992335,0.0 -52.9586245,-27.1031497992335,0.0 -52.9587099,-27.1032111992334,0.0 -52.9589448,-27.1034494992334,0.0 -52.959024,-27.1035608992334,0.0 -52.9590364,-27.1035935992334,0.0 -52.9590534,-27.1037341992334,0.0 -52.9590672,-27.1039167992334,0.0 -52.9590911,-27.1040706992334,0.0 -52.9591165,-27.1041557992334,0.0 -52.9591868,-27.1042672992334,0.0 -52.959466,-27.1046840992334,0.0 -52.9595077,-27.1047926992334,0.0 -52.9595448,-27.1049416992334,0.0 -52.9595683,-27.1053744992334,0.0 -52.9595881,-27.1059725992334,0.0 -52.9595915,-27.1060195992334,0.0 -52.9596089,-27.1060837992334,0.0 -52.9596351,-27.1061380992334,0.0 -52.9596706,-27.1061853992334,0.0 -52.9597374,-27.1062198992334,0.0 -52.9598231,-27.1062552992334,0.0 -52.9599367,-27.1062735992334,0.0 -52.960087,-27.1062847992334,0.0 -52.9601663,-27.1062883992334,0.0 -52.9603243,-27.1062762992334,0.0 -52.9605339,-27.1062663992334,0.0 -52.9606268,-27.1062703992334,0.0 -52.9606966,-27.1062855992334,0.0 -52.9607268,-27.1063055992334,0.0 -52.9607408,-27.1063291992334,0.0 -52.9607488,-27.1063734992334,0.0 -52.9607468,-27.1064414992334,0.0 -52.9607354,-27.1064950992334,0.0 -52.9607195,-27.1065184992334,0.0 -52.9606965,-27.1065385992334,0.0 -52.9606631,-27.1065611992334,0.0 -52.960598,-27.1065991992334,0.0 -52.9605388,-27.1066389992334,0.0 -52.9605,-27.1066725992334,0.0 -52.9604774,-27.1067030992334,0.0 -52.9604489,-27.1067244992334,0.0 -52.9604095,-27.1067453992334,0.0 -52.9603622,-27.1067680992334,0.0 -52.9600718,-27.1069110992334,0.0 -52.959839,-27.1070736992334,0.0 -52.9597162,-27.1072861992334,0.0 -52.9596393,-27.1074990992334,0.0 -52.9596273,-27.1077973992334,0.0 -52.959701,-27.1080688992334,0.0 -52.9598154,-27.1084667992333,0.0 -52.9599884,-27.1086958992333,0.0 -52.9602942,-27.1089134992333,0.0 -52.9606967,-27.1091072992333,0.0 -52.9613677,-27.1092185992333,0.0 -52.9619382,-27.1092476992333,0.0 -52.962463,-27.1096296992333,0.0 -52.9626563,-27.1100163992333,0.0 -52.9627562,-27.1105907992333,0.0 -52.9627528,-27.1113525992333,0.0 -52.9626913,-27.1119837992333,0.0 -52.9626447,-27.1122810992333,0.0 -52.9620245,-27.1129664992333,0.0 -52.9613956,-27.1133225992333,0.0 -52.9606467,-27.1137594992333,0.0 -52.9599889,-27.1140744992332,0.0 -52.9597236,-27.1143099992332,0.0 -52.9595311,-27.1145628992332,0.0 -52.9595464,-27.1148500992332,0.0 -52.9596748,-27.1150799992332,0.0 -52.9599629,-27.1154775992332,0.0 -52.9603446,-27.1159727992332,0.0 -52.9608403,-27.1164664992332,0.0 -52.9615806,-27.1173181992332,0.0 -52.9619855,-27.1179520992332,0.0 -52.9625518,-27.1187776992331,0.0 -52.9628095,-27.1192882992331,0.0 -52.9628567,-27.1193818992331,0.0 -52.962905,-27.1194773992331,0.0 -52.9638283,-27.1204236992331,0.0 -52.964005,-27.1205137992331,0.0 -52.9652527,-27.1210854992331,0.0 -52.9656671,-27.1212647992331,0.0 -52.9660181,-27.1214166992331,0.0 -52.9669051,-27.1216336992331,0.0 -52.9678395,-27.1219048992331,0.0 -52.969461,-27.1225800992331,0.0 -52.9701093,-27.1229536992331,0.0 -52.9706028,-27.1239882992331,0.0 -52.9708802,-27.125003499233,0.0 -52.9709344,-27.126107299233,0.0 -52.9709957,-27.126892299233,0.0 -52.971026,-27.127229799233,0.0 -52.9712594,-27.127681799233,0.0 -52.9718058,-27.128367699233,0.0 -52.9728129,-27.128884599233,0.0 -52.9756525,-27.129108199233,0.0 -52.9770212,-27.128961699233,0.0 -52.978414,-27.128665499233,0.0 -52.980595,-27.128201499233,0.0 -52.9826317,-27.128118799233,0.0 -52.983828,-27.128916699233,0.0 -52.9849195,-27.1295495992329,0.0 -52.9854583,-27.1298620992329,0.0 -52.9872833,-27.1312440992329,0.0 -52.9875805,-27.1316160992329,0.0 -52.9877165,-27.1325911992329,0.0 -52.987661,-27.1334840992329,0.0 -52.9873386,-27.1340620992329,0.0 -52.9864927,-27.1346049992329,0.0 -52.9853353,-27.1350036992328,0.0 -52.9830595,-27.1355388992328,0.0 -52.9818531,-27.1365887992328,0.0 -52.9818009,-27.1369372992328,0.0 -52.9818593,-27.1375523992328,0.0 -52.9819392,-27.1380397992328,0.0 -52.9823038,-27.1385018992328,0.0 -52.9838393,-27.1393297992328,0.0 -52.9874551,-27.1399036992327,0.0 -52.9887249,-27.1399476992327,0.0 -52.9888852,-27.1399420992327,0.0 -52.9916991,-27.1398428992328,0.0 -52.9924871,-27.1399568992328,0.0 -52.9932255,-27.1390515992328,0.0 -52.9949944,-27.1369850992328,0.0 -52.9966333,-27.1360934992328,0.0 -52.9982162,-27.1355374992328,0.0 -52.9996675,-27.1352334992328,0.0 -53.0013269,-27.1352646992328,0.0 -53.0030057,-27.1356145992328,0.0 -53.0045912,-27.1365184992328,0.0 -53.0059695,-27.1374896992328,0.0 -53.0071031,-27.1387129992328,0.0 -53.0086903,-27.1404389992327,0.0 -53.01007,-27.1421316992327,0.0 -53.0115696,-27.1445160992327,0.0 -53.0130258,-27.1466283992326,0.0 -53.0141032,-27.1479355992326,0.0 -53.0156156,-27.1498629992325,0.0 -53.0171841,-27.1515385992325,0.0 -53.0182994,-27.1529127992325,0.0 -53.0189417,-27.1534844992325,0.0 -53.0193158,-27.1538173992325,0.0 -53.0212429,-27.1555091992325,0.0 -53.0226408,-27.1566648992324,0.0 -53.024812,-27.1578694992324,0.0 -53.0261526,-27.1586224992324,0.0 -53.0279264,-27.1591397992324,0.0 -53.0299074,-27.1595056992324,0.0 -53.0318344,-27.1594721992324,0.0 -53.0320274,-27.1594687992324,0.0 -53.0341577,-27.1589449992324,0.0 -53.0357222,-27.1584724992324,0.0 -53.0375501,-27.1577478992324,0.0 -53.0388676,-27.1565038992324,0.0 -53.0402214,-27.1546378992325,0.0 -53.0411984,-27.1529245992325,0.0 -53.0418553,-27.1514802992325,0.0 -53.0426061,-27.1498513992326,0.0 -53.0431303,-27.1481053992326,0.0 -53.0435235,-27.1468461992326,0.0 -53.0438225,-27.1456064992326,0.0 -53.0441963,-27.1440619992327,0.0 -53.0444754,-27.1423498992327,0.0 -53.0447547,-27.1407385992327,0.0 -53.0449576,-27.1386910992328,0.0 -53.0450488,-27.1373316992328,0.0 -53.044933,-27.1361069992328,0.0 -53.0447774,-27.1339257992329,0.0 -53.0443786,-27.1326343992329,0.0 -53.0438213,-27.1313617992329,0.0 -53.0433651,-27.1297011992329,0.0 -53.0429946,-27.128536099233,0.0 -53.0428905,-27.128208599233,0.0 -53.0421325,-27.126464799233,0.0 -53.0413939,-27.124905499233,0.0 -53.0403728,-27.1235312992331,0.0 -53.0394276,-27.1223415992331,0.0 -53.0382744,-27.1209171992331,0.0 -53.0372166,-27.1199456992331,0.0 -53.0358562,-27.1185719992332,0.0 -53.034666,-27.1174495992332,0.0 -53.0333814,-27.1161175992332,0.0 -53.0310398,-27.1143593992332,0.0 -53.0289437,-27.1127518992333,0.0 -53.0266022,-27.1108427992333,0.0 -53.0248271,-27.1093255992333,0.0 -53.0225416,-27.1070806992334,0.0 -53.0213514,-27.1057904992334,0.0 -53.0203311,-27.1045503992334,0.0 -53.0190071,-27.1022871992335,0.0 -53.0183066,-27.1007612992335,0.0 -53.0175492,-27.0990073992335,0.0 -53.0172811,-27.0968263992336,0.0 -53.0171837,-27.0952491992336,0.0 -53.0175015,-27.0938727992336,0.0 -53.0178205,-27.0931024992336,0.0 -53.0178654,-27.0922709992337,0.0 -53.0177051,-27.0924609992337,0.0 -53.0175505,-27.0926357992337,0.0 -53.0174049,-27.0927950992336,0.0 -53.0172708,-27.0929389992337,0.0 -53.0171474,-27.0930691992336,0.0 -53.0170333,-27.0931878992336,0.0 -53.0169272,-27.0932969992336,0.0 -53.016642,-27.0935880992336,0.0 -53.0165533,-27.0936798992336,0.0 -53.0164656,-27.0937721992336,0.0 -53.0163789,-27.0938651992336,0.0 -53.0162932,-27.0939585992336,0.0 -53.0162087,-27.0940523992336,0.0 -53.0161256,-27.0941463992336,0.0 -53.016044,-27.0942402992336,0.0 -53.015964,-27.0943340992336,0.0 -53.0158859,-27.0944273992336,0.0 -53.0158096,-27.0945201992336,0.0 -53.0155215,-27.0948762992336,0.0 -53.0154532,-27.0949592992336,0.0 -53.0153863,-27.0950387992336,0.0 -53.0153205,-27.0951144992336,0.0 -53.0152556,-27.0951859992336,0.0 -53.0151901,-27.0952543992336,0.0 -53.0151226,-27.0953205992336,0.0 -53.0150514,-27.0953856992336,0.0 -53.0149749,-27.0954507992336,0.0 -53.0148915,-27.0955169992336,0.0 -53.0147997,-27.0955853992336,0.0 -53.0146979,-27.0956570992336,0.0 -53.0145851,-27.0957326992336,0.0 -53.0144628,-27.0958113992336,0.0 -53.014333,-27.0958918992336,0.0 -53.014198,-27.0959728992336,0.0 -53.0140597,-27.0960529992336,0.0 -53.0139203,-27.0961309992336,0.0 -53.013782,-27.0962056992336,0.0 -53.0136467,-27.0962755992336,0.0 -53.0135161,-27.0963398992336,0.0 -53.0133894,-27.0963990992336,0.0 -53.0132655,-27.0964542992336,0.0 -53.013143,-27.0965064992336,0.0 -53.0130207,-27.0965564992336,0.0 -53.0128973,-27.0966053992336,0.0 -53.0126424,-27.0967036992336,0.0 -53.012369,-27.0968072992336,0.0 -53.0122232,-27.0968606992336,0.0 -53.0120703,-27.0969143992336,0.0 -53.0119096,-27.0969680992336,0.0 -53.0117403,-27.0970211992336,0.0 -53.0115616,-27.0970733992336,0.0 -53.0114338,-27.0971076992336,0.0 -53.0113729,-27.0971240992336,0.0 -53.0111739,-27.0971728992336,0.0 -53.0109672,-27.0972194992336,0.0 -53.0107561,-27.0972636992336,0.0 -53.0105436,-27.0973051992336,0.0 -53.0103331,-27.0973436992336,0.0 -53.0101276,-27.0973789992336,0.0 -53.0099303,-27.0974107992336,0.0 -53.0097445,-27.0974388992336,0.0 -53.0095724,-27.0974630992336,0.0 -53.0094125,-27.0974838992335,0.0 -53.0092623,-27.0975020992336,0.0 -53.0091195,-27.0975183992336,0.0 -53.0087108,-27.0975621992336,0.0 -53.008573,-27.0975773992336,0.0 -53.0084311,-27.0975938992336,0.0 -53.0082854,-27.0976117992336,0.0 -53.0081371,-27.0976306992336,0.0 -53.0079874,-27.0976505992336,0.0 -53.0076879,-27.0976924992336,0.0 -53.0073957,-27.0977362992336,0.0 -53.007255,-27.0977583992336,0.0 -53.0068552,-27.0978228992336,0.0 -53.0066053,-27.0978616992336,0.0 -53.0064848,-27.0978790992336,0.0 -53.006367,-27.0978948992335,0.0 -53.0062515,-27.0979086992336,0.0 -53.006137,-27.0979207992336,0.0 -53.0060224,-27.0979311992336,0.0 -53.0059062,-27.0979399992335,0.0 -53.005787,-27.0979473992336,0.0 -53.0056636,-27.0979533992335,0.0 -53.0055346,-27.0979582992336,0.0 -53.0053266,-27.0979636992336,0.0 -53.0052547,-27.0979650992335,0.0 -53.0050273,-27.0979677992336,0.0 -53.0049501,-27.0979683992335,0.0 -53.0047934,-27.0979687992336,0.0 -53.0046363,-27.0979683992335,0.0 -53.0044809,-27.0979672992335,0.0 -53.0043293,-27.0979653992335,0.0 -53.0041833,-27.0979628992335,0.0 -53.0040446,-27.0979597992335,0.0 -53.0037867,-27.0979522992336,0.0 -53.0032131,-27.0979324992336,0.0 -53.0029928,-27.0979269992335,0.0 -53.0028808,-27.0979249992336,0.0 -53.0026483,-27.0979223992336,0.0 -53.0023981,-27.0979216992336,0.0 -53.0022594,-27.0979223992336,0.0 -53.0019593,-27.0979256992336,0.0 -53.0017688,-27.0979312992335,0.0 -53.0015384,-27.0979408992336,0.0 -53.0012571,-27.0979558992335,0.0 -53.0009142,-27.0979773992335,0.0 -53.0004988,-27.0980066992335,0.0 -52.9999999,-27.0980626992335,0.0 -52.9991109,-27.0982524992335,0.0 -52.9989228,-27.0982919992335,0.0 -52.9966937,-27.0987766992335,0.0 -52.9956426,-27.0990456992335,0.0 -52.9945044,-27.0991832992335,0.0 -52.993666,-27.0991351992335,0.0 -52.9931352,-27.0989554992335,0.0 -52.9926852,-27.0986096992335,0.0 -52.9923955,-27.0980259992335,0.0 -52.9921947,-27.0974215992336,0.0 -52.9914497,-27.0946348992336,0.0 -52.9912558,-27.0938197992336,0.0 -52.991,-27.0921451992337,0.0 -52.9908761,-27.0913241992337,0.0 -52.9906278,-27.0894613992337,0.0 -52.9905083,-27.0883559992337,0.0 -52.9902275,-27.0864537992338,0.0 -52.9900702,-27.0856093992338,0.0 -52.9899786,-27.0852797992338,0.0 -52.9896655,-27.0841530992338,0.0 -52.9895573,-27.0837060992338,0.0 -52.9895557,-27.0836519992338,0.0 -52.9895464,-27.0833352992338,0.0 -52.9895971,-27.0829233992338,0.0 -52.9898575,-27.0814635992339,0.0 -52.9899048,-27.0811985992339,0.0 -52.9903075,-27.0800672992339,0.0 -52.9909063,-27.0787150992339,0.0 -52.9913892,-27.0776246992339,0.0 -52.9922098,-27.075998199234,0.0 -52.9924184,-27.075584499234,0.0 -52.9925887,-27.075045799234,0.0 -52.9927913,-27.074404699234,0.0 -52.9930307,-27.073342699234,0.0 -52.9932589,-27.0715133992341,0.0 -52.993247,-27.0712615992341,0.0 -52.993312,-27.0708169992341,0.0 -52.9933155,-27.0707187992341,0.0 -52.9933215,-27.0705515992341,0.0 -52.9933412,-27.0699943992341,0.0 -52.9934758,-27.0685307992341,0.0 -52.9936588,-27.0672549992341,0.0 -52.9936137,-27.0663551992342,0.0 -52.9934862,-27.0657435992342,0.0 -52.9933025,-27.0652502992342,0.0 -52.9931077,-27.0649528992342,0.0 -52.992606,-27.0646206992342,0.0 -52.9916435,-27.0644064992342,0.0 -52.9897962,-27.0640600992342,0.0 -52.9883871,-27.0640373992342,0.0 -52.9871484,-27.0640809992342,0.0 -52.985353,-27.0645934992342,0.0 -52.9846297,-27.0648739992342,0.0 -52.9826073,-27.0657666992342,0.0 -52.9790398,-27.0670824992342,0.0 -52.9780492,-27.0673449992341,0.0 -52.9771673,-27.0675786992341,0.0 -52.9748479,-27.0683681992341,0.0 -52.9732195,-27.0686520992341,0.0 -52.9723463,-27.0687556992341,0.0 -52.9712538,-27.0688232992341,0.0 -52.971062,-27.0688072992341,0.0 -52.9704432,-27.0687559992341,0.0 -52.9698099,-27.0683993992341,0.0 -52.9694739,-27.0677525992341,0.0 -52.9693105,-27.0673623992341,0.0 -52.969125,-27.0667646992341,0.0 -52.9689867,-27.0662117992342,0.0 -52.9689375,-27.0652141992342,0.0 -52.9689938,-27.0649037992342,0.0 -52.9691769,-27.0638927992342,0.0 -52.9697409,-27.0627558992342,0.0 -52.9704274,-27.0616882992342,0.0 -52.9708832,-27.0610020992343,0.0 -52.972564,-27.0590881992343,0.0 -52.9740269,-27.0571512992343,0.0 -52.9745783,-27.0563992992344,0.0 -52.9749588,-27.0559187992344,0.0 -52.9761549,-27.0541775992344,0.0 -52.9766434,-27.0534473992344,0.0 -52.9770774,-27.0529385992344,0.0 -52.9780365,-27.0515730992344,0.0 -52.9785241,-27.0511094992344,0.0 -52.9790731,-27.0505634992345,0.0 -52.97941,-27.0500790992345,0.0 -52.9796015,-27.0497011992345,0.0 -52.9799634,-27.0491360992345,0.0 -52.9813319,-27.0466593992345,0.0 -52.9816413,-27.0460991992345,0.0 -52.981826,-27.0454840992346,0.0 -52.982022,-27.0448266992346,0.0 -52.9824941,-27.0421415992346,0.0 -52.9825771,-27.0416694992346,0.0 -52.9827347,-27.0414678992346,0.0 -52.9828766,-27.0402425992347,0.0 -52.9829294,-27.0396911992347,0.0 -52.9829646,-27.0392289992347,0.0 -52.9829838,-27.0388418992347,0.0 -52.9829892,-27.0385158992347,0.0 -52.9829825,-27.0382366992347,0.0 -52.9829657,-27.0379904992347,0.0 -52.9829403,-27.0377650992347,0.0 -52.9829066,-27.0375572992347,0.0 -52.9828648,-27.0373658992347,0.0 -52.9828147,-27.0371894992347,0.0 -52.9827564,-27.0370269992347,0.0 -52.9826898,-27.0368771992347,0.0 -52.9826151,-27.0367387992347,0.0 -52.9825321,-27.0366105992347,0.0 -52.9824408,-27.0364916992347,0.0 -52.9823399,-27.0363818992347,0.0 -52.9822281,-27.0362814992347,0.0 -52.9821042,-27.0361905992347,0.0 -52.9819667,-27.0361093992347,0.0 -52.9818144,-27.0360379992347,0.0 -52.9816458,-27.0359765992347,0.0 -52.9814598,-27.0359253992347,0.0 -52.9812552,-27.0358844992347,0.0 -52.9810322,-27.0358534992347,0.0 -52.9807914,-27.0358320992347,0.0 -52.9805332,-27.0358199992347,0.0 -52.9802582,-27.0358167992347,0.0 -52.9799513,-27.0358227992347,0.0 -52.9796595,-27.0358355992347,0.0 -52.9793369,-27.0358568992347,0.0 -52.9789993,-27.0358858992347,0.0 -52.9786476,-27.0359233992348,0.0 -52.9782822,-27.0359701992347,0.0 -52.9779039,-27.0360273992347,0.0 -52.9775131,-27.0360959992347,0.0 -52.9769495,-27.0362136992347,0.0 -52.9766971,-27.0362711992347,0.0 -52.9762731,-27.0363796992347,0.0 -52.9757642,-27.0365261992347,0.0 -52.9753996,-27.0366384992347,0.0 -52.9749564,-27.0367835992347,0.0 -52.9745131,-27.0369353992347,0.0 -52.9738446,-27.0371734992347,0.0 -52.9736396,-27.0372474992347,0.0 -52.9728055,-27.0375516992347,0.0 -52.9724102,-27.0376942992347,0.0 -52.9720267,-27.0378294992347,0.0 -52.9715307,-27.0379969992347,0.0 -52.9712777,-27.0380795992347,0.0 -52.9709031,-27.0381952992347,0.0 -52.9705225,-27.0383051992347,0.0 -52.9701314,-27.0384096992347,0.0 -52.969477,-27.0385648992347,0.0 -52.9693011,-27.0386042992347,0.0 -52.9688622,-27.0386949992347,0.0 -52.9684129,-27.0387816992347,0.0 -52.9679578,-27.0388646992347,0.0 -52.9675017,-27.0389442992347,0.0 -52.967049,-27.0390207992347,0.0 -52.9657565,-27.0392347992347,0.0 -52.9653559,-27.0393022992347,0.0 -52.9649688,-27.0393687992347,0.0 -52.9645932,-27.0394349992347,0.0 -52.9642273,-27.0395014992347,0.0 -52.9638692,-27.0395688992347,0.0 -52.9635169,-27.0396377992347,0.0 -52.9631686,-27.0397088992347,0.0 -52.9628226,-27.0397825992347,0.0 -52.9623188,-27.0398938992347,0.0 -52.9617713,-27.0400167992347,0.0 -52.9614436,-27.0400902992347,0.0 -52.9610961,-27.0401667992347,0.0 -52.960746,-27.0402414992347,0.0 -52.9603925,-27.0403137992347,0.0 -52.9600349,-27.0403829992347,0.0 -52.9596733,-27.0404483992347,0.0 -52.9594543,-27.0404850992347,0.0 -52.9589397,-27.0405661992347,0.0 -52.9585682,-27.0406174992346,0.0 -52.9581939,-27.0406630992346,0.0 -52.9578173,-27.0407024992346,0.0 -52.9574386,-27.0407351992346,0.0 -52.9570579,-27.0407606992347,0.0 -52.9566749,-27.0407793992346,0.0 -52.9562889,-27.0407913992346,0.0 -52.9558995,-27.0407971992346,0.0 -52.955506,-27.0407967992346,0.0 -52.9551078,-27.0407907992347,0.0 -52.9547044,-27.0407792992347,0.0 -52.9542952,-27.0407626992346,0.0 -52.9537657,-27.0407339992346,0.0 -52.9534618,-27.0407149992347,0.0 -52.9530426,-27.0406838992346,0.0 -52.9526255,-27.0406481992346,0.0 -52.9522134,-27.0406077992346,0.0 -52.951809,-27.0405628992347,0.0 -52.9514151,-27.0405132992347,0.0 -52.9510346,-27.0404592992346,0.0 -52.9506697,-27.0404007992347,0.0 -52.9503199,-27.0403375992347,0.0 -52.9499844,-27.0402697992347,0.0 -52.949662,-27.0401970992347,0.0 -52.9493519,-27.0401193992347,0.0 -52.949053,-27.0400365992347,0.0 -52.9487643,-27.0399485992347,0.0 -52.9484847,-27.0398551992347,0.0 -52.9482139,-27.0397563992347,0.0 -52.947953,-27.0396524992347,0.0 -52.9477038,-27.0395439992347,0.0 -52.9474681,-27.0394311992347,0.0 -52.9472475,-27.0393145992347,0.0 -52.9470438,-27.0391945992347,0.0 -52.9468589,-27.0390714992347,0.0 -52.9466943,-27.0389458992347,0.0 -52.9465513,-27.0388178992347,0.0 -52.9464291,-27.0386865992347,0.0 -52.9463263,-27.0385510992347,0.0 -52.9462414,-27.0384102992347,0.0 -52.9461731,-27.0382631992347,0.0 -52.94612,-27.0381086992347,0.0 -52.9460808,-27.0379457992347,0.0 -52.9460539,-27.0377733992347,0.0 -52.9460383,-27.0375909992347,0.0 -52.9460337,-27.0373994992347,0.0 -52.94604,-27.0372003992347,0.0 -52.946057,-27.0369950992347,0.0 -52.9460849,-27.0367851992347,0.0 -52.9461234,-27.0365718992347,0.0 -52.9461726,-27.0363566992347,0.0 -52.9462323,-27.0361411992347,0.0 -52.9463025,-27.0359263992347,0.0 -52.9463836,-27.0357124992347,0.0 -52.946476,-27.0354992992347,0.0 -52.9465801,-27.0352865992348,0.0 -52.9466961,-27.0350741992348,0.0 -52.9468246,-27.0348620992348,0.0 -52.946966,-27.0346499992348,0.0 -52.9471205,-27.0344377992348,0.0 -52.9472885,-27.0342253992348,0.0 -52.9474702,-27.0340134992348,0.0 -52.9476655,-27.0338028992348,0.0 -52.9478743,-27.0335944992348,0.0 -52.9480969,-27.0333888992348,0.0 -52.948333,-27.0331869992348,0.0 -52.9485828,-27.0329896992348,0.0 -52.9488462,-27.0327975992348,0.0 -52.9491236,-27.0326113992348,0.0 -52.9494162,-27.0324308992348,0.0 -52.9497256,-27.0322555992348,0.0 -52.9500535,-27.0320850992348,0.0 -52.9505417,-27.0318571992348,0.0 -52.9506557,-27.0318070992348,0.0 -52.9507707,-27.0317565992348,0.0 -52.9511633,-27.0315977992348,0.0 -52.9515806,-27.0314419992348,0.0 -52.9517317,-27.0313896992348,0.0 -52.9524896,-27.0311384992348,0.0 -52.952976,-27.0309911992348,0.0 -52.9534795,-27.0308471992348,0.0 -52.9538776,-27.0307391992348,0.0 -52.9545258,-27.0305699992348,0.0 -52.9550625,-27.0304373992348,0.0 -52.9556042,-27.0303088992349,0.0 -52.9561477,-27.0301849992349,0.0 -52.9566899,-27.0300657992349,0.0 -52.9571761,-27.0299623992349,0.0</coordinates>
</LinearRing>
</outerBoundaryIs>
</Polygon>
</MultiGeometry>
</Placemark>
</Folder>
</Document></kml>
