<?xml version='1.0' encoding='UTF-8'?>
<kml xmlns:xsd="http://www.w3.org/2001/XMLSchema" xmlns:gx="http://www.google.com/kml/ext/2.2" xmlns:atom="http://www.w3.org/2005/Atom" xmlns="http://www.opengis.net/kml/2.2">
<Document>
<name>alto_bela_vista_4200754_localidades_2022</name>
<visibility>1</visibility>
<Schema name="01. Cidade" id="kml_schema_ft_01._Cidade">
<SimpleField type="xsd:string" name="CD_UF">
<displayName>CD_UF</displayName>
</SimpleField>
<SimpleField type="xsd:string" name="NM_UF">
<displayName>NM_UF</displayName>
</SimpleField>
<SimpleField type="xsd:string" name="SIGLA_UF">
<displayName>SIGLA_UF</displayName>
</SimpleField>
<SimpleField type="xsd:string" name="CD_MUN">
<displayName>CD_MUN</displayName>
</SimpleField>
<SimpleField type="xsd:string" name="NM_MUN">
<displayName>NM_MUN</displayName>
</SimpleField>
<SimpleField type="xsd:string" name="CD_RGINT">
<displayName>CD_RGINT</displayName>
</SimpleField>
<SimpleField type="xsd:string" name="NM_RGINT">
<displayName>NM_RGINT</displayName>
</SimpleField>
<SimpleField type="xsd:string" name="CD_RGI">
<displayName>CD_RGI</displayName>
</SimpleField>
<SimpleField type="xsd:string" name="NM_RGI">
<displayName>NM_RGI</displayName>
</SimpleField>
<SimpleField type="xsd:string" name="CT_LOCALIDADE">
<displayName>CT_LOCALIDADE</displayName>
</SimpleField>
<SimpleField type="xsd:string" name="SCT_LOCALIDADE">
<displayName>SCT_LOCALIDADE</displayName>
</SimpleField>
<SimpleField type="xsd:string" name="CD_LOCALIDADE">
<displayName>CD_LOCALIDADE</displayName>
</SimpleField>
<SimpleField type="xsd:string" name="NM_LOCALIDADE">
<displayName>NM_LOCALIDADE</displayName>
</SimpleField>
<SimpleField type="xsd:string" name="LAT_LOCALIDADE">
<displayName>LAT_LOCALIDADE</displayName>
</SimpleField>
<SimpleField type="xsd:string" name="LONG_LOCALIDADE">
<displayName>LONG_LOCALIDADE</displayName>
</SimpleField>
</Schema>
<Schema name="Município" id="kml_schema_ft_Município">
<SimpleField type="xsd:string" name="CD_UF">
<displayName>CD_UF</displayName>
</SimpleField>
<SimpleField type="xsd:string" name="NM_UF">
<displayName>NM_UF</displayName>
</SimpleField>
<SimpleField type="xsd:string" name="CD_MUN">
<displayName>CD_MUN</displayName>
</SimpleField>
<SimpleField type="xsd:string" name="NM_MUN">
<displayName>NM_MUN</displayName>
</SimpleField>
<SimpleField type="xsd:string" name="CD_RGINT">
<displayName>CD_RGINT</displayName>
</SimpleField>
<SimpleField type="xsd:string" name="NM_RGINT">
<displayName>NM_RGINT</displayName>
</SimpleField>
<SimpleField type="xsd:string" name="CD_RGI">
<displayName>CD_RGI</displayName>
</SimpleField>
<SimpleField type="xsd:string" name="NM_RGI">
<displayName>NM_RGI</displayName>
</SimpleField>
</Schema>
<Folder id="01. Cidade">
<name>01. Cidade</name>
<Folder id="01.03. Sede Municipal">
<name>01.03. Sede Municipal</name>
<Placemark id="01.03. Sede Municipal">
<name>Alto Bela Vista [4200754]</name>
<visibility>1</visibility>
<snippet> </snippet>
<description>&lt;center&gt;&lt;table&gt;&lt;tr&gt;&lt;th colspan='2' align='center'&gt;&lt;em&gt;Atributos&lt;/em&gt;&lt;/th&gt;&lt;/tr&gt;&lt;tr bgcolor="#E3E3F3"&gt;
&lt;th&gt;CD_UF&lt;/th&gt;
&lt;td&gt;42&lt;/td&gt;
&lt;/tr&gt;&lt;tr bgcolor=""&gt;
&lt;th&gt;NM_UF&lt;/th&gt;
&lt;td&gt;Santa Catarina&lt;/td&gt;
&lt;/tr&gt;&lt;tr bgcolor="#E3E3F3"&gt;
&lt;th&gt;SIGLA_UF&lt;/th&gt;
&lt;td&gt;SC&lt;/td&gt;
&lt;/tr&gt;&lt;tr bgcolor=""&gt;
&lt;th&gt;CD_MUN&lt;/th&gt;
&lt;td&gt;4200754&lt;/td&gt;
&lt;/tr&gt;&lt;tr bgcolor="#E3E3F3"&gt;
&lt;th&gt;NM_MUN&lt;/th&gt;
&lt;td&gt;Alto Bela Vista&lt;/td&gt;
&lt;/tr&gt;&lt;tr bgcolor=""&gt;
&lt;th&gt;CD_RGINT&lt;/th&gt;
&lt;td&gt;4204&lt;/td&gt;
&lt;/tr&gt;&lt;tr bgcolor="#E3E3F3"&gt;
&lt;th&gt;NM_RGINT&lt;/th&gt;
&lt;td&gt;Chapecó&lt;/td&gt;
&lt;/tr&gt;&lt;tr bgcolor=""&gt;
&lt;th&gt;CD_RGI&lt;/th&gt;
&lt;td&gt;420010&lt;/td&gt;
&lt;/tr&gt;&lt;tr bgcolor="#E3E3F3"&gt;
&lt;th&gt;NM_RGI&lt;/th&gt;
&lt;td&gt;Concórdia&lt;/td&gt;
&lt;/tr&gt;&lt;tr bgcolor=""&gt;
&lt;th&gt;CT_LOCALIDADE&lt;/th&gt;
&lt;td&gt;Cidade&lt;/td&gt;
&lt;/tr&gt;&lt;tr bgcolor="#E3E3F3"&gt;
&lt;th&gt;SCT_LOCALIDADE&lt;/th&gt;
&lt;td&gt;Sede Municipal&lt;/td&gt;
&lt;/tr&gt;&lt;tr bgcolor=""&gt;
&lt;th&gt;CD_LOCALIDADE&lt;/th&gt;
&lt;td&gt;4200754&lt;/td&gt;
&lt;/tr&gt;&lt;tr bgcolor="#E3E3F3"&gt;
&lt;th&gt;NM_LOCALIDADE&lt;/th&gt;
&lt;td&gt;Alto Bela Vista&lt;/td&gt;
&lt;/tr&gt;&lt;tr bgcolor=""&gt;
&lt;th&gt;LAT_LOCALIDADE&lt;/th&gt;
&lt;td&gt;-27.4318&lt;/td&gt;
&lt;/tr&gt;&lt;tr bgcolor="#E3E3F3"&gt;
&lt;th&gt;LONG_LOCALIDADE&lt;/th&gt;
&lt;td&gt;-51.9069&lt;/td&gt;
&lt;/tr&gt;&lt;/table&gt;&lt;/center&gt;</description>
<Style>
<IconStyle>
<color>ff00aaff</color>
<scale>1.0</scale>
<Icon>
<href>http://maps.google.com/mapfiles/kml/shapes/placemark_circle.png</href>
</Icon>
</IconStyle>
<LabelStyle>
<scale>1.0</scale>
</LabelStyle>
<LineStyle>
<color>ffffffff</color>
<width>3</width>
<gx:labelVisibility>1</gx:labelVisibility>
</LineStyle>
<PolyStyle>
<color>00ffffff</color>
</PolyStyle>
</Style>
<ExtendedData>
<SchemaData schemaUrl="#kml_schema_ft_01._Cidade">
<SimpleData name="CD_UF">42</SimpleData>
<SimpleData name="NM_UF">Santa Catarina</SimpleData>
<SimpleData name="SIGLA_UF">SC</SimpleData>
<SimpleData name="CD_MUN">4200754</SimpleData>
<SimpleData name="NM_MUN">Alto Bela Vista</SimpleData>
<SimpleData name="CD_RGINT">4204</SimpleData>
<SimpleData name="NM_RGINT">Chapecó</SimpleData>
<SimpleData name="CD_RGI">420010</SimpleData>
<SimpleData name="NM_RGI">Concórdia</SimpleData>
<SimpleData name="CT_LOCALIDADE">Cidade</SimpleData>
<SimpleData name="SCT_LOCALIDADE">Sede Municipal</SimpleData>
<SimpleData name="CD_LOCALIDADE">4200754</SimpleData>
<SimpleData name="NM_LOCALIDADE">Alto Bela Vista</SimpleData>
<SimpleData name="LAT_LOCALIDADE">-27.4318</SimpleData>
<SimpleData name="LONG_LOCALIDADE">-51.9069</SimpleData>
</SchemaData>
</ExtendedData>
<Point>
<extrude>0</extrude>
<coordinates>-51.906874,-27.4318199992272,0.0</coordinates>
</Point>
</Placemark>
</Folder>
</Folder>
<Folder id="13. Referência">
<name>13. Referência</name>
<Placemark id="13. Referência">
<name>Alto Bela Vista [4200754]</name>
<visibility>1</visibility>
<snippet> </snippet>
<description>&lt;center&gt;&lt;table&gt;&lt;tr&gt;&lt;th colspan='2' align='center'&gt;&lt;em&gt;Attributes&lt;/em&gt;&lt;/th&gt;&lt;/tr&gt;&lt;tr bgcolor="#E3E3F3"&gt;
&lt;th&gt;CD_UF&lt;/th&gt;
&lt;td&gt;42&lt;/td&gt;
&lt;/tr&gt;&lt;tr bgcolor=""&gt;
&lt;th&gt;NM_UF&lt;/th&gt;
&lt;td&gt;Santa Catarina&lt;/td&gt;
&lt;/tr&gt;&lt;tr bgcolor="#E3E3F3"&gt;
&lt;th&gt;CD_MUN&lt;/th&gt;
&lt;td&gt;4200754&lt;/td&gt;
&lt;/tr&gt;&lt;tr bgcolor=""&gt;
&lt;th&gt;NM_MUN&lt;/th&gt;
&lt;td&gt;Alto Bela Vista&lt;/td&gt;
&lt;/tr&gt;&lt;tr bgcolor="#E3E3F3"&gt;
&lt;th&gt;CD_RGINT&lt;/th&gt;
&lt;td&gt;4204&lt;/td&gt;
&lt;/tr&gt;&lt;tr bgcolor=""&gt;
&lt;th&gt;NM_RGINT&lt;/th&gt;
&lt;td&gt;Chapecó&lt;/td&gt;
&lt;/tr&gt;&lt;tr bgcolor="#E3E3F3"&gt;
&lt;th&gt;CD_RGI&lt;/th&gt;
&lt;td&gt;420010&lt;/td&gt;
&lt;/tr&gt;&lt;tr bgcolor=""&gt;
&lt;th&gt;NM_RGI&lt;/th&gt;
&lt;td&gt;Concórdia&lt;/td&gt;
&lt;/tr&gt;&lt;/table&gt;&lt;/center&gt;</description>
<Style>
<IconStyle>
<scale>0.7</scale>
</IconStyle>
<LabelStyle>
<scale>0.7</scale>
</LabelStyle>
<LineStyle>
<color>ffffffff</color>
<width>3</width>
<gx:labelVisibility>1</gx:labelVisibility>
</LineStyle>
<PolyStyle>
<color>00ffffff</color>
</PolyStyle>
</Style>
<ExtendedData>
<SchemaData schemaUrl="#kml_schema_ft_Município">
<SimpleData name="CD_UF">42</SimpleData>
<SimpleData name="NM_UF">Santa Catarina</SimpleData>
<SimpleData name="CD_MUN">4200754</SimpleData>
<SimpleData name="NM_MUN">Alto Bela Vista</SimpleData>
<SimpleData name="CD_RGINT">4204</SimpleData>
<SimpleData name="NM_RGINT">Chapecó</SimpleData>
<SimpleData name="CD_RGI">420010</SimpleData>
<SimpleData name="NM_RGI">Concórdia</SimpleData>
</SchemaData>
</ExtendedData>
<MultiGeometry>
<Polygon>
<extrude>0</extrude>
<tessellate>1</tessellate>
<outerBoundaryIs>
<LinearRing>
<coordinates>-51.9003198,-27.4651792992266,0.0 -51.9003854,-27.4647399992266,0.0 -51.9004867,-27.4640603992266,0.0 -51.9012933,-27.4625552992266,0.0 -51.9024965,-27.4611029992266,0.0 -51.9039251,-27.4598367992267,0.0 -51.9048557,-27.4593476992267,0.0 -51.9057863,-27.4588585992267,0.0 -51.9075122,-27.4582318992267,0.0 -51.9103514,-27.4579141992267,0.0 -51.9119602,-27.4577397992267,0.0 -51.9143612,-27.4578219992267,0.0 -51.9164772,-27.4580868992267,0.0 -51.9174308,-27.4582606992267,0.0 -51.9183845,-27.4584343992267,0.0 -51.9199879,-27.4589645992267,0.0 -51.9216536,-27.4598307992267,0.0 -51.9236695,-27.4608166992266,0.0 -51.9256111,-27.4616342992266,0.0 -51.9272316,-27.4623826992266,0.0 -51.928131,-27.4628791992266,0.0 -51.928738,-27.4632142992266,0.0 -51.9305073,-27.4642823992266,0.0 -51.9319537,-27.4655329992266,0.0 -51.9332157,-27.4665083992265,0.0 -51.93342,-27.4666662992265,0.0 -51.9349065,-27.4676318992265,0.0 -51.9365238,-27.4688164992265,0.0 -51.9378039,-27.4695962992265,0.0 -51.9398198,-27.4706154992265,0.0 -51.9418743,-27.4715510992264,0.0 -51.9437889,-27.4724464992264,0.0 -51.9449946,-27.4730914992264,0.0 -51.9473519,-27.4740119992264,0.0 -51.9490873,-27.4746432992264,0.0 -51.9508222,-27.4753249992264,0.0 -51.9521509,-27.4752903992264,0.0 -51.9523923,-27.4752840992264,0.0 -51.9544867,-27.4753298992264,0.0 -51.9564789,-27.4751239992264,0.0 -51.9582815,-27.4743628992264,0.0 -51.9598773,-27.4734158992264,0.0 -51.9612299,-27.4721318992264,0.0 -51.9623158,-27.4710978992265,0.0 -51.9631758,-27.4699284992265,0.0 -51.9639065,-27.4683218992265,0.0 -51.9642021,-27.4667462992265,0.0 -51.9642665,-27.4657229992266,0.0 -51.9641832,-27.4642290992266,0.0 -51.9637942,-27.4631359992266,0.0 -51.9627061,-27.4620350992266,0.0 -51.9621426,-27.4614649992266,0.0 -51.9605414,-27.4606331992266,0.0 -51.9581683,-27.4593604992267,0.0 -51.9558686,-27.4583734992267,0.0 -51.9533706,-27.4573563992267,0.0 -51.9517137,-27.4563897992267,0.0 -51.9502272,-27.4554075992267,0.0 -51.9483839,-27.4541042992268,0.0 -51.9472937,-27.4532418992268,0.0 -51.94547,-27.4518715992268,0.0 -51.9437212,-27.4506024992268,0.0 -51.9416734,-27.4488784992269,0.0 -51.9404552,-27.4474782992269,0.0 -51.9392184,-27.4460275992269,0.0 -51.9380014,-27.4444594992269,0.0 -51.9363889,-27.442445899227,0.0 -51.9361876,-27.442159999227,0.0 -51.9359257,-27.441787999227,0.0 -51.9352854,-27.440878399227,0.0 -51.9341248,-27.439377799227,0.0 -51.9335484,-27.4381324992271,0.0 -51.9332874,-27.4352278992271,0.0 -51.9334922,-27.4332154992272,0.0 -51.9339782,-27.4315068992272,0.0 -51.9350881,-27.4298020992272,0.0 -51.9357769,-27.4287490992273,0.0 -51.9372698,-27.4273064992273,0.0 -51.9393226,-27.4259259992273,0.0 -51.9429736,-27.4232295992274,0.0 -51.9466233,-27.4206339992274,0.0 -51.9489031,-27.4191542992274,0.0 -51.9512992,-27.4173061992275,0.0 -51.9535784,-27.4158934992275,0.0 -51.9553815,-27.4149477992275,0.0 -51.957905,-27.4137377992275,0.0 -51.9608253,-27.4125635992276,0.0 -51.9625121,-27.4120196992276,0.0 -51.9662231,-27.4111397992276,0.0 -51.9687787,-27.4106514992276,0.0 -51.971862,-27.4103675992276,0.0 -51.9743012,-27.4102644992276,0.0 -51.9747037,-27.4102681992276,0.0 -51.9790076,-27.4103086992276,0.0 -51.9813701,-27.4103559992276,0.0 -51.9845112,-27.4104916992276,0.0 -51.987763,-27.4104432992276,0.0 -51.9925271,-27.4103699992276,0.0 -51.9964409,-27.4102413992276,0.0 -51.9995823,-27.4097389992276,0.0 -52.0017243,-27.4088953992276,0.0 -52.0024924,-27.4085472992276,0.0 -52.0032605,-27.4081992992276,0.0 -52.0049703,-27.4070173992277,0.0 -52.0063787,-27.4056827992277,0.0 -52.0077968,-27.4038971992277,0.0 -52.0084713,-27.4020717992278,0.0 -52.008691,-27.4004116992278,0.0 -52.0086081,-27.3987835992278,0.0 -52.0076409,-27.3965798992279,0.0 -52.0065747,-27.3950300992279,0.0 -52.0047901,-27.3935098992279,0.0 -52.0028505,-27.3925255992279,0.0 -52.00059,-27.391489199228,0.0 -51.9980631,-27.390702899228,0.0 -51.9956849,-27.390252899228,0.0 -51.9930373,-27.389540699228,0.0 -51.9909427,-27.389092499228,0.0 -51.9884299,-27.388977399228,0.0 -51.9848029,-27.388755099228,0.0 -51.9822146,-27.388639399228,0.0 -51.9786975,-27.388904199228,0.0 -51.9755545,-27.389674499228,0.0 -51.9738287,-27.390469899228,0.0 -51.9700224,-27.3918906992279,0.0 -51.9678438,-27.3925490992279,0.0 -51.9636586,-27.3936317992279,0.0 -51.9607628,-27.3941682992279,0.0 -51.9571458,-27.3951199992279,0.0 -51.953912,-27.3953690992279,0.0 -51.952099,-27.3951735992279,0.0 -51.9506299,-27.3945103992279,0.0 -51.9496181,-27.3933631992279,0.0 -51.9490957,-27.3924706992279,0.0 -51.9487108,-27.390907699228,0.0 -51.9486071,-27.389631799228,0.0 -51.9487552,-27.387568599228,0.0 -51.9489391,-27.3857573992281,0.0 -51.9494086,-27.3844343992281,0.0 -51.9500801,-27.3831381992281,0.0 -51.951,-27.3814823992281,0.0 -51.9520867,-27.3802470992282,0.0 -51.9537767,-27.3791832992282,0.0 -51.9563584,-27.3776549992282,0.0 -51.9578566,-27.3769423992282,0.0 -51.9605129,-27.3755150992283,0.0 -51.9624101,-27.3745195992283,0.0 -51.9650815,-27.3735956992283,0.0 -51.9679592,-27.3728910992283,0.0 -51.9703297,-27.3726557992283,0.0 -51.9721457,-27.3724147992283,0.0 -51.9734125,-27.3723382992283,0.0 -51.9751692,-27.3724324992283,0.0 -51.9777915,-27.3730182992283,0.0 -51.9808271,-27.3739253992283,0.0 -51.9827293,-27.3747753992283,0.0 -51.9834123,-27.3750817992283,0.0 -51.9869194,-27.3723910992283,0.0 -51.9874178,-27.3721038992283,0.0 -51.9879178,-27.3718043992283,0.0 -51.9884133,-27.3714977992283,0.0 -51.9888967,-27.3711893992283,0.0 -51.9893611,-27.3708838992283,0.0 -51.9898,-27.3705866992284,0.0 -51.9902072,-27.3703010992283,0.0 -51.9905839,-27.3700266992284,0.0 -51.9909311,-27.3697621992284,0.0 -51.9912517,-27.3695055992284,0.0 -51.9915461,-27.3692543992284,0.0 -51.9918178,-27.3690077992284,0.0 -51.9920678,-27.3687627992284,0.0 -51.9922978,-27.3685188992284,0.0 -51.9925094,-27.3682738992284,0.0 -51.9927028,-27.3680277992284,0.0 -51.9928761,-27.3677788992284,0.0 -51.99303,-27.3675277992284,0.0 -51.9931633,-27.3672738992284,0.0 -51.9932744,-27.3670171992284,0.0 -51.9933639,-27.3667560992284,0.0 -51.9934306,-27.3664916992284,0.0 -51.9934739,-27.3662232992284,0.0 -51.9934961,-27.3659532992284,0.0 -51.9934994,-27.3656843992284,0.0 -51.9934856,-27.3654199992284,0.0 -51.9934578,-27.3651627992284,0.0 -51.9934172,-27.3649160992284,0.0 -51.9933672,-27.3646816992285,0.0 -51.9933089,-27.3644632992285,0.0 -51.993245,-27.3642632992285,0.0 -51.9931744,-27.3640816992285,0.0 -51.9930978,-27.3639182992285,0.0 -51.9930128,-27.3637727992285,0.0 -51.99292,-27.3636449992285,0.0 -51.9928183,-27.3635343992285,0.0 -51.9927067,-27.3634405992285,0.0 -51.9925844,-27.3633638992285,0.0 -51.9924517,-27.3633038992285,0.0 -51.9923078,-27.3632593992285,0.0 -51.9921539,-27.3632299992285,0.0 -51.9919894,-27.3632149992285,0.0 -51.991815,-27.3632138992285,0.0 -51.9916311,-27.3632255992285,0.0 -51.9914383,-27.3632499992285,0.0 -51.9912367,-27.3632860992285,0.0 -51.9910261,-27.3633327992285,0.0 -51.9908078,-27.3633893992285,0.0 -51.9905822,-27.3634549992285,0.0 -51.9903506,-27.3635282992285,0.0 -51.9901656,-27.3635899992285,0.0 -51.9898711,-27.3636921992285,0.0 -51.989625,-27.3637810992285,0.0 -51.9893756,-27.3638727992285,0.0 -51.9888706,-27.3640593992285,0.0 -51.9886183,-27.3641510992285,0.0 -51.9883678,-27.3642399992285,0.0 -51.9881206,-27.3643238992285,0.0 -51.9878783,-27.3644010992285,0.0 -51.9876433,-27.3644705992285,0.0 -51.9874161,-27.3645299992285,0.0 -51.9871978,-27.3645788992285,0.0 -51.9869856,-27.3646155992285,0.0 -51.9867772,-27.3646410992285,0.0 -51.9865689,-27.3646543992285,0.0 -51.9863578,-27.3646566992285,0.0 -51.9861411,-27.3646466992285,0.0 -51.9859144,-27.3646243992285,0.0 -51.9856761,-27.3645905992285,0.0 -51.9854222,-27.3645438992285,0.0 -51.9851522,-27.3644827992285,0.0 -51.9848656,-27.3644049992285,0.0 -51.9845617,-27.3643088992285,0.0 -51.9842389,-27.3641916992285,0.0 -51.9838978,-27.3640510992285,0.0 -51.98346,-27.3638471992285,0.0 -51.983155,-27.3636927992285,0.0 -51.9827533,-27.3634721992285,0.0 -51.9823356,-27.3632293992285,0.0 -51.9819056,-27.3629716992285,0.0 -51.9814689,-27.3627060992285,0.0 -51.9808944,-27.3623616992285,0.0 -51.9805917,-27.3621827992285,0.0 -51.9801611,-27.3619399992285,0.0 -51.9797422,-27.3617182992285,0.0 -51.9792261,-27.3614777992285,0.0 -51.978945,-27.3613582992285,0.0 -51.9785617,-27.3612160992285,0.0 -51.9781839,-27.3610949992285,0.0 -51.9778072,-27.3609927992285,0.0 -51.9774283,-27.3609066992285,0.0 -51.9770439,-27.3608338992285,0.0 -51.9766233,-27.3607682992285,0.0 -51.9762456,-27.3607182992285,0.0 -51.9758344,-27.3606716992285,0.0 -51.9751433,-27.3606027992285,0.0 -51.9746306,-27.3605538992285,0.0 -51.9742606,-27.3605166992285,0.0 -51.9739178,-27.3604777992285,0.0 -51.9736083,-27.3604355992285,0.0 -51.9733372,-27.3603882992285,0.0 -51.9731028,-27.3603327992285,0.0 -51.9729017,-27.3602638992285,0.0 -51.9727306,-27.3601793992285,0.0 -51.9725856,-27.3600743992285,0.0 -51.9724633,-27.3599455992286,0.0 -51.9723611,-27.3597888992286,0.0 -51.9722744,-27.3596010992286,0.0 -51.9722011,-27.3593788992286,0.0 -51.9721394,-27.3591282992286,0.0 -51.9720883,-27.3588543992286,0.0 -51.9720472,-27.3585638992286,0.0 -51.9720139,-27.3582627992286,0.0 -51.9719889,-27.3579571992286,0.0 -51.9719706,-27.3576538992286,0.0 -51.9719572,-27.3573582992286,0.0 -51.9719489,-27.3570760992286,0.0 -51.9719433,-27.3568077992286,0.0 -51.9719378,-27.3565543992286,0.0 -51.9719317,-27.3563155992286,0.0 -51.9719222,-27.3560916992286,0.0 -51.9719078,-27.3558821992286,0.0 -51.9718867,-27.3556882992286,0.0 -51.9718561,-27.3555088992286,0.0 -51.9718156,-27.3553449992286,0.0 -51.9717639,-27.3551960992286,0.0 -51.9717022,-27.3550610992286,0.0 -51.9715883,-27.3548860992286,0.0 -51.9715472,-27.3548316992286,0.0 -51.9714544,-27.3547360992286,0.0 -51.9713522,-27.3546527992286,0.0 -51.97124,-27.3545810992287,0.0 -51.9711178,-27.3545205992287,0.0 -51.9709867,-27.3544721992287,0.0 -51.9708467,-27.3544360992287,0.0 -51.9706978,-27.3544138992287,0.0 -51.9705406,-27.3544060992287,0.0 -51.9703756,-27.3544138992287,0.0 -51.9702033,-27.3544377992287,0.0 -51.9700233,-27.3544788992287,0.0 -51.9698361,-27.3545371992287,0.0 -51.9696422,-27.3546138992286,0.0 -51.9694417,-27.3547077992287,0.0 -51.9692333,-27.3548193992286,0.0 -51.9690189,-27.3549477992286,0.0 -51.9687967,-27.3550927992287,0.0 -51.9685683,-27.3552549992286,0.0 -51.9683322,-27.3554332992286,0.0 -51.9680889,-27.3556277992286,0.0 -51.967835,-27.3558366992286,0.0 -51.9675672,-27.3560582992286,0.0 -51.9672811,-27.3562916992286,0.0 -51.9669744,-27.3565343992286,0.0 -51.9666422,-27.3567855992286,0.0 -51.9662817,-27.3570427992286,0.0 -51.9658894,-27.3573049992286,0.0 -51.9654633,-27.3575699992286,0.0 -51.9650106,-27.3578371992286,0.0 -51.9645383,-27.3581049992286,0.0 -51.9640561,-27.3583710992286,0.0 -51.9630939,-27.3588960992286,0.0 -51.9626311,-27.3591516992286,0.0 -51.9621917,-27.3594010992286,0.0 -51.9617817,-27.3596427992286,0.0 -51.9614028,-27.3598755992286,0.0 -51.9610539,-27.3600988992285,0.0 -51.9607339,-27.3603121992285,0.0 -51.9604422,-27.3605143992285,0.0 -51.9601772,-27.3607043992285,0.0 -51.9599389,-27.3608810992285,0.0 -51.9597256,-27.3610449992285,0.0 -51.9595367,-27.3611938992285,0.0 -51.95937,-27.3613282992285,0.0 -51.9590906,-27.3615571992285,0.0 -51.9589728,-27.3616527992285,0.0 -51.9588661,-27.3617349992285,0.0 -51.9587683,-27.3618060992285,0.0 -51.9586556,-27.3618766992285,0.0 -51.9585872,-27.3619138992285,0.0 -51.9585017,-27.3619510992285,0.0 -51.9584178,-27.3619771992285,0.0 -51.9583367,-27.3619921992285,0.0 -51.9582578,-27.3619966992285,0.0 -51.9581794,-27.3619899992285,0.0 -51.9581033,-27.3619721992285,0.0 -51.9580272,-27.3619438992285,0.0 -51.9579522,-27.3619038992285,0.0 -51.9578789,-27.3618538992285,0.0 -51.9578072,-27.3617927992285,0.0 -51.9577389,-27.3617205992285,0.0 -51.9576739,-27.3616388992285,0.0 -51.9576139,-27.3615460992285,0.0 -51.9575594,-27.3614438992285,0.0 -51.9575111,-27.3613310992285,0.0 -51.9574694,-27.3612082992285,0.0 -51.9574356,-27.3610755992285,0.0 -51.9574094,-27.3609316992285,0.0 -51.9573911,-27.3607755992285,0.0 -51.9573817,-27.3606077992285,0.0 -51.9573817,-27.3604271992285,0.0 -51.9573906,-27.3602332992285,0.0 -51.95741,-27.3600255992285,0.0 -51.9574394,-27.3598027992286,0.0 -51.9574811,-27.3595660992285,0.0 -51.9575367,-27.3593143992286,0.0 -51.9576078,-27.3590482992286,0.0 -51.9576967,-27.3587666992286,0.0 -51.9578056,-27.3584705992286,0.0 -51.9579356,-27.3581593992286,0.0 -51.9580889,-27.3578332992286,0.0 -51.9582661,-27.3574916992286,0.0 -51.9584661,-27.3571360992286,0.0 -51.9586856,-27.3567677992286,0.0 -51.9589217,-27.3563866992286,0.0 -51.9591717,-27.3559943992286,0.0 -51.9594322,-27.3555921992286,0.0 -51.9599761,-27.3547605992286,0.0 -51.9602533,-27.3543338992287,0.0 -51.9605311,-27.3539027992287,0.0 -51.9608067,-27.3534699992287,0.0 -51.9610778,-27.3530393992287,0.0 -51.9613422,-27.3526127992287,0.0 -51.9615983,-27.3521938992287,0.0 -51.9618428,-27.3517855992287,0.0 -51.9619586,-27.3515880992287,0.0 -51.9620744,-27.3513905992287,0.0 -51.9621825,-27.3512005992287,0.0 -51.9622906,-27.3510105992287,0.0 -51.9624917,-27.3506466992287,0.0 -51.9626789,-27.3502971992287,0.0 -51.9628522,-27.3499610992287,0.0 -51.9630139,-27.3496382992287,0.0 -51.9631633,-27.3493277992287,0.0 -51.9633022,-27.3490277992288,0.0 -51.9634306,-27.3487388992288,0.0 -51.96355,-27.3484593992288,0.0 -51.96366,-27.3481893992288,0.0 -51.9637606,-27.3479293992288,0.0 -51.9638528,-27.3476788992288,0.0 -51.9639356,-27.3474388992288,0.0 -51.96401,-27.3472082992288,0.0 -51.9640756,-27.3469882992288,0.0 -51.9641328,-27.3467788992288,0.0 -51.9641811,-27.3465793992288,0.0 -51.9642222,-27.3463893992288,0.0 -51.9642556,-27.3462077992288,0.0 -51.9642822,-27.3460332992288,0.0 -51.9643022,-27.3458655992288,0.0 -51.9643167,-27.3457027992288,0.0 -51.9643261,-27.3455449992288,0.0 -51.9643306,-27.3453905992288,0.0 -51.9643311,-27.3452382992288,0.0 -51.9643278,-27.3450882992288,0.0 -51.96432,-27.3449410992288,0.0 -51.9643089,-27.3447960992288,0.0 -51.9642933,-27.3446527992288,0.0 -51.9642739,-27.3445116992288,0.0 -51.9642511,-27.3443727992288,0.0 -51.9642244,-27.3442355992288,0.0 -51.9641944,-27.3441005992289,0.0 -51.9641611,-27.3439677992289,0.0 -51.9641256,-27.3438371992289,0.0 -51.9640883,-27.3437105992289,0.0 -51.9640494,-27.3435871992289,0.0 -51.96401,-27.3434677992289,0.0 -51.9639706,-27.3433527992289,0.0 -51.9639317,-27.3432421992289,0.0 -51.9638939,-27.3431371992289,0.0 -51.9638567,-27.3430360992289,0.0 -51.96382,-27.3429377992289,0.0 -51.9637822,-27.3428405992289,0.0 -51.9637439,-27.3427443992289,0.0 -51.9637039,-27.3426466992289,0.0 -51.9636622,-27.3425466992289,0.0 -51.9636178,-27.3424432992289,0.0 -51.9635706,-27.3423355992289,0.0 -51.9635206,-27.3422249992289,0.0 -51.9634683,-27.3421127992289,0.0 -51.9634139,-27.3420010992289,0.0 -51.9633578,-27.3418905992289,0.0 -51.9633006,-27.3417838992289,0.0 -51.9632417,-27.3416821992289,0.0 -51.9631822,-27.3415871992289,0.0 -51.9631222,-27.3415005992289,0.0 -51.9630617,-27.3414216992289,0.0 -51.9629994,-27.3413499992289,0.0 -51.962935,-27.3412849992289,0.0 -51.9628689,-27.3412271992289,0.0 -51.9627994,-27.3411749992289,0.0 -51.9627267,-27.3411282992289,0.0 -51.9626506,-27.3410866992289,0.0 -51.96257,-27.3410493992289,0.0 -51.9624861,-27.3410177992289,0.0 -51.9623994,-27.3409916992289,0.0 -51.9623106,-27.3409716992289,0.0 -51.9622206,-27.3409588992289,0.0 -51.9621306,-27.3409532992289,0.0 -51.9620406,-27.3409549992289,0.0 -51.9619517,-27.3409660992289,0.0 -51.9618644,-27.3409855992289,0.0 -51.9617783,-27.3410149992289,0.0 -51.9616933,-27.3410538992289,0.0 -51.9616094,-27.3411032992289,0.0 -51.961525,-27.3411632992289,0.0 -51.9614406,-27.3412343992289,0.0 -51.961355,-27.3413171992289,0.0 -51.9612683,-27.3414121992289,0.0 -51.96118,-27.3415193992289,0.0 -51.9610917,-27.3416371992289,0.0 -51.9610028,-27.3417649992289,0.0 -51.9609156,-27.3419010992289,0.0 -51.96083,-27.3420432992289,0.0 -51.9607472,-27.3421910992289,0.0 -51.9606689,-27.3423427992289,0.0 -51.960595,-27.3424971992289,0.0 -51.9605267,-27.3426521992289,0.0 -51.9604639,-27.3428088992289,0.0 -51.9604061,-27.3429671992289,0.0 -51.9603533,-27.3431271992289,0.0 -51.9603044,-27.3432888992289,0.0 -51.96026,-27.3434532992289,0.0 -51.9602189,-27.3436205992289,0.0 -51.9601806,-27.3437910992289,0.0 -51.9601456,-27.3439638992289,0.0 -51.9601128,-27.3441393992289,0.0 -51.96005,-27.3444905992289,0.0 -51.9600183,-27.3446638992288,0.0 -51.959985,-27.3448343992288,0.0 -51.9599506,-27.3449999992288,0.0 -51.9599128,-27.3451605992288,0.0 -51.9598717,-27.3453138992288,0.0 -51.9598261,-27.3454616992288,0.0 -51.9597761,-27.3456032992288,0.0 -51.9597217,-27.3457405992288,0.0 -51.9596622,-27.3458732992288,0.0 -51.9595967,-27.3460027992288,0.0 -51.959525,-27.3461293992288,0.0 -51.9594472,-27.3462543992288,0.0 -51.9593622,-27.3463771992288,0.0 -51.9592706,-27.3464988992288,0.0 -51.9591717,-27.3466193992288,0.0 -51.9590656,-27.3467382992288,0.0 -51.9589522,-27.3468555992288,0.0 -51.9588306,-27.3469710992288,0.0 -51.9587017,-27.3470855992288,0.0 -51.9585644,-27.3471977992288,0.0 -51.9584189,-27.3473082992288,0.0 -51.958265,-27.3474171992288,0.0 -51.9581011,-27.3475243992288,0.0 -51.9579278,-27.3476293992288,0.0 -51.9577444,-27.3477327992288,0.0 -51.9575494,-27.3478338992288,0.0 -51.9573433,-27.3479332992288,0.0 -51.957125,-27.3480299992288,0.0 -51.9568944,-27.3481249992288,0.0 -51.956655,-27.3482182992288,0.0 -51.9564106,-27.3483099992288,0.0 -51.9561633,-27.3484016992288,0.0 -51.9559183,-27.3484927992288,0.0 -51.9556783,-27.3485843992288,0.0 -51.9554472,-27.3486766992288,0.0 -51.9552283,-27.3487705992288,0.0 -51.955025,-27.3488666992288,0.0 -51.9548361,-27.3489643992288,0.0 -51.9546617,-27.3490643992288,0.0 -51.9545,-27.3491666992288,0.0 -51.9543506,-27.3492710992288,0.0 -51.9542122,-27.3493777992288,0.0 -51.9540839,-27.3494866992288,0.0 -51.953965,-27.3495977992288,0.0 -51.9538539,-27.3497110992287,0.0 -51.95375,-27.3498266992287,0.0 -51.9536517,-27.3499432992287,0.0 -51.9535583,-27.3500610992287,0.0 -51.9534689,-27.3501793992287,0.0 -51.9533817,-27.3502977992287,0.0 -51.9532956,-27.3504155992287,0.0 -51.9532094,-27.3505327992287,0.0 -51.9531228,-27.3506482992287,0.0 -51.953035,-27.3507621992287,0.0 -51.9529467,-27.3508738992287,0.0 -51.9528578,-27.3509821992287,0.0 -51.9527689,-27.3510871992287,0.0 -51.9526789,-27.3511888992287,0.0 -51.9525894,-27.3512855992287,0.0 -51.9525,-27.3513777992287,0.0 -51.9524106,-27.3514638992287,0.0 -51.9523211,-27.3515443992287,0.0 -51.9522317,-27.3516188992287,0.0 -51.9521422,-27.3516866992287,0.0 -51.9520522,-27.3517466992287,0.0 -51.9519617,-27.3517993992287,0.0 -51.9518706,-27.3518438992287,0.0 -51.9517789,-27.3518793992287,0.0 -51.9516867,-27.3519066992287,0.0 -51.9515939,-27.3519249992287,0.0 -51.9515006,-27.3519355992287,0.0 -51.9514078,-27.3519382992287,0.0 -51.951315,-27.3519349992287,0.0 -51.9512233,-27.3519243992287,0.0 -51.9511328,-27.3519082992287,0.0 -51.9510433,-27.3518871992287,0.0 -51.9509556,-27.3518610992287,0.0 -51.95087,-27.3518299992287,0.0 -51.9507861,-27.3517938992287,0.0 -51.9507044,-27.3517521992287,0.0 -51.9506033,-27.3516910992287,0.0 -51.9505483,-27.3516543992287,0.0 -51.9504739,-27.3515971992287,0.0 -51.9504017,-27.3515343992287,0.0 -51.9503328,-27.3514660992287,0.0 -51.9502661,-27.3513938992287,0.0 -51.9502017,-27.3513188992287,0.0 -51.95014,-27.3512427992287,0.0 -51.9500228,-27.3510932992287,0.0 -51.9499667,-27.3510232992287,0.0 -51.9499128,-27.3509582992287,0.0 -51.94986,-27.3508993992287,0.0 -51.9498083,-27.3508460992287,0.0 -51.9497561,-27.3507982992287,0.0 -51.9497033,-27.3507549992287,0.0 -51.9496494,-27.3507149992287,0.0 -51.9495928,-27.3506782992287,0.0 -51.9495328,-27.3506438992287,0.0 -51.9494689,-27.3506110992287,0.0 -51.9494,-27.3505799992287,0.0 -51.9493272,-27.3505493992287,0.0 -51.94925,-27.3505216992287,0.0 -51.9491694,-27.3504960992287,0.0 -51.9490856,-27.3504732992287,0.0 -51.9489989,-27.3504543992287,0.0 -51.9489094,-27.3504399992287,0.0 -51.9488178,-27.3504299992287,0.0 -51.9487244,-27.3504249992287,0.0 -51.9486294,-27.3504243992287,0.0 -51.9485328,-27.3504282992287,0.0 -51.9484344,-27.3504360992287,0.0 -51.9483344,-27.3504460992287,0.0 -51.9482333,-27.3504593992287,0.0 -51.94813,-27.3504743992287,0.0 -51.948025,-27.3504905992287,0.0 -51.9478106,-27.3505255992287,0.0 -51.9477006,-27.3505427992287,0.0 -51.9475883,-27.3505582992287,0.0 -51.9474739,-27.3505721992287,0.0 -51.9473572,-27.3505827992287,0.0 -51.9472383,-27.3505905992287,0.0 -51.9471167,-27.3505932992287,0.0 -51.9469928,-27.3505916992287,0.0 -51.9468678,-27.3505855992287,0.0 -51.9467439,-27.3505749992287,0.0 -51.9466228,-27.3505605992287,0.0 -51.9465067,-27.3505416992287,0.0 -51.9463972,-27.3505199992287,0.0 -51.9462961,-27.3504949992287,0.0 -51.9462061,-27.3504671992287,0.0 -51.9461272,-27.3504360992287,0.0 -51.94606,-27.3504027992287,0.0 -51.9460022,-27.3503660992287,0.0 -51.9459533,-27.3503260992287,0.0 -51.9459111,-27.3502821992287,0.0 -51.9458744,-27.3502338992287,0.0 -51.9458422,-27.3501816992287,0.0 -51.9458133,-27.3501243992287,0.0 -51.9457867,-27.3500621992287,0.0 -51.9457617,-27.3499938992287,0.0 -51.9457389,-27.3499182992287,0.0 -51.9457189,-27.3498343992287,0.0 -51.9457017,-27.3497410992287,0.0 -51.9456872,-27.3496377992287,0.0 -51.9456767,-27.3495221992287,0.0 -51.9456694,-27.3493938992287,0.0 -51.9456661,-27.3492527992288,0.0 -51.9456672,-27.3490993992288,0.0 -51.9456722,-27.3489371992288,0.0 -51.9456822,-27.3487671992288,0.0 -51.9456967,-27.3485921992288,0.0 -51.9457167,-27.3484138992288,0.0 -51.9457417,-27.3482349992288,0.0 -51.9457717,-27.3480571992288,0.0 -51.9458078,-27.3478827992288,0.0 -51.94585,-27.3477127992288,0.0 -51.9458983,-27.3475477992288,0.0 -51.9459539,-27.3473882992288,0.0 -51.9460167,-27.3472355992288,0.0 -51.9460878,-27.3470899992288,0.0 -51.9461667,-27.3469532992288,0.0 -51.9462544,-27.3468249992288,0.0 -51.9463511,-27.3467066992288,0.0 -51.9465089,-27.3465455992288,0.0 -51.9465633,-27.3464943992288,0.0 -51.946675,-27.3463982992288,0.0 -51.9467872,-27.3463077992288,0.0 -51.9468983,-27.3462216992288,0.0 -51.9470061,-27.3461388992288,0.0 -51.9471083,-27.3460577992288,0.0 -51.9472033,-27.3459777992288,0.0 -51.9472911,-27.3458982992288,0.0 -51.9473728,-27.3458188992288,0.0 -51.9474478,-27.3457393992288,0.0 -51.9475167,-27.3456588992288,0.0 -51.9475811,-27.3455777992288,0.0 -51.9476406,-27.3454943992288,0.0 -51.9476956,-27.3454093992288,0.0 -51.9477467,-27.3453216992288,0.0 -51.947795,-27.3452321992288,0.0 -51.9478417,-27.3451410992288,0.0 -51.9479339,-27.3449555992288,0.0 -51.9479811,-27.3448616992288,0.0 -51.9480311,-27.3447682992288,0.0 -51.9480839,-27.3446755992288,0.0 -51.9481411,-27.3445832992288,0.0 -51.9482022,-27.3444921992288,0.0 -51.9482667,-27.3444032992288,0.0 -51.9483339,-27.3443160992288,0.0 -51.9484039,-27.3442321992288,0.0 -51.9484761,-27.3441510992289,0.0 -51.94855,-27.3440732992289,0.0 -51.948625,-27.3439999992289,0.0 -51.9487011,-27.3439305992288,0.0 -51.9487783,-27.3438649992289,0.0 -51.9488572,-27.3438032992289,0.0 -51.9489383,-27.3437432992289,0.0 -51.9490222,-27.3436860992289,0.0 -51.9491089,-27.3436299992289,0.0 -51.9491989,-27.3435743992289,0.0 -51.9492928,-27.3435193992289,0.0 -51.9493906,-27.3434638992289,0.0 -51.9494922,-27.3434082992289,0.0 -51.9495956,-27.3433532992289,0.0 -51.9497011,-27.3432982992289,0.0 -51.9498067,-27.3432438992289,0.0 -51.9499117,-27.3431905992289,0.0 -51.9500156,-27.3431388992289,0.0 -51.9502156,-27.3430393992289,0.0 -51.9503111,-27.3429916992289,0.0 -51.9504039,-27.3429432992289,0.0 -51.950495,-27.3428938992289,0.0 -51.9506278,-27.3428143992289,0.0 -51.9506717,-27.3427871992289,0.0 -51.9507583,-27.3427277992289,0.0 -51.9508439,-27.3426632992289,0.0 -51.9509294,-27.3425927992289,0.0 -51.9510144,-27.3425166992289,0.0 -51.9510994,-27.3424366992289,0.0 -51.9511839,-27.3423527992289,0.0 -51.9512678,-27.3422666992289,0.0 -51.9513517,-27.3421788992289,0.0 -51.9515172,-27.3420021992289,0.0 -51.9515994,-27.3419155992289,0.0 -51.9516811,-27.3418310992289,0.0 -51.9517617,-27.3417482992289,0.0 -51.9518417,-27.3416688992289,0.0 -51.9519206,-27.3415932992289,0.0 -51.9519989,-27.3415210992289,0.0 -51.9520756,-27.3414538992289,0.0 -51.9521506,-27.3413916992289,0.0 -51.952225,-27.3413349992289,0.0 -51.9522989,-27.3412832992289,0.0 -51.9523733,-27.3412355992289,0.0 -51.9524494,-27.3411916992289,0.0 -51.9525289,-27.3411499992289,0.0 -51.9526122,-27.3411105992289,0.0 -51.9527006,-27.3410727992289,0.0 -51.952795,-27.3410355992289,0.0 -51.9528967,-27.3409982992289,0.0 -51.9530044,-27.3409605992289,0.0 -51.9531172,-27.3409227992289,0.0 -51.9533528,-27.3408443992289,0.0 -51.9534733,-27.3408038992289,0.0 -51.9535944,-27.3407621992289,0.0 -51.9537144,-27.3407188992289,0.0 -51.9538333,-27.3406743992289,0.0 -51.9539489,-27.3406282992289,0.0 -51.9540617,-27.3405799992289,0.0 -51.9541694,-27.3405305992289,0.0 -51.9542728,-27.3404782992289,0.0 -51.9543706,-27.3404249992289,0.0 -51.9544617,-27.3403688992289,0.0 -51.954545,-27.3403105992289,0.0 -51.9546211,-27.3402499992289,0.0 -51.9546894,-27.3401877992289,0.0 -51.9547506,-27.3401232992289,0.0 -51.9548044,-27.3400582992289,0.0 -51.9548522,-27.3399916992289,0.0 -51.9548939,-27.3399249992289,0.0 -51.9549294,-27.3398577992289,0.0 -51.95496,-27.3397905992289,0.0 -51.9549856,-27.3397232992289,0.0 -51.9550061,-27.3396560992289,0.0 -51.9550211,-27.3395877992289,0.0 -51.9550306,-27.3395177992289,0.0 -51.9550339,-27.3394449992289,0.0 -51.9550325,-27.3394068992289,0.0 -51.9550311,-27.3393688992289,0.0 -51.9550217,-27.3392888992289,0.0 -51.9550061,-27.3392038992289,0.0 -51.9549833,-27.339114399229,0.0 -51.9549539,-27.3390199992289,0.0 -51.9549183,-27.3389227992289,0.0 -51.9548772,-27.338823299229,0.0 -51.9548306,-27.338722799229,0.0 -51.9547789,-27.338622799229,0.0 -51.9547233,-27.338524399229,0.0 -51.9546628,-27.338428299229,0.0 -51.9545989,-27.338335599229,0.0 -51.9545311,-27.338246099229,0.0 -51.95446,-27.338159399229,0.0 -51.9543856,-27.338073899229,0.0 -51.9543072,-27.337989999229,0.0 -51.9542256,-27.337906699229,0.0 -51.9541406,-27.337823299229,0.0 -51.9540528,-27.337738899229,0.0 -51.9539617,-27.337653899229,0.0 -51.9536817,-27.337395599229,0.0 -51.9535906,-27.337310599229,0.0 -51.9535022,-27.337226699229,0.0 -51.9534183,-27.337144399229,0.0 -51.9533394,-27.337065599229,0.0 -51.9532672,-27.336988899229,0.0 -51.9532017,-27.336914399229,0.0 -51.9531417,-27.336842799229,0.0 -51.9530878,-27.336772199229,0.0 -51.9530389,-27.336702199229,0.0 -51.9529956,-27.336632799229,0.0 -51.9529567,-27.336563299229,0.0 -51.9529222,-27.336493299229,0.0 -51.9528922,-27.336422199229,0.0 -51.9528656,-27.336349999229,0.0 -51.9528428,-27.336277199229,0.0 -51.9528228,-27.336203299229,0.0 -51.9528061,-27.336128299229,0.0 -51.9527917,-27.336052799229,0.0 -51.9527794,-27.335976699229,0.0 -51.9527689,-27.335899999229,0.0 -51.95276,-27.335823299229,0.0 -51.9527361,-27.335587799229,0.0 -51.9527267,-27.335506699229,0.0 -51.9527161,-27.335424999229,0.0 -51.9527028,-27.335341099229,0.0 -51.9526867,-27.335255599229,0.0 -51.9526672,-27.335167799229,0.0 -51.9526433,-27.335078299229,0.0 -51.9526144,-27.334987199229,0.0 -51.95258,-27.334894399229,0.0 -51.95254,-27.334799399229,0.0 -51.9524933,-27.334703299229,0.0 -51.9524389,-27.334604999229,0.0 -51.9523767,-27.334506099229,0.0 -51.9523056,-27.334404399229,0.0 -51.9522217,-27.334297799229,0.0 -51.95212,-27.334182799229,0.0 -51.9519967,-27.334053899229,0.0 -51.9518472,-27.333908899229,0.0 -51.9516667,-27.3337432992291,0.0 -51.9514517,-27.3335538992291,0.0 -51.9511344,-27.3333355992291,0.0 -51.9509939,-27.3332616992291,0.0 -51.9508672,-27.3331982992291,0.0 -51.9507544,-27.3331443992291,0.0 -51.9507333,-27.3331349992291,0.0 -51.9506539,-27.3330982992291,0.0 -51.9505644,-27.3330599992291,0.0 -51.950485,-27.3330271992291,0.0 -51.9504144,-27.3329993992291,0.0 -51.9503511,-27.3329749992291,0.0 -51.9502944,-27.3329538992291,0.0 -51.9502433,-27.3329349992291,0.0 -51.9501961,-27.3329171992291,0.0 -51.9501522,-27.3328999992291,0.0 -51.9501111,-27.3328827992291,0.0 -51.9500706,-27.3328655992291,0.0 -51.9500306,-27.3328466992291,0.0 -51.9499889,-27.3328255992291,0.0 -51.9499461,-27.3328021992291,0.0 -51.9499011,-27.3327760992291,0.0 -51.9498544,-27.3327482992291,0.0 -51.9498061,-27.3327188992291,0.0 -51.9497572,-27.3326877992291,0.0 -51.9497067,-27.3326560992291,0.0 -51.9496556,-27.3326232992291,0.0 -51.9496033,-27.3325899992291,0.0 -51.9495506,-27.3325566992291,0.0 -51.9494983,-27.3325232992291,0.0 -51.9494456,-27.3324899992291,0.0 -51.9493928,-27.3324566992291,0.0 -51.9493411,-27.3324238992291,0.0 -51.94929,-27.3323916992291,0.0 -51.94924,-27.3323599992291,0.0 -51.9491911,-27.3323288992291,0.0 -51.9491439,-27.3322982992291,0.0 -51.9490978,-27.3322682992291,0.0 -51.9490522,-27.3322393992291,0.0 -51.9490067,-27.3322105992291,0.0 -51.9489611,-27.3321821992291,0.0 -51.9489144,-27.3321543992291,0.0 -51.9488667,-27.3321266992291,0.0 -51.9488167,-27.3320988992291,0.0 -51.948765,-27.3320710992291,0.0 -51.9487117,-27.3320438992291,0.0 -51.9486572,-27.3320171992291,0.0 -51.9486022,-27.3319910992291,0.0 -51.9485483,-27.3319666992291,0.0 -51.948495,-27.3319432992291,0.0 -51.9484433,-27.3319216992291,0.0 -51.9483939,-27.3319021992291,0.0 -51.9483472,-27.3318849992291,0.0 -51.9483033,-27.3318699992291,0.0 -51.9482617,-27.3318560992291,0.0 -51.9482211,-27.3318438992291,0.0 -51.9481811,-27.3318332992291,0.0 -51.9481422,-27.3318227992291,0.0 -51.9481033,-27.3318132992291,0.0 -51.9480633,-27.3318038992291,0.0 -51.9480228,-27.3317943992291,0.0 -51.9479817,-27.3317849992291,0.0 -51.9479406,-27.3317755992291,0.0 -51.9478994,-27.3317666992291,0.0 -51.9478594,-27.3317588992291,0.0 -51.9478206,-27.3317516992291,0.0 -51.9477833,-27.3317455992291,0.0 -51.9477489,-27.3317405992291,0.0 -51.9477167,-27.3317371992291,0.0 -51.9476867,-27.3317349992291,0.0 -51.9476578,-27.3317343992291,0.0 -51.9476294,-27.3317349992291,0.0 -51.9476011,-27.3317366992291,0.0 -51.9475717,-27.3317399992291,0.0 -51.9475411,-27.3317443992291,0.0 -51.9475078,-27.3317505992291,0.0 -51.9474717,-27.3317571992291,0.0 -51.9474339,-27.3317655992291,0.0 -51.9473933,-27.3317743992291,0.0 -51.9473522,-27.3317843992291,0.0 -51.9473106,-27.3317955992291,0.0 -51.9472683,-27.3318066992291,0.0 -51.9472272,-27.3318188992291,0.0 -51.9471867,-27.3318310992291,0.0 -51.9471483,-27.3318432992291,0.0 -51.9471111,-27.3318566992291,0.0 -51.947075,-27.3318699992291,0.0 -51.9470394,-27.3318843992291,0.0 -51.9470044,-27.3318993992291,0.0 -51.9469689,-27.3319155992291,0.0 -51.9469328,-27.3319321992291,0.0 -51.9468961,-27.3319510992291,0.0 -51.9468578,-27.3319705992291,0.0 -51.9468183,-27.3319916992291,0.0 -51.9467772,-27.3320143992291,0.0 -51.946735,-27.3320377992291,0.0 -51.9466911,-27.3320621992291,0.0 -51.946645,-27.3320877992291,0.0 -51.9465978,-27.3321143992291,0.0 -51.9465483,-27.3321416992291,0.0 -51.9464967,-27.3321693992291,0.0 -51.9464439,-27.3321982992291,0.0 -51.9463889,-27.3322277992291,0.0 -51.9463333,-27.3322571992291,0.0 -51.9462761,-27.3322877992291,0.0 -51.9462183,-27.3323188992291,0.0 -51.94616,-27.3323499992291,0.0 -51.9461017,-27.3323816992291,0.0 -51.9460428,-27.3324138992291,0.0 -51.9459839,-27.3324460992291,0.0 -51.945925,-27.3324788992291,0.0 -51.9458667,-27.3325110992291,0.0 -51.9458094,-27.3325432992291,0.0 -51.9457522,-27.3325755992291,0.0 -51.9456961,-27.3326066992291,0.0 -51.9456411,-27.3326377992291,0.0 -51.9455872,-27.3326682992291,0.0 -51.945535,-27.3326977992291,0.0 -51.9454839,-27.3327266992291,0.0 -51.9454344,-27.3327549992291,0.0 -51.9453872,-27.3327816992291,0.0 -51.9453411,-27.3328077992291,0.0 -51.9452972,-27.3328332992291,0.0 -51.9452556,-27.3328571992291,0.0 -51.9452167,-27.3328799992291,0.0 -51.9451794,-27.3329016992291,0.0 -51.945145,-27.3329221992291,0.0 -51.9451128,-27.3329416992291,0.0 -51.9450833,-27.3329599992291,0.0 -51.9450567,-27.3329766992291,0.0 -51.9450328,-27.3329921992291,0.0 -51.9450117,-27.3330060992291,0.0 -51.9449939,-27.3330188992291,0.0 -51.9449778,-27.3330305992291,0.0 -51.9449644,-27.3330410992291,0.0 -51.9449522,-27.3330505992291,0.0 -51.9449411,-27.3330588992291,0.0 -51.9449306,-27.3330671992291,0.0 -51.9449194,-27.3330749992291,0.0 -51.9449083,-27.3330827992291,0.0 -51.9448961,-27.3330899992291,0.0 -51.9448828,-27.3330971992291,0.0 -51.9448678,-27.3331049992291,0.0 -51.9448517,-27.3331121992291,0.0 -51.9448333,-27.3331193992291,0.0 -51.9448128,-27.3331260992291,0.0 -51.94479,-27.3331332992291,0.0 -51.944765,-27.3331399992291,0.0 -51.9447378,-27.3331466992291,0.0 -51.9447078,-27.3331527992291,0.0 -51.9446761,-27.3331588992291,0.0 -51.9446433,-27.3331643992291,0.0 -51.9446089,-27.333169399229,0.0 -51.9445744,-27.3331738992291,0.0 -51.94454,-27.3331777992291,0.0 -51.944505,-27.3331805992291,0.0 -51.9444711,-27.3331827992291,0.0 -51.9444383,-27.3331843992291,0.0 -51.9444056,-27.3331849992291,0.0 -51.9443744,-27.3331849992291,0.0 -51.9443439,-27.3331838992291,0.0 -51.9443144,-27.3331827992291,0.0 -51.9442867,-27.3331805992291,0.0 -51.94426,-27.3331782992291,0.0 -51.9442344,-27.3331760992291,0.0 -51.9442106,-27.3331727992291,0.0 -51.9441872,-27.333169399229,0.0 -51.944165,-27.3331660992291,0.0 -51.9441433,-27.3331627992291,0.0 -51.9441222,-27.3331593992291,0.0 -51.9441011,-27.3331566992291,0.0 -51.9440806,-27.3331538992291,0.0 -51.94406,-27.3331510992291,0.0 -51.9440394,-27.3331493992291,0.0 -51.9440183,-27.3331477992291,0.0 -51.9439978,-27.3331466992291,0.0 -51.9439772,-27.3331460992291,0.0 -51.9439567,-27.3331466992291,0.0 -51.9439367,-27.3331471992291,0.0 -51.9439167,-27.3331488992291,0.0 -51.9438967,-27.3331516992291,0.0 -51.9438772,-27.3331549992291,0.0 -51.9438561,-27.3331588992291,0.0 -51.943835,-27.3331643992291,0.0 -51.9438117,-27.3331705992291,0.0 -51.9437867,-27.3331782992291,0.0 -51.9437594,-27.3331871992291,0.0 -51.9437294,-27.3331971992291,0.0 -51.9436961,-27.3332082992291,0.0 -51.9436606,-27.3332210992291,0.0 -51.9436222,-27.3332355992291,0.0 -51.9435822,-27.3332516992291,0.0 -51.94354,-27.3332693992291,0.0 -51.9434972,-27.3332893992291,0.0 -51.9434533,-27.3333110992291,0.0 -51.9434094,-27.3333343992291,0.0 -51.9433761,-27.3333693992291,0.0 -51.9433322,-27.3334382992291,0.0 -51.943285,-27.3334843992291,0.0 -51.943245,-27.3335266992291,0.0 -51.9432106,-27.333566699229,0.0 -51.9431811,-27.333604399229,0.0 -51.943155,-27.333639999229,0.0 -51.9431317,-27.333674999229,0.0 -51.9431106,-27.333709399229,0.0 -51.94309,-27.3337432992291,0.0 -51.9430711,-27.333776699229,0.0 -51.9430528,-27.3338093992291,0.0 -51.9430356,-27.333842799229,0.0 -51.9429833,-27.333941099229,0.0 -51.9429128,-27.334074399229,0.0 -51.9428956,-27.334106699229,0.0 -51.94288,-27.334139399229,0.0 -51.942865,-27.334171099229,0.0 -51.9428517,-27.334201699229,0.0 -51.9428394,-27.334231699229,0.0 -51.9428289,-27.334261099229,0.0 -51.9428194,-27.334289399229,0.0 -51.9428111,-27.334317199229,0.0 -51.9428039,-27.334344399229,0.0 -51.9427967,-27.334371099229,0.0 -51.9427778,-27.334448899229,0.0 -51.9427711,-27.334473899229,0.0 -51.9427639,-27.334498899229,0.0 -51.942755,-27.334523899229,0.0 -51.9427444,-27.334548299229,0.0 -51.9427322,-27.334572799229,0.0 -51.9427172,-27.334597199229,0.0 -51.9426994,-27.334621699229,0.0 -51.9426789,-27.334646099229,0.0 -51.942655,-27.334670599229,0.0 -51.9426289,-27.334694999229,0.0 -51.9426006,-27.334719399229,0.0 -51.94257,-27.334743899229,0.0 -51.9425378,-27.334768299229,0.0 -51.9425044,-27.334792799229,0.0 -51.9424706,-27.334817199229,0.0 -51.9424006,-27.334866099229,0.0 -51.942365,-27.334890599229,0.0 -51.9423294,-27.334913899229,0.0 -51.9422944,-27.334936699229,0.0 -51.9422589,-27.334958899229,0.0 -51.9422239,-27.334979999229,0.0 -51.9421894,-27.334999999229,0.0 -51.9421556,-27.335018299229,0.0 -51.9421217,-27.335036099229,0.0 -51.9420233,-27.335087799229,0.0 -51.9419906,-27.335105599229,0.0 -51.9419578,-27.335124399229,0.0 -51.9419244,-27.335144399229,0.0 -51.9418911,-27.335166699229,0.0 -51.9418578,-27.335189999229,0.0 -51.941825,-27.335214999229,0.0 -51.9417922,-27.335239999229,0.0 -51.94176,-27.335265599229,0.0 -51.9417289,-27.335291699229,0.0 -51.9416994,-27.335316699229,0.0 -51.9416711,-27.335341699229,0.0 -51.9416444,-27.335365599229,0.0 -51.9416189,-27.335388299229,0.0 -51.9415711,-27.335433299229,0.0 -51.9414739,-27.335527199229,0.0 -51.9414183,-27.335579399229,0.0 -51.9413594,-27.335634399229,0.0 -51.9413294,-27.335662199229,0.0 -51.9412689,-27.335716699229,0.0 -51.9412394,-27.335742799229,0.0 -51.9412111,-27.335767799229,0.0 -51.9411572,-27.335813299229,0.0 -51.9411322,-27.335833899229,0.0 -51.9410867,-27.335869999229,0.0 -51.9410483,-27.335898899229,0.0 -51.9410322,-27.335909999229,0.0 -51.9410183,-27.335919999229,0.0 -51.941005,-27.335927799229,0.0 -51.9409933,-27.335934399229,0.0 -51.9409817,-27.335939399229,0.0 -51.9409706,-27.335943899229,0.0 -51.9409594,-27.335947199229,0.0 -51.9409472,-27.335949399229,0.0 -51.9409344,-27.335951699229,0.0 -51.9409211,-27.335952799229,0.0 -51.94089,-27.335954999229,0.0 -51.9408122,-27.335958899229,0.0 -51.9406983,-27.335965599229,0.0 -51.9406644,-27.335966699229,0.0 -51.9406406,-27.335967199229,0.0 -51.9406178,-27.335967199229,0.0 -51.9405967,-27.335966099229,0.0 -51.9405761,-27.335964399229,0.0 -51.9405556,-27.335961099229,0.0 -51.9405339,-27.335957199229,0.0 -51.9405106,-27.335951699229,0.0 -51.9404844,-27.335944399229,0.0 -51.9404544,-27.335935599229,0.0 -51.9403811,-27.335911699229,0.0 -51.9401183,-27.335824399229,0.0 -51.9399911,-27.335782799229,0.0 -51.9397178,-27.335694999229,0.0 -51.9396833,-27.335683599229,0.0 -51.9396489,-27.335672199229,0.0 -51.9395811,-27.335649399229,0.0 -51.9395144,-27.335626699229,0.0 -51.9394822,-27.335614999229,0.0 -51.93945,-27.335603299229,0.0 -51.9394378,-27.335598299229,0.0 -51.9394144,-27.335611699229,0.0 -51.9393906,-27.335627199229,0.0 -51.9393561,-27.335653899229,0.0 -51.9393328,-27.335678299229,0.0 -51.9393028,-27.335703299229,0.0 -51.9392572,-27.335758299229,0.0 -51.9392217,-27.335817799229,0.0 -51.9391806,-27.335884999229,0.0 -51.9391422,-27.335944999229,0.0 -51.9390994,-27.336003299229,0.0 -51.9390444,-27.336056699229,0.0 -51.9389978,-27.336110599229,0.0 -51.9389661,-27.336186099229,0.0 -51.9389628,-27.336257199229,0.0 -51.9389817,-27.336331699229,0.0 -51.9390033,-27.336416099229,0.0 -51.9390161,-27.336485599229,0.0 -51.9390272,-27.336553899229,0.0 -51.9390411,-27.336619399229,0.0 -51.9390272,-27.336696099229,0.0 -51.9389978,-27.336774999229,0.0 -51.9389778,-27.336839399229,0.0 -51.9389556,-27.336910599229,0.0 -51.9389439,-27.336993899229,0.0 -51.9389139,-27.337066099229,0.0 -51.9388911,-27.337142199229,0.0 -51.9388617,-27.337205599229,0.0 -51.938825,-27.337268899229,0.0 -51.9387683,-27.337321099229,0.0 -51.9387011,-27.337353899229,0.0 -51.9386452,-27.337370799229,0.0 -51.9386222,-27.337377799229,0.0 -51.938545,-27.337384999229,0.0 -51.9384889,-27.337423899229,0.0 -51.9384767,-27.337486699229,0.0 -51.9384467,-27.337544999229,0.0 -51.9383933,-27.337594399229,0.0 -51.93836,-27.337655599229,0.0 -51.9383561,-27.337720599229,0.0 -51.9383233,-27.337781699229,0.0 -51.938285,-27.337837799229,0.0 -51.9382611,-27.337901099229,0.0 -51.9382467,-27.337971699229,0.0 -51.9382311,-27.338038899229,0.0 -51.9381667,-27.338186699229,0.0 -51.9381511,-27.338257199229,0.0 -51.9381328,-27.338320599229,0.0 -51.9381156,-27.338382799229,0.0 -51.9380944,-27.338445599229,0.0 -51.9380694,-27.338510599229,0.0 -51.9380483,-27.338571699229,0.0 -51.9380211,-27.338633899229,0.0 -51.9379872,-27.338697199229,0.0 -51.9379578,-27.338760599229,0.0 -51.9379344,-27.338821099229,0.0 -51.9379072,-27.338894399229,0.0 -51.9378822,-27.338958299229,0.0 -51.9378506,-27.3390505992289,0.0 -51.9378289,-27.3391149992289,0.0 -51.9378006,-27.3391910992289,0.0 -51.9377767,-27.3392538992289,0.0 -51.9377422,-27.3393188992289,0.0 -51.9377044,-27.3393793992289,0.0 -51.9376661,-27.3394416992289,0.0 -51.9376322,-27.3395093992289,0.0 -51.9376067,-27.3395805992289,0.0 -51.9375911,-27.3396438992289,0.0 -51.9375678,-27.3397160992289,0.0 -51.9375278,-27.3397921992289,0.0 -51.9375,-27.3398366992289,0.0 -51.9374822,-27.3398649992289,0.0 -51.9374261,-27.3399282992289,0.0 -51.937375,-27.3399899992289,0.0 -51.9373244,-27.3400460992289,0.0 -51.9372761,-27.3400943992289,0.0 -51.937225,-27.3401466992289,0.0 -51.9371678,-27.3402071992289,0.0 -51.937115,-27.3402699992289,0.0 -51.9370656,-27.3403255992289,0.0 -51.9370167,-27.3403782992289,0.0 -51.9369522,-27.3404393992289,0.0 -51.9368861,-27.3404960992289,0.0 -51.9368228,-27.3405471992289,0.0 -51.9367661,-27.3405943992289,0.0 -51.9367128,-27.3406427992289,0.0 -51.9366456,-27.3406910992289,0.0 -51.9365683,-27.3407477992289,0.0 -51.9365189,-27.3407932992289,0.0 -51.9364672,-27.3408532992289,0.0 -51.9364406,-27.3408993992289,0.0 -51.9363939,-27.3409505992289,0.0 -51.9363422,-27.3409955992289,0.0 -51.936285,-27.3410455992289,0.0 -51.9361989,-27.3410982992289,0.0 -51.9361294,-27.3411366992289,0.0 -51.9360589,-27.3411771992289,0.0 -51.9359867,-27.3412232992289,0.0 -51.93592,-27.3412760992289,0.0 -51.9358944,-27.3412977992289,0.0 -51.9358406,-27.3413399992289,0.0 -51.9357761,-27.3413821992289,0.0 -51.9357167,-27.3414171992289,0.0 -51.9356539,-27.3414549992289,0.0 -51.9355872,-27.3414949992289,0.0 -51.9355233,-27.3415305992289,0.0 -51.9354344,-27.3415721992289,0.0 -51.9353539,-27.3416099992289,0.0 -51.9352817,-27.3416505992289,0.0 -51.9352083,-27.3416882992289,0.0 -51.9351444,-27.3417238992289,0.0 -51.9350872,-27.3417638992289,0.0 -51.9350089,-27.3418293992289,0.0 -51.9349511,-27.3418688992289,0.0 -51.93489,-27.3419127992289,0.0 -51.9348344,-27.3419538992289,0.0 -51.9347689,-27.3420088992289,0.0 -51.934705,-27.3420610992289,0.0 -51.934635,-27.3421177992289,0.0 -51.9345778,-27.3421599992289,0.0 -51.9345189,-27.3422016992289,0.0 -51.9344444,-27.3422705992289,0.0 -51.9343994,-27.3423210992289,0.0 -51.9343528,-27.3423716992289,0.0 -51.9343011,-27.3424182992289,0.0 -51.9342517,-27.3424643992289,0.0 -51.9341789,-27.3425232992289,0.0 -51.9341111,-27.3425721992289,0.0 -51.9340406,-27.3426221992289,0.0 -51.9340284,-27.3426298992289,0.0 -51.9339794,-27.3426605992289,0.0 -51.9339178,-27.3426921992289,0.0 -51.9338294,-27.3427410992289,0.0 -51.9337661,-27.3427760992289,0.0 -51.9336783,-27.3428277992289,0.0 -51.9335956,-27.3428793992289,0.0 -51.9335328,-27.3429110992289,0.0 -51.9334728,-27.3429449992289,0.0 -51.9333822,-27.3429910992289,0.0 -51.9333072,-27.3430371992289,0.0 -51.9330494,-27.3431499992289,0.0 -51.9329761,-27.3431866992289,0.0 -51.9329083,-27.3432227992289,0.0 -51.932845,-27.3432555992289,0.0 -51.9327661,-27.3433010992289,0.0 -51.9327022,-27.3433521992289,0.0 -51.9326611,-27.3433749992289,0.0 -51.9325983,-27.3434093992289,0.0 -51.9325328,-27.3434343992289,0.0 -51.9324633,-27.3434610992289,0.0 -51.9323872,-27.3434788992289,0.0 -51.932305,-27.3434916992289,0.0 -51.9322261,-27.3435060992289,0.0 -51.9321456,-27.3435243992289,0.0 -51.9320611,-27.3435510992289,0.0 -51.9319667,-27.3435771992289,0.0 -51.9318989,-27.3436016992289,0.0 -51.9318306,-27.3436249992289,0.0 -51.9317456,-27.3436638992289,0.0 -51.9316711,-27.3437021992289,0.0 -51.9316011,-27.3437427992289,0.0 -51.9315333,-27.3437771992289,0.0 -51.9314628,-27.3438216992289,0.0 -51.9314022,-27.3438716992289,0.0 -51.9313317,-27.3439288992289,0.0 -51.9312806,-27.3439755992288,0.0 -51.9312267,-27.3440249992289,0.0 -51.9311661,-27.3440710992289,0.0 -51.9311028,-27.3441155992289,0.0 -51.9310228,-27.3441677992288,0.0 -51.9309838,-27.3441979992288,0.0 -51.9309611,-27.3442155992288,0.0 -51.9308883,-27.3442549992288,0.0 -51.9308183,-27.3442838992288,0.0 -51.930745,-27.3443182992288,0.0 -51.9306583,-27.3443516992288,0.0 -51.9305906,-27.3443860992288,0.0 -51.9305144,-27.3444293992288,0.0 -51.9304533,-27.3444821992288,0.0 -51.93041,-27.3445438992288,0.0 -51.9303794,-27.3446149992288,0.0 -51.9303367,-27.3446893992288,0.0 -51.930285,-27.3447682992288,0.0 -51.9302389,-27.3448332992288,0.0 -51.9301883,-27.3448838992288,0.0 -51.9301239,-27.3449321992288,0.0 -51.9300561,-27.3449777992288,0.0 -51.9299883,-27.3450171992288,0.0 -51.9299028,-27.3450549992288,0.0 -51.929835,-27.3450799992288,0.0 -51.9297656,-27.3451038992288,0.0 -51.9296939,-27.3451293992288,0.0 -51.9296233,-27.3451527992288,0.0 -51.9295544,-27.3451788992288,0.0 -51.9294656,-27.3452221992288,0.0 -51.9293778,-27.3452660992288,0.0 -51.9292928,-27.3453093992288,0.0 -51.9292106,-27.3453488992288,0.0 -51.9291344,-27.3453838992288,0.0 -51.9290533,-27.3454232992288,0.0 -51.9289778,-27.3454721992288,0.0 -51.9289006,-27.3455171992288,0.0 -51.9288394,-27.3455599992288,0.0 -51.9287822,-27.3456005992288,0.0 -51.9287161,-27.3456399992288,0.0 -51.92864,-27.3457027992288,0.0 -51.9285911,-27.3457743992288,0.0 -51.928535,-27.3458505992288,0.0 -51.9284594,-27.3459121992288,0.0 -51.9283939,-27.3459438992288,0.0 -51.92832,-27.3459666992288,0.0 -51.9282853,-27.3459735992288,0.0 -51.9282506,-27.3459805992288,0.0 -51.9281756,-27.3459971992288,0.0 -51.9281022,-27.3460071992288,0.0 -51.9280272,-27.3460227992288,0.0 -51.9279539,-27.3460449992288,0.0 -51.9278878,-27.3460749992288,0.0 -51.9278233,-27.3461210992288,0.0 -51.9277717,-27.3461655992288,0.0 -51.9277217,-27.3462182992288,0.0 -51.9276739,-27.3462716992288,0.0 -51.9276333,-27.3463338992288,0.0 -51.9275956,-27.3463977992288,0.0 -51.9275717,-27.3464255992288,0.0 -51.9275467,-27.3464549992288,0.0 -51.9274817,-27.3465110992288,0.0 -51.9274072,-27.3465571992288,0.0 -51.9273439,-27.3465982992288,0.0 -51.9272833,-27.3466321992288,0.0 -51.9272033,-27.3466843992288,0.0 -51.9271306,-27.3467482992288,0.0 -51.92707,-27.3467821992288,0.0 -51.9270022,-27.3468177992288,0.0 -51.9269378,-27.3468521992288,0.0 -51.92684,-27.3468849992288,0.0 -51.9267561,-27.3469155992288,0.0 -51.9266778,-27.3469349992288,0.0 -51.9266033,-27.3469605992288,0.0 -51.9265306,-27.3469910992288,0.0 -51.9264606,-27.3470338992288,0.0 -51.9263967,-27.3470816992288,0.0 -51.926345,-27.3471310992288,0.0 -51.9262928,-27.3471932992288,0.0 -51.9262344,-27.3472682992288,0.0 -51.9262011,-27.3473093992288,0.0 -51.9261928,-27.3473205992288,0.0 -51.9261494,-27.3473855992288,0.0 -51.9260889,-27.3474660992288,0.0 -51.9260294,-27.3475393992288,0.0 -51.9259783,-27.3475960992288,0.0 -51.9259283,-27.3476543992288,0.0 -51.9258922,-27.3477105992288,0.0 -51.9258572,-27.3477788992288,0.0 -51.9258494,-27.3478152992288,0.0 -51.9258417,-27.3478516992288,0.0 -51.9258389,-27.3479232992288,0.0 -51.9258178,-27.3480071992288,0.0 -51.9257906,-27.3480755992288,0.0 -51.9257528,-27.3481321992288,0.0 -51.9257061,-27.3481905992288,0.0 -51.92565,-27.3482427992288,0.0 -51.9256128,-27.3482716992288,0.0 -51.9255872,-27.3482916992288,0.0 -51.9255261,-27.3483432992288,0.0 -51.9254694,-27.3483932992288,0.0 -51.9254117,-27.3484460992288,0.0 -51.9253622,-27.3484993992288,0.0 -51.9253028,-27.3485666992288,0.0 -51.9252544,-27.3486199992288,0.0 -51.9252056,-27.3486710992288,0.0 -51.925155,-27.3487266992288,0.0 -51.9251028,-27.3487738992288,0.0 -51.9250372,-27.3488238992288,0.0 -51.9249694,-27.3488710992288,0.0 -51.9249111,-27.3489105992288,0.0 -51.9248411,-27.3489627992288,0.0 -51.9247667,-27.3490105992288,0.0 -51.9247022,-27.3490538992288,0.0 -51.9246506,-27.3490993992288,0.0 -51.9245817,-27.3491521992288,0.0 -51.9245167,-27.3491949992288,0.0 -51.9244528,-27.3492293992288,0.0 -51.9243856,-27.3492705992288,0.0 -51.9243244,-27.3493138992288,0.0 -51.9242639,-27.3493588992288,0.0 -51.9242089,-27.3494132992287,0.0 -51.9241678,-27.3494677992288,0.0 -51.9241489,-27.3494949992288,0.0 -51.9241028,-27.3495510992287,0.0 -51.9240506,-27.3495938992287,0.0 -51.9239906,-27.3496410992287,0.0 -51.9239322,-27.3496827992287,0.0 -51.9238683,-27.3497327992287,0.0 -51.9237994,-27.3497793992287,0.0 -51.9237389,-27.3498199992287,0.0 -51.9236706,-27.3498649992287,0.0 -51.9236033,-27.3499049992287,0.0 -51.9235383,-27.3499566992287,0.0 -51.9234794,-27.3499971992287,0.0 -51.9234189,-27.3500482992287,0.0 -51.9234139,-27.3500521992287,0.0 -51.9233678,-27.3501055992287,0.0 -51.9233261,-27.3501621992287,0.0 -51.9232872,-27.3502271992287,0.0 -51.9232639,-27.3502821992287,0.0 -51.92326,-27.3502921992287,0.0 -51.9232294,-27.3503605992287,0.0 -51.92319,-27.3504227992287,0.0 -51.9231311,-27.3504927992287,0.0 -51.9231,-27.3505505992287,0.0 -51.9230478,-27.3506227992287,0.0 -51.923,-27.3506899992287,0.0 -51.9229694,-27.3507477992287,0.0 -51.9229372,-27.3508138992287,0.0 -51.9229089,-27.3508855992287,0.0 -51.9228867,-27.3509766992287,0.0 -51.9228811,-27.3510493992287,0.0 -51.9228811,-27.3511216992287,0.0 -51.9228911,-27.3511960992287,0.0 -51.9229106,-27.3512677992287,0.0 -51.9229311,-27.3513449992287,0.0 -51.9229328,-27.3513788992287,0.0 -51.9229344,-27.3514127992287,0.0 -51.92294,-27.3514871992287,0.0 -51.9229333,-27.3515821992287,0.0 -51.9229161,-27.3516599992287,0.0 -51.9228983,-27.3517338992287,0.0 -51.9228822,-27.3518038992287,0.0 -51.9228578,-27.3518660992287,0.0 -51.92283,-27.3519271992287,0.0 -51.9227944,-27.3519882992287,0.0 -51.9227406,-27.3520293992287,0.0 -51.9227178,-27.3520399992287,0.0 -51.9226483,-27.3520710992287,0.0 -51.9225628,-27.3520960992287,0.0 -51.9224839,-27.3521149992287,0.0 -51.9224,-27.3521460992287,0.0 -51.9223617,-27.3521643992287,0.0 -51.9223333,-27.3521782992287,0.0 -51.92227,-27.3522193992287,0.0 -51.922205,-27.3522821992287,0.0 -51.9221528,-27.3523355992287,0.0 -51.9221044,-27.3524032992287,0.0 -51.9220678,-27.3524577992287,0.0 -51.9220222,-27.3525132992287,0.0 -51.9219761,-27.3525755992287,0.0 -51.9219383,-27.3526449992287,0.0 -51.9219122,-27.3527066992287,0.0 -51.9218872,-27.3527721992287,0.0 -51.9218683,-27.3528399992287,0.0 -51.9218639,-27.3528821992287,0.0 -51.9218617,-27.3529049992287,0.0 -51.9218672,-27.3529899992287,0.0 -51.9218772,-27.3530538992287,0.0 -51.9218889,-27.3530932992287,0.0 -51.9218978,-27.3531221992287,0.0 -51.92193,-27.3531938992287,0.0 -51.9219397,-27.3532257992287,0.0 -51.9219494,-27.3532577992287,0.0 -51.9219556,-27.3533221992287,0.0 -51.9219417,-27.3533910992287,0.0 -51.9219117,-27.3534521992287,0.0 -51.9218667,-27.3535166992287,0.0 -51.921825,-27.3535693992287,0.0 -51.9217794,-27.3536321992287,0.0 -51.9217522,-27.3536921992287,0.0 -51.9217356,-27.3537188992287,0.0 -51.9217111,-27.3537471992287,0.0 -51.9216789,-27.3537905992287,0.0 -51.9216606,-27.3538316992287,0.0 -51.9216267,-27.3538966992287,0.0 -51.9216006,-27.3539405992287,0.0 -51.9215894,-27.3539543992287,0.0 -51.9215833,-27.3539621992287,0.0 -51.9215539,-27.3540249992287,0.0 -51.921545,-27.3540449992287,0.0 -51.9215261,-27.3540893992287,0.0 -51.9214944,-27.3541543992287,0.0 -51.9214639,-27.3542155992287,0.0 -51.9214367,-27.3542793992287,0.0 -51.9214144,-27.3543521992287,0.0 -51.9213961,-27.3544221992286,0.0 -51.9213744,-27.3544899992287,0.0 -51.9213672,-27.3545543992287,0.0 -51.9213606,-27.3546266992287,0.0 -51.9213439,-27.3546921992286,0.0 -51.9213067,-27.3547521992286,0.0 -51.9212561,-27.3548082992286,0.0 -51.9212072,-27.3548649992286,0.0 -51.9211861,-27.3549305992286,0.0 -51.9211606,-27.3549966992287,0.0 -51.9211106,-27.3550427992286,0.0 -51.9210522,-27.3550782992286,0.0 -51.9209961,-27.3551199992286,0.0 -51.9209411,-27.3551721992286,0.0 -51.9208872,-27.3552221992286,0.0 -51.920873,-27.3552380992286,0.0 -51.9208411,-27.3552738992286,0.0 -51.9208311,-27.3552943992286,0.0 -51.9207922,-27.3553521992286,0.0 -51.9207444,-27.3554043992286,0.0 -51.9207006,-27.3554632992286,0.0 -51.9206922,-27.3555305992286,0.0 -51.9207094,-27.3556038992286,0.0 -51.9207086,-27.3556208992286,0.0 -51.9207061,-27.3556727992286,0.0 -51.92069,-27.3557382992286,0.0 -51.920685,-27.3558188992286,0.0 -51.9206856,-27.3558949992286,0.0 -51.9206778,-27.3559677992286,0.0 -51.9206628,-27.3560321992286,0.0 -51.9206622,-27.3560599992286,0.0 -51.9206644,-27.3560982992286,0.0 -51.9206678,-27.3561410992286,0.0 -51.9206822,-27.3561732992286,0.0 -51.920715,-27.3562121992286,0.0 -51.9207506,-27.3562466992286,0.0 -51.9207956,-27.3562988992286,0.0 -51.9208306,-27.3563605992286,0.0 -51.9208611,-27.3564216992286,0.0 -51.9208956,-27.3564777992286,0.0 -51.9209267,-27.3565327992286,0.0 -51.9209583,-27.3565960992286,0.0 -51.9209872,-27.3566538992286,0.0 -51.9210194,-27.3567155992286,0.0 -51.92106,-27.3567932992286,0.0 -51.9210939,-27.3568555992286,0.0 -51.9211311,-27.3569449992286,0.0 -51.9211589,-27.3570227992286,0.0 -51.9211811,-27.3570960992286,0.0 -51.9212028,-27.3571749992286,0.0 -51.9212367,-27.3572377992286,0.0 -51.9212689,-27.3573105992286,0.0 -51.9213039,-27.3573799992286,0.0 -51.9213389,-27.3574471992286,0.0 -51.92137,-27.3575155992286,0.0 -51.9214044,-27.3575760992286,0.0 -51.9214228,-27.3576393992286,0.0 -51.9214489,-27.3577243992286,0.0 -51.9214833,-27.3578032992286,0.0 -51.9215167,-27.3578738992286,0.0 -51.921545,-27.3579355992286,0.0 -51.9215833,-27.3580116992286,0.0 -51.9215972,-27.3580832992286,0.0 -51.9216178,-27.3581866992286,0.0 -51.9216439,-27.3582982992286,0.0 -51.921665,-27.3583932992286,0.0 -51.9216817,-27.3584755992286,0.0 -51.9216978,-27.3585732992286,0.0 -51.9221419,-27.3595150992286,0.0 -51.9225716,-27.3604261992285,0.0 -51.9230929,-27.3615318992285,0.0 -51.9231785,-27.3617133992285,0.0 -51.9173366,-27.3815480992281,0.0 -51.9173507,-27.3815822992281,0.0 -51.9173757,-27.3816429992281,0.0 -51.9174085,-27.3817250992281,0.0 -51.9174264,-27.3817631992281,0.0 -51.9174386,-27.3818601992281,0.0 -51.9174361,-27.3819294992281,0.0 -51.9174273,-27.3819829992281,0.0 -51.9174213,-27.3820192992281,0.0 -51.9174107,-27.3820762992281,0.0 -51.917405,-27.3821473992281,0.0 -51.9174192,-27.3822341992281,0.0 -51.9174521,-27.3823235992281,0.0 -51.9175007,-27.3824219992281,0.0 -51.9175554,-27.3825205992281,0.0 -51.9175681,-27.3825386992281,0.0 -51.9176141,-27.3826042992281,0.0 -51.9176663,-27.3826556992281,0.0 -51.9177185,-27.3827015992281,0.0 -51.9178001,-27.3827671992281,0.0 -51.9178637,-27.3828129992281,0.0 -51.917947,-27.3828659992281,0.0 -51.9180677,-27.3829202992281,0.0 -51.9182499,-27.3829808992281,0.0 -51.9182956,-27.3829916992281,0.0 -51.9183755,-27.3830030992281,0.0 -51.9185445,-27.3830241992281,0.0 -51.9186751,-27.3830297992281,0.0 -51.9188009,-27.3830289992281,0.0 -51.9188525,-27.3830246992281,0.0 -51.9187905,-27.3831455992281,0.0 -51.9185646,-27.3835860992281,0.0 -51.9176672,-27.3853363992281,0.0 -51.9154402,-27.389679999228,0.0 -51.9068338,-27.389759299228,0.0 -51.9015956,-27.389807499228,0.0 -51.9049585,-27.3943615992279,0.0 -51.9053138,-27.3948425992279,0.0 -51.8949374,-27.3990166992278,0.0 -51.8934874,-27.3996000992278,0.0 -51.8935618,-27.3996017992278,0.0 -51.8938513,-27.3996028992278,0.0 -51.8940251,-27.3996039992278,0.0 -51.8941065,-27.3996123992278,0.0 -51.8942025,-27.3996415992278,0.0 -51.8943751,-27.3996822992278,0.0 -51.8944654,-27.3996962992278,0.0 -51.8945606,-27.3997117992278,0.0 -51.8946454,-27.3997188992278,0.0 -51.894733,-27.3997223992278,0.0 -51.8949145,-27.3997604992278,0.0 -51.8950911,-27.3998209992278,0.0 -51.8952189,-27.3998915992278,0.0 -51.8953399,-27.3999719992278,0.0 -51.8954074,-27.3999984992278,0.0 -51.8955092,-27.4000048992278,0.0 -51.8956375,-27.4000285992278,0.0 -51.8957904,-27.4000829992278,0.0 -51.8958664,-27.4001179992278,0.0 -51.8959391,-27.4001508992278,0.0 -51.8960193,-27.4001954992278,0.0 -51.8960809,-27.4002331992278,0.0 -51.8961422,-27.4002727992278,0.0 -51.8962045,-27.4003039992278,0.0 -51.896273,-27.4003314992278,0.0 -51.8963275,-27.4003532992278,0.0 -51.8964472,-27.4003892992278,0.0 -51.8965255,-27.4004146992278,0.0 -51.8966128,-27.4004430992278,0.0 -51.8967027,-27.4004612992278,0.0 -51.8967805,-27.4004769992278,0.0 -51.8968741,-27.4004958992278,0.0 -51.8969127,-27.4005036992278,0.0 -51.8969398,-27.4005108992278,0.0 -51.8970448,-27.4005340992278,0.0 -51.89713,-27.4005556992278,0.0 -51.8916027,-27.4070215992277,0.0 -51.8901043,-27.4087743992276,0.0 -51.8938389,-27.4111556992276,0.0 -51.893504,-27.4115999992276,0.0 -51.8929435,-27.4121716992276,0.0 -51.8920005,-27.4132428992275,0.0 -51.8918343,-27.4133896992275,0.0 -51.8916273,-27.4135723992275,0.0 -51.8915542,-27.4138747992275,0.0 -51.8914665,-27.4145297992275,0.0 -51.8916609,-27.4152941992275,0.0 -51.8890557,-27.4181944992274,0.0 -51.884434,-27.4233397992274,0.0 -51.8838556,-27.4240566992273,0.0 -51.8832773,-27.4247735992273,0.0 -51.8825313,-27.4255217992273,0.0 -51.882163,-27.4258912992273,0.0 -51.8821316,-27.4259226992273,0.0 -51.8822024,-27.4259206992273,0.0 -51.8822747,-27.4259194992273,0.0 -51.8823486,-27.4259191992273,0.0 -51.8824232,-27.4259195992273,0.0 -51.8824979,-27.4259208992273,0.0 -51.8825716,-27.4259229992273,0.0 -51.8826436,-27.4259259992273,0.0 -51.882713,-27.4259297992273,0.0 -51.8827789,-27.4259343992273,0.0 -51.8828404,-27.4259398992273,0.0 -51.882897,-27.4259461992273,0.0 -51.8829491,-27.4259535992273,0.0 -51.882997,-27.4259619992273,0.0 -51.8830416,-27.4259715992273,0.0 -51.8830833,-27.4259825992273,0.0 -51.8831228,-27.4259949992273,0.0 -51.8831606,-27.4260089992273,0.0 -51.8831973,-27.4260245992273,0.0 -51.8832334,-27.4260419992273,0.0 -51.8832692,-27.4260609992273,0.0 -51.8833046,-27.4260813992273,0.0 -51.8833397,-27.4261030992273,0.0 -51.8834097,-27.4261491992273,0.0 -51.8836248,-27.4262995992273,0.0 -51.8837467,-27.4263828992273,0.0 -51.8838385,-27.4264433992273,0.0 -51.8840974,-27.4266113992273,0.0 -51.8842042,-27.4266829992273,0.0 -51.8842567,-27.4267191992273,0.0 -51.8843584,-27.4267915992273,0.0 -51.884454,-27.4268620992273,0.0 -51.8845417,-27.4269286992273,0.0 -51.8846195,-27.4269892992273,0.0 -51.8846865,-27.4270426992273,0.0 -51.8848382,-27.4271659992273,0.0 -51.884897,-27.4272108992273,0.0 -51.8849513,-27.4272597992273,0.0 -51.8849759,-27.4272885992273,0.0 -51.8849954,-27.4273128992273,0.0 -51.8850144,-27.4273382992273,0.0 -51.8850356,-27.4273679992273,0.0 -51.8850591,-27.4274025992273,0.0 -51.8850852,-27.4274424992273,0.0 -51.8850995,-27.4274652992273,0.0 -51.8851139,-27.4274880992273,0.0 -51.8851453,-27.4275397992273,0.0 -51.8852181,-27.4276634992273,0.0 -51.885279,-27.4277542992273,0.0 -51.8853285,-27.4278187992273,0.0 -51.8854129,-27.4279101992273,0.0 -51.8855249,-27.4280119992273,0.0 -51.8856707,-27.4281247992273,0.0 -51.8860518,-27.4283928992272,0.0 -51.8857512,-27.4285501992273,0.0 -51.8854489,-27.4287073992272,0.0 -51.8852862,-27.4287928992272,0.0 -51.8850329,-27.4289284992273,0.0 -51.8847621,-27.4290773992272,0.0 -51.8845741,-27.4291838992272,0.0 -51.8843797,-27.4292959992272,0.0 -51.8841797,-27.4294130992272,0.0 -51.8839746,-27.4295342992272,0.0 -51.8833487,-27.4299080992272,0.0 -51.8822381,-27.4305722992272,0.0 -51.8820215,-27.4307029992272,0.0 -51.8818081,-27.4308328992272,0.0 -51.8815989,-27.4309616992272,0.0 -51.881395,-27.4310891992272,0.0 -51.8811972,-27.4312149992272,0.0 -51.8810066,-27.4313383992272,0.0 -51.8808242,-27.4314586992272,0.0 -51.8806508,-27.4315751992272,0.0 -51.8804874,-27.4316869992272,0.0 -51.8803351,-27.4317934992272,0.0 -51.8801947,-27.4318939992272,0.0 -51.8800673,-27.4319875992272,0.0 -51.8799535,-27.4320738992272,0.0 -51.8798522,-27.4321539992272,0.0 -51.8797621,-27.4322289992272,0.0 -51.8796818,-27.4323003992272,0.0 -51.8796101,-27.4323692992272,0.0 -51.8795455,-27.4324370992272,0.0 -51.8794868,-27.4325050992272,0.0 -51.8794325,-27.4325745992272,0.0 -51.8793815,-27.4326467992272,0.0 -51.8793333,-27.4327235992272,0.0 -51.8792875,-27.4328063992272,0.0 -51.8792438,-27.4328969992272,0.0 -51.8792019,-27.4329969992272,0.0 -51.8791613,-27.4331081992272,0.0 -51.8791218,-27.4332321992272,0.0 -51.8790831,-27.4333705992272,0.0 -51.8790576,-27.4334732992272,0.0 -51.8790161,-27.4336575992272,0.0 -51.8789728,-27.4338783992272,0.0 -51.8789407,-27.4340761992272,0.0 -51.8789122,-27.4342870992271,0.0 -51.8788883,-27.4345100992271,0.0 -51.8788697,-27.4347445992271,0.0 -51.8788572,-27.4349896992271,0.0 -51.8788515,-27.4352442992271,0.0 -51.8788524,-27.4355066992271,0.0 -51.8788593,-27.4357747992271,0.0 -51.8788717,-27.4360463992271,0.0 -51.8788959,-27.4364013992271,0.0 -51.8789114,-27.4365918992271,0.0 -51.8789229,-27.4367093992271,0.0 -51.8789676,-27.4371265992271,0.0 -51.8790009,-27.4373853992271,0.0 -51.8790378,-27.4376395992271,0.0 -51.8790788,-27.4378917992271,0.0 -51.8791243,-27.4381441992271,0.0 -51.8791748,-27.4383991992271,0.0 -51.8792307,-27.4386591992271,0.0 -51.8792925,-27.4389266992271,0.0 -51.8793606,-27.439203999227,0.0 -51.8794352,-27.439492899227,0.0 -51.8795157,-27.439793199227,0.0 -51.879698,-27.440452299227,0.0 -51.8798768,-27.441093699227,0.0 -51.879964,-27.441411999227,0.0 -51.8800674,-27.441792699227,0.0 -51.880162,-27.442151499227,0.0 -51.8802554,-27.442513999227,0.0 -51.8802957,-27.442673599227,0.0 -51.880384,-27.443027399227,0.0 -51.880525,-27.443600699227,0.0 -51.8806102,-27.443954799227,0.0 -51.8806925,-27.4443007992269,0.0 -51.880892,-27.4451567992269,0.0 -51.8809199,-27.4452776992269,0.0 -51.8809899,-27.4455922992269,0.0 -51.881058,-27.4459100992269,0.0 -51.8811536,-27.4463856992269,0.0 -51.8811903,-27.4465757992269,0.0 -51.8812556,-27.4469342992269,0.0 -51.881321,-27.4473169992269,0.0 -51.8813868,-27.4477269992269,0.0 -51.8814366,-27.4480567992269,0.0 -51.8814522,-27.4481596992269,0.0 -51.8815162,-27.4486082992269,0.0 -51.8815779,-27.4490659992269,0.0 -51.8816361,-27.4495262992269,0.0 -51.88169,-27.4499822992268,0.0 -51.8817384,-27.4504272992268,0.0 -51.8817804,-27.4508546992268,0.0 -51.8818153,-27.4512586992268,0.0 -51.8818434,-27.4516385992268,0.0 -51.8818656,-27.4519944992268,0.0 -51.8818782,-27.4522549992268,0.0 -51.881895,-27.4526352992268,0.0 -51.8819038,-27.4529206992268,0.0 -51.8819095,-27.4531829992268,0.0 -51.8819129,-27.4534223992268,0.0 -51.8819147,-27.4536395992268,0.0 -51.8819147,-27.4538365992268,0.0 -51.8819127,-27.4540155992268,0.0 -51.8819086,-27.4541790992268,0.0 -51.8819021,-27.4543291992268,0.0 -51.881893,-27.4544684992268,0.0 -51.881881,-27.4545991992268,0.0 -51.8818661,-27.4547236992268,0.0 -51.8818479,-27.4548437992267,0.0 -51.8818261,-27.4549601992268,0.0 -51.8818003,-27.4550729992268,0.0 -51.8817701,-27.4551821992267,0.0 -51.8817351,-27.4552879992267,0.0 -51.881695,-27.4553905992267,0.0 -51.8816493,-27.4554898992267,0.0 -51.8815977,-27.4555862992267,0.0 -51.8815401,-27.4556795992267,0.0 -51.8814775,-27.4557693992267,0.0 -51.8814114,-27.4558550992267,0.0 -51.8813431,-27.4559360992267,0.0 -51.8812739,-27.4560116992267,0.0 -51.8812052,-27.4560814992267,0.0 -51.8811384,-27.4561446992267,0.0 -51.8810749,-27.4562006992267,0.0 -51.8810157,-27.4562491992267,0.0 -51.8809602,-27.4562906992267,0.0 -51.8809077,-27.4563257992267,0.0 -51.8808573,-27.4563551992267,0.0 -51.8808083,-27.4563796992267,0.0 -51.8807598,-27.4563997992267,0.0 -51.880711,-27.4564161992267,0.0 -51.8806611,-27.4564297992267,0.0 -51.8806093,-27.4564408992267,0.0 -51.8805554,-27.4564497992267,0.0 -51.8804991,-27.4564561992267,0.0 -51.8804402,-27.4564600992267,0.0 -51.8803786,-27.4564613992267,0.0 -51.880314,-27.4564600992267,0.0 -51.8802462,-27.4564560992267,0.0 -51.8801751,-27.4564492992267,0.0 -51.8801004,-27.4564395992267,0.0 -51.8800222,-27.4564272992267,0.0 -51.8799407,-27.4564123992267,0.0 -51.8798559,-27.4563951992267,0.0 -51.8797679,-27.4563757992267,0.0 -51.8796768,-27.4563544992267,0.0 -51.8795828,-27.4563312992267,0.0 -51.8795339,-27.4563185992267,0.0 -51.8793862,-27.4562802992267,0.0 -51.879178,-27.4562232992267,0.0 -51.8790693,-27.4561922992267,0.0 -51.8789573,-27.4561595992267,0.0 -51.8788418,-27.4561251992267,0.0 -51.8787228,-27.4560888992267,0.0 -51.8786001,-27.4560505992267,0.0 -51.8784736,-27.4560103992267,0.0 -51.8783435,-27.4559677992267,0.0 -51.8782098,-27.4559226992267,0.0 -51.8780728,-27.4558747992267,0.0 -51.8779325,-27.4558237992267,0.0 -51.8777892,-27.4557693992267,0.0 -51.8776429,-27.4557112992267,0.0 -51.8774938,-27.4556492992267,0.0 -51.8773422,-27.4555830992267,0.0 -51.8771886,-27.4555131992267,0.0 -51.8770337,-27.4554397992267,0.0 -51.8768782,-27.4553634992267,0.0 -51.8767228,-27.4552844992267,0.0 -51.8765682,-27.4552034992267,0.0 -51.876415,-27.4551205992267,0.0 -51.8762639,-27.4550364992268,0.0 -51.8761895,-27.4549937992267,0.0 -51.8761151,-27.4549510992268,0.0 -51.8759674,-27.4548636992268,0.0 -51.8758188,-27.4547731992268,0.0 -51.8756987,-27.4546979992268,0.0 -51.8755119,-27.4545784992268,0.0 -51.87535,-27.4544719992268,0.0 -51.8751799,-27.4543579992268,0.0 -51.875,-27.4542181992268,0.0 -51.874501,-27.4538923992268,0.0 -51.8735652,-27.4531982992268,0.0 -51.8726051,-27.4523676992268,0.0 -51.8717852,-27.4515755992268,0.0 -51.8709683,-27.4506593992268,0.0 -51.8699707,-27.4496313992269,0.0 -51.8699104,-27.4496347992269,0.0 -51.8697962,-27.4496413992269,0.0 -51.8697708,-27.4496426992269,0.0 -51.8696807,-27.4496473992269,0.0 -51.8695387,-27.4496799992269,0.0 -51.8694778,-27.4497053992269,0.0 -51.8694168,-27.4497306992268,0.0 -51.8693512,-27.4497816992269,0.0 -51.8693191,-27.4498210992269,0.0 -51.8693009,-27.4498604992268,0.0 -51.8692931,-27.4499037992268,0.0 -51.8692956,-27.4499344992268,0.0 -51.8693065,-27.4499952992269,0.0 -51.8693197,-27.4500488992268,0.0 -51.86932,-27.4500932992268,0.0 -51.8693099,-27.4501356992268,0.0 -51.8692939,-27.4501646992268,0.0 -51.8692734,-27.4501863992268,0.0 -51.8692288,-27.4502182992268,0.0 -51.8691942,-27.4502403992268,0.0 -51.8691675,-27.4502560992268,0.0 -51.8691553,-27.4502690992268,0.0 -51.8691511,-27.4502952992268,0.0 -51.8691527,-27.4503201992268,0.0 -51.8691662,-27.4503515992268,0.0 -51.8692048,-27.4503971992268,0.0 -51.8692657,-27.4504804992268,0.0 -51.8692855,-27.4505193992268,0.0 -51.8692996,-27.4505525992268,0.0 -51.8693015,-27.4505740992268,0.0 -51.8693018,-27.4506201992268,0.0 -51.8692977,-27.4506478992268,0.0 -51.869292,-27.4506582992268,0.0 -51.8692887,-27.4506622992268,0.0 -51.8692771,-27.4506726992268,0.0 -51.8692273,-27.4507250992268,0.0 -51.8691828,-27.4507755992268,0.0 -51.8691616,-27.4508046992268,0.0 -51.8691404,-27.4508338992268,0.0 -51.8690886,-27.4508828992268,0.0 -51.869033,-27.4509251992268,0.0 -51.8689778,-27.4509732992268,0.0 -51.8689222,-27.4510335992268,0.0 -51.8688865,-27.4511064992268,0.0 -51.8688649,-27.4511830992268,0.0 -51.8688371,-27.4512616992268,0.0 -51.8688201,-27.4513339992268,0.0 -51.8688116,-27.4514000992268,0.0 -51.8688024,-27.4514747992268,0.0 -51.8687561,-27.4515297992268,0.0 -51.8686908,-27.4515590992268,0.0 -51.8686359,-27.4516074992268,0.0 -51.8685964,-27.4516723992268,0.0 -51.8685672,-27.4517453992268,0.0 -51.868534,-27.4518132992268,0.0 -51.8685048,-27.4518833992268,0.0 -51.8684781,-27.4519511992268,0.0 -51.8684426,-27.4520092992268,0.0 -51.868404,-27.4520683992268,0.0 -51.8683686,-27.4521340992268,0.0 -51.8683251,-27.4521865992268,0.0 -51.8683088,-27.4522151992268,0.0 -51.8682919,-27.4522450992268,0.0 -51.8683041,-27.4523077992268,0.0 -51.8683469,-27.4523659992268,0.0 -51.8683825,-27.4524270992268,0.0 -51.8684138,-27.4524917992268,0.0 -51.868423,-27.4525677992268,0.0 -51.8684141,-27.4526315992268,0.0 -51.8684066,-27.4527085992268,0.0 -51.8683839,-27.4527859992268,0.0 -51.8683534,-27.4528516992268,0.0 -51.8683056,-27.4529060992268,0.0 -51.8682595,-27.4529661992268,0.0 -51.8682233,-27.4530319992268,0.0 -51.8681801,-27.4530940992268,0.0 -51.868137,-27.4531619992268,0.0 -51.8681154,-27.4532372992268,0.0 -51.8680998,-27.4533039992268,0.0 -51.8680782,-27.4533557992268,0.0 -51.8680534,-27.4534350992268,0.0 -51.8680317,-27.4534952992268,0.0 -51.8680199,-27.4535736992268,0.0 -51.8680127,-27.4536477992268,0.0 -51.8680068,-27.4537149992268,0.0 -51.8679913,-27.4537982992268,0.0 -51.867965,-27.4538579992268,0.0 -51.8679185,-27.4539342992268,0.0 -51.8678843,-27.4539976992268,0.0 -51.8678598,-27.4540739992268,0.0 -51.8678432,-27.4541604992268,0.0 -51.8678027,-27.4542358992268,0.0 -51.8677619,-27.4543470992268,0.0 -51.8677486,-27.4543781992268,0.0 -51.8677207,-27.4544519992268,0.0 -51.8676741,-27.4545094992268,0.0 -51.8676226,-27.4545750992268,0.0 -51.8675828,-27.4546298992268,0.0 -51.8675443,-27.4546936992268,0.0 -51.8675089,-27.4547616992268,0.0 -51.8674914,-27.4547936992268,0.0 -51.867474,-27.4548256992268,0.0 -51.8674452,-27.4548871992268,0.0 -51.8674169,-27.4549513992268,0.0 -51.8673982,-27.4550125992267,0.0 -51.8673802,-27.4550740992268,0.0 -51.8673701,-27.4551409992267,0.0 -51.8673689,-27.4552247992267,0.0 -51.8673669,-27.4553108992267,0.0 -51.86737,-27.4553807992267,0.0 -51.8673579,-27.4554593992267,0.0 -51.8673527,-27.4555379992267,0.0 -51.8673627,-27.4556203992267,0.0 -51.867371,-27.4556964992267,0.0 -51.8673908,-27.4557808992267,0.0 -51.8673954,-27.4558593992267,0.0 -51.867377,-27.4559385992267,0.0 -51.8673622,-27.4560044992267,0.0 -51.867338,-27.4560659992267,0.0 -51.8673149,-27.4561491992267,0.0 -51.8672848,-27.4562220992267,0.0 -51.8672442,-27.4562808992267,0.0 -51.8671994,-27.4563487992267,0.0 -51.8671597,-27.4564218992267,0.0 -51.8671372,-27.4564875992267,0.0 -51.867109,-27.4565521992267,0.0 -51.8670777,-27.4566400992267,0.0 -51.8670512,-27.4567041992267,0.0 -51.8670284,-27.4567721992267,0.0 -51.8670012,-27.4568516992267,0.0 -51.8669721,-27.4569218992267,0.0 -51.8669355,-27.4569821992267,0.0 -51.8668702,-27.4570451992267,0.0 -51.8668259,-27.4570678992267,0.0 -51.8667327,-27.4571123992267,0.0 -51.8666986,-27.4571388992267,0.0 -51.8666644,-27.4571654992267,0.0 -51.8665702,-27.4574192992267,0.0 -51.8665463,-27.4574914992267,0.0 -51.8665195,-27.4575589992267,0.0 -51.8664961,-27.4576165992267,0.0 -51.8664707,-27.4576780992267,0.0 -51.8664333,-27.4577422992267,0.0 -51.8663867,-27.4578143992267,0.0 -51.8663692,-27.4578359992267,0.0 -51.86634,-27.4578986992267,0.0 -51.8663197,-27.4579417992267,0.0 -51.8663024,-27.4580289992267,0.0 -51.8662963,-27.4581227992267,0.0 -51.8662821,-27.4582505992267,0.0 -51.8662683,-27.4583349992267,0.0 -51.8662567,-27.4583739992267,0.0 -51.8662364,-27.4584322992267,0.0 -51.866222,-27.4584772992267,0.0 -51.8662134,-27.4585249992267,0.0 -51.8662139,-27.4585831992267,0.0 -51.8662144,-27.4586465992267,0.0 -51.866209,-27.4587127992267,0.0 -51.8661804,-27.4587659992267,0.0 -51.8661667,-27.4587916992267,0.0 -51.8661604,-27.4588597992267,0.0 -51.8661649,-27.4589270992267,0.0 -51.8661696,-27.4589974992267,0.0 -51.8661693,-27.4590951992267,0.0 -51.8661531,-27.4591709992267,0.0 -51.866136,-27.4592575992267,0.0 -51.8661186,-27.4593428992267,0.0 -51.8661152,-27.4594133992267,0.0 -51.8661145,-27.4594891992267,0.0 -51.8661091,-27.4595574992267,0.0 -51.8659679,-27.4598773992267,0.0 -51.8658366,-27.4600877992267,0.0 -51.8658063,-27.4601517992267,0.0 -51.8657857,-27.4602127992266,0.0 -51.8657509,-27.4602873992266,0.0 -51.8657199,-27.4603460992266,0.0 -51.8656888,-27.4604291992266,0.0 -51.8656697,-27.4604951992267,0.0 -51.8656586,-27.4605782992266,0.0 -51.8656601,-27.4606530992266,0.0 -51.8656526,-27.4607436992266,0.0 -51.8656498,-27.4608374992266,0.0 -51.8656547,-27.4608861992266,0.0 -51.8656577,-27.4609661992266,0.0 -51.8656482,-27.4609809992266,0.0 -51.8656419,-27.4609909992266,0.0 -51.8656143,-27.4610342992266,0.0 -51.8655632,-27.4610783992266,0.0 -51.8655024,-27.4611217992266,0.0 -51.8654383,-27.4611623992266,0.0 -51.8653144,-27.4612520992266,0.0 -51.8652426,-27.4613018992266,0.0 -51.8651871,-27.4613513992266,0.0 -51.8651337,-27.4614073992266,0.0 -51.8650594,-27.4614722992266,0.0 -51.8649976,-27.4615186992266,0.0 -51.8649363,-27.4615660992266,0.0 -51.8648686,-27.4616149992266,0.0 -51.8648157,-27.4616566992266,0.0 -51.8647551,-27.4617079992266,0.0 -51.864704,-27.4617598992266,0.0 -51.8646655,-27.4618110992266,0.0 -51.8646262,-27.4618605992266,0.0 -51.8645878,-27.4619147992266,0.0 -51.8645422,-27.4619665992266,0.0 -51.8644816,-27.4620197992266,0.0 -51.8644098,-27.4620853992266,0.0 -51.8643435,-27.4621452992266,0.0 -51.8642719,-27.4622052992266,0.0 -51.8641919,-27.4622628992266,0.0 -51.8641221,-27.4623196992266,0.0 -51.8640608,-27.4623635992266,0.0 -51.8640066,-27.4624040992266,0.0 -51.8639539,-27.4624549992266,0.0 -51.8639137,-27.4625003992266,0.0 -51.8636238,-27.4638589992266,0.0 -51.8628834,-27.4673289992265,0.0 -51.8627971,-27.4673470992265,0.0 -51.8627016,-27.4673726992265,0.0 -51.862631,-27.4673924992265,0.0 -51.8625503,-27.4674123992265,0.0 -51.8624715,-27.4674254992265,0.0 -51.8623842,-27.4674444992265,0.0 -51.8623043,-27.4674561992265,0.0 -51.8622213,-27.4674717992265,0.0 -51.8621334,-27.4674844992265,0.0 -51.8620504,-27.4675039992265,0.0 -51.8619485,-27.4675241992265,0.0 -51.8618699,-27.4675439992265,0.0 -51.8617908,-27.4675691992265,0.0 -51.8617004,-27.4675959992265,0.0 -51.8616288,-27.4676166992265,0.0 -51.861558,-27.4676371992265,0.0 -51.8614902,-27.4676554992265,0.0 -51.8614245,-27.4676746992265,0.0 -51.8613572,-27.4676895992265,0.0 -51.8613187,-27.4676971992265,0.0 -51.8612803,-27.4677048992265,0.0 -51.8612001,-27.4677247992265,0.0 -51.8611206,-27.4677429992265,0.0 -51.8610498,-27.4677629992265,0.0 -51.8609809,-27.4677821992265,0.0 -51.8608899,-27.4678089992265,0.0 -51.8608186,-27.4678294992265,0.0 -51.8607341,-27.4678527992265,0.0 -51.8606396,-27.4678764992265,0.0 -51.8605523,-27.4678940992265,0.0 -51.8604517,-27.4679125992265,0.0 -51.8603819,-27.4679262992265,0.0 -51.8603077,-27.4679361992265,0.0 -51.8602388,-27.4679544992265,0.0 -51.8601783,-27.4679743992265,0.0 -51.8600946,-27.4679836992265,0.0 -51.8599852,-27.4680057992265,0.0 -51.8598685,-27.4680303992265,0.0 -51.8597719,-27.4680550992265,0.0 -51.8596558,-27.4680820992265,0.0 -51.8595363,-27.4681110992265,0.0 -51.8594731,-27.4681269992265,0.0 -51.8594033,-27.4681488992265,0.0 -51.8593031,-27.4681963992265,0.0 -51.8592202,-27.4682395992265,0.0 -51.8591271,-27.4682935992265,0.0 -51.8590228,-27.4683663992265,0.0 -51.8589582,-27.4684121992265,0.0 -51.8588904,-27.4684548992265,0.0 -51.8588353,-27.4685001992265,0.0 -51.8587866,-27.4685813992265,0.0 -51.8587428,-27.4686729992265,0.0 -51.8587067,-27.4687636992265,0.0 -51.8586516,-27.4688690992265,0.0 -51.8585915,-27.4689750992265,0.0 -51.8585314,-27.4690709992265,0.0 -51.8584861,-27.4691432992265,0.0 -51.8580709,-27.4698155992265,0.0 -51.8580256,-27.4698887992265,0.0 -51.8579687,-27.4699977992265,0.0 -51.8579242,-27.4701007992265,0.0 -51.8578974,-27.4701616992265,0.0 -51.8578655,-27.4702330992265,0.0 -51.8578364,-27.4702998992265,0.0 -51.8578067,-27.4703642992265,0.0 -51.8577831,-27.4704411992265,0.0 -51.857768,-27.4705557992265,0.0 -51.8577606,-27.4706213992265,0.0 -51.8577516,-27.4706903992265,0.0 -51.8577425,-27.4707563992264,0.0 -51.8577259,-27.4708615992265,0.0 -51.857716,-27.4709529992265,0.0 -51.857707,-27.4710671992264,0.0 -51.8577024,-27.4711351992264,0.0 -51.8576966,-27.4712131992264,0.0 -51.8576885,-27.4712950992264,0.0 -51.8576771,-27.4713809992264,0.0 -51.8576623,-27.4714668992264,0.0 -51.8576505,-27.4715313992264,0.0 -51.8576189,-27.4716190992264,0.0 -51.8575971,-27.4716815992264,0.0 -51.8575752,-27.4717528992264,0.0 -51.8575567,-27.4718203992264,0.0 -51.8575265,-27.4719324992264,0.0 -51.8574918,-27.4720643992264,0.0 -51.8574742,-27.4721447992264,0.0 -51.8574602,-27.4722122992264,0.0 -51.8574598,-27.4722981992264,0.0 -51.8574639,-27.4723881992264,0.0 -51.8574645,-27.4724989992264,0.0 -51.8574643,-27.4726191992264,0.0 -51.8574675,-27.4727404992264,0.0 -51.8574712,-27.4728149992264,0.0 -51.8574783,-27.4728845992264,0.0 -51.8574818,-27.4729750992264,0.0 -51.8574758,-27.4730728992264,0.0 -51.8574741,-27.4731836992264,0.0 -51.8574786,-27.4732542992264,0.0 -51.8574833,-27.4733270992264,0.0 -51.8574877,-27.4734093992264,0.0 -51.8574926,-27.4734917992264,0.0 -51.8574962,-27.4735649992264,0.0 -51.8574981,-27.4736315992264,0.0 -51.8574995,-27.4736633992264,0.0 -51.857501,-27.4738017992264,0.0 -51.8574991,-27.4739632992264,0.0 -51.8575464,-27.4744047992264,0.0 -51.8577004,-27.4748343992264,0.0 -51.857806,-27.4751011992264,0.0 -51.858182,-27.4750941992264,0.0 -51.8590428,-27.4749954992264,0.0 -51.8609335,-27.4750751992264,0.0 -51.8630693,-27.4752403992264,0.0 -51.8645417,-27.4755857992264,0.0 -51.8669386,-27.4761889992264,0.0 -51.8682972,-27.4765839992264,0.0 -51.8696533,-27.4772641992263,0.0 -51.871254,-27.4781137992263,0.0 -51.8725722,-27.4788273992263,0.0 -51.8740397,-27.4797935992263,0.0 -51.8750601,-27.4806321992263,0.0 -51.8761489,-27.4816293992263,0.0 -51.8773103,-27.4829962992262,0.0 -51.8782813,-27.4845128992262,0.0 -51.8789146,-27.4856915992262,0.0 -51.8797137,-27.4874083992261,0.0 -51.8801166,-27.4890051992261,0.0 -51.8803636,-27.4911547992261,0.0 -51.880448,-27.492379299226,0.0 -51.8802636,-27.494089799226,0.0 -51.8799856,-27.495682099226,0.0 -51.8795586,-27.496988199226,0.0 -51.878804,-27.4990136992259,0.0 -51.8775689,-27.5019421992259,0.0 -51.8766441,-27.5039498992258,0.0 -51.8762777,-27.5047780992258,0.0 -51.8759113,-27.5056063992258,0.0 -51.8754483,-27.5066595992258,0.0 -51.8748499,-27.5080988992258,0.0 -51.8744215,-27.5095559992257,0.0 -51.8739134,-27.5114992992257,0.0 -51.8737661,-27.5132770992257,0.0 -51.8742616,-27.5151261992256,0.0 -51.8748531,-27.5167913992256,0.0 -51.8753543,-27.5179524992256,0.0 -51.8761044,-27.5187628992255,0.0 -51.8776474,-27.5197965992255,0.0 -51.8791731,-27.5206287992255,0.0 -51.8805896,-27.5209568992255,0.0 -51.882709,-27.5209370992255,0.0 -51.8852452,-27.5208528992255,0.0 -51.8876869,-27.5207512992255,0.0 -51.8907899,-27.5203180992255,0.0 -51.8922708,-27.5197066992255,0.0 -51.8933172,-27.5190086992255,0.0 -51.8941382,-27.5181077992256,0.0 -51.8943769,-27.5177099992256,0.0 -51.8947903,-27.5170211992256,0.0 -51.8953698,-27.5155649992256,0.0 -51.8958347,-27.5142423992256,0.0 -51.8964553,-27.5123836992257,0.0 -51.8967532,-27.5106572992257,0.0 -51.897412,-27.5087484992257,0.0 -51.8980111,-27.5072084992258,0.0 -51.8988363,-27.5055851992258,0.0 -51.8996276,-27.5036604992258,0.0 -51.9004035,-27.5012992992259,0.0 -51.9013469,-27.4992748992259,0.0 -51.9016959,-27.4982283992259,0.0 -51.9020448,-27.497181799226,0.0 -51.902086,-27.496951799226,0.0 -51.902342,-27.495522499226,0.0 -51.9024533,-27.493459099226,0.0 -51.9025458,-27.4913777992261,0.0 -51.9023565,-27.4890608992261,0.0 -51.9019392,-27.4868599992261,0.0 -51.9017506,-27.4844591992262,0.0 -51.9014067,-27.4825440992262,0.0 -51.9010095,-27.4811387992263,0.0 -51.9008367,-27.4805273992263,0.0 -51.9003626,-27.4783428992263,0.0 -51.9001717,-27.4762272992264,0.0 -51.8999996,-27.4741285992264,0.0 -51.8999784,-27.4720812992264,0.0 -51.8999018,-27.4698657992265,0.0 -51.8999538,-27.4681208992265,0.0 -51.9002067,-27.4659380992266,0.0 -51.9003198,-27.4651792992266,0.0</coordinates>
</LinearRing>
</outerBoundaryIs>
</Polygon>
</MultiGeometry>
</Placemark>
</Folder>
</Document></kml>
