<?xml version='1.0' encoding='UTF-8'?>
<kml xmlns:xsd="http://www.w3.org/2001/XMLSchema" xmlns:gx="http://www.google.com/kml/ext/2.2" xmlns:atom="http://www.w3.org/2005/Atom" xmlns="http://www.opengis.net/kml/2.2">
<Document>
<name>ascurra_4201703_localidades_2022</name>
<visibility>1</visibility>
<Schema name="01. Cidade" id="kml_schema_ft_01._Cidade">
<SimpleField type="xsd:string" name="CD_UF">
<displayName>CD_UF</displayName>
</SimpleField>
<SimpleField type="xsd:string" name="NM_UF">
<displayName>NM_UF</displayName>
</SimpleField>
<SimpleField type="xsd:string" name="SIGLA_UF">
<displayName>SIGLA_UF</displayName>
</SimpleField>
<SimpleField type="xsd:string" name="CD_MUN">
<displayName>CD_MUN</displayName>
</SimpleField>
<SimpleField type="xsd:string" name="NM_MUN">
<displayName>NM_MUN</displayName>
</SimpleField>
<SimpleField type="xsd:string" name="CD_RGINT">
<displayName>CD_RGINT</displayName>
</SimpleField>
<SimpleField type="xsd:string" name="NM_RGINT">
<displayName>NM_RGINT</displayName>
</SimpleField>
<SimpleField type="xsd:string" name="CD_RGI">
<displayName>CD_RGI</displayName>
</SimpleField>
<SimpleField type="xsd:string" name="NM_RGI">
<displayName>NM_RGI</displayName>
</SimpleField>
<SimpleField type="xsd:string" name="CT_LOCALIDADE">
<displayName>CT_LOCALIDADE</displayName>
</SimpleField>
<SimpleField type="xsd:string" name="SCT_LOCALIDADE">
<displayName>SCT_LOCALIDADE</displayName>
</SimpleField>
<SimpleField type="xsd:string" name="CD_LOCALIDADE">
<displayName>CD_LOCALIDADE</displayName>
</SimpleField>
<SimpleField type="xsd:string" name="NM_LOCALIDADE">
<displayName>NM_LOCALIDADE</displayName>
</SimpleField>
<SimpleField type="xsd:string" name="LAT_LOCALIDADE">
<displayName>LAT_LOCALIDADE</displayName>
</SimpleField>
<SimpleField type="xsd:string" name="LONG_LOCALIDADE">
<displayName>LONG_LOCALIDADE</displayName>
</SimpleField>
</Schema>
<Schema name="Município" id="kml_schema_ft_Município">
<SimpleField type="xsd:string" name="CD_UF">
<displayName>CD_UF</displayName>
</SimpleField>
<SimpleField type="xsd:string" name="NM_UF">
<displayName>NM_UF</displayName>
</SimpleField>
<SimpleField type="xsd:string" name="CD_MUN">
<displayName>CD_MUN</displayName>
</SimpleField>
<SimpleField type="xsd:string" name="NM_MUN">
<displayName>NM_MUN</displayName>
</SimpleField>
<SimpleField type="xsd:string" name="CD_RGINT">
<displayName>CD_RGINT</displayName>
</SimpleField>
<SimpleField type="xsd:string" name="NM_RGINT">
<displayName>NM_RGINT</displayName>
</SimpleField>
<SimpleField type="xsd:string" name="CD_RGI">
<displayName>CD_RGI</displayName>
</SimpleField>
<SimpleField type="xsd:string" name="NM_RGI">
<displayName>NM_RGI</displayName>
</SimpleField>
</Schema>
<Folder id="01. Cidade">
<name>01. Cidade</name>
<Folder id="01.03. Sede Municipal">
<name>01.03. Sede Municipal</name>
<Placemark id="01.03. Sede Municipal">
<name>Ascurra [4201703]</name>
<visibility>1</visibility>
<snippet> </snippet>
<description>&lt;center&gt;&lt;table&gt;&lt;tr&gt;&lt;th colspan='2' align='center'&gt;&lt;em&gt;Atributos&lt;/em&gt;&lt;/th&gt;&lt;/tr&gt;&lt;tr bgcolor="#E3E3F3"&gt;
&lt;th&gt;CD_UF&lt;/th&gt;
&lt;td&gt;42&lt;/td&gt;
&lt;/tr&gt;&lt;tr bgcolor=""&gt;
&lt;th&gt;NM_UF&lt;/th&gt;
&lt;td&gt;Santa Catarina&lt;/td&gt;
&lt;/tr&gt;&lt;tr bgcolor="#E3E3F3"&gt;
&lt;th&gt;SIGLA_UF&lt;/th&gt;
&lt;td&gt;SC&lt;/td&gt;
&lt;/tr&gt;&lt;tr bgcolor=""&gt;
&lt;th&gt;CD_MUN&lt;/th&gt;
&lt;td&gt;4201703&lt;/td&gt;
&lt;/tr&gt;&lt;tr bgcolor="#E3E3F3"&gt;
&lt;th&gt;NM_MUN&lt;/th&gt;
&lt;td&gt;Ascurra&lt;/td&gt;
&lt;/tr&gt;&lt;tr bgcolor=""&gt;
&lt;th&gt;CD_RGINT&lt;/th&gt;
&lt;td&gt;4207&lt;/td&gt;
&lt;/tr&gt;&lt;tr bgcolor="#E3E3F3"&gt;
&lt;th&gt;NM_RGINT&lt;/th&gt;
&lt;td&gt;Blumenau&lt;/td&gt;
&lt;/tr&gt;&lt;tr bgcolor=""&gt;
&lt;th&gt;CD_RGI&lt;/th&gt;
&lt;td&gt;420019&lt;/td&gt;
&lt;/tr&gt;&lt;tr bgcolor="#E3E3F3"&gt;
&lt;th&gt;NM_RGI&lt;/th&gt;
&lt;td&gt;Blumenau&lt;/td&gt;
&lt;/tr&gt;&lt;tr bgcolor=""&gt;
&lt;th&gt;CT_LOCALIDADE&lt;/th&gt;
&lt;td&gt;Cidade&lt;/td&gt;
&lt;/tr&gt;&lt;tr bgcolor="#E3E3F3"&gt;
&lt;th&gt;SCT_LOCALIDADE&lt;/th&gt;
&lt;td&gt;Sede Municipal&lt;/td&gt;
&lt;/tr&gt;&lt;tr bgcolor=""&gt;
&lt;th&gt;CD_LOCALIDADE&lt;/th&gt;
&lt;td&gt;4201703&lt;/td&gt;
&lt;/tr&gt;&lt;tr bgcolor="#E3E3F3"&gt;
&lt;th&gt;NM_LOCALIDADE&lt;/th&gt;
&lt;td&gt;Ascurra&lt;/td&gt;
&lt;/tr&gt;&lt;tr bgcolor=""&gt;
&lt;th&gt;LAT_LOCALIDADE&lt;/th&gt;
&lt;td&gt;-26.9565&lt;/td&gt;
&lt;/tr&gt;&lt;tr bgcolor="#E3E3F3"&gt;
&lt;th&gt;LONG_LOCALIDADE&lt;/th&gt;
&lt;td&gt;-49.3766&lt;/td&gt;
&lt;/tr&gt;&lt;/table&gt;&lt;/center&gt;</description>
<Style>
<IconStyle>
<color>ff00aaff</color>
<scale>1.0</scale>
<Icon>
<href>http://maps.google.com/mapfiles/kml/shapes/placemark_circle.png</href>
</Icon>
</IconStyle>
<LabelStyle>
<scale>1.0</scale>
</LabelStyle>
<LineStyle>
<color>ffffffff</color>
<width>3</width>
<gx:labelVisibility>1</gx:labelVisibility>
</LineStyle>
<PolyStyle>
<color>00ffffff</color>
</PolyStyle>
</Style>
<ExtendedData>
<SchemaData schemaUrl="#kml_schema_ft_01._Cidade">
<SimpleData name="CD_UF">42</SimpleData>
<SimpleData name="NM_UF">Santa Catarina</SimpleData>
<SimpleData name="SIGLA_UF">SC</SimpleData>
<SimpleData name="CD_MUN">4201703</SimpleData>
<SimpleData name="NM_MUN">Ascurra</SimpleData>
<SimpleData name="CD_RGINT">4207</SimpleData>
<SimpleData name="NM_RGINT">Blumenau</SimpleData>
<SimpleData name="CD_RGI">420019</SimpleData>
<SimpleData name="NM_RGI">Blumenau</SimpleData>
<SimpleData name="CT_LOCALIDADE">Cidade</SimpleData>
<SimpleData name="SCT_LOCALIDADE">Sede Municipal</SimpleData>
<SimpleData name="CD_LOCALIDADE">4201703</SimpleData>
<SimpleData name="NM_LOCALIDADE">Ascurra</SimpleData>
<SimpleData name="LAT_LOCALIDADE">-26.9565</SimpleData>
<SimpleData name="LONG_LOCALIDADE">-49.3766</SimpleData>
</SchemaData>
</ExtendedData>
<Point>
<extrude>0</extrude>
<coordinates>-49.3766,-26.9564999992363,0.0</coordinates>
</Point>
</Placemark>
</Folder>
</Folder>
<Folder id="13. Referência">
<name>13. Referência</name>
<Placemark id="13. Referência">
<name>Ascurra [4201703]</name>
<visibility>1</visibility>
<snippet> </snippet>
<description>&lt;center&gt;&lt;table&gt;&lt;tr&gt;&lt;th colspan='2' align='center'&gt;&lt;em&gt;Attributes&lt;/em&gt;&lt;/th&gt;&lt;/tr&gt;&lt;tr bgcolor="#E3E3F3"&gt;
&lt;th&gt;CD_UF&lt;/th&gt;
&lt;td&gt;42&lt;/td&gt;
&lt;/tr&gt;&lt;tr bgcolor=""&gt;
&lt;th&gt;NM_UF&lt;/th&gt;
&lt;td&gt;Santa Catarina&lt;/td&gt;
&lt;/tr&gt;&lt;tr bgcolor="#E3E3F3"&gt;
&lt;th&gt;CD_MUN&lt;/th&gt;
&lt;td&gt;4201703&lt;/td&gt;
&lt;/tr&gt;&lt;tr bgcolor=""&gt;
&lt;th&gt;NM_MUN&lt;/th&gt;
&lt;td&gt;Ascurra&lt;/td&gt;
&lt;/tr&gt;&lt;tr bgcolor="#E3E3F3"&gt;
&lt;th&gt;CD_RGINT&lt;/th&gt;
&lt;td&gt;4207&lt;/td&gt;
&lt;/tr&gt;&lt;tr bgcolor=""&gt;
&lt;th&gt;NM_RGINT&lt;/th&gt;
&lt;td&gt;Blumenau&lt;/td&gt;
&lt;/tr&gt;&lt;tr bgcolor="#E3E3F3"&gt;
&lt;th&gt;CD_RGI&lt;/th&gt;
&lt;td&gt;420019&lt;/td&gt;
&lt;/tr&gt;&lt;tr bgcolor=""&gt;
&lt;th&gt;NM_RGI&lt;/th&gt;
&lt;td&gt;Blumenau&lt;/td&gt;
&lt;/tr&gt;&lt;/table&gt;&lt;/center&gt;</description>
<Style>
<IconStyle>
<scale>0.7</scale>
</IconStyle>
<LabelStyle>
<scale>0.7</scale>
</LabelStyle>
<LineStyle>
<color>ffffffff</color>
<width>3</width>
<gx:labelVisibility>1</gx:labelVisibility>
</LineStyle>
<PolyStyle>
<color>00ffffff</color>
</PolyStyle>
</Style>
<ExtendedData>
<SchemaData schemaUrl="#kml_schema_ft_Município">
<SimpleData name="CD_UF">42</SimpleData>
<SimpleData name="NM_UF">Santa Catarina</SimpleData>
<SimpleData name="CD_MUN">4201703</SimpleData>
<SimpleData name="NM_MUN">Ascurra</SimpleData>
<SimpleData name="CD_RGINT">4207</SimpleData>
<SimpleData name="NM_RGINT">Blumenau</SimpleData>
<SimpleData name="CD_RGI">420019</SimpleData>
<SimpleData name="NM_RGI">Blumenau</SimpleData>
</SchemaData>
</ExtendedData>
<MultiGeometry>
<Polygon>
<extrude>0</extrude>
<tessellate>1</tessellate>
<outerBoundaryIs>
<LinearRing>
<coordinates>-49.3744531,-26.9820948992358,0.0 -49.3745675,-26.9820960992358,0.0 -49.3745927,-26.9820963992358,0.0 -49.3747648,-26.9820981992358,0.0 -49.3750001,-26.9820954992358,0.0 -49.375454,-26.9821379992358,0.0 -49.3761083,-26.9822371992358,0.0 -49.3763167,-26.9823009992358,0.0 -49.3768751,-26.9824718992358,0.0 -49.3769612,-26.9824981992358,0.0 -49.3781209,-26.9829225992358,0.0 -49.3795136,-26.9837145992357,0.0 -49.3824237,-26.9858098992357,0.0 -49.3837164,-26.9869000992357,0.0 -49.3838948,-26.9870301992357,0.0 -49.3842057,-26.9872569992357,0.0 -49.3843123,-26.9873923992357,0.0 -49.3845807,-26.9877336992357,0.0 -49.3847036,-26.9879740992357,0.0 -49.3848663,-26.9882923992357,0.0 -49.3848832,-26.9886093992357,0.0 -49.3846722,-26.9894538992356,0.0 -49.3844542,-26.9899042992356,0.0 -49.3843459,-26.9901211992356,0.0 -49.3843411,-26.9901309992356,0.0 -49.3841762,-26.9904681992356,0.0 -49.3833859,-26.9914709992356,0.0 -49.3824186,-26.9926898992356,0.0 -49.3817612,-26.9934515992356,0.0 -49.3813695,-26.9942083992355,0.0 -49.3805146,-26.9957062992355,0.0 -49.3794108,-26.9974567992355,0.0 -49.378859,-26.9988124992355,0.0 -49.3788372,-26.9988658992355,0.0 -49.378475,-27.0000006992354,0.0 -49.3784723,-27.0002145992354,0.0 -49.3784704,-27.0003657992354,0.0 -49.3785013,-27.0007018992354,0.0 -49.3785862,-27.0010067992354,0.0 -49.378685,-27.0015835992354,0.0 -49.3788174,-27.0023126992354,0.0 -49.3788546,-27.0028248992354,0.0 -49.3788306,-27.0032563992354,0.0 -49.378804,-27.0033645992354,0.0 -49.37866,-27.0039500992354,0.0 -49.3784572,-27.0043954992354,0.0 -49.3781844,-27.0047441992353,0.0 -49.3780092,-27.0051339992353,0.0 -49.3779493,-27.0055730992353,0.0 -49.3779531,-27.0056418992353,0.0 -49.3779919,-27.0063410992353,0.0 -49.3780116,-27.0068290992353,0.0 -49.3780636,-27.0075652992353,0.0 -49.3780732,-27.0081410992353,0.0 -49.378048,-27.0083406992353,0.0 -49.3780228,-27.0085403992353,0.0 -49.3779606,-27.0088194992353,0.0 -49.3779422,-27.0089021992353,0.0 -49.3778415,-27.0093537992353,0.0 -49.3777045,-27.0101917992352,0.0 -49.3776303,-27.0110064992352,0.0 -49.3776289,-27.0111035992352,0.0 -49.3776258,-27.0113182992352,0.0 -49.3776214,-27.0113319992352,0.0 -49.3775417,-27.0115811992352,0.0 -49.3772321,-27.0120013992352,0.0 -49.3768689,-27.0124289992352,0.0 -49.3766698,-27.0126185992352,0.0 -49.3764435,-27.0128318992352,0.0 -49.3761577,-27.0129922992352,0.0 -49.3760386,-27.0130590992352,0.0 -49.376157,-27.0132337992352,0.0 -49.3761661,-27.0132458992352,0.0 -49.3762604,-27.0133698992352,0.0 -49.3764396,-27.0135698992352,0.0 -49.3765751,-27.0136232992352,0.0 -49.3766101,-27.0136570992352,0.0 -49.3766355,-27.0136918992352,0.0 -49.3766363,-27.0137461992352,0.0 -49.3765901,-27.0141089992352,0.0 -49.3765665,-27.0141674992352,0.0 -49.3765398,-27.0142238992352,0.0 -49.3764958,-27.0142849992352,0.0 -49.3764392,-27.0143463992352,0.0 -49.3761798,-27.0145409992352,0.0 -49.3760683,-27.0146643992352,0.0 -49.3759203,-27.0149730992351,0.0 -49.3759029,-27.0150378992351,0.0 -49.3759032,-27.0150614992351,0.0 -49.3759123,-27.0150904992351,0.0 -49.3759376,-27.0151229992351,0.0 -49.3759637,-27.0151389992351,0.0 -49.3760087,-27.0151586992351,0.0 -49.3760495,-27.0151714992351,0.0 -49.3763687,-27.0152186992351,0.0 -49.376797,-27.0152755992351,0.0 -49.3769304,-27.0153062992351,0.0 -49.3771191,-27.0153825992351,0.0 -49.3773332,-27.0154856992351,0.0 -49.3774245,-27.0155282992351,0.0 -49.3774782,-27.0155475992351,0.0 -49.3775323,-27.0155526992351,0.0 -49.3776447,-27.0155385992351,0.0 -49.377924,-27.0154774992351,0.0 -49.3779682,-27.0154722992351,0.0 -49.3780056,-27.0154753992351,0.0 -49.3780751,-27.0154994992351,0.0 -49.3785561,-27.0157351992351,0.0 -49.378729,-27.0157970992351,0.0 -49.378903,-27.0158275992351,0.0 -49.3789769,-27.0158388992351,0.0 -49.3790742,-27.0158443992351,0.0 -49.3791613,-27.0158453992351,0.0 -49.379314,-27.0158180992351,0.0 -49.3798171,-27.0158030992351,0.0 -49.3800749,-27.0158244992351,0.0 -49.3806821,-27.0158625992351,0.0 -49.3818469,-27.0158914992351,0.0 -49.3819482,-27.0158855992351,0.0 -49.382095,-27.0158190992351,0.0 -49.38211,-27.0158082992351,0.0 -49.3822448,-27.0157110992351,0.0 -49.3827721,-27.0151718992351,0.0 -49.3832975,-27.0146441992351,0.0 -49.3838369,-27.0140808992352,0.0 -49.3848039,-27.0131237992352,0.0 -49.3849418,-27.0129010992352,0.0 -49.3852606,-27.0124210992352,0.0 -49.3855786,-27.0117212992352,0.0 -49.3858966,-27.0110213992352,0.0 -49.3859009,-27.0110212992352,0.0 -49.3865924,-27.0110002992352,0.0 -49.387304,-27.0113500992352,0.0 -49.3880297,-27.0117997992352,0.0 -49.3890415,-27.0122596992352,0.0 -49.390084,-27.0127604992352,0.0 -49.3910141,-27.0130466992352,0.0 -49.3922712,-27.0131590992352,0.0 -49.3933954,-27.0129137992352,0.0 -49.3938145,-27.0125662992352,0.0 -49.3938825,-27.0125443992352,0.0 -49.3941313,-27.0124640992352,0.0 -49.3948919,-27.0125044992352,0.0 -49.3957663,-27.0124098992352,0.0 -49.396993,-27.0118815992352,0.0 -49.397872,-27.0116362992352,0.0 -49.3983029,-27.0114230992352,0.0 -49.3987338,-27.0112099992352,0.0 -49.3992926,-27.0112274992352,0.0 -49.3995584,-27.0113296992352,0.0 -49.3997935,-27.0116975992352,0.0 -49.3998488,-27.0117816992352,0.0 -49.400049,-27.0120859992352,0.0 -49.400652,-27.0124027992352,0.0 -49.4014696,-27.0125765992352,0.0 -49.4019806,-27.0124947992352,0.0 -49.4025734,-27.0122187992352,0.0 -49.4028289,-27.0118099992352,0.0 -49.402994,-27.0114864992352,0.0 -49.4030844,-27.0113091992352,0.0 -49.4034659,-27.0111654992352,0.0 -49.4049139,-27.0109718992352,0.0 -49.4058951,-27.0110434992352,0.0 -49.4064879,-27.0109514992352,0.0 -49.4073771,-27.0105732992352,0.0 -49.4077491,-27.0103414992352,0.0 -49.4080823,-27.0101338992352,0.0 -49.4086648,-27.0098067992352,0.0 -49.4087273,-27.0097722992352,0.0 -49.4093496,-27.0094286992352,0.0 -49.4097584,-27.0094490992353,0.0 -49.4104739,-27.0096023992352,0.0 -49.4111075,-27.0097045992352,0.0 -49.4119707,-27.0096982992352,0.0 -49.4122624,-27.0097863992352,0.0 -49.4128348,-27.0101746992352,0.0 -49.4134991,-27.0105324992352,0.0 -49.4143883,-27.0107777992352,0.0 -49.4152366,-27.0107266992352,0.0 -49.4161462,-27.0106244992352,0.0 -49.4166683,-27.0104448992352,0.0 -49.4170239,-27.0101749992352,0.0 -49.4172017,-27.0100399992352,0.0 -49.4173795,-27.0099050992352,0.0 -49.4176427,-27.0097269992352,0.0 -49.417906,-27.0095489992353,0.0 -49.4179868,-27.0095174992353,0.0 -49.4180599,-27.0094889992352,0.0 -49.418098,-27.0094740992352,0.0 -49.4181662,-27.0094474992352,0.0 -49.4182008,-27.0094339992352,0.0 -49.4182558,-27.0094125992353,0.0 -49.418306,-27.0093929992353,0.0 -49.4192244,-27.0094824992353,0.0 -49.419249,-27.0094848992353,0.0 -49.419502,-27.0096268992353,0.0 -49.4201451,-27.0099878992352,0.0 -49.4205463,-27.0103159992352,0.0 -49.4212213,-27.0106081992352,0.0 -49.4221996,-27.0106325992352,0.0 -49.4229326,-27.0107368992352,0.0 -49.4237094,-27.0105630992352,0.0 -49.4244044,-27.0103791992352,0.0 -49.424959,-27.0102760992352,0.0 -49.4256717,-27.0102871992352,0.0 -49.4263974,-27.0102973992352,0.0 -49.42698,-27.0104608992352,0.0 -49.4276238,-27.0107163992352,0.0 -49.428605,-27.0111252992352,0.0 -49.4294227,-27.0115135992352,0.0 -49.4299132,-27.0116771992352,0.0 -49.4303914,-27.0117671992352,0.0 -49.430782,-27.0118406992352,0.0 -49.4317018,-27.0119121992352,0.0 -49.432407,-27.0117588992352,0.0 -49.433194,-27.0115646992352,0.0 -49.4338366,-27.0115447992352,0.0 -49.4343285,-27.0116668992352,0.0 -49.4348497,-27.0120143992352,0.0 -49.4352994,-27.0121983992352,0.0 -49.4355022,-27.0123085992352,0.0 -49.4357696,-27.0124538992352,0.0 -49.436301,-27.0125560992352,0.0 -49.4366485,-27.0124947992352,0.0 -49.4372107,-27.0122392992352,0.0 -49.4373842,-27.0122094992352,0.0 -49.4375684,-27.0121779992352,0.0 -49.4383962,-27.0124538992352,0.0 -49.4390949,-27.0127745992352,0.0 -49.4397627,-27.0132185992352,0.0 -49.4404965,-27.0137362992352,0.0 -49.440655,-27.0138346992352,0.0 -49.440726,-27.0139056992352,0.0 -49.4407998,-27.0139630992352,0.0 -49.4410893,-27.0140533992352,0.0 -49.4414828,-27.0140533992352,0.0 -49.4415885,-27.0139988992352,0.0 -49.4419683,-27.0138029992352,0.0 -49.4428217,-27.0135985992352,0.0 -49.4435423,-27.0132408992352,0.0 -49.4446359,-27.0130517992352,0.0 -49.4451469,-27.0130108992352,0.0 -49.4466055,-27.0127609992352,0.0 -49.4469493,-27.0128194992352,0.0 -49.4472932,-27.0128780992352,0.0 -49.4473573,-27.0128798992352,0.0 -49.4480239,-27.0128984992352,0.0 -49.4486372,-27.0128064992352,0.0 -49.4491789,-27.0126020992352,0.0 -49.4495979,-27.0122545992352,0.0 -49.450068,-27.0118559992352,0.0 -49.4507324,-27.0116515992352,0.0 -49.4514989,-27.0113142992352,0.0 -49.4520917,-27.0110281992352,0.0 -49.4526504,-27.0107932992352,0.0 -49.4529501,-27.0108169992352,0.0 -49.4532539,-27.0107372992352,0.0 -49.4536759,-27.0106397992352,0.0 -49.4540643,-27.0104046992352,0.0 -49.4546378,-27.0100540992352,0.0 -49.4548892,-27.0098901992352,0.0 -49.4551405,-27.0096606992353,0.0 -49.4552662,-27.0094693992352,0.0 -49.4556075,-27.0091168992353,0.0 -49.4559653,-27.0089022992353,0.0 -49.4564456,-27.0087796992353,0.0 -49.4568111,-27.0087832992353,0.0 -49.4572326,-27.0087284992353,0.0 -49.4576108,-27.0085751992353,0.0 -49.4577076,-27.0084865992353,0.0 -49.4578044,-27.0083979992353,0.0 -49.4578682,-27.0083593992353,0.0 -49.4583864,-27.0080456992353,0.0 -49.4588372,-27.0075940992353,0.0 -49.4590723,-27.0073385992353,0.0 -49.4594709,-27.0071545992353,0.0 -49.4596373,-27.0070844992353,0.0 -49.4600535,-27.0069092992353,0.0 -49.4611862,-27.0064678992353,0.0 -49.4620873,-27.0062346992353,0.0 -49.4630072,-27.0059587992353,0.0 -49.4640701,-27.0057747992353,0.0 -49.4652148,-27.0054988992353,0.0 -49.4656441,-27.0054579992353,0.0 -49.4661653,-27.0055499992353,0.0 -49.4666763,-27.0055192992353,0.0 -49.4672282,-27.0054170992353,0.0 -49.4681481,-27.0051819992353,0.0 -49.4690082,-27.0051440992353,0.0 -49.4690222,-27.0048376992353,0.0 -49.4690362,-27.0045311992353,0.0 -49.4690674,-27.0039650992354,0.0 -49.4692009,-27.0033446992354,0.0 -49.4691135,-27.0027634992354,0.0 -49.4690377,-27.0022591992354,0.0 -49.4687952,-27.0017667992354,0.0 -49.4685775,-27.0015543992354,0.0 -49.4684938,-27.0014727992354,0.0 -49.4681263,-27.0007818992354,0.0 -49.4678324,-27.0000689992354,0.0 -49.467825,-26.9994662992355,0.0 -49.4678533,-26.9992256992354,0.0 -49.4678838,-26.9989665992355,0.0 -49.4678838,-26.9984079992355,0.0 -49.4674796,-26.9976950992355,0.0 -49.4667152,-26.9969820992355,0.0 -49.4655246,-26.9960045992355,0.0 -49.4646058,-26.9950711992355,0.0 -49.4640032,-26.9942479992355,0.0 -49.4635916,-26.9935203992356,0.0 -49.4633637,-26.9921753992356,0.0 -49.4630771,-26.9905804992356,0.0 -49.4628493,-26.9897279992356,0.0 -49.4624744,-26.9886328992357,0.0 -49.462004,-26.9870967992357,0.0 -49.4616145,-26.9857149992357,0.0 -49.461225,-26.9845390992357,0.0 -49.460931,-26.9838849992357,0.0 -49.4608596,-26.9835068992357,0.0 -49.4608575,-26.9834953992358,0.0 -49.4608614,-26.9834722992358,0.0 -49.4610265,-26.9825034992358,0.0 -49.4611189,-26.9815098992358,0.0 -49.4610121,-26.9807435992358,0.0 -49.4610119,-26.9798499992358,0.0 -49.4611158,-26.9789975992358,0.0 -49.4613269,-26.9773620992359,0.0 -49.4614075,-26.9768055992359,0.0 -49.4618662,-26.9762901992359,0.0 -49.4622351,-26.9760936992359,0.0 -49.4627125,-26.9758463992359,0.0 -49.4632882,-26.9755112992359,0.0 -49.4632876,-26.9748820992359,0.0 -49.4631115,-26.9743979992359,0.0 -49.4628707,-26.9736652992359,0.0 -49.4627458,-26.973243699236,0.0 -49.4626695,-26.972705699236,0.0 -49.4627502,-26.972160999236,0.0 -49.4624643,-26.971311799236,0.0 -49.4621784,-26.970462599236,0.0 -49.4618498,-26.969946199236,0.0 -49.4615684,-26.969443099236,0.0 -49.461011,-26.968536199236,0.0 -49.460619,-26.9678396992361,0.0 -49.4602161,-26.9665434992361,0.0 -49.4598608,-26.9654928992361,0.0 -49.4597135,-26.9645558992361,0.0 -49.459766,-26.9636840992361,0.0 -49.4598111,-26.9626580992362,0.0 -49.4599331,-26.9613410992362,0.0 -49.4601184,-26.9602234992362,0.0 -49.4600834,-26.9597094992362,0.0 -49.4601584,-26.9591499992362,0.0 -49.4603315,-26.9582336992362,0.0 -49.4603534,-26.9577200992362,0.0 -49.4604033,-26.9562833992363,0.0 -49.4604434,-26.9557734992363,0.0 -49.4607804,-26.9547685992363,0.0 -49.4608501,-26.9539551992363,0.0 -49.4609457,-26.9529482992363,0.0 -49.4609604,-26.9525072992364,0.0 -49.4611609,-26.9519308992364,0.0 -49.4611882,-26.9517428992364,0.0 -49.4615484,-26.9503758992364,0.0 -49.4615925,-26.9499274992364,0.0 -49.461688,-26.9493542992364,0.0 -49.4617468,-26.9489720992364,0.0 -49.4619209,-26.9486537992364,0.0 -49.4622172,-26.9481121992364,0.0 -49.4625332,-26.9476637992364,0.0 -49.4630771,-26.9470610992365,0.0 -49.4633564,-26.9468553992365,0.0 -49.4636945,-26.9460541992365,0.0 -49.4636577,-26.9454294992365,0.0 -49.4635254,-26.9450619992365,0.0 -49.4635916,-26.9447753992365,0.0 -49.4639738,-26.9444152992365,0.0 -49.4648631,-26.9438492992365,0.0 -49.4652306,-26.9433421992365,0.0 -49.4655319,-26.9427909992365,0.0 -49.4654952,-26.9422323992365,0.0 -49.4653629,-26.9416149992366,0.0 -49.4652306,-26.9410857992366,0.0 -49.4651763,-26.9407279992366,0.0 -49.4652586,-26.9401374992366,0.0 -49.4648174,-26.9395190992366,0.0 -49.4640397,-26.9389071992366,0.0 -49.4637226,-26.9385188992366,0.0 -49.4636901,-26.9384022992366,0.0 -49.4636,-26.9380793992366,0.0 -49.4634058,-26.9377829992366,0.0 -49.4631809,-26.9376194992366,0.0 -49.4630511,-26.9375374992366,0.0 -49.4627926,-26.9373741992366,0.0 -49.4626597,-26.9371288992367,0.0 -49.4625984,-26.9367813992367,0.0 -49.4625677,-26.9363418992367,0.0 -49.4626254,-26.9359333992367,0.0 -49.4626903,-26.9354731992367,0.0 -49.4627312,-26.9347474992367,0.0 -49.4627414,-26.9346146992367,0.0 -49.4625064,-26.9342466992367,0.0 -49.4621282,-26.9340524992367,0.0 -49.4616376,-26.9339094992367,0.0 -49.4608173,-26.9338903992367,0.0 -49.4607587,-26.9338889992367,0.0 -49.4605543,-26.9340320992367,0.0 -49.4602988,-26.9343795992367,0.0 -49.4600228,-26.9345737992367,0.0 -49.459719,-26.9347118992367,0.0 -49.4595731,-26.9347781992367,0.0 -49.4589701,-26.9351767992367,0.0 -49.458735,-26.9356264992367,0.0 -49.4583364,-26.9358717992367,0.0 -49.4579174,-26.9358615992367,0.0 -49.4573348,-26.9356366992367,0.0 -49.4568953,-26.9351563992367,0.0 -49.4563332,-26.9346146992367,0.0 -49.4559346,-26.9344919992367,0.0 -49.4552396,-26.9344919992367,0.0 -49.4541665,-26.9345941992367,0.0 -49.4538277,-26.9346298992367,0.0 -49.4533897,-26.9346759992367,0.0 -49.4526947,-26.9346657992367,0.0 -49.4520099,-26.9343999992367,0.0 -49.4516522,-26.9340116992367,0.0 -49.4514785,-26.9336027992367,0.0 -49.4514435,-26.9333960992367,0.0 -49.451366,-26.9329384992367,0.0 -49.4511719,-26.9325500992367,0.0 -49.4507324,-26.9322434992367,0.0 -49.4501294,-26.9317835992368,0.0 -49.4496183,-26.9313440992368,0.0 -49.449046,-26.9307206992368,0.0 -49.4485758,-26.9302402992368,0.0 -49.4481977,-26.9297496992368,0.0 -49.4478502,-26.9292897992368,0.0 -49.4475539,-26.9290675992368,0.0 -49.4473596,-26.9289218992368,0.0 -49.4469304,-26.9285947992368,0.0 -49.4465318,-26.9280224992368,0.0 -49.4464353,-26.9273634992368,0.0 -49.4463044,-26.9269566992368,0.0 -49.4459725,-26.9266708992368,0.0 -49.4455236,-26.9264966992369,0.0 -49.4449145,-26.9259512992369,0.0 -49.4448458,-26.9255981992369,0.0 -49.4448752,-26.9253978992369,0.0 -49.4450453,-26.9252052992369,0.0 -49.4454893,-26.9249358992369,0.0 -49.4457652,-26.9247007992369,0.0 -49.4458879,-26.9243634992369,0.0 -49.4458265,-26.9239750992369,0.0 -49.4455608,-26.9236480992369,0.0 -49.4450396,-26.9233311992369,0.0 -49.4445388,-26.9232187992369,0.0 -49.4443548,-26.9230756992369,0.0 -49.4443037,-26.9229734992369,0.0 -49.4442219,-26.9225850992369,0.0 -49.4441913,-26.9224624992369,0.0 -49.4440686,-26.9222478992369,0.0 -49.4438335,-26.9221047992369,0.0 -49.4436598,-26.9219003992369,0.0 -49.4436291,-26.9217163992369,0.0 -49.4437824,-26.9215119992369,0.0 -49.4440277,-26.921307599237,0.0 -49.4440686,-26.921103199237,0.0 -49.4439153,-26.920857899237,0.0 -49.4435678,-26.920592199237,0.0 -49.4424844,-26.920152699237,0.0 -49.4420858,-26.920142499237,0.0 -49.4415714,-26.920332399237,0.0 -49.4410536,-26.920489899237,0.0 -49.4401644,-26.920346899237,0.0 -49.4397453,-26.920213999237,0.0 -49.4395001,-26.919989099237,0.0 -49.4394796,-26.919835799237,0.0 -49.439592,-26.919621199237,0.0 -49.4397453,-26.919365699237,0.0 -49.4399089,-26.919171499237,0.0 -49.4399702,-26.918967099237,0.0 -49.4399498,-26.918793299237,0.0 -49.4397453,-26.918548099237,0.0 -49.4394986,-26.918170499237,0.0 -49.4392343,-26.917579199237,0.0 -49.4389489,-26.916983999237,0.0 -49.4384565,-26.916506799237,0.0 -49.4378834,-26.9159970992371,0.0 -49.4376802,-26.9155915992371,0.0 -49.4374538,-26.9154145992371,0.0 -49.4369062,-26.9152910992371,0.0 -49.436463,-26.9151517992371,0.0 -49.435691,-26.9150972992371,0.0 -49.433877,-26.9149727992371,0.0 -49.4327792,-26.9150565992371,0.0 -49.4315097,-26.9151456992371,0.0 -49.4312829,-26.9151627992371,0.0 -49.4298121,-26.9152741992371,0.0 -49.427498,-26.9161408992371,0.0 -49.4263055,-26.9164730992371,0.0 -49.4259223,-26.916864899237,0.0 -49.4258286,-26.917086299237,0.0 -49.4257831,-26.917210499237,0.0 -49.4257008,-26.917435599237,0.0 -49.4256156,-26.917580299237,0.0 -49.4254197,-26.918014699237,0.0 -49.4251642,-26.918210599237,0.0 -49.4246872,-26.918312799237,0.0 -49.4239547,-26.918508699237,0.0 -49.4234104,-26.918593299237,0.0 -49.4230774,-26.918644999237,0.0 -49.4219276,-26.919070899237,0.0 -49.4208374,-26.919420099237,0.0 -49.4200027,-26.919990799237,0.0 -49.4195001,-26.920740299237,0.0 -49.4193803,-26.920910699237,0.0 -49.4187932,-26.9217453992369,0.0 -49.4185381,-26.9222656992369,0.0 -49.418427,-26.9224924992369,0.0 -49.4183844,-26.9229888992369,0.0 -49.4182821,-26.9234743992369,0.0 -49.4180351,-26.9240109992369,0.0 -49.4175071,-26.9244879992369,0.0 -49.4167405,-26.9251096992369,0.0 -49.4161954,-26.9256973992369,0.0 -49.4158219,-26.9259389992369,0.0 -49.4154311,-26.9262421992369,0.0 -49.4151484,-26.9263805992369,0.0 -49.4145515,-26.9266172992368,0.0 -49.4139553,-26.9272645992368,0.0 -49.4132398,-26.9279204992368,0.0 -49.4127288,-26.9283207992368,0.0 -49.4120815,-26.9290873992368,0.0 -49.4116159,-26.9295930992368,0.0 -49.4111304,-26.9300377992368,0.0 -49.4106165,-26.9304756992368,0.0 -49.410361,-26.9308248992368,0.0 -49.4102332,-26.9310633992368,0.0 -49.4102106,-26.9314021992368,0.0 -49.4102076,-26.9314466992368,0.0 -49.410148,-26.9317617992368,0.0 -49.4098584,-26.9320939992367,0.0 -49.4095433,-26.9322557992367,0.0 -49.4088534,-26.9326305992367,0.0 -49.4080953,-26.9331756992367,0.0 -49.407465,-26.9335674992367,0.0 -49.4067492,-26.9338353992367,0.0 -49.4061492,-26.9339171992367,0.0 -49.4056102,-26.9337703992367,0.0 -49.4050724,-26.9334873992367,0.0 -49.4045502,-26.9332660992367,0.0 -49.4040029,-26.9329935992367,0.0 -49.4035319,-26.9325995992367,0.0 -49.403255,-26.9322472992367,0.0 -49.4031054,-26.9320990992368,0.0 -49.4029973,-26.9319515992368,0.0 -49.4028384,-26.9317599992367,0.0 -49.4028143,-26.9316284992368,0.0 -49.4027469,-26.9315683992368,0.0 -49.4024115,-26.9311472992368,0.0 -49.4020274,-26.9307092992368,0.0 -49.4018737,-26.9305901992368,0.0 -49.4017199,-26.9304711992368,0.0 -49.4012662,-26.9303022992368,0.0 -49.4001741,-26.9303308992368,0.0 -49.3996972,-26.9303393992368,0.0 -49.3993565,-26.9303989992368,0.0 -49.398724,-26.9306813992368,0.0 -49.3983289,-26.9309557992368,0.0 -49.3980522,-26.9311755992368,0.0 -49.3975899,-26.9312605992368,0.0 -49.3970332,-26.9309963992368,0.0 -49.396618,-26.9307038992368,0.0 -49.3963349,-26.9304207992368,0.0 -49.3959103,-26.9302980992368,0.0 -49.3954952,-26.9302792992368,0.0 -49.394997,-26.9303121992368,0.0 -49.3944769,-26.9304269992368,0.0 -49.3940926,-26.9306616992368,0.0 -49.3937299,-26.9307697992368,0.0 -49.3932495,-26.9311059992368,0.0 -49.3929514,-26.9312081992368,0.0 -49.3925914,-26.9311009992368,0.0 -49.3925511,-26.9310889992368,0.0 -49.3919974,-26.9309185992368,0.0 -49.3913416,-26.9308163992368,0.0 -49.3907796,-26.9308069992368,0.0 -49.3904132,-26.9308248992368,0.0 -49.3902428,-26.9309952992368,0.0 -49.390081,-26.9314636992368,0.0 -49.3899775,-26.9322037992367,0.0 -49.3898399,-26.9330624992367,0.0 -49.3896722,-26.9334822992367,0.0 -49.38934,-26.9339763992367,0.0 -49.3888715,-26.9342744992367,0.0 -49.3884466,-26.9345243992367,0.0 -49.3882924,-26.9346151992367,0.0 -49.3876791,-26.9347599992367,0.0 -49.3873725,-26.9347854992367,0.0 -49.3870488,-26.9347599992367,0.0 -49.3868274,-26.9348450992367,0.0 -49.3867507,-26.9350324992367,0.0 -49.3867848,-26.9353561992367,0.0 -49.3867763,-26.9357053992367,0.0 -49.3866826,-26.9359097992367,0.0 -49.3860864,-26.9362760992367,0.0 -49.3857712,-26.9365570992367,0.0 -49.3855412,-26.9367103992367,0.0 -49.3850217,-26.9369148992367,0.0 -49.384431,-26.9369137992367,0.0 -49.3835652,-26.9368211992367,0.0 -49.3830201,-26.9369233992367,0.0 -49.3824665,-26.9370085992366,0.0 -49.3819994,-26.9371139992366,0.0 -49.3819384,-26.9371277992367,0.0 -49.3818447,-26.9372555992367,0.0 -49.3817765,-26.9374854992366,0.0 -49.3817254,-26.9379624992366,0.0 -49.3816232,-26.9384394992366,0.0 -49.3815295,-26.9388567992366,0.0 -49.3813422,-26.9393422992366,0.0 -49.3811037,-26.9396148992366,0.0 -49.3809078,-26.9399129992366,0.0 -49.3808567,-26.9402706992366,0.0 -49.3809882,-26.9405359992366,0.0 -49.3813759,-26.9407778992366,0.0 -49.3820025,-26.9409433992366,0.0 -49.3825423,-26.9412279992366,0.0 -49.3823329,-26.9416428992366,0.0 -49.3822871,-26.9417336992366,0.0 -49.3819607,-26.9421833992366,0.0 -49.381184,-26.9427957992365,0.0 -49.380678,-26.9430908992365,0.0 -49.3797294,-26.9435124992365,0.0 -49.3785911,-26.9438497992365,0.0 -49.3777446,-26.9441643992365,0.0 -49.3773495,-26.9443739992365,0.0 -49.3771296,-26.9444905992365,0.0 -49.3764352,-26.9443693992365,0.0 -49.3758517,-26.9442675992365,0.0 -49.3749848,-26.9443381992365,0.0 -49.3743086,-26.9443901992365,0.0 -49.3736225,-26.9444419992365,0.0 -49.3729837,-26.9445313992365,0.0 -49.3720938,-26.9445039992365,0.0 -49.3715999,-26.9446022992365,0.0 -49.3710427,-26.9445006992365,0.0 -49.3705486,-26.9442564992365,0.0 -49.3700955,-26.9441297992365,0.0 -49.3697162,-26.9440184992365,0.0 -49.3693446,-26.9440350992365,0.0 -49.3690782,-26.9441630992365,0.0 -49.3690417,-26.9441806992365,0.0 -49.3685136,-26.9440598992365,0.0 -49.3672446,-26.9435829992365,0.0 -49.3671852,-26.9436591992365,0.0 -49.3671274,-26.9437363992365,0.0 -49.3670426,-26.9438517992365,0.0 -49.3668781,-26.9440538992365,0.0 -49.3667427,-26.9442154992365,0.0 -49.3665868,-26.9443993992365,0.0 -49.3664352,-26.9445649992365,0.0 -49.3663501,-26.9446541992365,0.0 -49.3662852,-26.9447202992365,0.0 -49.3662305,-26.9447824992365,0.0 -49.3661717,-26.9448357992365,0.0 -49.3661478,-26.9448583992365,0.0 -49.3660645,-26.9449171992365,0.0 -49.3659885,-26.9449745992365,0.0 -49.3658892,-26.9450502992365,0.0 -49.3658475,-26.9450808992365,0.0 -49.3658041,-26.9451128992365,0.0 -49.3657505,-26.9451414992365,0.0 -49.3657007,-26.9451742992365,0.0 -49.3656434,-26.9452099992365,0.0 -49.3655921,-26.9452432992365,0.0 -49.3655484,-26.9452713992365,0.0 -49.3655021,-26.9453030992365,0.0 -49.3654607,-26.9453304992365,0.0 -49.3654232,-26.9453614992365,0.0 -49.3654029,-26.9453984992365,0.0 -49.3653958,-26.9454537992365,0.0 -49.3653963,-26.9455300992365,0.0 -49.3654037,-26.9455899992365,0.0 -49.3654057,-26.9456450992365,0.0 -49.3654091,-26.9456804992365,0.0 -49.3654136,-26.9457179992365,0.0 -49.3654147,-26.9457539992365,0.0 -49.3654163,-26.9457797992365,0.0 -49.3654161,-26.9457854992365,0.0 -49.3654166,-26.9457956992365,0.0 -49.3654171,-26.9458048992365,0.0 -49.3654174,-26.9458130992365,0.0 -49.3654184,-26.9458263992365,0.0 -49.3654182,-26.9458394992365,0.0 -49.3654069,-26.9458893992365,0.0 -49.3653881,-26.9459307992365,0.0 -49.3653594,-26.9459847992365,0.0 -49.3653128,-26.9460684992365,0.0 -49.3652728,-26.9461347992365,0.0 -49.3652403,-26.9461994992365,0.0 -49.3652017,-26.9462508992365,0.0 -49.3651727,-26.9463278992365,0.0 -49.3651766,-26.9463805992365,0.0 -49.3651854,-26.9464536992365,0.0 -49.3651951,-26.9465200992365,0.0 -49.3652157,-26.9465949992365,0.0 -49.3652418,-26.9466670992365,0.0 -49.3652701,-26.9467298992365,0.0 -49.3653014,-26.9468025992365,0.0 -49.3653276,-26.9468489992365,0.0 -49.3653506,-26.9469194992365,0.0 -49.3653583,-26.9469634992365,0.0 -49.3653732,-26.9470480992365,0.0 -49.3653885,-26.9471048992365,0.0 -49.3654041,-26.9471682992365,0.0 -49.3654232,-26.9472414992365,0.0 -49.3654352,-26.9473081992365,0.0 -49.3654529,-26.9473654992365,0.0 -49.3654651,-26.9474252992364,0.0 -49.3654691,-26.9475311992365,0.0 -49.3654705,-26.9476030992364,0.0 -49.3654741,-26.9476803992364,0.0 -49.3654836,-26.9477601992364,0.0 -49.3654912,-26.9478308992364,0.0 -49.3654957,-26.9478989992364,0.0 -49.3654914,-26.9479518992364,0.0 -49.3654778,-26.9480222992364,0.0 -49.3654681,-26.9480931992364,0.0 -49.3654505,-26.9481631992364,0.0 -49.3654208,-26.9482269992364,0.0 -49.3653808,-26.9482967992364,0.0 -49.3653333,-26.9483325992364,0.0 -49.3652422,-26.9483421992364,0.0 -49.3651752,-26.9483427992364,0.0 -49.3650863,-26.9483431992364,0.0 -49.3650284,-26.9483432992364,0.0 -49.3649391,-26.9483417992364,0.0 -49.3648356,-26.9483456992364,0.0 -49.3647363,-26.9483628992364,0.0 -49.3646489,-26.9483827992364,0.0 -49.364552,-26.9484040992364,0.0 -49.364448,-26.9484465992364,0.0 -49.3643226,-26.9485041992364,0.0 -49.3642491,-26.9485413992364,0.0 -49.3641974,-26.9485696992364,0.0 -49.3641445,-26.9486038992364,0.0 -49.3641174,-26.9486187992364,0.0 -49.3640881,-26.9486406992364,0.0 -49.3640731,-26.9486512992364,0.0 -49.3640595,-26.9486599992364,0.0 -49.3640423,-26.9486718992364,0.0 -49.3640216,-26.9486849992364,0.0 -49.3639973,-26.9486998992364,0.0 -49.3639766,-26.9487135992364,0.0 -49.3639187,-26.9487515992364,0.0 -49.3638395,-26.9487969992364,0.0 -49.3637486,-26.9488372992364,0.0 -49.3636255,-26.9488814992364,0.0 -49.3635157,-26.9489302992364,0.0 -49.3633911,-26.9490128992364,0.0 -49.3633034,-26.9491031992364,0.0 -49.363208,-26.9491882992364,0.0 -49.3631625,-26.9492406992364,0.0 -49.3630953,-26.9492886992364,0.0 -49.3630403,-26.9493172992364,0.0 -49.3629734,-26.9493304992364,0.0 -49.3629055,-26.9493226992364,0.0 -49.3628809,-26.9493135992364,0.0 -49.3628274,-26.9492913992364,0.0 -49.3627731,-26.9492735992364,0.0 -49.3627266,-26.9492565992364,0.0 -49.3626545,-26.9492329992364,0.0 -49.3625924,-26.9492226992364,0.0 -49.362552,-26.9492222992364,0.0 -49.3624989,-26.9492260992364,0.0 -49.3624505,-26.9492413992364,0.0 -49.3624063,-26.9492611992364,0.0 -49.3623556,-26.9492909992364,0.0 -49.3623205,-26.9493203992364,0.0 -49.3622859,-26.9493662992364,0.0 -49.3622013,-26.9495764992364,0.0 -49.362172,-26.9496798992364,0.0 -49.3621173,-26.9497808992364,0.0 -49.3620626,-26.9498819992364,0.0 -49.3619342,-26.9501086992364,0.0 -49.3618205,-26.9502857992364,0.0 -49.361566,-26.9504904992364,0.0 -49.3614175,-26.9504887992364,0.0 -49.3612232,-26.9505052992364,0.0 -49.3610911,-26.9505321992364,0.0 -49.3610624,-26.9505364992364,0.0 -49.3609566,-26.9505520992364,0.0 -49.3608272,-26.9505591992364,0.0 -49.3606975,-26.9505834992364,0.0 -49.3605485,-26.9506117992364,0.0 -49.3599399,-26.9508372992364,0.0 -49.3598,-26.9509042992364,0.0 -49.3596402,-26.9510182992364,0.0 -49.3596064,-26.9510350992364,0.0 -49.3595727,-26.9510518992364,0.0 -49.3594902,-26.9511195992364,0.0 -49.3593691,-26.9512125992364,0.0 -49.3593569,-26.9512211992364,0.0 -49.3592432,-26.9513012992364,0.0 -49.3590928,-26.9514325992364,0.0 -49.3589715,-26.9515341992364,0.0 -49.3589036,-26.9515934992364,0.0 -49.3584159,-26.9520873992364,0.0 -49.3583624,-26.9521425992364,0.0 -49.3582747,-26.9522444992364,0.0 -49.3581578,-26.9523761992364,0.0 -49.3580991,-26.9524570992364,0.0 -49.3580404,-26.9525378992364,0.0 -49.3579624,-26.9526314992364,0.0 -49.3579308,-26.9526675992364,0.0 -49.3578991,-26.9527036992364,0.0 -49.3578357,-26.9527758992364,0.0 -49.3578071,-26.9528167992363,0.0 -49.3577134,-26.9529503992363,0.0 -49.35764,-26.9530611992363,0.0 -49.3575572,-26.9531502992363,0.0 -49.3575089,-26.9531797992363,0.0 -49.3574022,-26.9532686992363,0.0 -49.3573342,-26.9533279992363,0.0 -49.3572616,-26.9533786992363,0.0 -49.3571793,-26.9534377992363,0.0 -49.3570729,-26.9535094992363,0.0 -49.3568155,-26.9536537992363,0.0 -49.3567238,-26.9536999992363,0.0 -49.356564,-26.9538182992363,0.0 -49.3564863,-26.9538860992363,0.0 -49.3563939,-26.9539793992363,0.0 -49.356277,-26.9541110992363,0.0 -49.356145,-26.9542983992363,0.0 -49.3560717,-26.9543961992363,0.0 -49.3560222,-26.9545029992363,0.0 -49.3558139,-26.9546592992363,0.0 -49.3556878,-26.9547651992363,0.0 -49.3555661,-26.9548967992363,0.0 -49.3555269,-26.9549520992363,0.0 -49.3554681,-26.9550458992363,0.0 -49.3554044,-26.9551437992363,0.0 -49.3553545,-26.9552762992363,0.0 -49.3551284,-26.9555123992363,0.0 -49.3551051,-26.9555366992363,0.0 -49.3548716,-26.9557785992363,0.0 -49.3547353,-26.9559271992363,0.0 -49.3545988,-26.9560886992363,0.0 -49.3544239,-26.9562497992363,0.0 -49.3542329,-26.9564387992363,0.0 -49.3540521,-26.9566812992363,0.0 -49.3539399,-26.9568215992363,0.0 -49.3538069,-26.9570689992363,0.0 -49.3536558,-26.9572474992363,0.0 -49.3534469,-26.9574424992363,0.0 -49.3533399,-26.9575484992363,0.0 -49.3531754,-26.9576581992362,0.0 -49.3530448,-26.9577424992363,0.0 -49.3529903,-26.9578662992363,0.0 -49.3528396,-26.9580190992362,0.0 -49.3527126,-26.9581849992362,0.0 -49.3526433,-26.9583343992362,0.0 -49.3524616,-26.9584339992362,0.0 -49.3524088,-26.9584628992362,0.0 -49.3520416,-26.9587346992362,0.0 -49.351675,-26.9589494992362,0.0 -49.3512353,-26.9593100992362,0.0 -49.3501044,-26.9601950992362,0.0 -49.349722,-26.9604465992362,0.0 -49.349527,-26.9605990992362,0.0 -49.3492853,-26.9607687992362,0.0 -49.3478375,-26.9614506992362,0.0 -49.3476293,-26.9615970992362,0.0 -49.347179,-26.9619428992362,0.0 -49.3452844,-26.9631813992361,0.0 -49.3448983,-26.9634336992361,0.0 -49.3444907,-26.9637046992361,0.0 -49.3436982,-26.9641232992361,0.0 -49.3432323,-26.9644100992361,0.0 -49.3429602,-26.9645982992361,0.0 -49.3421653,-26.9650477992361,0.0 -49.341926,-26.9651865992361,0.0 -49.3413556,-26.9654394992361,0.0 -49.3412293,-26.9655147992361,0.0 -49.3411163,-26.9655782992361,0.0 -49.3408893,-26.9656873992361,0.0 -49.3408044,-26.9657280992361,0.0 -49.3404069,-26.9658768992361,0.0 -49.3402411,-26.9659456992361,0.0 -49.3396986,-26.9660927992361,0.0 -49.3395263,-26.9661615992361,0.0 -49.3390704,-26.9662914992361,0.0 -49.3389759,-26.9663136992361,0.0 -49.3388098,-26.9663494992361,0.0 -49.3386435,-26.9663940992361,0.0 -49.3382251,-26.9664856992361,0.0 -49.3380431,-26.9664922992361,0.0 -49.3378453,-26.9664753992361,0.0 -49.3375701,-26.9664168992361,0.0 -49.3372534,-26.9663113992361,0.0 -49.3371794,-26.9662639992361,0.0 -49.3367383,-26.9661096992361,0.0 -49.3362721,-26.9660081992361,0.0 -49.3361266,-26.9659715992361,0.0 -49.3356713,-26.9659630992361,0.0 -49.3350847,-26.9659700992361,0.0 -49.3344933,-26.9659491992361,0.0 -49.3341716,-26.9659406992361,0.0 -49.33383,-26.9658762992361,0.0 -49.3334737,-26.9657511992361,0.0 -49.3325971,-26.9655499992361,0.0 -49.3317498,-26.9653619992361,0.0 -49.3314021,-26.9652848992361,0.0 -49.3301284,-26.9649343992361,0.0 -49.3294655,-26.9648381992361,0.0 -49.3291853,-26.9648301992361,0.0 -49.3287002,-26.9648039992361,0.0 -49.3281777,-26.9647202992361,0.0 -49.3275138,-26.9646937992361,0.0 -49.3268288,-26.9646856992361,0.0 -49.3264554,-26.9646672992361,0.0 -49.3244709,-26.9645739992361,0.0 -49.3230529,-26.9645726992361,0.0 -49.3226453,-26.9645678992361,0.0 -49.3222669,-26.9645581992361,0.0 -49.3220864,-26.9645559992361,0.0 -49.3214261,-26.9644541992361,0.0 -49.3210252,-26.9643919992361,0.0 -49.3208166,-26.9643191992361,0.0 -49.3206081,-26.9642462992361,0.0 -49.3204833,-26.9642243992361,0.0 -49.3202247,-26.9641790992361,0.0 -49.3199467,-26.9640766992361,0.0 -49.319582,-26.9639367992361,0.0 -49.31797,-26.9633211992361,0.0 -49.316768,-26.9627018992362,0.0 -49.3160197,-26.9621139992362,0.0 -49.3159144,-26.9620002992362,0.0 -49.3157548,-26.9617433992362,0.0 -49.3156488,-26.9615415992362,0.0 -49.315587,-26.9614483992362,0.0 -49.3154097,-26.9610221992362,0.0 -49.3153505,-26.9604958992362,0.0 -49.3153324,-26.9601050992362,0.0 -49.3153916,-26.9597660992362,0.0 -49.3154441,-26.9596163992362,0.0 -49.3155802,-26.9594260992362,0.0 -49.3158227,-26.9592550992362,0.0 -49.315314,-26.9592099992362,0.0 -49.3152945,-26.9592096992362,0.0 -49.3149591,-26.9592044992362,0.0 -49.314829,-26.9591951992362,0.0 -49.3146433,-26.9591907992362,0.0 -49.3143755,-26.9592377992362,0.0 -49.3142334,-26.9592776992362,0.0 -49.3141157,-26.9593224992362,0.0 -49.3137496,-26.9594512992362,0.0 -49.3134759,-26.9595738992362,0.0 -49.3133215,-26.9596351992362,0.0 -49.3131915,-26.9596749992362,0.0 -49.3131438,-26.9597073992362,0.0 -49.3130898,-26.9597640992362,0.0 -49.3130516,-26.9598016992362,0.0 -49.3130063,-26.9598520992362,0.0 -49.3129796,-26.9598995992362,0.0 -49.3129327,-26.9600228992362,0.0 -49.3128861,-26.9601667992362,0.0 -49.3128199,-26.9603178992362,0.0 -49.3126952,-26.9605538992362,0.0 -49.3126652,-26.9606082992362,0.0 -49.3126051,-26.9607245992362,0.0 -49.3125,-26.9609508992362,0.0 -49.3124365,-26.9610661992362,0.0 -49.3123822,-26.9611446992362,0.0 -49.3122696,-26.9613591992362,0.0 -49.3121888,-26.9614893992362,0.0 -49.312158,-26.9615850992362,0.0 -49.3121169,-26.9618132992362,0.0 -49.3121095,-26.9618576992362,0.0 -49.3120999,-26.9619166992362,0.0 -49.3120962,-26.9619383992362,0.0 -49.3120902,-26.9619845992362,0.0 -49.3120662,-26.9621324992362,0.0 -49.3120478,-26.9624590992362,0.0 -49.3120466,-26.9629238992362,0.0 -49.3120448,-26.9630407992361,0.0 -49.3120537,-26.9631123992361,0.0 -49.3120852,-26.9631988992362,0.0 -49.3121044,-26.9632330992361,0.0 -49.3121327,-26.9632694992361,0.0 -49.3121757,-26.9633454992361,0.0 -49.3121916,-26.9633776992361,0.0 -49.3121966,-26.9634201992362,0.0 -49.3121996,-26.9634569992361,0.0 -49.3122017,-26.9635127992361,0.0 -49.3122013,-26.9635414992361,0.0 -49.3121691,-26.9636982992361,0.0 -49.3121502,-26.9637688992361,0.0 -49.31207,-26.9639593992361,0.0 -49.3120116,-26.9640819992361,0.0 -49.3119773,-26.9641757992361,0.0 -49.3119664,-26.9642537992361,0.0 -49.3119642,-26.9643234992361,0.0 -49.3119552,-26.9643803992361,0.0 -49.3119451,-26.9644064992361,0.0 -49.3119337,-26.9644308992361,0.0 -49.3118436,-26.9645527992361,0.0 -49.3117894,-26.9646370992361,0.0 -49.3117046,-26.9647694992361,0.0 -49.311653,-26.9648522992361,0.0 -49.3116126,-26.9649157992361,0.0 -49.3115671,-26.9649684992361,0.0 -49.3114921,-26.9650539992361,0.0 -49.311447,-26.9651203992361,0.0 -49.3114339,-26.9651767992361,0.0 -49.311435,-26.9652201992361,0.0 -49.3114463,-26.9652826992361,0.0 -49.3115038,-26.9654331992361,0.0 -49.3115555,-26.9655599992361,0.0 -49.3115606,-26.9655809992361,0.0 -49.3115927,-26.9656440992361,0.0 -49.3116672,-26.9657586992361,0.0 -49.3117148,-26.9658294992361,0.0 -49.3118051,-26.9659471992361,0.0 -49.3118386,-26.9660181992361,0.0 -49.311918,-26.9661226992361,0.0 -49.3119556,-26.9661793992361,0.0 -49.3120467,-26.9662516992361,0.0 -49.3121354,-26.9663339992361,0.0 -49.3122504,-26.9664371992361,0.0 -49.3125001,-26.9666573992361,0.0 -49.312529,-26.9666849992361,0.0 -49.3126372,-26.9667735992361,0.0 -49.3127824,-26.9668820992361,0.0 -49.3128898,-26.9669461992361,0.0 -49.3129537,-26.9669754992361,0.0 -49.313076,-26.9670136992361,0.0 -49.3132209,-26.9670500992361,0.0 -49.3133403,-26.9670679992361,0.0 -49.3134935,-26.9671096992361,0.0 -49.3135365,-26.9671299992361,0.0 -49.3135553,-26.9671474992361,0.0 -49.3135614,-26.9671626992361,0.0 -49.3135619,-26.9671773992361,0.0 -49.3135607,-26.9672022992361,0.0 -49.3135584,-26.9672171992361,0.0 -49.3135379,-26.9672540992361,0.0 -49.313509,-26.9672937992361,0.0 -49.3134736,-26.9673463992361,0.0 -49.3133911,-26.9674544992361,0.0 -49.3132876,-26.9675798992361,0.0 -49.3132508,-26.9676257992361,0.0 -49.313231,-26.9676691992361,0.0 -49.3132188,-26.9676927992361,0.0 -49.3132158,-26.9677187992361,0.0 -49.3132152,-26.9677369992361,0.0 -49.3132147,-26.9677574992361,0.0 -49.3132187,-26.9677827992361,0.0 -49.3132225,-26.9678073992361,0.0 -49.3132589,-26.9678505992361,0.0 -49.3132807,-26.9678674992361,0.0 -49.3133068,-26.9678767992361,0.0 -49.31333,-26.9678832992361,0.0 -49.3133517,-26.9678860992361,0.0 -49.3133809,-26.9678844992361,0.0 -49.3133945,-26.9678819992361,0.0 -49.3134297,-26.9678716992361,0.0 -49.3134404,-26.9678675992361,0.0 -49.313504,-26.967811399236,0.0 -49.3135987,-26.9677238992361,0.0 -49.3137143,-26.9676078992361,0.0 -49.3138054,-26.9675090992361,0.0 -49.3138508,-26.9674510992361,0.0 -49.3138796,-26.9673969992361,0.0 -49.3138977,-26.9673564992361,0.0 -49.3139028,-26.9673369992361,0.0 -49.3139099,-26.9673028992361,0.0 -49.3139058,-26.9672595992361,0.0 -49.3138909,-26.9672148992361,0.0 -49.3138836,-26.9671593992361,0.0 -49.3138856,-26.9671167992361,0.0 -49.3138947,-26.9670523992361,0.0 -49.3138977,-26.9670361992361,0.0 -49.3139257,-26.9669576992361,0.0 -49.3139566,-26.9668777992361,0.0 -49.3139757,-26.9668309992361,0.0 -49.3140027,-26.9668037992361,0.0 -49.3140472,-26.9667736992361,0.0 -49.3141068,-26.9667470992361,0.0 -49.3141868,-26.9667351992361,0.0 -49.3142446,-26.9667356992361,0.0 -49.3142532,-26.9667360992361,0.0 -49.314287,-26.9667380992361,0.0 -49.3143159,-26.9667429992361,0.0 -49.3143557,-26.9667510992361,0.0 -49.3143933,-26.9667627992361,0.0 -49.3144294,-26.9667721992361,0.0 -49.3144463,-26.9667729992361,0.0 -49.3144634,-26.9667718992361,0.0 -49.3144817,-26.9667678992361,0.0 -49.3144902,-26.9667670992361,0.0 -49.3145085,-26.9667622992361,0.0 -49.3145724,-26.9667427992361,0.0 -49.3145847,-26.9667385992361,0.0 -49.3146117,-26.9667385992361,0.0 -49.3146214,-26.9667408992361,0.0 -49.3146263,-26.9667440992361,0.0 -49.3146315,-26.9667522992361,0.0 -49.3146363,-26.9667650992361,0.0 -49.3146353,-26.9667780992361,0.0 -49.314629,-26.9667895992361,0.0 -49.3146237,-26.9667987992361,0.0 -49.3146105,-26.9668083992361,0.0 -49.3145729,-26.9668345992361,0.0 -49.3145067,-26.9668679992361,0.0 -49.31445,-26.9668906992361,0.0 -49.3144267,-26.9669162992361,0.0 -49.3144215,-26.9669354992361,0.0 -49.3144212,-26.9669516992361,0.0 -49.3144308,-26.9669640992361,0.0 -49.3144601,-26.9669764992361,0.0 -49.3144742,-26.9669771992361,0.0 -49.3144977,-26.9669789992361,0.0 -49.3145167,-26.9669793992361,0.0 -49.3145476,-26.9669739992361,0.0 -49.3145686,-26.9669726992361,0.0 -49.3145873,-26.9669705992361,0.0 -49.3146135,-26.9669648992361,0.0 -49.3146218,-26.9669608992361,0.0 -49.3146466,-26.9669553992361,0.0 -49.3146553,-26.9669548992361,0.0 -49.3146784,-26.9669551992361,0.0 -49.3146936,-26.9669561992361,0.0 -49.3147061,-26.9669589992361,0.0 -49.314724,-26.9669628992361,0.0 -49.3147346,-26.9669659992361,0.0 -49.3147517,-26.9669767992361,0.0 -49.3147616,-26.9669856992361,0.0 -49.3147725,-26.9670000992361,0.0 -49.3148304,-26.9670850992361,0.0 -49.3148725,-26.9671516992361,0.0 -49.3148979,-26.9671967992361,0.0 -49.3149121,-26.9672273992361,0.0 -49.3149215,-26.9672496992361,0.0 -49.3149301,-26.9672859992361,0.0 -49.3149324,-26.9673151992361,0.0 -49.3149293,-26.9676315992361,0.0 -49.3149252,-26.9678618992361,0.0 -49.3149216,-26.967889599236,0.0 -49.3149127,-26.9679212992361,0.0 -49.3149021,-26.9679336992361,0.0 -49.3148899,-26.9679483992361,0.0 -49.3148675,-26.9679578992361,0.0 -49.3148455,-26.9679635992361,0.0 -49.3148304,-26.9679678992361,0.0 -49.3147969,-26.9679674992361,0.0 -49.3146384,-26.9679610992361,0.0 -49.314443,-26.967957399236,0.0 -49.3144081,-26.9679620992361,0.0 -49.3143925,-26.9679701992361,0.0 -49.3143789,-26.967984099236,0.0 -49.3143534,-26.9680119992361,0.0 -49.3143366,-26.9680366992361,0.0 -49.3143282,-26.9680684992361,0.0 -49.3143214,-26.9681022992361,0.0 -49.3143217,-26.9681372992361,0.0 -49.3143371,-26.968248599236,0.0 -49.3143563,-26.968446199236,0.0 -49.3143479,-26.968504399236,0.0 -49.3143469,-26.968519499236,0.0 -49.3143438,-26.968544399236,0.0 -49.3143376,-26.968558199236,0.0 -49.3143307,-26.968565299236,0.0 -49.3143179,-26.968576899236,0.0 -49.314305,-26.968585099236,0.0 -49.3142913,-26.968592799236,0.0 -49.3142621,-26.968601699236,0.0 -49.3142411,-26.968609999236,0.0 -49.3142051,-26.968623799236,0.0 -49.3141821,-26.968637399236,0.0 -49.3141679,-26.968647399236,0.0 -49.3141474,-26.968661099236,0.0 -49.3141251,-26.968674099236,0.0 -49.3141116,-26.968685799236,0.0 -49.3140417,-26.968730099236,0.0 -49.3139725,-26.968762999236,0.0 -49.3139103,-26.968781999236,0.0 -49.3137867,-26.968806099236,0.0 -49.3137198,-26.968822099236,0.0 -49.3136411,-26.968850599236,0.0 -49.3135792,-26.968873499236,0.0 -49.3135156,-26.968903299236,0.0 -49.313459,-26.968941899236,0.0 -49.3134279,-26.968967299236,0.0 -49.3133977,-26.969011599236,0.0 -49.3133591,-26.969100399236,0.0 -49.3133206,-26.969190699236,0.0 -49.3132896,-26.969253699236,0.0 -49.3132629,-26.969296999236,0.0 -49.3131332,-26.969446699236,0.0 -49.3130495,-26.969539899236,0.0 -49.3130075,-26.969604299236,0.0 -49.3129656,-26.969668799236,0.0 -49.3128816,-26.969797699236,0.0 -49.3127726,-26.969955499236,0.0 -49.3127077,-26.970049499236,0.0 -49.3126077,-26.970210999236,0.0 -49.3125501,-26.970330299236,0.0 -49.3125342,-26.970368099236,0.0 -49.3125257,-26.970417499236,0.0 -49.3125242,-26.970490599236,0.0 -49.3125313,-26.970529799236,0.0 -49.312541,-26.970565599236,0.0 -49.3125671,-26.970605399236,0.0 -49.3125921,-26.970638599236,0.0 -49.3126505,-26.970691299236,0.0 -49.3126882,-26.970709099236,0.0 -49.3127091,-26.970716999236,0.0 -49.3127449,-26.970729399236,0.0 -49.312805,-26.970744399236,0.0 -49.3130371,-26.970821499236,0.0 -49.3132023,-26.970894499236,0.0 -49.3132244,-26.970902599236,0.0 -49.3132417,-26.970908899236,0.0 -49.313314,-26.970950999236,0.0 -49.3133968,-26.971006599236,0.0 -49.3135537,-26.971158099236,0.0 -49.3136264,-26.971243599236,0.0 -49.3136383,-26.971272099236,0.0 -49.3136469,-26.971301999236,0.0 -49.313647,-26.971333199236,0.0 -49.3136418,-26.971354999236,0.0 -49.3136297,-26.971406599236,0.0 -49.3135919,-26.971503199236,0.0 -49.3135836,-26.971558999236,0.0 -49.3135787,-26.971641299236,0.0 -49.313585,-26.971669299236,0.0 -49.3135961,-26.971718599236,0.0 -49.3136149,-26.971756099236,0.0 -49.313654,-26.971825099236,0.0 -49.3137324,-26.971920999236,0.0 -49.313792,-26.971980299236,0.0 -49.3138321,-26.972028099236,0.0 -49.3138554,-26.972068899236,0.0 -49.3139195,-26.972247099236,0.0 -49.3140005,-26.972486799236,0.0 -49.3140499,-26.972647999236,0.0 -49.3140651,-26.972696099236,0.0 -49.3140703,-26.972744799236,0.0 -49.3140745,-26.972810999236,0.0 -49.3140763,-26.972946299236,0.0 -49.3140779,-26.973003799236,0.0 -49.314081,-26.973136099236,0.0 -49.3140894,-26.9732732992359,0.0 -49.314093,-26.973306299236,0.0 -49.3140998,-26.973327999236,0.0 -49.3141157,-26.9733520992359,0.0 -49.3141398,-26.973373199236,0.0 -49.3141764,-26.973410999236,0.0 -49.314197,-26.9734564992359,0.0 -49.3142044,-26.9734941992359,0.0 -49.3142082,-26.9735472992359,0.0 -49.3142077,-26.9736104992359,0.0 -49.3142041,-26.9736704992359,0.0 -49.3141926,-26.973760199236,0.0 -49.3141707,-26.9738717992359,0.0 -49.3141418,-26.9739692992359,0.0 -49.3141022,-26.9740726992359,0.0 -49.3140495,-26.9741826992359,0.0 -49.3140329,-26.9742188992359,0.0 -49.3140198,-26.9742470992359,0.0 -49.3139785,-26.9743115992359,0.0 -49.3139708,-26.9743207992359,0.0 -49.3139574,-26.9743345992359,0.0 -49.3138099,-26.9744891992359,0.0 -49.313692,-26.9746048992359,0.0 -49.313639,-26.9746582992359,0.0 -49.3135539,-26.9747642992359,0.0 -49.3134873,-26.9748492992359,0.0 -49.3134557,-26.9748882992359,0.0 -49.3134089,-26.9749638992359,0.0 -49.3133876,-26.9750088992359,0.0 -49.3133654,-26.9750650992359,0.0 -49.3133606,-26.9751194992359,0.0 -49.313345,-26.9753829992359,0.0 -49.3133284,-26.9756029992359,0.0 -49.3133252,-26.9756310992359,0.0 -49.3133191,-26.9757170992359,0.0 -49.3133178,-26.9757383992359,0.0 -49.3133118,-26.9757592992359,0.0 -49.3132968,-26.9758076992359,0.0 -49.3132736,-26.9758865992359,0.0 -49.3132656,-26.9759443992359,0.0 -49.3132619,-26.9760049992359,0.0 -49.3132654,-26.9760966992359,0.0 -49.3132565,-26.9763645992359,0.0 -49.3132363,-26.9766191992359,0.0 -49.3132225,-26.9768664992359,0.0 -49.3132028,-26.9769747992359,0.0 -49.3131969,-26.9770156992359,0.0 -49.3131666,-26.9771106992359,0.0 -49.3131418,-26.9771949992359,0.0 -49.3131304,-26.9772452992359,0.0 -49.3130894,-26.9773832992359,0.0 -49.31308,-26.9774080992359,0.0 -49.3130492,-26.9775238992359,0.0 -49.3130214,-26.9775829992359,0.0 -49.3129813,-26.9776360992359,0.0 -49.3129229,-26.9777112992359,0.0 -49.3128632,-26.9777866992359,0.0 -49.3128216,-26.9778788992359,0.0 -49.3127906,-26.9779548992359,0.0 -49.3127735,-26.9780323992359,0.0 -49.3127569,-26.9781197992359,0.0 -49.3127543,-26.9781693992358,0.0 -49.3127471,-26.9782439992359,0.0 -49.312719,-26.9783753992359,0.0 -49.3126886,-26.9784469992359,0.0 -49.3126511,-26.9785068992359,0.0 -49.3125807,-26.9785671992358,0.0 -49.3125001,-26.9786261992358,0.0 -49.312488,-26.9786389992359,0.0 -49.3124533,-26.9786627992359,0.0 -49.3123458,-26.9787410992358,0.0 -49.3121519,-26.9788888992358,0.0 -49.3120819,-26.9789360992358,0.0 -49.3120267,-26.9789762992358,0.0 -49.3119566,-26.9790371992358,0.0 -49.3119365,-26.9790549992358,0.0 -49.3119203,-26.9790707992358,0.0 -49.3118873,-26.9790991992358,0.0 -49.3118066,-26.9791685992358,0.0 -49.311647,-26.9793152992358,0.0 -49.3115659,-26.9793683992358,0.0 -49.311493,-26.9794102992358,0.0 -49.3114124,-26.9794702992358,0.0 -49.3113478,-26.9795106992358,0.0 -49.3112649,-26.9795722992358,0.0 -49.3111909,-26.9796159992358,0.0 -49.3111454,-26.9796364992358,0.0 -49.3110317,-26.9796841992358,0.0 -49.3108128,-26.9797821992358,0.0 -49.3106008,-26.9798882992358,0.0 -49.3103838,-26.9800070992358,0.0 -49.3101799,-26.9800950992358,0.0 -49.3097696,-26.9802656992358,0.0 -49.3095248,-26.9803764992358,0.0 -49.3094401,-26.9804082992358,0.0 -49.3093688,-26.9804463992358,0.0 -49.3093199,-26.9804841992358,0.0 -49.3092972,-26.9805074992358,0.0 -49.3092778,-26.9805300992358,0.0 -49.3092377,-26.9806015992358,0.0 -49.3091963,-26.9806714992358,0.0 -49.3091548,-26.9807414992358,0.0 -49.3091412,-26.9807725992358,0.0 -49.30914,-26.9807797992358,0.0 -49.3091399,-26.9807939992358,0.0 -49.309141,-26.9808003992358,0.0 -49.3091463,-26.9808117992358,0.0 -49.309154,-26.9808259992358,0.0 -49.3091723,-26.9808435992358,0.0 -49.3092671,-26.9809452992358,0.0 -49.3092998,-26.9809972992358,0.0 -49.3093363,-26.9810780992358,0.0 -49.3093934,-26.9812576992358,0.0 -49.3094354,-26.9813799992358,0.0 -49.3094331,-26.9814159992358,0.0 -49.3094195,-26.9814518992358,0.0 -49.3094032,-26.9814816992358,0.0 -49.3093736,-26.9815317992358,0.0 -49.3093565,-26.9815505992358,0.0 -49.3093362,-26.9815677992358,0.0 -49.3093035,-26.9815855992358,0.0 -49.3092681,-26.9815964992358,0.0 -49.3092074,-26.9816075992358,0.0 -49.309075,-26.9816162992358,0.0 -49.3090409,-26.9816158992358,0.0 -49.3090259,-26.9816142992358,0.0 -49.3088788,-26.9815888992358,0.0 -49.3086948,-26.9815611992358,0.0 -49.308563,-26.9815341992358,0.0 -49.3084738,-26.9815189992358,0.0 -49.3084048,-26.9815135992358,0.0 -49.3083775,-26.9815134992358,0.0 -49.3083418,-26.9815201992358,0.0 -49.308305,-26.9815350992358,0.0 -49.3082706,-26.9815620992358,0.0 -49.3082524,-26.9815851992358,0.0 -49.30822,-26.9816466992358,0.0 -49.3081802,-26.9817410992358,0.0 -49.3081745,-26.9817657992358,0.0 -49.3081546,-26.9818534992358,0.0 -49.3081294,-26.9819832992358,0.0 -49.3081204,-26.9820712992358,0.0 -49.3081233,-26.9821100992358,0.0 -49.3081333,-26.9821323992358,0.0 -49.3081517,-26.9821603992358,0.0 -49.3081749,-26.9821947992358,0.0 -49.3081946,-26.9822213992358,0.0 -49.3082082,-26.9822509992358,0.0 -49.3082425,-26.9824102992358,0.0 -49.3082488,-26.9824473992358,0.0 -49.3082491,-26.9824871992358,0.0 -49.3082466,-26.9825110992358,0.0 -49.3082295,-26.9825570992358,0.0 -49.3081848,-26.9826531992358,0.0 -49.3081737,-26.9826650992358,0.0 -49.3081604,-26.9826729992358,0.0 -49.30815,-26.9826797992358,0.0 -49.308141,-26.9826844992358,0.0 -49.3081349,-26.9826864992358,0.0 -49.3080902,-26.9826889992358,0.0 -49.3080031,-26.9826848992358,0.0 -49.3078927,-26.9826613992358,0.0 -49.3077806,-26.9826356992358,0.0 -49.3077399,-26.9826219992358,0.0 -49.3077171,-26.9826142992358,0.0 -49.3076996,-26.9826080992358,0.0 -49.3076845,-26.9826013992358,0.0 -49.3076472,-26.9825789992358,0.0 -49.3075839,-26.9825358992358,0.0 -49.3075521,-26.9825113992358,0.0 -49.3075244,-26.9824867992358,0.0 -49.3074073,-26.9823352992358,0.0 -49.3073115,-26.9822009992358,0.0 -49.3072489,-26.9821250992358,0.0 -49.3072414,-26.9821176992358,0.0 -49.3072243,-26.9821076992358,0.0 -49.30721,-26.9821022992358,0.0 -49.3071962,-26.9821004992358,0.0 -49.3071842,-26.9821007992358,0.0 -49.307165,-26.9821042992358,0.0 -49.3071545,-26.9821056992358,0.0 -49.3071378,-26.9821091992358,0.0 -49.3071245,-26.9821124992358,0.0 -49.3070944,-26.9821245992358,0.0 -49.3070233,-26.9821495992358,0.0 -49.3067464,-26.9822660992358,0.0 -49.306601,-26.9823174992358,0.0 -49.3065659,-26.9823288992358,0.0 -49.3065348,-26.9823336992358,0.0 -49.3064351,-26.9823473992358,0.0 -49.3061823,-26.9823886992358,0.0 -49.3060893,-26.9824037992358,0.0 -49.3060096,-26.9824269992358,0.0 -49.3059332,-26.9824578992358,0.0 -49.3058686,-26.9824895992358,0.0 -49.3058397,-26.9825179992358,0.0 -49.3058108,-26.9825462992358,0.0 -49.305743,-26.9826664992358,0.0 -49.3056732,-26.9827779992358,0.0 -49.3056329,-26.9828615992358,0.0 -49.3056172,-26.9828980992358,0.0 -49.3056158,-26.9829326992358,0.0 -49.3056155,-26.9829487992358,0.0 -49.3056185,-26.9829670992358,0.0 -49.3056247,-26.9829755992358,0.0 -49.3056397,-26.9829920992358,0.0 -49.3056562,-26.9830046992358,0.0 -49.3057007,-26.9830282992358,0.0 -49.3057643,-26.9830596992358,0.0 -49.3059138,-26.9831140992358,0.0 -49.306014,-26.9831565992358,0.0 -49.3060648,-26.9831847992358,0.0 -49.306098,-26.9832072992358,0.0 -49.3061327,-26.9832475992358,0.0 -49.3061494,-26.9833019992358,0.0 -49.3061587,-26.9833648992358,0.0 -49.306161,-26.9834004992358,0.0 -49.306166,-26.9834317992358,0.0 -49.3061714,-26.9834491992358,0.0 -49.3061799,-26.9834760992358,0.0 -49.3062006,-26.9835135992358,0.0 -49.306237,-26.9836053992358,0.0 -49.3062418,-26.9836366992358,0.0 -49.3062435,-26.9836799992357,0.0 -49.306241,-26.9837188992357,0.0 -49.3062337,-26.9837535992358,0.0 -49.3062212,-26.9837935992357,0.0 -49.3062069,-26.9838236992357,0.0 -49.3061884,-26.9838543992357,0.0 -49.3061275,-26.9839377992358,0.0 -49.3060811,-26.9840021992357,0.0 -49.3060684,-26.9840197992357,0.0 -49.3060096,-26.9840977992357,0.0 -49.305987,-26.9841318992357,0.0 -49.3059718,-26.9841602992357,0.0 -49.3059403,-26.9842136992357,0.0 -49.3059214,-26.9842433992357,0.0 -49.3058871,-26.9843101992357,0.0 -49.3058694,-26.9843436992357,0.0 -49.3058266,-26.9844177992357,0.0 -49.3058053,-26.9844563992357,0.0 -49.3057894,-26.9844889992357,0.0 -49.3057666,-26.9845377992357,0.0 -49.3057373,-26.9846026992357,0.0 -49.3057223,-26.9846298992357,0.0 -49.3057069,-26.9846497992357,0.0 -49.3056871,-26.9846693992357,0.0 -49.3056554,-26.9846933992357,0.0 -49.3056164,-26.9847204992357,0.0 -49.3055576,-26.9847605992357,0.0 -49.3055167,-26.9847936992357,0.0 -49.3054779,-26.9848262992357,0.0 -49.305453,-26.9848454992357,0.0 -49.3054462,-26.9848521992357,0.0 -49.3054143,-26.9848902992357,0.0 -49.3054072,-26.9848982992357,0.0 -49.3053152,-26.9849977992357,0.0 -49.3052206,-26.9850939992357,0.0 -49.3050988,-26.9852169992357,0.0 -49.3050122,-26.9852944992357,0.0 -49.3049954,-26.9853107992357,0.0 -49.3049787,-26.9853270992357,0.0 -49.3049198,-26.9854081992357,0.0 -49.3048301,-26.9855325992357,0.0 -49.3047784,-26.9855885992357,0.0 -49.3047063,-26.9856591992357,0.0 -49.304589,-26.9857628992357,0.0 -49.3044842,-26.9858596992357,0.0 -49.3044469,-26.9858928992357,0.0 -49.3043766,-26.9859881992357,0.0 -49.3043659,-26.9860026992357,0.0 -49.304317,-26.9860671992357,0.0 -49.3042435,-26.9861825992357,0.0 -49.3041656,-26.9863132992357,0.0 -49.3041563,-26.9863305992357,0.0 -49.3041535,-26.9863515992357,0.0 -49.3041537,-26.9863663992357,0.0 -49.3041618,-26.9863803992357,0.0 -49.3041747,-26.9863943992357,0.0 -49.3042369,-26.9864383992357,0.0 -49.3043882,-26.9864862992357,0.0 -49.3047777,-26.9866094992357,0.0 -49.3049705,-26.9867119992357,0.0 -49.305005,-26.9867767992357,0.0 -49.304957,-26.9870305992357,0.0 -49.3048975,-26.9872344992357,0.0 -49.3046982,-26.9874616992357,0.0 -49.3045144,-26.9876465992357,0.0 -49.3044843,-26.9876855992357,0.0 -49.3042783,-26.9878538992357,0.0 -49.3042201,-26.9879013992357,0.0 -49.3040152,-26.9881870992357,0.0 -49.3036143,-26.9887395992357,0.0 -49.3034791,-26.9890203992356,0.0 -49.303479,-26.9890991992356,0.0 -49.3035062,-26.9891337992356,0.0 -49.3036886,-26.9892858992356,0.0 -49.3039477,-26.9895353992356,0.0 -49.3041906,-26.9896964992356,0.0 -49.3042591,-26.9897810992356,0.0 -49.3042875,-26.9898610992356,0.0 -49.304221,-26.9900734992356,0.0 -49.3041937,-26.9901537992356,0.0 -49.3040895,-26.9902294992356,0.0 -49.3039829,-26.9902360992356,0.0 -49.3037162,-26.9902708992356,0.0 -49.3035685,-26.9903106992356,0.0 -49.3030585,-26.9904776992356,0.0 -49.3027546,-26.9906006992356,0.0 -49.3023439,-26.9908131992356,0.0 -49.3022752,-26.9908557992356,0.0 -49.3022066,-26.9908984992356,0.0 -49.3020339,-26.9911063992356,0.0 -49.3017681,-26.9914850992356,0.0 -49.3016123,-26.9916236992356,0.0 -49.3013524,-26.9917689992356,0.0 -49.3009309,-26.9918992992356,0.0 -49.3007056,-26.9919766992356,0.0 -49.3001236,-26.9922042992356,0.0 -49.2999456,-26.9922623992356,0.0 -49.299922,-26.9922784992356,0.0 -49.2999115,-26.9922856992356,0.0 -49.299897,-26.9923170992356,0.0 -49.2999181,-26.9924086992356,0.0 -49.300012,-26.9925450992356,0.0 -49.3001061,-26.9928446992356,0.0 -49.3001878,-26.9931229992356,0.0 -49.3003173,-26.9932887992356,0.0 -49.3003917,-26.9933755992356,0.0 -49.3003867,-26.9935070992356,0.0 -49.3003733,-26.9935459992356,0.0 -49.300343,-26.9936348992356,0.0 -49.300195,-26.9940823992355,0.0 -49.3001632,-26.9943144992355,0.0 -49.3002029,-26.9944514992355,0.0 -49.3003134,-26.9946632992355,0.0 -49.300446,-26.9949107992355,0.0 -49.3005167,-26.9951442992355,0.0 -49.3005175,-26.9954591992355,0.0 -49.300496,-26.9955604992355,0.0 -49.3004342,-26.9956514992355,0.0 -49.300278,-26.9957872992355,0.0 -49.3002139,-26.9958702992355,0.0 -49.3002237,-26.9960050992355,0.0 -49.3003229,-26.9965676992355,0.0 -49.3004334,-26.9970556992355,0.0 -49.3005394,-26.9972050992355,0.0 -49.3007424,-26.9972505992355,0.0 -49.3012918,-26.9973411992355,0.0 -49.3016551,-26.9974679992355,0.0 -49.3019594,-26.9976295992355,0.0 -49.302108,-26.9976530992355,0.0 -49.3023806,-26.9976262992355,0.0 -49.3024369,-26.9976207992355,0.0 -49.3028684,-26.9975123992355,0.0 -49.3031689,-26.9974205992355,0.0 -49.3033012,-26.9973587992355,0.0 -49.3033228,-26.9973535992355,0.0 -49.3034709,-26.9973675992355,0.0 -49.3040297,-26.9974052992355,0.0 -49.3044482,-26.9974296992355,0.0 -49.3046052,-26.9974754992355,0.0 -49.3047292,-26.9975722992355,0.0 -49.3048119,-26.9977435992355,0.0 -49.3049298,-26.9980674992355,0.0 -49.3050355,-26.9983198992355,0.0 -49.3052272,-26.9986500992355,0.0 -49.3054879,-26.9991916992354,0.0 -49.3055379,-26.9993439992355,0.0 -49.3055378,-26.9994575992354,0.0 -49.3054597,-26.9999151992354,0.0 -49.3054679,-27.0000013992354,0.0 -49.3054686,-27.0001234992354,0.0 -49.305457,-27.0002256992354,0.0 -49.3054169,-27.0003908992354,0.0 -49.3053983,-27.0004333992354,0.0 -49.305378,-27.0004608992354,0.0 -49.3053549,-27.0004822992354,0.0 -49.3053351,-27.0005071992354,0.0 -49.3053089,-27.0005591992354,0.0 -49.305288,-27.0006214992354,0.0 -49.3052729,-27.0006737992354,0.0 -49.3052295,-27.0009416992354,0.0 -49.3052288,-27.0011989992354,0.0 -49.3052385,-27.0012400992354,0.0 -49.3052512,-27.0012743992354,0.0 -49.3052708,-27.0012973992354,0.0 -49.3053082,-27.0013146992354,0.0 -49.3054252,-27.0013054992354,0.0 -49.3054748,-27.0013060992354,0.0 -49.3055423,-27.0013131992354,0.0 -49.3055983,-27.0013241992354,0.0 -49.3056524,-27.0013423992354,0.0 -49.3057004,-27.0013657992354,0.0 -49.3057458,-27.0013904992354,0.0 -49.3057968,-27.0014140992354,0.0 -49.3060144,-27.0015005992354,0.0 -49.3060719,-27.0015299992354,0.0 -49.306124,-27.0015606992354,0.0 -49.3061768,-27.0015880992354,0.0 -49.3062419,-27.0016152992354,0.0 -49.30629,-27.0016344992354,0.0 -49.3064594,-27.0016799992354,0.0 -49.3065059,-27.0016949992354,0.0 -49.306535,-27.0017098992354,0.0 -49.3065528,-27.0017377992354,0.0 -49.3065582,-27.0017639992354,0.0 -49.3065577,-27.0017889992354,0.0 -49.3065467,-27.0018313992354,0.0 -49.306533,-27.0018740992354,0.0 -49.3065144,-27.0019169992354,0.0 -49.3064965,-27.0019533992354,0.0 -49.3063002,-27.0022953992354,0.0 -49.3062795,-27.0023296992354,0.0 -49.3062604,-27.0023628992354,0.0 -49.3062383,-27.0024089992354,0.0 -49.3062022,-27.0025970992354,0.0 -49.306199,-27.0026426992354,0.0 -49.3062099,-27.0027150992354,0.0 -49.30622,-27.0027491992354,0.0 -49.3062369,-27.0027828992354,0.0 -49.3062632,-27.0028090992354,0.0 -49.3063002,-27.0028275992354,0.0 -49.3063273,-27.0028364992354,0.0 -49.3063625,-27.0028410992354,0.0 -49.3064052,-27.0028406992354,0.0 -49.3064438,-27.0028405992354,0.0 -49.3064825,-27.0028350992354,0.0 -49.3065067,-27.0028266992354,0.0 -49.3065261,-27.0028184992354,0.0 -49.3065641,-27.0027979992354,0.0 -49.3065978,-27.0027692992354,0.0 -49.3066277,-27.0027291992354,0.0 -49.3066487,-27.0026854992354,0.0 -49.3067258,-27.0025668992354,0.0 -49.3067438,-27.0025389992354,0.0 -49.3067699,-27.0025128992354,0.0 -49.3068064,-27.0024914992354,0.0 -49.3068423,-27.0024836992354,0.0 -49.3069001,-27.0024954992354,0.0 -49.3069681,-27.0025263992354,0.0 -49.3070169,-27.0025593992354,0.0 -49.3071182,-27.0026720992354,0.0 -49.3071419,-27.0027037992354,0.0 -49.3071691,-27.0027362992354,0.0 -49.3072013,-27.0027673992354,0.0 -49.3072391,-27.0027923992354,0.0 -49.3072793,-27.0028130992354,0.0 -49.3073505,-27.0028398992354,0.0 -49.3074392,-27.0028694992354,0.0 -49.3074937,-27.0028846992354,0.0 -49.3075491,-27.0028960992354,0.0 -49.3075743,-27.0028981992354,0.0 -49.307676,-27.0029020992354,0.0 -49.3079558,-27.0029579992354,0.0 -49.3081562,-27.0030631992354,0.0 -49.3082467,-27.0031383992354,0.0 -49.3082779,-27.0031662992354,0.0 -49.3083198,-27.0032103992354,0.0 -49.3083839,-27.0032745992354,0.0 -49.3084558,-27.0033207992354,0.0 -49.3089118,-27.0035305992354,0.0 -49.3090197,-27.0035686992354,0.0 -49.3090793,-27.0035708992354,0.0 -49.3091288,-27.0035608992354,0.0 -49.3096863,-27.0033523992354,0.0 -49.3097842,-27.0033120992354,0.0 -49.309857,-27.0032813992354,0.0 -49.3099079,-27.0032733992354,0.0 -49.3099407,-27.0032781992354,0.0 -49.3099651,-27.0032963992354,0.0 -49.3099833,-27.0033359992354,0.0 -49.3099875,-27.0033650992354,0.0 -49.3099872,-27.0034117992354,0.0 -49.3099869,-27.0034709992354,0.0 -49.3099952,-27.0037325992354,0.0 -49.3100865,-27.0041776992354,0.0 -49.3101298,-27.0042824992353,0.0 -49.3101689,-27.0043391992353,0.0 -49.3102664,-27.0044430992353,0.0 -49.310444,-27.0045497992353,0.0 -49.3105063,-27.0046088992354,0.0 -49.310542,-27.0046603992353,0.0 -49.3105693,-27.0047087992353,0.0 -49.3105978,-27.0047743992353,0.0 -49.3106203,-27.0048285992353,0.0 -49.310652,-27.0048890992353,0.0 -49.3106841,-27.0049319992353,0.0 -49.3109295,-27.0052345992353,0.0 -49.310968,-27.0053229992353,0.0 -49.3109799,-27.0053775992353,0.0 -49.3109763,-27.0054077992353,0.0 -49.3108298,-27.0057148992353,0.0 -49.3107925,-27.0058033992353,0.0 -49.3107888,-27.0058531992353,0.0 -49.3108047,-27.0058951992353,0.0 -49.3108312,-27.0059325992353,0.0 -49.3110927,-27.0062458992353,0.0 -49.3112431,-27.0064562992353,0.0 -49.3112919,-27.0065015992353,0.0 -49.311319,-27.0065185992353,0.0 -49.3113731,-27.0065411992353,0.0 -49.3114239,-27.0065535992353,0.0 -49.3114842,-27.0065761992353,0.0 -49.3115444,-27.0066167992353,0.0 -49.3115796,-27.0066589992353,0.0 -49.3116121,-27.0067218992353,0.0 -49.3117012,-27.0071080992353,0.0 -49.3117307,-27.0072356992353,0.0 -49.3117558,-27.0075404992353,0.0 -49.3117318,-27.0076015992353,0.0 -49.3117137,-27.0076296992353,0.0 -49.3116917,-27.0076554992353,0.0 -49.3116438,-27.0076838992353,0.0 -49.3113922,-27.0078239992353,0.0 -49.3111056,-27.0079951992353,0.0 -49.3110312,-27.0080396992353,0.0 -49.31096,-27.0081024992353,0.0 -49.3108558,-27.0082604992353,0.0 -49.3106536,-27.0087418992353,0.0 -49.3105261,-27.0091056992353,0.0 -49.3105127,-27.0094082992353,0.0 -49.3105123,-27.0094686992352,0.0 -49.310512,-27.0095290992353,0.0 -49.3105118,-27.0095690992352,0.0 -49.3105116,-27.0096090992352,0.0 -49.3105192,-27.0096679992353,0.0 -49.3106577,-27.0099665992352,0.0 -49.3106879,-27.0100611992352,0.0 -49.3107063,-27.0101443992352,0.0 -49.3107063,-27.0102224992352,0.0 -49.3106981,-27.0102874992352,0.0 -49.3106722,-27.0103767992352,0.0 -49.3104748,-27.0106915992352,0.0 -49.3100516,-27.0113328992352,0.0 -49.3100197,-27.0113989992352,0.0 -49.3100301,-27.0114288992352,0.0 -49.310057,-27.0114611992352,0.0 -49.3101108,-27.0114864992352,0.0 -49.3101916,-27.0115118992352,0.0 -49.3106755,-27.0116714992352,0.0 -49.3107327,-27.0116903992352,0.0 -49.3108265,-27.0117503992352,0.0 -49.3109181,-27.0118279992352,0.0 -49.3111266,-27.0120622992352,0.0 -49.3114941,-27.0126179992352,0.0 -49.3115677,-27.0128519992352,0.0 -49.3115693,-27.0129762992352,0.0 -49.3115566,-27.0130526992352,0.0 -49.3114998,-27.0131916992352,0.0 -49.3113679,-27.0133906992352,0.0 -49.3112734,-27.0134486992352,0.0 -49.3111761,-27.0134702992352,0.0 -49.3111143,-27.0134801992352,0.0 -49.3110346,-27.0134904992352,0.0 -49.3107272,-27.0134882992352,0.0 -49.3106751,-27.0134919992352,0.0 -49.3106352,-27.0135043992352,0.0 -49.310622,-27.0135168992352,0.0 -49.3106078,-27.0135540992352,0.0 -49.310605,-27.0135912992352,0.0 -49.3106118,-27.0136254992352,0.0 -49.3106239,-27.0136591992352,0.0 -49.3106477,-27.0136985992352,0.0 -49.3108968,-27.0140519992352,0.0 -49.310994,-27.0141899992352,0.0 -49.311008,-27.0142098992352,0.0 -49.3114101,-27.0146810992352,0.0 -49.3114946,-27.0147684992351,0.0 -49.3116133,-27.0148536992351,0.0 -49.3120228,-27.0150683992352,0.0 -49.3120746,-27.0150916992351,0.0 -49.3124206,-27.0152472992351,0.0 -49.3124918,-27.0152793992351,0.0 -49.3125001,-27.0152846992351,0.0 -49.3129898,-27.0155989992351,0.0 -49.3131018,-27.0156937992351,0.0 -49.3131969,-27.0157869992351,0.0 -49.3133673,-27.0161365992351,0.0 -49.3134468,-27.0162420992351,0.0 -49.3134499,-27.0162462992351,0.0 -49.3135466,-27.0163270992351,0.0 -49.3136559,-27.0163664992351,0.0 -49.3142862,-27.0163410992351,0.0 -49.3143958,-27.0163445992351,0.0 -49.3144836,-27.0163712992351,0.0 -49.3145305,-27.0163999992351,0.0 -49.3145774,-27.0164285992351,0.0 -49.3146662,-27.0165383992351,0.0 -49.3147325,-27.0166520992351,0.0 -49.3147577,-27.0166951992351,0.0 -49.3149608,-27.0172247992351,0.0 -49.3151831,-27.0176631992351,0.0 -49.315265,-27.0177616992351,0.0 -49.3155643,-27.0181212992351,0.0 -49.3157411,-27.0183072992351,0.0 -49.3161454,-27.0185530992351,0.0 -49.3165252,-27.0187432992351,0.0 -49.3165844,-27.0187729992351,0.0 -49.3166316,-27.0188247992351,0.0 -49.3166833,-27.0189041992351,0.0 -49.3166842,-27.0189094992351,0.0 -49.3167047,-27.0190238992351,0.0 -49.3167209,-27.0195341992351,0.0 -49.3167149,-27.020263699235,0.0 -49.3168004,-27.020653999235,0.0 -49.3168165,-27.020687399235,0.0 -49.316845,-27.020746399235,0.0 -49.316914,-27.020865799235,0.0 -49.3172905,-27.021280799235,0.0 -49.3173473,-27.021343399235,0.0 -49.3174403,-27.021459799235,0.0 -49.3176402,-27.021779499235,0.0 -49.3285494,-27.020465899235,0.0 -49.3285581,-27.020464799235,0.0 -49.3290365,-27.0196402992351,0.0 -49.3290627,-27.0195817992351,0.0 -49.3295327,-27.0185357992351,0.0 -49.3295818,-27.0183160992351,0.0 -49.3296416,-27.0181400992351,0.0 -49.3296801,-27.0180003992351,0.0 -49.3297655,-27.0173166992351,0.0 -49.3297713,-27.0166572992351,0.0 -49.3297296,-27.0160313992351,0.0 -49.3297285,-27.0158169992351,0.0 -49.3297494,-27.0157212992351,0.0 -49.329757,-27.0156864992351,0.0 -49.3298104,-27.0155546992351,0.0 -49.32988,-27.0154557992351,0.0 -49.3307028,-27.0147019992352,0.0 -49.3310298,-27.0143923992352,0.0 -49.3313569,-27.0140828992352,0.0 -49.3314833,-27.0139525992352,0.0 -49.3315413,-27.0139254992352,0.0 -49.3315646,-27.0139208992352,0.0 -49.3316012,-27.0139137992352,0.0 -49.331691,-27.0139190992352,0.0 -49.3320058,-27.0140422992352,0.0 -49.3323207,-27.0141654992352,0.0 -49.3325938,-27.0141929992352,0.0 -49.3328734,-27.0141539992352,0.0 -49.3331198,-27.0141227992352,0.0 -49.33384,-27.0139975992352,0.0 -49.3344239,-27.0138959992352,0.0 -49.3348626,-27.0138319992352,0.0 -49.3352855,-27.0138056992352,0.0 -49.3358375,-27.0138269992352,0.0 -49.335837,-27.0137234992352,0.0 -49.3358608,-27.0136480992352,0.0 -49.3365797,-27.0127956992352,0.0 -49.3366637,-27.0127090992352,0.0 -49.3367524,-27.0126035992352,0.0 -49.3368104,-27.0125081992352,0.0 -49.3368183,-27.0124951992352,0.0 -49.336846,-27.0123667992352,0.0 -49.3368368,-27.0122258992352,0.0 -49.3368128,-27.0121268992352,0.0 -49.3368294,-27.0120155992352,0.0 -49.3368625,-27.0119480992352,0.0 -49.337494,-27.0114036992352,0.0 -49.3376274,-27.0112520992352,0.0 -49.33775,-27.0110909992352,0.0 -49.3382372,-27.0104696992352,0.0 -49.3384911,-27.0101235992352,0.0 -49.3385936,-27.0099941992352,0.0 -49.3387763,-27.0097396992353,0.0 -49.3388068,-27.0096669992352,0.0 -49.3388111,-27.0096568992353,0.0 -49.3388137,-27.0095835992352,0.0 -49.3388014,-27.0095206992352,0.0 -49.338793,-27.0094831992353,0.0 -49.3387833,-27.0094400992353,0.0 -49.3387678,-27.0093401992353,0.0 -49.338763,-27.0092210992353,0.0 -49.3387862,-27.0091300992353,0.0 -49.3388465,-27.0090442992353,0.0 -49.3389515,-27.0089724992353,0.0 -49.3397246,-27.0086540992353,0.0 -49.3398171,-27.0086186992353,0.0 -49.3399509,-27.0085409992353,0.0 -49.3400649,-27.0084515992353,0.0 -49.3401575,-27.0083620992353,0.0 -49.3402212,-27.0082703992353,0.0 -49.3402683,-27.0081800992353,0.0 -49.3403504,-27.0078701992353,0.0 -49.3403576,-27.0073832992353,0.0 -49.3403421,-27.0065878992353,0.0 -49.3404724,-27.0060492992353,0.0 -49.3405147,-27.0059050992353,0.0 -49.3407142,-27.0054552992353,0.0 -49.3407564,-27.0053775992353,0.0 -49.340825,-27.0052999992353,0.0 -49.3408803,-27.0052585992353,0.0 -49.3409662,-27.0052112992353,0.0 -49.3413679,-27.0050724992353,0.0 -49.3415691,-27.0050029992353,0.0 -49.3416715,-27.0049704992353,0.0 -49.3417714,-27.0049290992353,0.0 -49.3418846,-27.0048691992353,0.0 -49.341968,-27.0048063992353,0.0 -49.3420457,-27.0047375992353,0.0 -49.3422548,-27.0045105992353,0.0 -49.3423028,-27.0044395992354,0.0 -49.3423145,-27.0044124992354,0.0 -49.3423326,-27.0043707992353,0.0 -49.3423641,-27.0042997992354,0.0 -49.3423939,-27.0042287992354,0.0 -49.3424195,-27.0041828992354,0.0 -49.3424584,-27.0041318992354,0.0 -49.342585,-27.0040347992354,0.0 -49.3427683,-27.0038826992354,0.0 -49.3429037,-27.0037961992354,0.0 -49.3430469,-27.0037275992354,0.0 -49.3432128,-27.0036502992354,0.0 -49.3434884,-27.0035528992354,0.0 -49.343857,-27.0033589992354,0.0 -49.343928,-27.0032955992354,0.0 -49.3440713,-27.0031609992354,0.0 -49.3441307,-27.0030824992354,0.0 -49.3441874,-27.0029951992354,0.0 -49.3443328,-27.0027670992354,0.0 -49.3443517,-27.0027303992354,0.0 -49.344441,-27.0025564992354,0.0 -49.3444752,-27.0024507992354,0.0 -49.3445181,-27.0023745992354,0.0 -49.344537,-27.0023518992354,0.0 -49.3445413,-27.0023488992354,0.0 -49.3445461,-27.0023455992354,0.0 -49.3445856,-27.0023371992354,0.0 -49.3446335,-27.0023450992354,0.0 -49.3446526,-27.0023613992354,0.0 -49.3446708,-27.0023938992354,0.0 -49.3446943,-27.0024455992354,0.0 -49.3447139,-27.0024614992354,0.0 -49.3447593,-27.0024747992354,0.0 -49.3447923,-27.0024792992354,0.0 -49.3448279,-27.0024755992354,0.0 -49.3448718,-27.0024666992354,0.0 -49.3449732,-27.0023905992354,0.0 -49.3450836,-27.0023116992354,0.0 -49.3451349,-27.0022651992354,0.0 -49.3451686,-27.0022333992354,0.0 -49.345197,-27.0022162992354,0.0 -49.3452341,-27.0022060992354,0.0 -49.3452894,-27.0022025992354,0.0 -49.3453624,-27.0022055992354,0.0 -49.3454112,-27.0022082992354,0.0 -49.3454878,-27.0022141992354,0.0 -49.3456123,-27.0022082992354,0.0 -49.3456743,-27.0021954992354,0.0 -49.3457219,-27.0021792992354,0.0 -49.3457802,-27.0021401992354,0.0 -49.3458359,-27.0020985992354,0.0 -49.3459106,-27.0020497992354,0.0 -49.346007,-27.0019996992354,0.0 -49.3460853,-27.0019881992354,0.0 -49.3462342,-27.0020013992354,0.0 -49.3464119,-27.0020417992354,0.0 -49.3468013,-27.0021629992354,0.0 -49.3468918,-27.0021910992354,0.0 -49.3470674,-27.0022004992354,0.0 -49.3471519,-27.0021883992354,0.0 -49.3472768,-27.0021238992354,0.0 -49.3473755,-27.0020711992354,0.0 -49.3475532,-27.0019839992354,0.0 -49.3476224,-27.0019693992354,0.0 -49.3476823,-27.0019662992354,0.0 -49.347762,-27.0019746992354,0.0 -49.3478,-27.0019954992354,0.0 -49.3478491,-27.0020470992354,0.0 -49.3479209,-27.0021324992354,0.0 -49.3480396,-27.0022912992354,0.0 -49.3480823,-27.0023157992354,0.0 -49.3481199,-27.0023273992354,0.0 -49.3481865,-27.0023305992354,0.0 -49.3483166,-27.0023200992354,0.0 -49.3484114,-27.0022786992354,0.0 -49.3484931,-27.0022201992354,0.0 -49.3487298,-27.0020691992354,0.0 -49.3487979,-27.0020418992354,0.0 -49.348872,-27.0020056992354,0.0 -49.3489367,-27.0019639992354,0.0 -49.3489755,-27.0019553992354,0.0 -49.3490133,-27.0019523992354,0.0 -49.3490545,-27.0019613992354,0.0 -49.3490971,-27.0019775992354,0.0 -49.3491088,-27.0019835992354,0.0 -49.3491508,-27.0020051992354,0.0 -49.349171,-27.0020285992354,0.0 -49.3491853,-27.0020539992354,0.0 -49.3491985,-27.0020865992354,0.0 -49.3492012,-27.0021159992354,0.0 -49.3491749,-27.0021800992354,0.0 -49.3491317,-27.0022577992354,0.0 -49.349085,-27.0023326992354,0.0 -49.3490573,-27.0023887992354,0.0 -49.349049,-27.0024371992354,0.0 -49.349054,-27.0024738992354,0.0 -49.3490657,-27.0025011992354,0.0 -49.349084,-27.0025275992354,0.0 -49.3491071,-27.0025446992354,0.0 -49.3491505,-27.0025652992354,0.0 -49.3491958,-27.0025695992354,0.0 -49.3492208,-27.0025649992354,0.0 -49.34925,-27.0025556992354,0.0 -49.3492755,-27.0025379992354,0.0 -49.3493112,-27.0025011992354,0.0 -49.3493602,-27.0024640992354,0.0 -49.3494366,-27.0024164992354,0.0 -49.3495077,-27.0023796992354,0.0 -49.3496346,-27.0022906992354,0.0 -49.3498067,-27.0021794992354,0.0 -49.3498627,-27.0021548992354,0.0 -49.3499259,-27.0021451992354,0.0 -49.3500062,-27.0021401992354,0.0 -49.3501017,-27.0021533992354,0.0 -49.3502003,-27.0021838992354,0.0 -49.350263,-27.0022161992354,0.0 -49.3503232,-27.0022575992354,0.0 -49.3503789,-27.0022987992354,0.0 -49.3504407,-27.0023409992354,0.0 -49.3504849,-27.0023726992354,0.0 -49.3505334,-27.0023870992354,0.0 -49.350587,-27.0023849992354,0.0 -49.3506578,-27.0023645992354,0.0 -49.350731,-27.0023409992354,0.0 -49.3509183,-27.0022762992354,0.0 -49.3509997,-27.0022470992354,0.0 -49.3510587,-27.0022221992354,0.0 -49.3510975,-27.0022044992354,0.0 -49.3511005,-27.0021998992354,0.0 -49.3511147,-27.0021773992354,0.0 -49.3511189,-27.0021509992354,0.0 -49.3511176,-27.0021398992354,0.0 -49.351108,-27.0021283992354,0.0 -49.3510631,-27.0021022992354,0.0 -49.3510486,-27.0020902992354,0.0 -49.3510321,-27.0020622992354,0.0 -49.351015,-27.0019582992354,0.0 -49.3509933,-27.0018777992354,0.0 -49.3509949,-27.0018318992354,0.0 -49.3510009,-27.0017959992354,0.0 -49.3510211,-27.0017598992354,0.0 -49.3510768,-27.0017106992354,0.0 -49.3511509,-27.0016748992354,0.0 -49.3512455,-27.0016373992354,0.0 -49.3513993,-27.0015912992354,0.0 -49.3514839,-27.0015788992354,0.0 -49.3515069,-27.0015689992354,0.0 -49.351538,-27.0015478992354,0.0 -49.3515819,-27.0015351992354,0.0 -49.3516448,-27.0015036992354,0.0 -49.3517051,-27.0014998992354,0.0 -49.3517667,-27.0014877992354,0.0 -49.3517912,-27.0014751992354,0.0 -49.3518232,-27.0014406992354,0.0 -49.3518662,-27.0014080992354,0.0 -49.3519174,-27.0013809992354,0.0 -49.3519342,-27.0013608992354,0.0 -49.3519553,-27.0013235992354,0.0 -49.3519573,-27.0012986992354,0.0 -49.351956,-27.0012788992354,0.0 -49.3519467,-27.0012677992354,0.0 -49.3519262,-27.0012611992354,0.0 -49.3519079,-27.0012541992354,0.0 -49.3518732,-27.0012402992354,0.0 -49.351842,-27.0012141992354,0.0 -49.3518382,-27.0011795992354,0.0 -49.3518594,-27.0011418992354,0.0 -49.3519029,-27.0010783992354,0.0 -49.3519293,-27.0010511992354,0.0 -49.3519894,-27.0010204992354,0.0 -49.352036,-27.0010161992354,0.0 -49.3520641,-27.0010116992354,0.0 -49.3520818,-27.0010031992354,0.0 -49.3520995,-27.0009720992354,0.0 -49.3521234,-27.0009202992354,0.0 -49.3521359,-27.0008619992354,0.0 -49.3521155,-27.0008172992354,0.0 -49.3521074,-27.0007606992354,0.0 -49.3521183,-27.0006951992354,0.0 -49.3521422,-27.0006246992354,0.0 -49.3521859,-27.0005365992354,0.0 -49.3523269,-27.0003198992354,0.0 -49.3523413,-27.0002842992354,0.0 -49.3523559,-27.0002455992354,0.0 -49.3523684,-27.0001963992354,0.0 -49.3523854,-27.0001512992354,0.0 -49.3524307,-27.0000668992354,0.0 -49.3524376,-27.0000031992354,0.0 -49.3524354,-26.9999935992354,0.0 -49.3523765,-26.9998166992354,0.0 -49.3522566,-26.9996544992354,0.0 -49.352158,-26.9994475992354,0.0 -49.3521686,-26.9992736992354,0.0 -49.3523505,-26.9987919992355,0.0 -49.3523984,-26.9985624992355,0.0 -49.3524514,-26.9984444992355,0.0 -49.3524611,-26.9984228992355,0.0 -49.3525897,-26.9982977992355,0.0 -49.3528153,-26.9982564992355,0.0 -49.3532131,-26.9982187992355,0.0 -49.3534137,-26.9981541992355,0.0 -49.3536639,-26.9979403992355,0.0 -49.3536642,-26.9978420992355,0.0 -49.353606,-26.9977252992355,0.0 -49.3535054,-26.9976597992355,0.0 -49.35342,-26.9975492992355,0.0 -49.3534262,-26.9974425992355,0.0 -49.3534883,-26.9972712992355,0.0 -49.3539162,-26.9970064992355,0.0 -49.3541269,-26.9967690992355,0.0 -49.3543748,-26.9964679992355,0.0 -49.3544667,-26.9963937992355,0.0 -49.3546805,-26.9963538992355,0.0 -49.3547642,-26.9963417992355,0.0 -49.3551799,-26.9962814992355,0.0 -49.3554504,-26.9962266992355,0.0 -49.3555875,-26.9961793992355,0.0 -49.3559278,-26.9958225992355,0.0 -49.3563032,-26.9955304992355,0.0 -49.3566366,-26.9952128992355,0.0 -49.35684,-26.9949989992355,0.0 -49.356905,-26.9949269992355,0.0 -49.357236,-26.9945602992355,0.0 -49.3573761,-26.9944267992355,0.0 -49.3575926,-26.9938830992356,0.0 -49.3576495,-26.9937070992356,0.0 -49.3576927,-26.9936479992356,0.0 -49.3578396,-26.9934467992356,0.0 -49.3578876,-26.9933810992356,0.0 -49.3581189,-26.9932625992356,0.0 -49.3582583,-26.9931694992356,0.0 -49.3583567,-26.9931678992356,0.0 -49.3584772,-26.9931615992356,0.0 -49.3585824,-26.9931035992356,0.0 -49.3587054,-26.9930344992356,0.0 -49.3590045,-26.9928933992356,0.0 -49.3590592,-26.9928052992356,0.0 -49.3591544,-26.9924509992356,0.0 -49.3591768,-26.9922433992356,0.0 -49.3591945,-26.9921855992356,0.0 -49.3593371,-26.9920475992356,0.0 -49.3593691,-26.9919302992356,0.0 -49.3594001,-26.9917921992356,0.0 -49.3595321,-26.9916490992356,0.0 -49.3596186,-26.9914702992356,0.0 -49.3596409,-26.9914629992356,0.0 -49.3596776,-26.9914510992356,0.0 -49.3599059,-26.9915530992356,0.0 -49.3600718,-26.9917893992356,0.0 -49.3601712,-26.9920219992356,0.0 -49.3604252,-26.9923173992356,0.0 -49.3604962,-26.9924385992356,0.0 -49.360713,-26.9925175992356,0.0 -49.3607157,-26.9925185992356,0.0 -49.3607737,-26.9925010992356,0.0 -49.3607884,-26.9924957992356,0.0 -49.3608118,-26.9924842992356,0.0 -49.3608368,-26.9924658992356,0.0 -49.3608611,-26.9924432992356,0.0 -49.3608965,-26.9924014992356,0.0 -49.3609148,-26.9923697992356,0.0 -49.3609306,-26.9923360992356,0.0 -49.3608787,-26.9921639992356,0.0 -49.3608809,-26.9919781992356,0.0 -49.361001,-26.9916915992356,0.0 -49.3610952,-26.9915569992356,0.0 -49.3613399,-26.9913736992356,0.0 -49.361573,-26.9913214992356,0.0 -49.3617126,-26.9913373992356,0.0 -49.3618667,-26.9914701992356,0.0 -49.3619733,-26.9916464992356,0.0 -49.3620961,-26.9917270992356,0.0 -49.3622096,-26.9917366992356,0.0 -49.3623442,-26.9917093992356,0.0 -49.3623925,-26.9916939992356,0.0 -49.3624399,-26.9916437992356,0.0 -49.3624703,-26.9916329992356,0.0 -49.3625132,-26.9916460992356,0.0 -49.3625562,-26.9916590992356,0.0 -49.362616,-26.9916729992356,0.0 -49.3626996,-26.9916728992356,0.0 -49.3628075,-26.9916095992356,0.0 -49.36284,-26.9915113992356,0.0 -49.3629153,-26.9912410992356,0.0 -49.3629746,-26.9912041992356,0.0 -49.3631349,-26.9911989992356,0.0 -49.3632698,-26.9911971992356,0.0 -49.3635634,-26.9910802992356,0.0 -49.3636226,-26.9909952992356,0.0 -49.3638472,-26.9908423992356,0.0 -49.3641825,-26.9906476992356,0.0 -49.3643125,-26.9906069992356,0.0 -49.3646541,-26.9905491992356,0.0 -49.3649115,-26.9904826992356,0.0 -49.3652056,-26.9904108992356,0.0 -49.365325,-26.9903817992356,0.0 -49.3656272,-26.9902485992356,0.0 -49.3658188,-26.9901418992356,0.0 -49.3659399,-26.9900063992356,0.0 -49.3662153,-26.9898657992356,0.0 -49.3663078,-26.9898441992356,0.0 -49.366409,-26.9898205992356,0.0 -49.3667151,-26.9898277992356,0.0 -49.3669256,-26.9898316992356,0.0 -49.367102,-26.9898412992356,0.0 -49.3671496,-26.9898428992356,0.0 -49.3671973,-26.9898445992356,0.0 -49.3673131,-26.9898485992356,0.0 -49.3674633,-26.9898196992356,0.0 -49.3674883,-26.9898100992356,0.0 -49.3675874,-26.9897716992356,0.0 -49.3678217,-26.9897727992356,0.0 -49.3682221,-26.9897797992356,0.0 -49.3683846,-26.9897816992356,0.0 -49.3684792,-26.9897827992356,0.0 -49.3690171,-26.9897737992356,0.0 -49.3692118,-26.9897257992356,0.0 -49.3692978,-26.9896543992356,0.0 -49.369426,-26.9896414992356,0.0 -49.3697556,-26.9895857992356,0.0 -49.3698822,-26.9894969992356,0.0 -49.3699961,-26.9893814992356,0.0 -49.3700919,-26.9892675992356,0.0 -49.3701059,-26.9890325992356,0.0 -49.3701868,-26.9888905992356,0.0 -49.3703916,-26.9888160992356,0.0 -49.3706363,-26.9887309992357,0.0 -49.3708769,-26.9886461992357,0.0 -49.3710578,-26.9885856992357,0.0 -49.3714085,-26.9885101992356,0.0 -49.3716063,-26.9884603992357,0.0 -49.3719751,-26.9882336992357,0.0 -49.3720869,-26.9881185992357,0.0 -49.3722024,-26.9880872992357,0.0 -49.3722206,-26.9880823992357,0.0 -49.3724209,-26.9880498992357,0.0 -49.3724289,-26.9880485992357,0.0 -49.3724708,-26.9880419992357,0.0 -49.3724545,-26.9878947992357,0.0 -49.3722366,-26.9874374992357,0.0 -49.3722341,-26.9873972992357,0.0 -49.3723602,-26.9873340992357,0.0 -49.3725097,-26.9873024992357,0.0 -49.3728536,-26.9872252992357,0.0 -49.3729459,-26.9871638992357,0.0 -49.3729985,-26.9870730992357,0.0 -49.3729861,-26.9869915992357,0.0 -49.37297,-26.9869270992357,0.0 -49.3729069,-26.9867886992357,0.0 -49.3728402,-26.9866928992357,0.0 -49.3727805,-26.9866138992357,0.0 -49.3727017,-26.9865513992357,0.0 -49.3725491,-26.9864671992357,0.0 -49.372369,-26.9863660992357,0.0 -49.3723042,-26.9863343992357,0.0 -49.3722584,-26.9863075992357,0.0 -49.3722497,-26.9862985992357,0.0 -49.3722438,-26.9862814992357,0.0 -49.3722431,-26.9862500992357,0.0 -49.3722439,-26.9862187992357,0.0 -49.3722556,-26.9861604992357,0.0 -49.3723027,-26.9860634992357,0.0 -49.3724392,-26.9857856992357,0.0 -49.3725978,-26.9854944992357,0.0 -49.372626,-26.9854509992357,0.0 -49.3726584,-26.9854205992357,0.0 -49.372752,-26.9853919992357,0.0 -49.3729419,-26.9853260992357,0.0 -49.373213,-26.9852249992357,0.0 -49.3734956,-26.9850944992357,0.0 -49.3737674,-26.9849428992357,0.0 -49.3737884,-26.9849275992357,0.0 -49.3740191,-26.9848063992357,0.0 -49.374163,-26.9847202992357,0.0 -49.3743993,-26.9845695992357,0.0 -49.3747125,-26.9843649992357,0.0 -49.3748603,-26.9842426992357,0.0 -49.3749409,-26.9841543992357,0.0 -49.3749609,-26.9841003992357,0.0 -49.3749754,-26.9840034992357,0.0 -49.3749873,-26.9836956992357,0.0 -49.3750001,-26.9835081992358,0.0 -49.3750078,-26.9833955992358,0.0 -49.3750081,-26.9833891992358,0.0 -49.3750293,-26.9829300992358,0.0 -49.375028,-26.9828695992358,0.0 -49.3750218,-26.9828174992358,0.0 -49.3750131,-26.9827763992358,0.0 -49.3750001,-26.9827221992358,0.0 -49.3749606,-26.9826269992358,0.0 -49.3749457,-26.9825775992358,0.0 -49.3748687,-26.9824100992358,0.0 -49.3747047,-26.9822436992358,0.0 -49.3745802,-26.9821700992358,0.0 -49.3744557,-26.9820964992358,0.0 -49.3744531,-26.9820948992358,0.0</coordinates>
</LinearRing>
</outerBoundaryIs>
</Polygon>
</MultiGeometry>
</Placemark>
</Folder>
</Document></kml>
