<?xml version='1.0' encoding='UTF-8'?>
<kml xmlns:xsd="http://www.w3.org/2001/XMLSchema" xmlns:gx="http://www.google.com/kml/ext/2.2" xmlns:atom="http://www.w3.org/2005/Atom" xmlns="http://www.opengis.net/kml/2.2">
<Document>
<name>atalanta_4201802_localidades_2022</name>
<visibility>1</visibility>
<Schema name="01. Cidade" id="kml_schema_ft_01._Cidade">
<SimpleField type="xsd:string" name="CD_UF">
<displayName>CD_UF</displayName>
</SimpleField>
<SimpleField type="xsd:string" name="NM_UF">
<displayName>NM_UF</displayName>
</SimpleField>
<SimpleField type="xsd:string" name="SIGLA_UF">
<displayName>SIGLA_UF</displayName>
</SimpleField>
<SimpleField type="xsd:string" name="CD_MUN">
<displayName>CD_MUN</displayName>
</SimpleField>
<SimpleField type="xsd:string" name="NM_MUN">
<displayName>NM_MUN</displayName>
</SimpleField>
<SimpleField type="xsd:string" name="CD_RGINT">
<displayName>CD_RGINT</displayName>
</SimpleField>
<SimpleField type="xsd:string" name="NM_RGINT">
<displayName>NM_RGINT</displayName>
</SimpleField>
<SimpleField type="xsd:string" name="CD_RGI">
<displayName>CD_RGI</displayName>
</SimpleField>
<SimpleField type="xsd:string" name="NM_RGI">
<displayName>NM_RGI</displayName>
</SimpleField>
<SimpleField type="xsd:string" name="CT_LOCALIDADE">
<displayName>CT_LOCALIDADE</displayName>
</SimpleField>
<SimpleField type="xsd:string" name="SCT_LOCALIDADE">
<displayName>SCT_LOCALIDADE</displayName>
</SimpleField>
<SimpleField type="xsd:string" name="CD_LOCALIDADE">
<displayName>CD_LOCALIDADE</displayName>
</SimpleField>
<SimpleField type="xsd:string" name="NM_LOCALIDADE">
<displayName>NM_LOCALIDADE</displayName>
</SimpleField>
<SimpleField type="xsd:string" name="LAT_LOCALIDADE">
<displayName>LAT_LOCALIDADE</displayName>
</SimpleField>
<SimpleField type="xsd:string" name="LONG_LOCALIDADE">
<displayName>LONG_LOCALIDADE</displayName>
</SimpleField>
</Schema>
<Schema name="Município" id="kml_schema_ft_Município">
<SimpleField type="xsd:string" name="CD_UF">
<displayName>CD_UF</displayName>
</SimpleField>
<SimpleField type="xsd:string" name="NM_UF">
<displayName>NM_UF</displayName>
</SimpleField>
<SimpleField type="xsd:string" name="CD_MUN">
<displayName>CD_MUN</displayName>
</SimpleField>
<SimpleField type="xsd:string" name="NM_MUN">
<displayName>NM_MUN</displayName>
</SimpleField>
<SimpleField type="xsd:string" name="CD_RGINT">
<displayName>CD_RGINT</displayName>
</SimpleField>
<SimpleField type="xsd:string" name="NM_RGINT">
<displayName>NM_RGINT</displayName>
</SimpleField>
<SimpleField type="xsd:string" name="CD_RGI">
<displayName>CD_RGI</displayName>
</SimpleField>
<SimpleField type="xsd:string" name="NM_RGI">
<displayName>NM_RGI</displayName>
</SimpleField>
</Schema>
<Folder id="01. Cidade">
<name>01. Cidade</name>
<Folder id="01.03. Sede Municipal">
<name>01.03. Sede Municipal</name>
<Placemark id="01.03. Sede Municipal">
<name>Atalanta [4201802]</name>
<visibility>1</visibility>
<snippet> </snippet>
<description>&lt;center&gt;&lt;table&gt;&lt;tr&gt;&lt;th colspan='2' align='center'&gt;&lt;em&gt;Atributos&lt;/em&gt;&lt;/th&gt;&lt;/tr&gt;&lt;tr bgcolor="#E3E3F3"&gt;
&lt;th&gt;CD_UF&lt;/th&gt;
&lt;td&gt;42&lt;/td&gt;
&lt;/tr&gt;&lt;tr bgcolor=""&gt;
&lt;th&gt;NM_UF&lt;/th&gt;
&lt;td&gt;Santa Catarina&lt;/td&gt;
&lt;/tr&gt;&lt;tr bgcolor="#E3E3F3"&gt;
&lt;th&gt;SIGLA_UF&lt;/th&gt;
&lt;td&gt;SC&lt;/td&gt;
&lt;/tr&gt;&lt;tr bgcolor=""&gt;
&lt;th&gt;CD_MUN&lt;/th&gt;
&lt;td&gt;4201802&lt;/td&gt;
&lt;/tr&gt;&lt;tr bgcolor="#E3E3F3"&gt;
&lt;th&gt;NM_MUN&lt;/th&gt;
&lt;td&gt;Atalanta&lt;/td&gt;
&lt;/tr&gt;&lt;tr bgcolor=""&gt;
&lt;th&gt;CD_RGINT&lt;/th&gt;
&lt;td&gt;4207&lt;/td&gt;
&lt;/tr&gt;&lt;tr bgcolor="#E3E3F3"&gt;
&lt;th&gt;NM_RGINT&lt;/th&gt;
&lt;td&gt;Blumenau&lt;/td&gt;
&lt;/tr&gt;&lt;tr bgcolor=""&gt;
&lt;th&gt;CD_RGI&lt;/th&gt;
&lt;td&gt;420022&lt;/td&gt;
&lt;/tr&gt;&lt;tr bgcolor="#E3E3F3"&gt;
&lt;th&gt;NM_RGI&lt;/th&gt;
&lt;td&gt;Rio do Sul&lt;/td&gt;
&lt;/tr&gt;&lt;tr bgcolor=""&gt;
&lt;th&gt;CT_LOCALIDADE&lt;/th&gt;
&lt;td&gt;Cidade&lt;/td&gt;
&lt;/tr&gt;&lt;tr bgcolor="#E3E3F3"&gt;
&lt;th&gt;SCT_LOCALIDADE&lt;/th&gt;
&lt;td&gt;Sede Municipal&lt;/td&gt;
&lt;/tr&gt;&lt;tr bgcolor=""&gt;
&lt;th&gt;CD_LOCALIDADE&lt;/th&gt;
&lt;td&gt;4201802&lt;/td&gt;
&lt;/tr&gt;&lt;tr bgcolor="#E3E3F3"&gt;
&lt;th&gt;NM_LOCALIDADE&lt;/th&gt;
&lt;td&gt;Atalanta&lt;/td&gt;
&lt;/tr&gt;&lt;tr bgcolor=""&gt;
&lt;th&gt;LAT_LOCALIDADE&lt;/th&gt;
&lt;td&gt;-27.4205&lt;/td&gt;
&lt;/tr&gt;&lt;tr bgcolor="#E3E3F3"&gt;
&lt;th&gt;LONG_LOCALIDADE&lt;/th&gt;
&lt;td&gt;-49.7817&lt;/td&gt;
&lt;/tr&gt;&lt;/table&gt;&lt;/center&gt;</description>
<Style>
<IconStyle>
<color>ff00aaff</color>
<scale>1.0</scale>
<Icon>
<href>http://maps.google.com/mapfiles/kml/shapes/placemark_circle.png</href>
</Icon>
</IconStyle>
<LabelStyle>
<scale>1.0</scale>
</LabelStyle>
<LineStyle>
<color>ffffffff</color>
<width>3</width>
<gx:labelVisibility>1</gx:labelVisibility>
</LineStyle>
<PolyStyle>
<color>00ffffff</color>
</PolyStyle>
</Style>
<ExtendedData>
<SchemaData schemaUrl="#kml_schema_ft_01._Cidade">
<SimpleData name="CD_UF">42</SimpleData>
<SimpleData name="NM_UF">Santa Catarina</SimpleData>
<SimpleData name="SIGLA_UF">SC</SimpleData>
<SimpleData name="CD_MUN">4201802</SimpleData>
<SimpleData name="NM_MUN">Atalanta</SimpleData>
<SimpleData name="CD_RGINT">4207</SimpleData>
<SimpleData name="NM_RGINT">Blumenau</SimpleData>
<SimpleData name="CD_RGI">420022</SimpleData>
<SimpleData name="NM_RGI">Rio do Sul</SimpleData>
<SimpleData name="CT_LOCALIDADE">Cidade</SimpleData>
<SimpleData name="SCT_LOCALIDADE">Sede Municipal</SimpleData>
<SimpleData name="CD_LOCALIDADE">4201802</SimpleData>
<SimpleData name="NM_LOCALIDADE">Atalanta</SimpleData>
<SimpleData name="LAT_LOCALIDADE">-27.4205</SimpleData>
<SimpleData name="LONG_LOCALIDADE">-49.7817</SimpleData>
</SchemaData>
</ExtendedData>
<Point>
<extrude>0</extrude>
<coordinates>-49.7817,-27.4204999992274,0.0</coordinates>
</Point>
</Placemark>
</Folder>
</Folder>
<Folder id="13. Referência">
<name>13. Referência</name>
<Placemark id="13. Referência">
<name>Atalanta [4201802]</name>
<visibility>1</visibility>
<snippet> </snippet>
<description>&lt;center&gt;&lt;table&gt;&lt;tr&gt;&lt;th colspan='2' align='center'&gt;&lt;em&gt;Attributes&lt;/em&gt;&lt;/th&gt;&lt;/tr&gt;&lt;tr bgcolor="#E3E3F3"&gt;
&lt;th&gt;CD_UF&lt;/th&gt;
&lt;td&gt;42&lt;/td&gt;
&lt;/tr&gt;&lt;tr bgcolor=""&gt;
&lt;th&gt;NM_UF&lt;/th&gt;
&lt;td&gt;Santa Catarina&lt;/td&gt;
&lt;/tr&gt;&lt;tr bgcolor="#E3E3F3"&gt;
&lt;th&gt;CD_MUN&lt;/th&gt;
&lt;td&gt;4201802&lt;/td&gt;
&lt;/tr&gt;&lt;tr bgcolor=""&gt;
&lt;th&gt;NM_MUN&lt;/th&gt;
&lt;td&gt;Atalanta&lt;/td&gt;
&lt;/tr&gt;&lt;tr bgcolor="#E3E3F3"&gt;
&lt;th&gt;CD_RGINT&lt;/th&gt;
&lt;td&gt;4207&lt;/td&gt;
&lt;/tr&gt;&lt;tr bgcolor=""&gt;
&lt;th&gt;NM_RGINT&lt;/th&gt;
&lt;td&gt;Blumenau&lt;/td&gt;
&lt;/tr&gt;&lt;tr bgcolor="#E3E3F3"&gt;
&lt;th&gt;CD_RGI&lt;/th&gt;
&lt;td&gt;420022&lt;/td&gt;
&lt;/tr&gt;&lt;tr bgcolor=""&gt;
&lt;th&gt;NM_RGI&lt;/th&gt;
&lt;td&gt;Rio do Sul&lt;/td&gt;
&lt;/tr&gt;&lt;/table&gt;&lt;/center&gt;</description>
<Style>
<IconStyle>
<scale>0.7</scale>
</IconStyle>
<LabelStyle>
<scale>0.7</scale>
</LabelStyle>
<LineStyle>
<color>ffffffff</color>
<width>3</width>
<gx:labelVisibility>1</gx:labelVisibility>
</LineStyle>
<PolyStyle>
<color>00ffffff</color>
</PolyStyle>
</Style>
<ExtendedData>
<SchemaData schemaUrl="#kml_schema_ft_Município">
<SimpleData name="CD_UF">42</SimpleData>
<SimpleData name="NM_UF">Santa Catarina</SimpleData>
<SimpleData name="CD_MUN">4201802</SimpleData>
<SimpleData name="NM_MUN">Atalanta</SimpleData>
<SimpleData name="CD_RGINT">4207</SimpleData>
<SimpleData name="NM_RGINT">Blumenau</SimpleData>
<SimpleData name="CD_RGI">420022</SimpleData>
<SimpleData name="NM_RGI">Rio do Sul</SimpleData>
</SchemaData>
</ExtendedData>
<MultiGeometry>
<Polygon>
<extrude>0</extrude>
<tessellate>1</tessellate>
<outerBoundaryIs>
<LinearRing>
<coordinates>-49.7822815,-27.4137204992275,0.0 -49.7813559,-27.4135419992275,0.0 -49.7809305,-27.4134150992275,0.0 -49.7804649,-27.4131712992275,0.0 -49.7796026,-27.4126612992276,0.0 -49.7789451,-27.4121211992276,0.0 -49.7783925,-27.4116680992276,0.0 -49.7779547,-27.4112017992276,0.0 -49.7777204,-27.4108734992276,0.0 -49.7772117,-27.4104323992276,0.0 -49.7765967,-27.4101184992276,0.0 -49.7762163,-27.4096795992276,0.0 -49.775915,-27.4095053992276,0.0 -49.7757207,-27.4094384992276,0.0 -49.7753152,-27.4093826992276,0.0 -49.7746296,-27.4092257992276,0.0 -49.773845,-27.4088886992276,0.0 -49.7731156,-27.4085129992276,0.0 -49.7725846,-27.4083198992276,0.0 -49.7713233,-27.4076133992276,0.0 -49.7706831,-27.4073540992276,0.0 -49.7703041,-27.4072099992276,0.0 -49.769944,-27.4071594992277,0.0 -49.7697261,-27.4071831992277,0.0 -49.7693836,-27.4072919992277,0.0 -49.768926,-27.4074185992276,0.0 -49.7685035,-27.4075112992276,0.0 -49.7680155,-27.4074639992277,0.0 -49.7677112,-27.4073679992277,0.0 -49.7672249,-27.4071911992277,0.0 -49.7669707,-27.4068706992277,0.0 -49.7664131,-27.4063966992277,0.0 -49.7659766,-27.4056396992277,0.0 -49.7657074,-27.4049825992277,0.0 -49.7656135,-27.4046399992277,0.0 -49.7656079,-27.4042310992277,0.0 -49.7654792,-27.4037511992277,0.0 -49.765098,-27.4032139992277,0.0 -49.7649101,-27.4029652992277,0.0 -49.7646228,-27.4027552992277,0.0 -49.7642526,-27.4026724992278,0.0 -49.763672,-27.4027293992277,0.0 -49.7631211,-27.4027144992277,0.0 -49.7626786,-27.4027249992277,0.0 -49.7621359,-27.4028679992277,0.0 -49.7619552,-27.4029144992277,0.0 -49.7617011,-27.4029797992277,0.0 -49.7611197,-27.4029564992277,0.0 -49.760675,-27.4028317992277,0.0 -49.7602304,-27.4027071992277,0.0 -49.7593183,-27.4025177992277,0.0 -49.759044,-27.4024829992277,0.0 -49.7585337,-27.4024182992277,0.0 -49.7581082,-27.4023077992277,0.0 -49.7576568,-27.4021197992278,0.0 -49.7573793,-27.4019037992277,0.0 -49.7569815,-27.4013070992278,0.0 -49.7566334,-27.4008483992278,0.0 -49.7563494,-27.4005383992278,0.0 -49.7559648,-27.4001687992278,0.0 -49.7556443,-27.3999698992278,0.0 -49.7550123,-27.3998282992278,0.0 -49.7543422,-27.3996115992278,0.0 -49.7537817,-27.3992741992278,0.0 -49.7535441,-27.3989095992278,0.0 -49.7533949,-27.3986056992278,0.0 -49.7529473,-27.3979480992278,0.0 -49.7527539,-27.3977325992278,0.0 -49.7525605,-27.3975170992278,0.0 -49.7522179,-27.3972131992278,0.0 -49.7517593,-27.3968816992279,0.0 -49.7512514,-27.3965079992279,0.0 -49.7508837,-27.3963016992279,0.0 -49.7506647,-27.3961927992279,0.0 -49.7504737,-27.3959586992279,0.0 -49.7501846,-27.3961403992279,0.0 -49.7498917,-27.3962856992279,0.0 -49.7495546,-27.3963953992279,0.0 -49.7489556,-27.3964416992279,0.0 -49.7483793,-27.3964479992279,0.0 -49.7483458,-27.3964470992279,0.0 -49.7483122,-27.3964460992279,0.0 -49.7482609,-27.3964389992279,0.0 -49.7480011,-27.3964032992279,0.0 -49.7476305,-27.3963342992279,0.0 -49.747394,-27.3962861992279,0.0 -49.7473595,-27.3962734992279,0.0 -49.7473391,-27.3962676992279,0.0 -49.7473162,-27.3962666992279,0.0 -49.7473031,-27.3962681992279,0.0 -49.747288,-27.3962720992279,0.0 -49.7472666,-27.3962831992279,0.0 -49.7472452,-27.3963016992279,0.0 -49.7472277,-27.3963152992279,0.0 -49.7471262,-27.3963473992279,0.0 -49.7469862,-27.3963862992279,0.0 -49.7468889,-27.3964193992279,0.0 -49.7467256,-27.3965106992279,0.0 -49.7466498,-27.3965495992279,0.0 -49.7465175,-27.3966448992279,0.0 -49.7463426,-27.3967654992279,0.0 -49.7460925,-27.3969450992279,0.0 -49.7456392,-27.3971579992278,0.0 -49.7450015,-27.3973678992278,0.0 -49.7444158,-27.3975888992278,0.0 -49.7439296,-27.3978541992278,0.0 -49.7436202,-27.3980972992278,0.0 -49.7434671,-27.3982363992278,0.0 -49.7433552,-27.3982776992278,0.0 -49.7432223,-27.3983072992278,0.0 -49.7429823,-27.3982724992278,0.0 -49.7428018,-27.3982200992278,0.0 -49.7424201,-27.3981071992278,0.0 -49.7420288,-27.3979204992278,0.0 -49.7412663,-27.3976220992278,0.0 -49.7406474,-27.3972463992278,0.0 -49.7403663,-27.3967748992279,0.0 -49.7402434,-27.3965547992279,0.0 -49.7399785,-27.3962802992279,0.0 -49.7396911,-27.3961043992279,0.0 -49.7394053,-27.3959046992279,0.0 -49.7389586,-27.3953647992279,0.0 -49.7384924,-27.3949034992279,0.0 -49.7379178,-27.3944614992279,0.0 -49.737721,-27.3942522992279,0.0 -49.737616,-27.3941161992279,0.0 -49.7374838,-27.3939994992279,0.0 -49.7372894,-27.3939372992279,0.0 -49.7370599,-27.3939100992279,0.0 -49.7368256,-27.3938983992279,0.0 -49.7364017,-27.3938128992279,0.0 -49.7359219,-27.3937192992279,0.0 -49.7354644,-27.3936325992279,0.0 -49.7351731,-27.3934576992279,0.0 -49.7350057,-27.3933305992279,0.0 -49.7346907,-27.3931244992279,0.0 -49.7339421,-27.3926539992279,0.0 -49.7336776,-27.3925139992279,0.0 -49.7332032,-27.3923117992279,0.0 -49.7328221,-27.3921795992279,0.0 -49.7320783,-27.3920025992279,0.0 -49.73181,-27.3918781992279,0.0 -49.7316039,-27.3917575992279,0.0 -49.7314367,-27.3915903992279,0.0 -49.7313667,-27.391442599228,0.0 -49.7312734,-27.391077099228,0.0 -49.7311765,-27.390663699228,0.0 -49.7309467,-27.390089299228,0.0 -49.7307911,-27.389723799228,0.0 -49.7305345,-27.389474899228,0.0 -49.730375,-27.389327099228,0.0 -49.7301184,-27.389171599228,0.0 -49.72978,-27.389105399228,0.0 -49.72936,-27.389050999228,0.0 -49.7289478,-27.388984899228,0.0 -49.7282135,-27.388927599228,0.0 -49.7277176,-27.388891699228,0.0 -49.7270157,-27.388965999228,0.0 -49.7265306,-27.388924099228,0.0 -49.7257836,-27.388781199228,0.0 -49.7254133,-27.388714499228,0.0 -49.7246953,-27.388585099228,0.0 -49.7245701,-27.388593299228,0.0 -49.7241619,-27.388619899228,0.0 -49.7240775,-27.388580399228,0.0 -49.723952,-27.388678599228,0.0 -49.7237421,-27.388737399228,0.0 -49.7226451,-27.389134799228,0.0 -49.7218202,-27.389254199228,0.0 -49.721274,-27.389257699228,0.0 -49.7199597,-27.389510599228,0.0 -49.7195729,-27.389687399228,0.0 -49.719153,-27.390129399228,0.0 -49.718954,-27.390538299228,0.0 -49.7187883,-27.390858799228,0.0 -49.7184346,-27.391090899228,0.0 -49.7180479,-27.391256699228,0.0 -49.7177053,-27.391300899228,0.0 -49.7173074,-27.391345099228,0.0 -49.7168101,-27.391245599228,0.0 -49.7165007,-27.391079799228,0.0 -49.716308,-27.390829899228,0.0 -49.7159972,-27.390750499228,0.0 -49.7155418,-27.390787599228,0.0 -49.715213,-27.391030099228,0.0 -49.7149858,-27.391331099228,0.0 -49.7149263,-27.3916496992279,0.0 -49.7148107,-27.3920525992279,0.0 -49.7146502,-27.3923507992279,0.0 -49.7144321,-27.3924916992279,0.0 -49.7141497,-27.3926095992279,0.0 -49.7138816,-27.3928148992279,0.0 -49.7134994,-27.3932370992279,0.0 -49.7134904,-27.3934414992279,0.0 -49.7134506,-27.3936215992279,0.0 -49.7132891,-27.3938575992279,0.0 -49.712897,-27.3939473992279,0.0 -49.7122389,-27.3939727992279,0.0 -49.7112215,-27.3937631992279,0.0 -49.710848,-27.3936491992279,0.0 -49.7098952,-27.3933902992279,0.0 -49.709041,-27.3930411992279,0.0 -49.7085893,-27.3927929992279,0.0 -49.7080562,-27.3926034992279,0.0 -49.7077865,-27.3924404992279,0.0 -49.7076322,-27.3922180992279,0.0 -49.7073559,-27.391499799228,0.0 -49.7071128,-27.391002499228,0.0 -49.706737,-27.390483099228,0.0 -49.7063613,-27.390217799228,0.0 -49.7059413,-27.390151499228,0.0 -49.7055527,-27.390183599228,0.0 -49.705331,-27.390149599228,0.0 -49.7049888,-27.390021299228,0.0 -49.7046015,-27.389830399228,0.0 -49.7041002,-27.389527399228,0.0 -49.7037813,-27.389309599228,0.0 -49.703548,-27.388912899228,0.0 -49.7034235,-27.388648499228,0.0 -49.7033535,-27.388376299228,0.0 -49.7033224,-27.388041799228,0.0 -49.7033361,-27.387786999228,0.0 -49.7033457,-27.387606299228,0.0 -49.7033535,-27.387279599228,0.0 -49.7033471,-27.387209299228,0.0 -49.7033224,-27.386937399228,0.0 -49.703198,-27.386595199228,0.0 -49.7029102,-27.3861207992281,0.0 -49.7026399,-27.3857940992281,0.0 -49.7023794,-27.3856307992281,0.0 -49.7021305,-27.3855762992281,0.0 -49.7019701,-27.3855607992281,0.0 -49.7017329,-27.3855762992281,0.0 -49.7014373,-27.3855801992281,0.0 -49.7012118,-27.3856190992281,0.0 -49.7010056,-27.3856735992281,0.0 -49.7008773,-27.3857396992281,0.0 -49.7007062,-27.3858796992281,0.0 -49.7005623,-27.3860390992281,0.0 -49.7003873,-27.386355999228,0.0 -49.7003095,-27.386565999228,0.0 -49.7002707,-27.386779899228,0.0 -49.7002823,-27.386985999228,0.0 -49.7003757,-27.387265999228,0.0 -49.7004262,-27.387580999228,0.0 -49.7003951,-27.387680199228,0.0 -49.7002007,-27.387952399228,0.0 -49.6999557,-27.388197399228,0.0 -49.699629,-27.388372399228,0.0 -49.6992673,-27.388527999228,0.0 -49.6990012,-27.388687299228,0.0 -49.6986145,-27.388731499228,0.0 -49.6982592,-27.388757099228,0.0 -49.6979217,-27.388809899228,0.0 -49.6977603,-27.388835499228,0.0 -49.6976946,-27.388845899228,0.0 -49.6976492,-27.388855699228,0.0 -49.6975699,-27.388897999228,0.0 -49.6972787,-27.389019799228,0.0 -49.6968518,-27.389173499228,0.0 -49.6964761,-27.389477399228,0.0 -49.6961335,-27.389698399228,0.0 -49.6956693,-27.389941599228,0.0 -49.6953157,-27.390206799228,0.0 -49.6950228,-27.390416799228,0.0 -49.6948018,-27.390626699228,0.0 -49.6945587,-27.390742799228,0.0 -49.6942658,-27.390759399228,0.0 -49.6937741,-27.390676499228,0.0 -49.6934978,-27.390670899228,0.0 -49.6901737,-27.4026582992277,0.0 -49.6847,-27.4223959992274,0.0 -49.6787073,-27.444286099227,0.0 -49.6746981,-27.4589305992267,0.0 -49.6838437,-27.4598952992267,0.0 -49.6865145,-27.4601769992267,0.0 -49.6905159,-27.4605990992266,0.0 -49.6916098,-27.4607144992266,0.0 -49.7120771,-27.4672519992265,0.0 -49.7388608,-27.4743299992264,0.0 -49.7458105,-27.4761285992264,0.0 -49.7459185,-27.4761452992263,0.0 -49.7459506,-27.4761607992263,0.0 -49.7462323,-27.4763912992264,0.0 -49.7463452,-27.4764767992264,0.0 -49.7464395,-27.4764994992263,0.0 -49.7465091,-27.4764940992263,0.0 -49.7465466,-27.4764737992263,0.0 -49.7465705,-27.4764425992263,0.0 -49.7466053,-27.4764045992264,0.0 -49.7466778,-27.4763703992264,0.0 -49.7467192,-27.4763682992264,0.0 -49.7467542,-27.4763775992263,0.0 -49.7467699,-27.4763817992263,0.0 -49.7468528,-27.4764385992264,0.0 -49.7469593,-27.4765121992263,0.0 -49.747067,-27.4765863992263,0.0 -49.7471715,-27.4766065992263,0.0 -49.7472574,-27.4765965992263,0.0 -49.7473127,-27.4765714992263,0.0 -49.7473486,-27.4765550992263,0.0 -49.7474954,-27.4764839992263,0.0 -49.7476805,-27.4763887992264,0.0 -49.7478177,-27.4763207992263,0.0 -49.7479196,-27.4762836992264,0.0 -49.74802,-27.4762626992264,0.0 -49.7481046,-27.4762568992264,0.0 -49.7482908,-27.4762675992263,0.0 -49.7483554,-27.4762823992263,0.0 -49.7487518,-27.4757819992264,0.0 -49.7488387,-27.4756857992264,0.0 -49.7490029,-27.4755841992264,0.0 -49.7491319,-27.4755419992264,0.0 -49.749307,-27.4754887992264,0.0 -49.7495138,-27.4754360992264,0.0 -49.7497102,-27.4753691992264,0.0 -49.7500001,-27.4754692992264,0.0 -49.750069,-27.4754930992264,0.0 -49.7502012,-27.4755237992264,0.0 -49.7504328,-27.4755819992264,0.0 -49.7505907,-27.4756065992264,0.0 -49.7507491,-27.4756119992264,0.0 -49.7508977,-27.4755906992264,0.0 -49.751037,-27.4755563992264,0.0 -49.7510825,-27.4755532992264,0.0 -49.7511046,-27.4755556992264,0.0 -49.7511558,-27.4755649992264,0.0 -49.7512112,-27.4755790992264,0.0 -49.7512649,-27.4755867992264,0.0 -49.7513109,-27.4755873992264,0.0 -49.7513522,-27.4755820992264,0.0 -49.7513781,-27.4755739992264,0.0 -49.7514311,-27.4755496992264,0.0 -49.7514697,-27.4755299992264,0.0 -49.7514995,-27.4755063992264,0.0 -49.7515285,-27.4754875992264,0.0 -49.751564,-27.4754763992264,0.0 -49.7515999,-27.4754725992264,0.0 -49.7516283,-27.4754705992264,0.0 -49.7516568,-27.4754685992264,0.0 -49.7517184,-27.4754646992264,0.0 -49.7517574,-27.4754566992264,0.0 -49.7517863,-27.4754469992264,0.0 -49.7518205,-27.4754361992264,0.0 -49.7518774,-27.4754343992264,0.0 -49.7519155,-27.4754423992264,0.0 -49.75194,-27.4754784992264,0.0 -49.7519871,-27.4755163992264,0.0 -49.7520322,-27.4755367992264,0.0 -49.7520603,-27.4755382992264,0.0 -49.7521004,-27.4755313992264,0.0 -49.7522965,-27.4754808992264,0.0 -49.7524254,-27.4754371992264,0.0 -49.7525022,-27.4753948992264,0.0 -49.7525601,-27.4753405992264,0.0 -49.7526028,-27.4752755992264,0.0 -49.7526787,-27.4752120992264,0.0 -49.7528122,-27.4751810992264,0.0 -49.7530091,-27.4751859992264,0.0 -49.7532141,-27.4752037992264,0.0 -49.753418,-27.4752203992264,0.0 -49.7536289,-27.4752391992264,0.0 -49.7539123,-27.4752569992264,0.0 -49.7540928,-27.4752488992264,0.0 -49.7541716,-27.4752266992264,0.0 -49.7541932,-27.4752121992264,0.0 -49.7542974,-27.4751585992264,0.0 -49.7543924,-27.4751293992264,0.0 -49.7545687,-27.4750943992264,0.0 -49.7547105,-27.4750826992264,0.0 -49.7548912,-27.4750782992264,0.0 -49.755065,-27.4750809992264,0.0 -49.7552879,-27.4750878992264,0.0 -49.7555121,-27.4750713992264,0.0 -49.7564356,-27.4748994992264,0.0 -49.7566809,-27.4748580992264,0.0 -49.7570566,-27.4747143992264,0.0 -49.7574876,-27.4745264992264,0.0 -49.7580291,-27.4742502992264,0.0 -49.7585706,-27.4739628992264,0.0 -49.7589678,-27.4737263992264,0.0 -49.7589351,-27.4734907992264,0.0 -49.7588892,-27.4732061992264,0.0 -49.7589059,-27.4729961992264,0.0 -49.7589626,-27.4727921992264,0.0 -49.7590576,-27.4725658992264,0.0 -49.7592599,-27.4722560992264,0.0 -49.7596629,-27.4713277992264,0.0 -49.7599021,-27.4707181992265,0.0 -49.7600586,-27.4703786992265,0.0 -49.7605667,-27.4692762992265,0.0 -49.7607234,-27.4689947992265,0.0 -49.7609613,-27.4686987992265,0.0 -49.7610503,-27.4685891992265,0.0 -49.7611628,-27.4684825992265,0.0 -49.7612993,-27.4684109992265,0.0 -49.7619141,-27.4683545992265,0.0 -49.7622478,-27.4680384992265,0.0 -49.7629758,-27.4675998992265,0.0 -49.763785,-27.4671661992265,0.0 -49.765041,-27.4668464992265,0.0 -49.7676568,-27.4660250992266,0.0 -49.7682451,-27.4657890992265,0.0 -49.7691558,-27.4655968992266,0.0 -49.7696625,-27.4653619992266,0.0 -49.7701517,-27.4653149992266,0.0 -49.7706414,-27.4654263992266,0.0 -49.7713214,-27.4659184992266,0.0 -49.7718061,-27.4665976992265,0.0 -49.7721707,-27.4674817992265,0.0 -49.7722932,-27.4688217992265,0.0 -49.7730111,-27.4697649992265,0.0 -49.7739435,-27.4703393992265,0.0 -49.7749815,-27.4707762992265,0.0 -49.7760226,-27.4711027992265,0.0 -49.776548,-27.4710884992264,0.0 -49.7772666,-27.4710019992264,0.0 -49.7779497,-27.4709548992265,0.0 -49.778551,-27.4708052992264,0.0 -49.7791463,-27.4706194992265,0.0 -49.7797741,-27.4706275992265,0.0 -49.7805541,-27.4708033992265,0.0 -49.7827551,-27.4719660992264,0.0 -49.7835447,-27.4724395992264,0.0 -49.7840903,-27.4728560992264,0.0 -49.7845545,-27.4730421992264,0.0 -49.7851441,-27.4733863992264,0.0 -49.7854831,-27.4736660992264,0.0 -49.7862532,-27.4745323992264,0.0 -49.7866115,-27.4749354992264,0.0 -49.787104,-27.4754894992264,0.0 -49.7875659,-27.4759407992264,0.0 -49.7878247,-27.4761034992264,0.0 -49.7881137,-27.4762268992264,0.0 -49.7886256,-27.4763699992264,0.0 -49.7890549,-27.4764275992263,0.0 -49.7899338,-27.4763031992264,0.0 -49.7903603,-27.4762250992264,0.0 -49.7906018,-27.4762723992264,0.0 -49.790892,-27.4763834992264,0.0 -49.7915324,-27.4768510992263,0.0 -49.7917549,-27.4770084992263,0.0 -49.792107,-27.4771586992263,0.0 -49.7924864,-27.4772602992263,0.0 -49.7928814,-27.4773103992263,0.0 -49.7932551,-27.4773411992263,0.0 -49.7936084,-27.4773651992263,0.0 -49.7939332,-27.4773361992263,0.0 -49.7942814,-27.4772449992263,0.0 -49.7947261,-27.4771735992263,0.0 -49.7949764,-27.4772282992263,0.0 -49.7951792,-27.4773172992263,0.0 -49.7955045,-27.4775390992263,0.0 -49.7956491,-27.4778517992263,0.0 -49.7956322,-27.4781207992263,0.0 -49.795533,-27.4784047992263,0.0 -49.7953095,-27.4786854992263,0.0 -49.7950256,-27.4788465992263,0.0 -49.794618,-27.4792668992263,0.0 -49.794471,-27.4796977992263,0.0 -49.7944974,-27.4801982992263,0.0 -49.7947686,-27.4806811992263,0.0 -49.7958437,-27.4818907992262,0.0 -49.7963602,-27.4825974992262,0.0 -49.7977206,-27.4840805992262,0.0 -49.7981235,-27.4845022992262,0.0 -49.7985766,-27.4848714992262,0.0 -49.7989132,-27.4851996992262,0.0 -49.799768,-27.4858711992262,0.0 -49.8000226,-27.4861389992262,0.0 -49.8005186,-27.4866333992262,0.0 -49.8008087,-27.4868288992262,0.0 -49.8012882,-27.4870469992261,0.0 -49.801771,-27.4871705992261,0.0 -49.8023377,-27.4871750992261,0.0 -49.8027974,-27.4870659992261,0.0 -49.8030163,-27.4869240992262,0.0 -49.8031613,-27.4867422992262,0.0 -49.8033672,-27.4864233992262,0.0 -49.8036044,-27.4861301992262,0.0 -49.8038322,-27.4858376992262,0.0 -49.803916,-27.4856470992262,0.0 -49.804037,-27.4852219992262,0.0 -49.8042708,-27.4850086992262,0.0 -49.804536,-27.4848540992262,0.0 -49.8048897,-27.4848098992262,0.0 -49.805462,-27.4849288992262,0.0 -49.8062234,-27.4851990992262,0.0 -49.8074367,-27.4853403992262,0.0 -49.808189,-27.4854006992262,0.0 -49.8091193,-27.4851976992262,0.0 -49.809876,-27.4849998992262,0.0 -49.81011,-27.4849146992262,0.0 -49.8103627,-27.4847099992262,0.0 -49.8104719,-27.4844916992262,0.0 -49.8104914,-27.4842936992262,0.0 -49.8104213,-27.4831604992262,0.0 -49.8104632,-27.4828395992262,0.0 -49.8105872,-27.4823998992262,0.0 -49.8108532,-27.4818891992262,0.0 -49.8112082,-27.4814692992263,0.0 -49.8116772,-27.4810419992263,0.0 -49.8122029,-27.4807897992263,0.0 -49.8133366,-27.4804770992263,0.0 -49.8137951,-27.4802636992263,0.0 -49.8144436,-27.4800317992263,0.0 -49.8149807,-27.4798583992263,0.0 -49.815545,-27.4795150992263,0.0 -49.8157636,-27.4792036992263,0.0 -49.8158602,-27.4788259992263,0.0 -49.815852,-27.4785861992263,0.0 -49.8157869,-27.4782992992263,0.0 -49.81562,-27.4779953992263,0.0 -49.8155707,-27.4777650992263,0.0 -49.8155771,-27.4773457992263,0.0 -49.815642,-27.4769765992263,0.0 -49.815775,-27.4765861992263,0.0 -49.8159172,-27.4762882992264,0.0 -49.816145,-27.4759043992264,0.0 -49.8164123,-27.4754411992264,0.0 -49.8166576,-27.4749762992264,0.0 -49.8168046,-27.4746097992264,0.0 -49.8168191,-27.4742807992264,0.0 -49.8168173,-27.4739576992264,0.0 -49.8167321,-27.4734910992264,0.0 -49.8166103,-27.4731848992264,0.0 -49.8164286,-27.4728449992264,0.0 -49.8161422,-27.4724147992264,0.0 -49.8158133,-27.4720322992264,0.0 -49.8155455,-27.4716997992264,0.0 -49.8152548,-27.4712153992264,0.0 -49.8150049,-27.4707197992265,0.0 -49.8148859,-27.4701611992265,0.0 -49.8148282,-27.4695627992265,0.0 -49.814745,-27.4687942992265,0.0 -49.8146024,-27.4676292992265,0.0 -49.81462,-27.4668271992265,0.0 -49.8146106,-27.4667781992265,0.0 -49.8144634,-27.4660119992265,0.0 -49.8141208,-27.4652715992266,0.0 -49.8137561,-27.4646194992266,0.0 -49.8135036,-27.4640527992266,0.0 -49.8131806,-27.4631956992266,0.0 -49.8129716,-27.4627994992266,0.0 -49.8126928,-27.4622809992266,0.0 -49.8123637,-27.4615932992266,0.0 -49.8118467,-27.4609114992266,0.0 -49.8115272,-27.4605501992267,0.0 -49.8112466,-27.4601234992267,0.0 -49.8109261,-27.4596813992267,0.0 -49.8105623,-27.4593149992267,0.0 -49.8101866,-27.4588397992267,0.0 -49.8099171,-27.4583425992267,0.0 -49.8098159,-27.4578793992267,0.0 -49.8096629,-27.4573506992267,0.0 -49.8095307,-27.4570892992267,0.0 -49.8092708,-27.4567577992267,0.0 -49.8088825,-27.4562300992267,0.0 -49.8087279,-27.4559222992267,0.0 -49.8086616,-27.4553807992267,0.0 -49.8087168,-27.4550823992267,0.0 -49.8087524,-27.4548804992267,0.0 -49.8088283,-27.4546590992268,0.0 -49.8092159,-27.4544116992268,0.0 -49.8098193,-27.4541873992268,0.0 -49.8102503,-27.4537742992268,0.0 -49.8107598,-27.4530587992268,0.0 -49.8111145,-27.4523998992268,0.0 -49.8112537,-27.4522325992268,0.0 -49.811398,-27.4520726992268,0.0 -49.8115056,-27.4519259992268,0.0 -49.8115583,-27.4517370992268,0.0 -49.8115473,-27.4512431992268,0.0 -49.8116612,-27.4506490992268,0.0 -49.8117165,-27.4504499992268,0.0 -49.8118155,-27.4502428992268,0.0 -49.8119399,-27.4500591992268,0.0 -49.8121609,-27.4498043992268,0.0 -49.8122431,-27.4495780992269,0.0 -49.8122293,-27.4493192992269,0.0 -49.8121768,-27.4490758992269,0.0 -49.8120532,-27.4488630992269,0.0 -49.8118895,-27.4487069992269,0.0 -49.8115598,-27.4484415992269,0.0 -49.8112935,-27.4483574992269,0.0 -49.8102196,-27.4481401992269,0.0 -49.8094482,-27.4480216992269,0.0 -49.8091778,-27.4479608992269,0.0 -49.8089871,-27.4478414992269,0.0 -49.8085068,-27.4475178992269,0.0 -49.8084129,-27.4472305992269,0.0 -49.8083304,-27.4467073992269,0.0 -49.8082277,-27.4460303992269,0.0 -49.8081565,-27.4457913992269,0.0 -49.8080114,-27.4454245992269,0.0 -49.8078218,-27.4451549992269,0.0 -49.8077432,-27.4449974992269,0.0 -49.8076224,-27.4445434992269,0.0 -49.8075419,-27.444285099227,0.0 -49.8073499,-27.444147499227,0.0 -49.8070328,-27.444103099227,0.0 -49.8068727,-27.444069199227,0.0 -49.8065818,-27.443970499227,0.0 -49.8062772,-27.443914899227,0.0 -49.805974,-27.443926299227,0.0 -49.8055459,-27.444041999227,0.0 -49.8052775,-27.444080099227,0.0 -49.8046575,-27.444043099227,0.0 -49.8034055,-27.443937099227,0.0 -49.8031182,-27.443881899227,0.0 -49.8027535,-27.443722299227,0.0 -49.8024982,-27.443553899227,0.0 -49.8022432,-27.443168099227,0.0 -49.8020205,-27.442774999227,0.0 -49.8019811,-27.442417799227,0.0 -49.8018999,-27.441975899227,0.0 -49.8019903,-27.441372499227,0.0 -49.8019331,-27.441006299227,0.0 -49.8017914,-27.440719799227,0.0 -49.8013903,-27.440041799227,0.0 -49.8010529,-27.439367699227,0.0 -49.8008816,-27.4389974992271,0.0 -49.8006882,-27.4386659992271,0.0 -49.8005113,-27.4385001992271,0.0 -49.8002074,-27.4382570992271,0.0 -49.7996494,-27.4379531992271,0.0 -49.7992957,-27.4376160992271,0.0 -49.7987763,-27.4370579992271,0.0 -49.7985332,-27.4366546992271,0.0 -49.7982459,-27.4360910992271,0.0 -49.7980219,-27.4356268992271,0.0 -49.7978569,-27.4352541992271,0.0 -49.7977888,-27.4347440992271,0.0 -49.797821,-27.4342704992271,0.0 -49.7978332,-27.4339574992272,0.0 -49.7978068,-27.4337976992272,0.0 -49.7977425,-27.4336765992272,0.0 -49.7976051,-27.4335431992272,0.0 -49.7974586,-27.4334627992272,0.0 -49.7970706,-27.4333952992272,0.0 -49.7968733,-27.4333180992272,0.0 -49.7964135,-27.4330476992272,0.0 -49.7958325,-27.4326715992272,0.0 -49.7952303,-27.4323595992272,0.0 -49.7940768,-27.4316309992272,0.0 -49.7939201,-27.4314363992272,0.0 -49.7938368,-27.4311575992272,0.0 -49.7938595,-27.4306388992272,0.0 -49.7939163,-27.4301296992272,0.0 -49.7938741,-27.4297545992272,0.0 -49.7937225,-27.4293783992272,0.0 -49.7935299,-27.4289380992272,0.0 -49.793178,-27.4285189992273,0.0 -49.79277,-27.4281397992273,0.0 -49.7924772,-27.4279352992273,0.0 -49.7919153,-27.4273495992273,0.0 -49.7918284,-27.4266703992273,0.0 -49.7918659,-27.4261186992273,0.0 -49.7919763,-27.4257565992273,0.0 -49.7919958,-27.4253060992273,0.0 -49.7920118,-27.4248434992273,0.0 -49.7919651,-27.4241643992273,0.0 -49.7918928,-27.4238102992273,0.0 -49.7917717,-27.4234986992273,0.0 -49.7914324,-27.4230818992274,0.0 -49.7911969,-27.4225885992274,0.0 -49.7909567,-27.4222613992274,0.0 -49.7906979,-27.4219782992274,0.0 -49.7904166,-27.4217779992274,0.0 -49.790194,-27.4216936992274,0.0 -49.7899494,-27.4216937992274,0.0 -49.7894283,-27.4217540992274,0.0 -49.7889569,-27.4218461992274,0.0 -49.7887499,-27.4218835992274,0.0 -49.7885098,-27.4218571992274,0.0 -49.7883146,-27.4217486992274,0.0 -49.7881507,-27.4215928992274,0.0 -49.7879628,-27.4213598992274,0.0 -49.7876146,-27.4209262992274,0.0 -49.7871488,-27.4204128992274,0.0 -49.7867161,-27.4198291992274,0.0 -49.7864291,-27.4194875992274,0.0 -49.7861916,-27.4191735992274,0.0 -49.7858996,-27.4187428992274,0.0 -49.7856089,-27.4182766992274,0.0 -49.7853271,-27.4178621992274,0.0 -49.7848464,-27.4172488992275,0.0 -49.7847675,-27.4171681992275,0.0 -49.7845305,-27.4170123992275,0.0 -49.7844214,-27.4169078992275,0.0 -49.7842662,-27.4166524992275,0.0 -49.7841281,-27.4161492992275,0.0 -49.7839954,-27.4157679992275,0.0 -49.7838297,-27.4153204992275,0.0 -49.7837177,-27.4150666992275,0.0 -49.7836639,-27.4149446992275,0.0 -49.78357,-27.4146463992275,0.0 -49.783465,-27.4143645992275,0.0 -49.7833103,-27.4141269992275,0.0 -49.7830151,-27.4139724992275,0.0 -49.7828351,-27.4138782992275,0.0 -49.7822815,-27.4137204992275,0.0</coordinates>
</LinearRing>
</outerBoundaryIs>
</Polygon>
</MultiGeometry>
</Placemark>
</Folder>
</Document></kml>
