<?xml version='1.0' encoding='UTF-8'?>
<kml xmlns:xsd="http://www.w3.org/2001/XMLSchema" xmlns:gx="http://www.google.com/kml/ext/2.2" xmlns:atom="http://www.w3.org/2005/Atom" xmlns="http://www.opengis.net/kml/2.2">
<Document>
<name>braco_do_trombudo_4202859_localidades_2022</name>
<visibility>1</visibility>
<Schema name="Núcleos Urbanos" id="kml_schema_ft_Núcleos_Urbanos">
<SimpleField type="xsd:string" name="CD_UF">
<displayName>CD_UF</displayName>
</SimpleField>
<SimpleField type="xsd:string" name="NM_UF">
<displayName>NM_UF</displayName>
</SimpleField>
<SimpleField type="xsd:string" name="SIGLA_UF">
<displayName>SIGLA_UF</displayName>
</SimpleField>
<SimpleField type="xsd:string" name="CD_MUN">
<displayName>CD_MUN</displayName>
</SimpleField>
<SimpleField type="xsd:string" name="NM_MUN">
<displayName>NM_MUN</displayName>
</SimpleField>
<SimpleField type="xsd:string" name="CD_RGINT">
<displayName>CD_RGINT</displayName>
</SimpleField>
<SimpleField type="xsd:string" name="NM_RGINT">
<displayName>NM_RGINT</displayName>
</SimpleField>
<SimpleField type="xsd:string" name="CD_RGI">
<displayName>CD_RGI</displayName>
</SimpleField>
<SimpleField type="xsd:string" name="NM_RGI">
<displayName>NM_RGI</displayName>
</SimpleField>
<SimpleField type="xsd:string" name="CT_LOCALIDADE">
<displayName>CT_LOCALIDADE</displayName>
</SimpleField>
<SimpleField type="xsd:string" name="CD_LOCALIDADE">
<displayName>CD_LOCALIDADE</displayName>
</SimpleField>
<SimpleField type="xsd:string" name="NM_LOCALIDADE">
<displayName>NM_LOCALIDADE</displayName>
</SimpleField>
<SimpleField type="xsd:string" name="LAT_LOCALIDADE">
<displayName>LAT_LOCALIDADE</displayName>
</SimpleField>
<SimpleField type="xsd:string" name="LONG_LOCALIDADE">
<displayName>LONG_LOCALIDADE</displayName>
</SimpleField>
</Schema>
<Schema name="01. Cidade" id="kml_schema_ft_01._Cidade">
<SimpleField type="xsd:string" name="CD_UF">
<displayName>CD_UF</displayName>
</SimpleField>
<SimpleField type="xsd:string" name="NM_UF">
<displayName>NM_UF</displayName>
</SimpleField>
<SimpleField type="xsd:string" name="SIGLA_UF">
<displayName>SIGLA_UF</displayName>
</SimpleField>
<SimpleField type="xsd:string" name="CD_MUN">
<displayName>CD_MUN</displayName>
</SimpleField>
<SimpleField type="xsd:string" name="NM_MUN">
<displayName>NM_MUN</displayName>
</SimpleField>
<SimpleField type="xsd:string" name="CD_RGINT">
<displayName>CD_RGINT</displayName>
</SimpleField>
<SimpleField type="xsd:string" name="NM_RGINT">
<displayName>NM_RGINT</displayName>
</SimpleField>
<SimpleField type="xsd:string" name="CD_RGI">
<displayName>CD_RGI</displayName>
</SimpleField>
<SimpleField type="xsd:string" name="NM_RGI">
<displayName>NM_RGI</displayName>
</SimpleField>
<SimpleField type="xsd:string" name="CT_LOCALIDADE">
<displayName>CT_LOCALIDADE</displayName>
</SimpleField>
<SimpleField type="xsd:string" name="SCT_LOCALIDADE">
<displayName>SCT_LOCALIDADE</displayName>
</SimpleField>
<SimpleField type="xsd:string" name="CD_LOCALIDADE">
<displayName>CD_LOCALIDADE</displayName>
</SimpleField>
<SimpleField type="xsd:string" name="NM_LOCALIDADE">
<displayName>NM_LOCALIDADE</displayName>
</SimpleField>
<SimpleField type="xsd:string" name="LAT_LOCALIDADE">
<displayName>LAT_LOCALIDADE</displayName>
</SimpleField>
<SimpleField type="xsd:string" name="LONG_LOCALIDADE">
<displayName>LONG_LOCALIDADE</displayName>
</SimpleField>
</Schema>
<Schema name="Município" id="kml_schema_ft_Município">
<SimpleField type="xsd:string" name="CD_UF">
<displayName>CD_UF</displayName>
</SimpleField>
<SimpleField type="xsd:string" name="NM_UF">
<displayName>NM_UF</displayName>
</SimpleField>
<SimpleField type="xsd:string" name="CD_MUN">
<displayName>CD_MUN</displayName>
</SimpleField>
<SimpleField type="xsd:string" name="NM_MUN">
<displayName>NM_MUN</displayName>
</SimpleField>
<SimpleField type="xsd:string" name="CD_RGINT">
<displayName>CD_RGINT</displayName>
</SimpleField>
<SimpleField type="xsd:string" name="NM_RGINT">
<displayName>NM_RGINT</displayName>
</SimpleField>
<SimpleField type="xsd:string" name="CD_RGI">
<displayName>CD_RGI</displayName>
</SimpleField>
<SimpleField type="xsd:string" name="NM_RGI">
<displayName>NM_RGI</displayName>
</SimpleField>
</Schema>
<Folder id="01. Cidade">
<name>01. Cidade</name>
<Folder id="01.03. Sede Municipal">
<name>01.03. Sede Municipal</name>
<Placemark id="01.03. Sede Municipal">
<name>Braço do Trombudo [4202859]</name>
<visibility>1</visibility>
<snippet> </snippet>
<description>&lt;center&gt;&lt;table&gt;&lt;tr&gt;&lt;th colspan='2' align='center'&gt;&lt;em&gt;Atributos&lt;/em&gt;&lt;/th&gt;&lt;/tr&gt;&lt;tr bgcolor="#E3E3F3"&gt;
&lt;th&gt;CD_UF&lt;/th&gt;
&lt;td&gt;42&lt;/td&gt;
&lt;/tr&gt;&lt;tr bgcolor=""&gt;
&lt;th&gt;NM_UF&lt;/th&gt;
&lt;td&gt;Santa Catarina&lt;/td&gt;
&lt;/tr&gt;&lt;tr bgcolor="#E3E3F3"&gt;
&lt;th&gt;SIGLA_UF&lt;/th&gt;
&lt;td&gt;SC&lt;/td&gt;
&lt;/tr&gt;&lt;tr bgcolor=""&gt;
&lt;th&gt;CD_MUN&lt;/th&gt;
&lt;td&gt;4202859&lt;/td&gt;
&lt;/tr&gt;&lt;tr bgcolor="#E3E3F3"&gt;
&lt;th&gt;NM_MUN&lt;/th&gt;
&lt;td&gt;Braço do Trombudo&lt;/td&gt;
&lt;/tr&gt;&lt;tr bgcolor=""&gt;
&lt;th&gt;CD_RGINT&lt;/th&gt;
&lt;td&gt;4207&lt;/td&gt;
&lt;/tr&gt;&lt;tr bgcolor="#E3E3F3"&gt;
&lt;th&gt;NM_RGINT&lt;/th&gt;
&lt;td&gt;Blumenau&lt;/td&gt;
&lt;/tr&gt;&lt;tr bgcolor=""&gt;
&lt;th&gt;CD_RGI&lt;/th&gt;
&lt;td&gt;420022&lt;/td&gt;
&lt;/tr&gt;&lt;tr bgcolor="#E3E3F3"&gt;
&lt;th&gt;NM_RGI&lt;/th&gt;
&lt;td&gt;Rio do Sul&lt;/td&gt;
&lt;/tr&gt;&lt;tr bgcolor=""&gt;
&lt;th&gt;CT_LOCALIDADE&lt;/th&gt;
&lt;td&gt;Cidade&lt;/td&gt;
&lt;/tr&gt;&lt;tr bgcolor="#E3E3F3"&gt;
&lt;th&gt;SCT_LOCALIDADE&lt;/th&gt;
&lt;td&gt;Sede Municipal&lt;/td&gt;
&lt;/tr&gt;&lt;tr bgcolor=""&gt;
&lt;th&gt;CD_LOCALIDADE&lt;/th&gt;
&lt;td&gt;4202859&lt;/td&gt;
&lt;/tr&gt;&lt;tr bgcolor="#E3E3F3"&gt;
&lt;th&gt;NM_LOCALIDADE&lt;/th&gt;
&lt;td&gt;Braço do Trombudo&lt;/td&gt;
&lt;/tr&gt;&lt;tr bgcolor=""&gt;
&lt;th&gt;LAT_LOCALIDADE&lt;/th&gt;
&lt;td&gt;-27.3584&lt;/td&gt;
&lt;/tr&gt;&lt;tr bgcolor="#E3E3F3"&gt;
&lt;th&gt;LONG_LOCALIDADE&lt;/th&gt;
&lt;td&gt;-49.8832&lt;/td&gt;
&lt;/tr&gt;&lt;/table&gt;&lt;/center&gt;</description>
<Style>
<IconStyle>
<color>ff00aaff</color>
<scale>1.0</scale>
<Icon>
<href>http://maps.google.com/mapfiles/kml/shapes/placemark_circle.png</href>
</Icon>
</IconStyle>
<LabelStyle>
<scale>1.0</scale>
</LabelStyle>
<LineStyle>
<color>ffffffff</color>
<width>3</width>
<gx:labelVisibility>1</gx:labelVisibility>
</LineStyle>
<PolyStyle>
<color>00ffffff</color>
</PolyStyle>
</Style>
<ExtendedData>
<SchemaData schemaUrl="#kml_schema_ft_01._Cidade">
<SimpleData name="CD_UF">42</SimpleData>
<SimpleData name="NM_UF">Santa Catarina</SimpleData>
<SimpleData name="SIGLA_UF">SC</SimpleData>
<SimpleData name="CD_MUN">4202859</SimpleData>
<SimpleData name="NM_MUN">Braço do Trombudo</SimpleData>
<SimpleData name="CD_RGINT">4207</SimpleData>
<SimpleData name="NM_RGINT">Blumenau</SimpleData>
<SimpleData name="CD_RGI">420022</SimpleData>
<SimpleData name="NM_RGI">Rio do Sul</SimpleData>
<SimpleData name="CT_LOCALIDADE">Cidade</SimpleData>
<SimpleData name="SCT_LOCALIDADE">Sede Municipal</SimpleData>
<SimpleData name="CD_LOCALIDADE">4202859</SimpleData>
<SimpleData name="NM_LOCALIDADE">Braço do Trombudo</SimpleData>
<SimpleData name="LAT_LOCALIDADE">-27.3584</SimpleData>
<SimpleData name="LONG_LOCALIDADE">-49.8832</SimpleData>
</SchemaData>
</ExtendedData>
<Point>
<extrude>0</extrude>
<coordinates>-49.8832,-27.3583999992286,0.0</coordinates>
</Point>
</Placemark>
</Folder>
</Folder>
<Folder id="05. Núcleos Urbanos">
<name>05. Núcleos Urbanos</name>
<Placemark id="localidades">
<name>Serril [4202859001]</name>
<visibility>1</visibility>
<snippet> </snippet>
<description>&lt;center&gt;&lt;table&gt;&lt;tr&gt;&lt;th colspan='2' align='center'&gt;&lt;em&gt;Attributes&lt;/em&gt;&lt;/th&gt;&lt;/tr&gt;&lt;tr bgcolor="#E3E3F3"&gt;
&lt;th&gt;CD_UF&lt;/th&gt;
&lt;td&gt;42&lt;/td&gt;
&lt;/tr&gt;&lt;tr bgcolor=""&gt;
&lt;th&gt;NM_UF&lt;/th&gt;
&lt;td&gt;Santa Catarina&lt;/td&gt;
&lt;/tr&gt;&lt;tr bgcolor="#E3E3F3"&gt;
&lt;th&gt;SIGLA_UF&lt;/th&gt;
&lt;td&gt;SC&lt;/td&gt;
&lt;/tr&gt;&lt;tr bgcolor=""&gt;
&lt;th&gt;CD_MUN&lt;/th&gt;
&lt;td&gt;4202859&lt;/td&gt;
&lt;/tr&gt;&lt;tr bgcolor="#E3E3F3"&gt;
&lt;th&gt;NM_MUN&lt;/th&gt;
&lt;td&gt;Braço do Trombudo&lt;/td&gt;
&lt;/tr&gt;&lt;tr bgcolor=""&gt;
&lt;th&gt;CD_RGINT&lt;/th&gt;
&lt;td&gt;4207&lt;/td&gt;
&lt;/tr&gt;&lt;tr bgcolor="#E3E3F3"&gt;
&lt;th&gt;NM_RGINT&lt;/th&gt;
&lt;td&gt;Blumenau&lt;/td&gt;
&lt;/tr&gt;&lt;tr bgcolor=""&gt;
&lt;th&gt;CD_RGI&lt;/th&gt;
&lt;td&gt;420022&lt;/td&gt;
&lt;/tr&gt;&lt;tr bgcolor="#E3E3F3"&gt;
&lt;th&gt;NM_RGI&lt;/th&gt;
&lt;td&gt;Rio do Sul&lt;/td&gt;
&lt;/tr&gt;&lt;tr bgcolor=""&gt;
&lt;th&gt;CT_LOCALIDADE&lt;/th&gt;
&lt;td&gt;Núcleo Urbano&lt;/td&gt;
&lt;/tr&gt;&lt;tr bgcolor="#E3E3F3"&gt;
&lt;th&gt;CD_LOCALIDADE&lt;/th&gt;
&lt;td&gt;4202859001&lt;/td&gt;
&lt;/tr&gt;&lt;tr bgcolor=""&gt;
&lt;th&gt;NM_LOCALIDADE&lt;/th&gt;
&lt;td&gt;Serril&lt;/td&gt;
&lt;/tr&gt;&lt;tr bgcolor="#E3E3F3"&gt;
&lt;th&gt;LAT_LOCALIDADE&lt;/th&gt;
&lt;td&gt;-27.3837&lt;/td&gt;
&lt;/tr&gt;&lt;tr bgcolor=""&gt;
&lt;th&gt;LONG_LOCALIDADE&lt;/th&gt;
&lt;td&gt;-49.9483&lt;/td&gt;
&lt;/tr&gt;&lt;/table&gt;&lt;/center&gt;</description>
<Style>
<IconStyle>
<color>ff0000ff</color>
<scale>0.9</scale>
<Icon>
<href>http://maps.google.com/mapfiles/kml/shapes/placemark_circle.png</href>
</Icon>
</IconStyle>
<LabelStyle>
<scale>0.9</scale>
</LabelStyle>
<LineStyle>
<color>72ffffff</color>
<width>1.0</width>
<gx:labelVisibility>1</gx:labelVisibility>
</LineStyle>
<PolyStyle>
<color>66ff54ff</color>
</PolyStyle>
</Style>
<ExtendedData>
<SchemaData schemaUrl="#kml_schema_ft_Núcleos_Urbanos">
<SimpleData name="CD_UF">42</SimpleData>
<SimpleData name="NM_UF">Santa Catarina</SimpleData>
<SimpleData name="SIGLA_UF">SC</SimpleData>
<SimpleData name="CD_MUN">4202859</SimpleData>
<SimpleData name="NM_MUN">Braço do Trombudo</SimpleData>
<SimpleData name="CD_RGINT">4207</SimpleData>
<SimpleData name="NM_RGINT">Blumenau</SimpleData>
<SimpleData name="CD_RGI">420022</SimpleData>
<SimpleData name="NM_RGI">Rio do Sul</SimpleData>
<SimpleData name="CT_LOCALIDADE">Núcleo Urbano</SimpleData>
<SimpleData name="CD_LOCALIDADE">4202859001</SimpleData>
<SimpleData name="NM_LOCALIDADE">Serril</SimpleData>
<SimpleData name="LAT_LOCALIDADE">-27.3837</SimpleData>
<SimpleData name="LONG_LOCALIDADE">-49.9483</SimpleData>
</SchemaData>
</ExtendedData>
<Point>
<extrude>0</extrude>
<coordinates>-49.9483036626505,-27.3836692642883,0.0</coordinates>
</Point>
</Placemark>
</Folder>
<Folder id="13. Referência">
<name>13. Referência</name>
<Placemark id="13. Referência">
<name>Braço do Trombudo [4202859]</name>
<visibility>1</visibility>
<snippet> </snippet>
<description>&lt;center&gt;&lt;table&gt;&lt;tr&gt;&lt;th colspan='2' align='center'&gt;&lt;em&gt;Attributes&lt;/em&gt;&lt;/th&gt;&lt;/tr&gt;&lt;tr bgcolor="#E3E3F3"&gt;
&lt;th&gt;CD_UF&lt;/th&gt;
&lt;td&gt;42&lt;/td&gt;
&lt;/tr&gt;&lt;tr bgcolor=""&gt;
&lt;th&gt;NM_UF&lt;/th&gt;
&lt;td&gt;Santa Catarina&lt;/td&gt;
&lt;/tr&gt;&lt;tr bgcolor="#E3E3F3"&gt;
&lt;th&gt;CD_MUN&lt;/th&gt;
&lt;td&gt;4202859&lt;/td&gt;
&lt;/tr&gt;&lt;tr bgcolor=""&gt;
&lt;th&gt;NM_MUN&lt;/th&gt;
&lt;td&gt;Braço do Trombudo&lt;/td&gt;
&lt;/tr&gt;&lt;tr bgcolor="#E3E3F3"&gt;
&lt;th&gt;CD_RGINT&lt;/th&gt;
&lt;td&gt;4207&lt;/td&gt;
&lt;/tr&gt;&lt;tr bgcolor=""&gt;
&lt;th&gt;NM_RGINT&lt;/th&gt;
&lt;td&gt;Blumenau&lt;/td&gt;
&lt;/tr&gt;&lt;tr bgcolor="#E3E3F3"&gt;
&lt;th&gt;CD_RGI&lt;/th&gt;
&lt;td&gt;420022&lt;/td&gt;
&lt;/tr&gt;&lt;tr bgcolor=""&gt;
&lt;th&gt;NM_RGI&lt;/th&gt;
&lt;td&gt;Rio do Sul&lt;/td&gt;
&lt;/tr&gt;&lt;/table&gt;&lt;/center&gt;</description>
<Style>
<IconStyle>
<scale>0.7</scale>
</IconStyle>
<LabelStyle>
<scale>0.7</scale>
</LabelStyle>
<LineStyle>
<color>ffffffff</color>
<width>3</width>
<gx:labelVisibility>1</gx:labelVisibility>
</LineStyle>
<PolyStyle>
<color>00ffffff</color>
</PolyStyle>
</Style>
<ExtendedData>
<SchemaData schemaUrl="#kml_schema_ft_Município">
<SimpleData name="CD_UF">42</SimpleData>
<SimpleData name="NM_UF">Santa Catarina</SimpleData>
<SimpleData name="CD_MUN">4202859</SimpleData>
<SimpleData name="NM_MUN">Braço do Trombudo</SimpleData>
<SimpleData name="CD_RGINT">4207</SimpleData>
<SimpleData name="NM_RGINT">Blumenau</SimpleData>
<SimpleData name="CD_RGI">420022</SimpleData>
<SimpleData name="NM_RGI">Rio do Sul</SimpleData>
</SchemaData>
</ExtendedData>
<MultiGeometry>
<Polygon>
<extrude>0</extrude>
<tessellate>1</tessellate>
<outerBoundaryIs>
<LinearRing>
<coordinates>-49.9179742,-27.4325328992272,0.0 -49.9180927,-27.4325657992272,0.0 -49.9182027,-27.4326617992272,0.0 -49.9183035,-27.4327152992272,0.0 -49.9184563,-27.4324374992272,0.0 -49.9185119,-27.4323448992272,0.0 -49.9187376,-27.4322076992272,0.0 -49.9188842,-27.4320481992272,0.0 -49.9189662,-27.4318838992272,0.0 -49.9190119,-27.4316041992272,0.0 -49.9189748,-27.4313263992272,0.0 -49.918869,-27.4310485992272,0.0 -49.9187896,-27.4308634992272,0.0 -49.9187683,-27.4307708992272,0.0 -49.9186353,-27.4304930992272,0.0 -49.9185119,-27.4302708992272,0.0 -49.9184656,-27.4302152992272,0.0 -49.9183325,-27.4297900992272,0.0 -49.9180318,-27.4294130992272,0.0 -49.9179417,-27.4291025992272,0.0 -49.9180348,-27.4289411992272,0.0 -49.9183227,-27.4285474992273,0.0 -49.9182649,-27.4283757992273,0.0 -49.9176616,-27.4279884992273,0.0 -49.9176085,-27.4278169992273,0.0 -49.9176945,-27.4274571992273,0.0 -49.9173998,-27.4272677992273,0.0 -49.9174007,-27.4272522992273,0.0 -49.9173845,-27.4272306992273,0.0 -49.9173313,-27.4271597992273,0.0 -49.917123,-27.4269513992273,0.0 -49.9170674,-27.4268819992273,0.0 -49.9170732,-27.4266439992273,0.0 -49.9171975,-27.4265294992273,0.0 -49.9175362,-27.4263177992273,0.0 -49.917798,-27.4261854992273,0.0 -49.9184545,-27.4258727992273,0.0 -49.9188357,-27.4256857992273,0.0 -49.9191837,-27.4254369992273,0.0 -49.9194608,-27.4252392992273,0.0 -49.9195556,-27.4250283992273,0.0 -49.9196473,-27.4248249992273,0.0 -49.9194822,-27.4247274992273,0.0 -49.9193292,-27.4245336992273,0.0 -49.9194105,-27.4243047992273,0.0 -49.9195801,-27.4240938992273,0.0 -49.9196322,-27.4238844992273,0.0 -49.9196496,-27.4236481992273,0.0 -49.9196924,-27.4233317992274,0.0 -49.9199413,-27.4233138992274,0.0 -49.9202367,-27.4233298992274,0.0 -49.9205277,-27.4234608992273,0.0 -49.9206827,-27.4235624992273,0.0 -49.9210119,-27.4237029992273,0.0 -49.9211706,-27.4238263992273,0.0 -49.9214747,-27.4239239992273,0.0 -49.9217099,-27.4240596992273,0.0 -49.9218934,-27.4242126992273,0.0 -49.922123,-27.4243510992273,0.0 -49.9224007,-27.4243816992273,0.0 -49.9224021,-27.4243819992273,0.0 -49.9226636,-27.4243803992273,0.0 -49.9231451,-27.4244456992273,0.0 -49.9233565,-27.4244921992273,0.0 -49.9235119,-27.4245839992273,0.0 -49.9237896,-27.4245763992273,0.0 -49.9240674,-27.4245362992273,0.0 -49.9243452,-27.4245053992273,0.0 -49.924623,-27.4244513992273,0.0 -49.9248082,-27.4243819992273,0.0 -49.9249007,-27.4243356992273,0.0 -49.9251782,-27.4241039992273,0.0 -49.9254563,-27.4239652992273,0.0 -49.9256415,-27.4238263992273,0.0 -49.9256983,-27.4235178992273,0.0 -49.9256982,-27.4232496992274,0.0 -49.9256871,-27.4230274992273,0.0 -49.925692,-27.4228343992274,0.0 -49.9256471,-27.4225547992274,0.0 -49.925526,-27.4223270992274,0.0 -49.9251773,-27.4221898992274,0.0 -49.924861,-27.4220833992274,0.0 -49.924623,-27.4220142992274,0.0 -49.9244774,-27.4219833992274,0.0 -49.9243022,-27.4219004992274,0.0 -49.9242933,-27.4218952992274,0.0 -49.9240391,-27.4218000992274,0.0 -49.9238762,-27.4216559992274,0.0 -49.9237896,-27.4215671992274,0.0 -49.9235489,-27.4213263992274,0.0 -49.9235119,-27.4212893992274,0.0 -49.9233112,-27.4210485992274,0.0 -49.9232341,-27.4209493992274,0.0 -49.9231204,-27.4207708992274,0.0 -49.9229562,-27.4204931992274,0.0 -49.9229034,-27.4202152992274,0.0 -49.9229563,-27.4199930992274,0.0 -49.9229795,-27.4199374992274,0.0 -49.9232341,-27.4197024992274,0.0 -49.923373,-27.4196597992274,0.0 -49.9235119,-27.4196374992274,0.0 -49.9237896,-27.4196263992274,0.0 -49.9240674,-27.4194414992274,0.0 -49.9241164,-27.4193819992274,0.0 -49.9242372,-27.4191041992274,0.0 -49.9243452,-27.4188880992274,0.0 -49.9244007,-27.4188263992274,0.0 -49.9244967,-27.4185485992274,0.0 -49.9244092,-27.4182708992274,0.0 -49.9243452,-27.4180624992274,0.0 -49.9243306,-27.4179930992274,0.0 -49.9242798,-27.4177152992275,0.0 -49.9243105,-27.4174374992275,0.0 -49.9243452,-27.4173819992275,0.0 -49.924623,-27.4172102992275,0.0 -49.9247156,-27.4171597992275,0.0 -49.9249007,-27.4170742992275,0.0 -49.9251785,-27.4169071992275,0.0 -49.9252341,-27.4168819992275,0.0 -49.9254563,-27.4167708992275,0.0 -49.9257341,-27.4168472992275,0.0 -49.9257572,-27.4168819992275,0.0 -49.9257572,-27.4171597992275,0.0 -49.9257341,-27.4172152992275,0.0 -49.9256106,-27.4174374992275,0.0 -49.9254564,-27.4177156992275,0.0 -49.9253174,-27.4179930992274,0.0 -49.9252711,-27.4182708992274,0.0 -49.9252433,-27.4185141992274,0.0 -49.9253469,-27.4188538992274,0.0 -49.9256401,-27.4190028992274,0.0 -49.925899,-27.4190429992274,0.0 -49.9260997,-27.4191418992274,0.0 -49.9264308,-27.4192635992274,0.0 -49.9267347,-27.4193448992274,0.0 -49.9271226,-27.4193081992274,0.0 -49.9273553,-27.4191637992274,0.0 -49.9275203,-27.4189315992274,0.0 -49.9274585,-27.4186720992274,0.0 -49.9276381,-27.4184117992274,0.0 -49.9278902,-27.4181751992275,0.0 -49.9281027,-27.4178365992275,0.0 -49.9282024,-27.4175259992275,0.0 -49.9282539,-27.4172120992275,0.0 -49.9283484,-27.4168971992275,0.0 -49.9284588,-27.4166274992275,0.0 -49.9287178,-27.4165043992275,0.0 -49.9290182,-27.4163892992275,0.0 -49.9292094,-27.4164367992275,0.0 -49.9294776,-27.4164226992275,0.0 -49.9297027,-27.4164005992275,0.0 -49.9299007,-27.4161720992275,0.0 -49.9300595,-27.4160485992275,0.0 -49.9301785,-27.4159444992275,0.0 -49.93041,-27.4157708992275,0.0 -49.9304563,-27.4157152992275,0.0 -49.9306785,-27.4154930992275,0.0 -49.9307341,-27.4154235992275,0.0 -49.9308994,-27.4154200992275,0.0 -49.9309889,-27.4156798992275,0.0 -49.93099,-27.4156992992275,0.0 -49.9309351,-27.4161269992275,0.0 -49.9308232,-27.4163888992275,0.0 -49.9304782,-27.4166652992275,0.0 -49.930186,-27.4168036992275,0.0 -49.9299603,-27.4168819992275,0.0 -49.9297139,-27.4170542992275,0.0 -49.9294188,-27.4171827992275,0.0 -49.9290637,-27.4174430992275,0.0 -49.9288155,-27.4177124992275,0.0 -49.9286886,-27.4180821992274,0.0 -49.9286236,-27.4185480992274,0.0 -49.9286499,-27.4189427992274,0.0 -49.9285462,-27.4193126992274,0.0 -49.9285524,-27.4196054992274,0.0 -49.9285571,-27.4196495992274,0.0 -49.9286237,-27.4198281992274,0.0 -49.928813,-27.4201665992274,0.0 -49.9291437,-27.4204121992274,0.0 -49.9295652,-27.4205209992274,0.0 -49.9303588,-27.4206830992274,0.0 -49.9308638,-27.4205970992274,0.0 -49.9312088,-27.4205430992274,0.0 -49.9315863,-27.4204764992274,0.0 -49.9319536,-27.4204589992274,0.0 -49.9323015,-27.4204815992274,0.0 -49.9327163,-27.4205556992274,0.0 -49.933222,-27.4205130992274,0.0 -49.9337175,-27.4203844992274,0.0 -49.9342315,-27.4203417992274,0.0 -49.9347231,-27.4203029992274,0.0 -49.9354875,-27.4205221992274,0.0 -49.9357408,-27.4207810992274,0.0 -49.9360372,-27.4211118992274,0.0 -49.9360972,-27.4214428992274,0.0 -49.936034,-27.4215444992274,0.0 -49.9359539,-27.4216497992274,0.0 -49.9356246,-27.4219648992274,0.0 -49.9353693,-27.4221476992274,0.0 -49.9352076,-27.4224852992274,0.0 -49.9352879,-27.4228078992274,0.0 -49.9354489,-27.4231235992274,0.0 -49.935863,-27.4234939992274,0.0 -49.9361554,-27.4237203992273,0.0 -49.9368122,-27.4237993992273,0.0 -49.9370289,-27.4237770992273,0.0 -49.9373347,-27.4239122992273,0.0 -49.9375687,-27.4240921992273,0.0 -49.9378407,-27.4243165992273,0.0 -49.9384282,-27.4243492992273,0.0 -49.9388966,-27.4242977992273,0.0 -49.9394736,-27.4241396992273,0.0 -49.9400476,-27.4240725992273,0.0 -49.940588,-27.4240388992273,0.0 -49.9410129,-27.4241593992273,0.0 -49.9413561,-27.4242449992273,0.0 -49.9415459,-27.4243960992273,0.0 -49.9417183,-27.4246875992273,0.0 -49.94191,-27.4249105992273,0.0 -49.9421372,-27.4250509992273,0.0 -49.9423796,-27.4251199992273,0.0 -49.9426273,-27.4250724992273,0.0 -49.9428587,-27.4248991992273,0.0 -49.9430205,-27.4246551992273,0.0 -49.9432018,-27.4244602992273,0.0 -49.9433959,-27.4243581992273,0.0 -49.9436361,-27.4243350992273,0.0 -49.9437896,-27.4243380992273,0.0 -49.9439563,-27.4243819992273,0.0 -49.9440674,-27.4244436992273,0.0 -49.9443452,-27.4245763992273,0.0 -49.944623,-27.4245803992273,0.0 -49.9449024,-27.4245955992273,0.0 -49.9452178,-27.4245364992273,0.0 -49.9455337,-27.4242777992273,0.0 -49.9457691,-27.4239769992273,0.0 -49.9459585,-27.4238071992273,0.0 -49.9460896,-27.4236252992273,0.0 -49.9461393,-27.4235110992274,0.0 -49.9462088,-27.4232847992274,0.0 -49.946232,-27.4231271992274,0.0 -49.9462361,-27.4229716992274,0.0 -49.9460977,-27.4227242992274,0.0 -49.9460114,-27.4226249992274,0.0 -49.9459201,-27.4225199992274,0.0 -49.9457991,-27.4223503992274,0.0 -49.9456582,-27.4222354992274,0.0 -49.945566,-27.4221601992274,0.0 -49.9454654,-27.4221377992274,0.0 -49.9452969,-27.4221003992274,0.0 -49.9450086,-27.4221119992274,0.0 -49.9447113,-27.4221351992274,0.0 -49.9443378,-27.4219754992274,0.0 -49.943975,-27.4217210992274,0.0 -49.9438992,-27.4216330992274,0.0 -49.9437115,-27.4214155992274,0.0 -49.9435388,-27.4211747992274,0.0 -49.9433606,-27.4210741992274,0.0 -49.9432892,-27.4210337992274,0.0 -49.9428801,-27.4209003992274,0.0 -49.9425894,-27.4207017992274,0.0 -49.9423082,-27.4204930992274,0.0 -49.942123,-27.4203415992274,0.0 -49.9420238,-27.4202152992274,0.0 -49.9418451,-27.4199376992274,0.0 -49.9417384,-27.4196597992274,0.0 -49.9417261,-27.4193819992274,0.0 -49.941768,-27.4191041992274,0.0 -49.9417721,-27.4188263992274,0.0 -49.9417896,-27.4185485992274,0.0 -49.9418172,-27.4182088992274,0.0 -49.9418057,-27.4179441992275,0.0 -49.941622,-27.4176179992275,0.0 -49.9411295,-27.4171725992275,0.0 -49.9411037,-27.4169541992275,0.0 -49.9413163,-27.4167983992275,0.0 -49.941738,-27.4169620992275,0.0 -49.9421043,-27.4170350992275,0.0 -49.9424915,-27.4169495992275,0.0 -49.942916,-27.4166663992275,0.0 -49.9432233,-27.4165432992275,0.0 -49.943586,-27.4164344992275,0.0 -49.9438854,-27.4165788992275,0.0 -49.9441522,-27.4168577992275,0.0 -49.9445239,-27.4172063992275,0.0 -49.9449871,-27.4174449992275,0.0 -49.9454824,-27.4174759992275,0.0 -49.9458551,-27.4175900992275,0.0 -49.9464312,-27.4176997992275,0.0 -49.9470013,-27.4177149992275,0.0 -49.9473909,-27.4177081992275,0.0 -49.9480155,-27.4177288992275,0.0 -49.9485416,-27.4176071992275,0.0 -49.9493124,-27.4174743992275,0.0 -49.9498149,-27.4174274992275,0.0 -49.9502157,-27.4172821992275,0.0 -49.9506906,-27.4169818992275,0.0 -49.9510508,-27.4168304992275,0.0 -49.9513167,-27.4165717992275,0.0 -49.951414,-27.4161099992275,0.0 -49.9513106,-27.4155229992275,0.0 -49.9512401,-27.4151298992275,0.0 -49.9510634,-27.4148530992275,0.0 -49.9507905,-27.4147944992275,0.0 -49.9505456,-27.4148175992275,0.0 -49.9501063,-27.4146065992275,0.0 -49.9495884,-27.4141756992275,0.0 -49.9490574,-27.4136452992275,0.0 -49.9487758,-27.4131852992275,0.0 -49.9486848,-27.4128264992275,0.0 -49.9486193,-27.4124609992276,0.0 -49.9482184,-27.4119213992276,0.0 -49.9478152,-27.4117654992276,0.0 -49.9477468,-27.4116234992276,0.0 -49.9478961,-27.4112303992276,0.0 -49.9479525,-27.4106292992276,0.0 -49.9477973,-27.4101199992276,0.0 -49.9476273,-27.4096149992276,0.0 -49.9472544,-27.4091962992276,0.0 -49.9469121,-27.4089502992276,0.0 -49.9465315,-27.4087119992276,0.0 -49.9462842,-27.4086076992276,0.0 -49.9461521,-27.4082907992276,0.0 -49.9461206,-27.4079230992276,0.0 -49.9462571,-27.4074862992276,0.0 -49.9462886,-27.4070929992277,0.0 -49.9462564,-27.4070038992277,0.0 -49.946067,-27.4064785992277,0.0 -49.9461993,-27.4062906992277,0.0 -49.9464089,-27.4061168992277,0.0 -49.9470331,-27.4067224992277,0.0 -49.9472124,-27.4072193992277,0.0 -49.9472775,-27.4078289992276,0.0 -49.9473498,-27.4081280992276,0.0 -49.9477581,-27.4084309992276,0.0 -49.9479623,-27.4086490992276,0.0 -49.9481266,-27.4088247992276,0.0 -49.9482546,-27.4092714992276,0.0 -49.9485641,-27.4098927992276,0.0 -49.9488046,-27.4104047992276,0.0 -49.9492688,-27.4107393992276,0.0 -49.9494002,-27.4107631992276,0.0 -49.9497822,-27.4108310992276,0.0 -49.9503195,-27.4106388992276,0.0 -49.9508443,-27.4101067992276,0.0 -49.9511248,-27.4097725992276,0.0 -49.9513375,-27.4091982992276,0.0 -49.9514602,-27.4088221992276,0.0 -49.9514257,-27.4084095992276,0.0 -49.9513845,-27.4081597992276,0.0 -49.9515325,-27.4077370992276,0.0 -49.9518185,-27.4074450992276,0.0 -49.9521614,-27.4072214992277,0.0 -49.9524696,-27.4071304992277,0.0 -49.9527656,-27.4069708992277,0.0 -49.9529709,-27.4066430992277,0.0 -49.9531193,-27.4062937992277,0.0 -49.9532825,-27.4062070992277,0.0 -49.9536006,-27.4061911992277,0.0 -49.9540457,-27.4061487992277,0.0 -49.9545722,-27.4059925992277,0.0 -49.9548296,-27.4057492992277,0.0 -49.9548383,-27.4054812992277,0.0 -49.9548335,-27.4053029992277,0.0 -49.9547952,-27.4050994992277,0.0 -49.9546293,-27.4047834992277,0.0 -49.954433,-27.4045290992277,0.0 -49.9544584,-27.4044065992277,0.0 -49.9544687,-27.4043881992277,0.0 -49.9545789,-27.4041912992277,0.0 -49.9547729,-27.4041352992277,0.0 -49.9551785,-27.4040694992277,0.0 -49.9554273,-27.4042234992277,0.0 -49.9557217,-27.4044141992277,0.0 -49.9560552,-27.4042570992277,0.0 -49.9560913,-27.4039631992277,0.0 -49.9561772,-27.4035307992277,0.0 -49.9561531,-27.4032429992277,0.0 -49.9563018,-27.4025359992277,0.0 -49.9566951,-27.4017211992278,0.0 -49.9566287,-27.4015785992278,0.0 -49.956484,-27.4013281992278,0.0 -49.9563473,-27.4011392992278,0.0 -49.9561565,-27.4006619992278,0.0 -49.9560946,-27.4003643992278,0.0 -49.9560024,-27.4000939992278,0.0 -49.9556977,-27.3994530992278,0.0 -49.955597,-27.3991625992278,0.0 -49.9554973,-27.3990423992278,0.0 -49.9553085,-27.3988737992278,0.0 -49.9551918,-27.3987596992278,0.0 -49.9549861,-27.3985811992278,0.0 -49.9549254,-27.3985421992278,0.0 -49.9548606,-27.3985251992278,0.0 -49.9544449,-27.3984278992278,0.0 -49.9543361,-27.3983845992278,0.0 -49.954221,-27.3983074992278,0.0 -49.9541761,-27.3981964992278,0.0 -49.9541521,-27.3980889992278,0.0 -49.9541317,-27.3977368992278,0.0 -49.9540745,-27.3975477992278,0.0 -49.9540655,-27.3973047992278,0.0 -49.9543069,-27.3964708992279,0.0 -49.9543262,-27.3963417992279,0.0 -49.9543126,-27.3961897992279,0.0 -49.9542685,-27.3960377992279,0.0 -49.9541948,-27.3959246992279,0.0 -49.9540615,-27.3958084992279,0.0 -49.9539165,-27.3955878992279,0.0 -49.953868,-27.3954345992279,0.0 -49.9538147,-27.3951265992279,0.0 -49.9538046,-27.3947669992279,0.0 -49.9538046,-27.3946848992279,0.0 -49.9538043,-27.3943480992279,0.0 -49.9539306,-27.3941132992279,0.0 -49.9540013,-27.3939817992279,0.0 -49.9540867,-27.3938201992279,0.0 -49.9541124,-27.3936993992279,0.0 -49.9541215,-27.3935765992279,0.0 -49.9541169,-27.3934548992279,0.0 -49.9540861,-27.3932707992279,0.0 -49.9540303,-27.3930723992279,0.0 -49.9539925,-27.3929287992279,0.0 -49.9539131,-27.3927441992279,0.0 -49.9538111,-27.3926005992279,0.0 -49.9536902,-27.3924173992279,0.0 -49.9535409,-27.3922554992279,0.0 -49.9533922,-27.3921494992279,0.0 -49.9532365,-27.3920664992279,0.0 -49.9528543,-27.3919398992279,0.0 -49.9521268,-27.3917764992279,0.0 -49.9518592,-27.3917412992279,0.0 -49.9516354,-27.391661799228,0.0 -49.9515093,-27.391578399228,0.0 -49.9513886,-27.391410699228,0.0 -49.9513003,-27.391272799228,0.0 -49.9512026,-27.391179999228,0.0 -49.9511376,-27.391153799228,0.0 -49.9510582,-27.391174299228,0.0 -49.9508336,-27.391284999228,0.0 -49.9505241,-27.391327499228,0.0 -49.9496809,-27.391224399228,0.0 -49.9489679,-27.390983899228,0.0 -49.9488736,-27.390831099228,0.0 -49.9488303,-27.390642499228,0.0 -49.9488851,-27.390368499228,0.0 -49.9489896,-27.390187299228,0.0 -49.9491173,-27.389917499228,0.0 -49.9495135,-27.389112399228,0.0 -49.9497282,-27.388434899228,0.0 -49.9500079,-27.387572699228,0.0 -49.9502054,-27.386951399228,0.0 -49.9503515,-27.386510699228,0.0 -49.9503634,-27.3864748992281,0.0 -49.9505502,-27.3859118992281,0.0 -49.9506083,-27.3853915992281,0.0 -49.9505955,-27.3848842992281,0.0 -49.9506693,-27.3844548992281,0.0 -49.9508661,-27.3840199992281,0.0 -49.9514258,-27.3831592992281,0.0 -49.9515699,-27.3827926992281,0.0 -49.9517206,-27.3823851992281,0.0 -49.9517907,-27.3819089992281,0.0 -49.951717,-27.3817492992281,0.0 -49.9515772,-27.3816365992281,0.0 -49.9511736,-27.3815242992281,0.0 -49.950706,-27.3815049992281,0.0 -49.9483781,-27.3817652992281,0.0 -49.9480378,-27.3817464992281,0.0 -49.9477236,-27.3816662992281,0.0 -49.9472396,-27.3815010992281,0.0 -49.946511,-27.3810802992281,0.0 -49.9464282,-27.3810601992281,0.0 -49.9463328,-27.3810668992282,0.0 -49.9461154,-27.3811621992281,0.0 -49.9452624,-27.3816452992281,0.0 -49.9449055,-27.3817140992281,0.0 -49.9445276,-27.3816999992281,0.0 -49.9440617,-27.3815723992281,0.0 -49.9435461,-27.3813853992281,0.0 -49.943351,-27.3812490992281,0.0 -49.9432131,-27.3810474992282,0.0 -49.9429119,-27.3804792992282,0.0 -49.9423575,-27.3798579992282,0.0 -49.9419421,-27.3795567992282,0.0 -49.9415704,-27.3793363992282,0.0 -49.9412642,-27.3791555992282,0.0 -49.9409866,-27.3790717992282,0.0 -49.9403938,-27.3789521992282,0.0 -49.9398868,-27.3787799992282,0.0 -49.9394973,-27.3785782992282,0.0 -49.9389853,-27.3783262992282,0.0 -49.9371554,-27.3776900992282,0.0 -49.9351164,-27.3767249992282,0.0 -49.9349041,-27.3766341992282,0.0 -49.9343214,-27.3764610992282,0.0 -49.93406,-27.3762701992282,0.0 -49.9338609,-27.3760057992282,0.0 -49.9337295,-27.3756506992283,0.0 -49.9336086,-27.3752207992283,0.0 -49.9335269,-27.3749685992283,0.0 -49.9333703,-27.3747962992283,0.0 -49.9331385,-27.3746073992283,0.0 -49.9329377,-27.3745072992283,0.0 -49.9328403,-27.3744283992283,0.0 -49.9327621,-27.3742755992283,0.0 -49.9327163,-27.3740957992283,0.0 -49.9325521,-27.3737079992283,0.0 -49.9323993,-27.3733263992283,0.0 -49.9323227,-27.3730109992283,0.0 -49.9323566,-27.3726813992283,0.0 -49.9324271,-27.3723769992283,0.0 -49.9325625,-27.3719124992283,0.0 -49.9325785,-27.3716094992283,0.0 -49.932382,-27.3707099992283,0.0 -49.9322527,-27.3704757992284,0.0 -49.9320634,-27.3703090992284,0.0 -49.9316009,-27.3700966992284,0.0 -49.930574,-27.3698036992284,0.0 -49.9299223,-27.3695239992284,0.0 -49.9297487,-27.3693931992284,0.0 -49.9288537,-27.3687135992284,0.0 -49.928479,-27.3685844992284,0.0 -49.9278637,-27.3681815992284,0.0 -49.927679,-27.3679769992284,0.0 -49.9276208,-27.3676393992284,0.0 -49.9280392,-27.3666803992284,0.0 -49.9286547,-27.3656674992284,0.0 -49.9291657,-27.3650209992285,0.0 -49.9295088,-27.3648294992285,0.0 -49.9299056,-27.3647193992285,0.0 -49.9308119,-27.3645405992285,0.0 -49.9314111,-27.3643937992285,0.0 -49.9327816,-27.3639437992285,0.0 -49.933268,-27.3636134992285,0.0 -49.9337587,-27.3629924992285,0.0 -49.9341683,-27.3624688992285,0.0 -49.9345304,-27.3619933992285,0.0 -49.9347015,-27.3614298992285,0.0 -49.9349337,-27.3607729992285,0.0 -49.9353983,-27.3598561992285,0.0 -49.9355818,-27.3592379992286,0.0 -49.9356116,-27.3583872992286,0.0 -49.9356841,-27.3575955992286,0.0 -49.9357851,-27.3571278992286,0.0 -49.9359176,-27.3566387992286,0.0 -49.9359109,-27.3560993992286,0.0 -49.9358433,-27.3558009992286,0.0 -49.9356805,-27.3555433992286,0.0 -49.9354888,-27.3553689992286,0.0 -49.9352715,-27.3552832992286,0.0 -49.9350711,-27.3552905992286,0.0 -49.9349171,-27.3553543992286,0.0 -49.9347595,-27.3554687992286,0.0 -49.9345517,-27.3555494992286,0.0 -49.9342458,-27.3555741992286,0.0 -49.9339604,-27.3555631992286,0.0 -49.9336557,-27.3555063992286,0.0 -49.9325529,-27.3553318992286,0.0 -49.9322795,-27.3551507992286,0.0 -49.9320498,-27.3548499992286,0.0 -49.9318338,-27.3544494992287,0.0 -49.9313502,-27.3532506992287,0.0 -49.9313136,-27.3529705992287,0.0 -49.931342,-27.3528039992287,0.0 -49.9315095,-27.3525869992287,0.0 -49.9316904,-27.3524763992287,0.0 -49.9319742,-27.3523387992287,0.0 -49.9322932,-27.3522662992287,0.0 -49.9326967,-27.3522084992287,0.0 -49.9331242,-27.3522592992287,0.0 -49.9339151,-27.3523819992287,0.0 -49.9346244,-27.3523515992287,0.0 -49.9353572,-27.3521275992287,0.0 -49.935889,-27.3519264992287,0.0 -49.9364279,-27.3517187992287,0.0 -49.9369764,-27.3515894992287,0.0 -49.937342,-27.3515181992287,0.0 -49.9378331,-27.3513536992287,0.0 -49.9381068,-27.3510130992287,0.0 -49.9382693,-27.3506084992287,0.0 -49.9383686,-27.3502636992287,0.0 -49.9384196,-27.3500218992287,0.0 -49.9384691,-27.3498731992287,0.0 -49.9385357,-27.3497244992287,0.0 -49.9387491,-27.3495053992288,0.0 -49.9389565,-27.3491669992288,0.0 -49.9392402,-27.3485107992288,0.0 -49.9396779,-27.3477922992288,0.0 -49.9399929,-27.3473255992288,0.0 -49.9401867,-27.3470141992288,0.0 -49.9403082,-27.3466418992288,0.0 -49.9404137,-27.3462796992288,0.0 -49.940435,-27.3459753992288,0.0 -49.94052,-27.3453675992288,0.0 -49.9405015,-27.3448972992288,0.0 -49.9404233,-27.3445909992288,0.0 -49.9401733,-27.3439539992288,0.0 -49.9400537,-27.3437560992289,0.0 -49.9398977,-27.3434981992289,0.0 -49.9398208,-27.3433242992289,0.0 -49.9398083,-27.3431185992289,0.0 -49.9399809,-27.3426562992289,0.0 -49.9401235,-27.3420413992289,0.0 -49.9401602,-27.3417972992289,0.0 -49.9401616,-27.3414736992289,0.0 -49.9402263,-27.3412434992289,0.0 -49.9403823,-27.3409301992289,0.0 -49.940619,-27.3406274992289,0.0 -49.9408085,-27.3404235992289,0.0 -49.9412128,-27.3401592992289,0.0 -49.9414136,-27.3399313992289,0.0 -49.9415259,-27.3397017992289,0.0 -49.9415854,-27.3394542992289,0.0 -49.9416075,-27.3390750992289,0.0 -49.9415517,-27.3387564992289,0.0 -49.9414451,-27.338514099229,0.0 -49.9413242,-27.338107799229,0.0 -49.9412429,-27.337552599229,0.0 -49.9409631,-27.336805199229,0.0 -49.9407332,-27.336459899229,0.0 -49.9403331,-27.335975799229,0.0 -49.9397777,-27.335539599229,0.0 -49.9395411,-27.335425099229,0.0 -49.9388093,-27.335184899229,0.0 -49.9385534,-27.335050099229,0.0 -49.9379117,-27.334545499229,0.0 -49.9375334,-27.334150199229,0.0 -49.9371955,-27.3337424992291,0.0 -49.9370996,-27.3334806992291,0.0 -49.9370685,-27.3332451992291,0.0 -49.9370942,-27.3329689992291,0.0 -49.9371611,-27.3327178992291,0.0 -49.9373547,-27.3322728992291,0.0 -49.9375074,-27.3318464992291,0.0 -49.9375083,-27.3316406992291,0.0 -49.9374123,-27.3314549992291,0.0 -49.9372096,-27.3311979992291,0.0 -49.9368424,-27.3309466992291,0.0 -49.9360391,-27.3306079992291,0.0 -49.9335788,-27.3289300992291,0.0 -49.9330555,-27.3284300992291,0.0 -49.9326019,-27.3279191992292,0.0 -49.9321552,-27.3273246992292,0.0 -49.9317939,-27.3265426992292,0.0 -49.9315813,-27.3258900992292,0.0 -49.9315121,-27.3253926992292,0.0 -49.9315983,-27.3245188992292,0.0 -49.9314555,-27.3241379992292,0.0 -49.9312386,-27.3238046992292,0.0 -49.9306851,-27.3232685992292,0.0 -49.9304669,-27.3230162992293,0.0 -49.9302903,-27.3228181992293,0.0 -49.9300324,-27.3225774992293,0.0 -49.9299009,-27.3225041992293,0.0 -49.9297615,-27.3224684992293,0.0 -49.9296202,-27.3225161992293,0.0 -49.9294942,-27.3226628992293,0.0 -49.9294085,-27.3228341992292,0.0 -49.9292966,-27.3230899992292,0.0 -49.9290111,-27.3234115992292,0.0 -49.9286807,-27.3236108992292,0.0 -49.9282621,-27.3236940992292,0.0 -49.927637,-27.3237704992292,0.0 -49.9268996,-27.3237582992292,0.0 -49.9256944,-27.3237710992292,0.0 -49.9250501,-27.3237045992292,0.0 -49.9246642,-27.3235901992292,0.0 -49.9238741,-27.3232914992292,0.0 -49.9231328,-27.3228839992293,0.0 -49.9227091,-27.3226996992293,0.0 -49.9221902,-27.3226014992293,0.0 -49.9216611,-27.3225103992293,0.0 -49.9211115,-27.3224432992293,0.0 -49.9205044,-27.3222949992293,0.0 -49.9201443,-27.3221399992293,0.0 -49.9197985,-27.3219372992293,0.0 -49.9194618,-27.3218438992293,0.0 -49.9186378,-27.3215662992293,0.0 -49.9157704,-27.3202876992293,0.0 -49.9153339,-27.3201136992293,0.0 -49.9150238,-27.3200331992293,0.0 -49.9146383,-27.3199766992293,0.0 -49.9137332,-27.3197791992293,0.0 -49.9130475,-27.3195339992293,0.0 -49.9126677,-27.3193372992293,0.0 -49.911941,-27.3189240992293,0.0 -49.9115418,-27.3186142992293,0.0 -49.9113174,-27.3183916992293,0.0 -49.9111082,-27.3181162992293,0.0 -49.910964,-27.3179387992293,0.0 -49.9104227,-27.3175129992294,0.0 -49.9099626,-27.3169585992294,0.0 -49.909664,-27.3164481992294,0.0 -49.9094455,-27.3158603992294,0.0 -49.90926,-27.3152720992294,0.0 -49.9091689,-27.3150114992294,0.0 -49.9089155,-27.3145575992294,0.0 -49.908676,-27.3143214992294,0.0 -49.9084324,-27.3141981992294,0.0 -49.9080621,-27.3141251992294,0.0 -49.9071363,-27.3139885992294,0.0 -49.9069398,-27.3139009992294,0.0 -49.9067388,-27.3137425992294,0.0 -49.9065074,-27.3133216992294,0.0 -49.9063794,-27.3129917992294,0.0 -49.9061297,-27.3126934992294,0.0 -49.9058813,-27.3125467992294,0.0 -49.9052994,-27.3125215992295,0.0 -49.9046655,-27.3125226992294,0.0 -49.9043086,-27.3124433992295,0.0 -49.9037214,-27.3122909992295,0.0 -49.9031799,-27.3121510992295,0.0 -49.9029696,-27.3120252992295,0.0 -49.9027996,-27.3118172992295,0.0 -49.902552,-27.3114775992295,0.0 -49.9023618,-27.3113133992295,0.0 -49.9018249,-27.3110532992295,0.0 -49.901262,-27.3108521992295,0.0 -49.9007901,-27.3106363992295,0.0 -49.9003278,-27.3103304992295,0.0 -49.9000828,-27.3101862992295,0.0 -49.8997465,-27.3100291992295,0.0 -49.8990442,-27.3098098992295,0.0 -49.8987581,-27.3096866992295,0.0 -49.898452,-27.3094704992295,0.0 -49.8982803,-27.3092792992295,0.0 -49.8981398,-27.3089930992295,0.0 -49.8980358,-27.3087607992295,0.0 -49.8979034,-27.3085677992295,0.0 -49.8975507,-27.3082939992295,0.0 -49.8971271,-27.3081475992295,0.0 -49.8962149,-27.3077459992295,0.0 -49.8958218,-27.3076144992295,0.0 -49.895144,-27.3074634992295,0.0 -49.8947335,-27.3072930992295,0.0 -49.8943143,-27.3070584992296,0.0 -49.8935508,-27.3065515992296,0.0 -49.8926273,-27.3061203992296,0.0 -49.8921283,-27.3059773992296,0.0 -49.8906572,-27.3057537992296,0.0 -49.8902153,-27.3057157992296,0.0 -49.8898327,-27.3057663992296,0.0 -49.8895888,-27.3058425992296,0.0 -49.8893857,-27.3059682992296,0.0 -49.8893142,-27.3060229992296,0.0 -49.8890248,-27.3062445992296,0.0 -49.8887911,-27.3063229992296,0.0 -49.8884805,-27.3063512992296,0.0 -49.8881636,-27.3062929992296,0.0 -49.8875443,-27.3061464992296,0.0 -49.8872192,-27.3061476992296,0.0 -49.8863429,-27.3063358992296,0.0 -49.8861069,-27.3063437992296,0.0 -49.8854183,-27.3061963992296,0.0 -49.8854064,-27.3061959992296,0.0 -49.8850995,-27.3061859992296,0.0 -49.8845008,-27.3060831992296,0.0 -49.8837691,-27.3059672992296,0.0 -49.8836578,-27.3059484992296,0.0 -49.8835427,-27.3059553992296,0.0 -49.883442,-27.3059637992296,0.0 -49.8833139,-27.3060235992296,0.0 -49.8831392,-27.3062123992296,0.0 -49.8826736,-27.3066072992296,0.0 -49.8824423,-27.3067670992296,0.0 -49.8821407,-27.3068591992296,0.0 -49.8818965,-27.3068937992296,0.0 -49.8815036,-27.3069014992296,0.0 -49.8811781,-27.3069936992296,0.0 -49.8809979,-27.3071420992296,0.0 -49.8808631,-27.3073277992296,0.0 -49.8807539,-27.3076402992295,0.0 -49.8807135,-27.3079414992295,0.0 -49.8804889,-27.3081635992295,0.0 -49.880154,-27.3083399992295,0.0 -49.87983,-27.3084628992295,0.0 -49.879296,-27.3085192992295,0.0 -49.8786268,-27.3085311992295,0.0 -49.878023,-27.3086011992295,0.0 -49.8774496,-27.3087192992295,0.0 -49.877096,-27.3089046992295,0.0 -49.8767456,-27.3091265992295,0.0 -49.8761978,-27.3096372992295,0.0 -49.8756284,-27.3100922992295,0.0 -49.8753673,-27.3104931992295,0.0 -49.8749912,-27.3106127992295,0.0 -49.8746431,-27.3106567992295,0.0 -49.8740824,-27.3104931992295,0.0 -49.8732647,-27.3102360992295,0.0 -49.8729479,-27.3100832992295,0.0 -49.8725757,-27.3097142992295,0.0 -49.8723802,-27.3096175992295,0.0 -49.8721024,-27.3095553992295,0.0 -49.8718602,-27.3095241992295,0.0 -49.8716898,-27.3095616992295,0.0 -49.8715594,-27.3096171992295,0.0 -49.8714434,-27.3097185992295,0.0 -49.8713253,-27.3098371992295,0.0 -49.8711607,-27.3101120992295,0.0 -49.8707753,-27.3106636992295,0.0 -49.8705592,-27.3109414992295,0.0 -49.8703874,-27.3111492992295,0.0 -49.870277,-27.3112192992295,0.0 -49.8700183,-27.3113371992295,0.0 -49.8697683,-27.3113614992295,0.0 -49.8694216,-27.3114034992295,0.0 -49.8688378,-27.3114743992295,0.0 -49.8676931,-27.3115911992295,0.0 -49.8675333,-27.3115694992295,0.0 -49.8671872,-27.3114800992295,0.0 -49.8668761,-27.3113556992295,0.0 -49.8665494,-27.3112856992295,0.0 -49.8660633,-27.3112350992295,0.0 -49.8657795,-27.3112117992295,0.0 -49.8656589,-27.3112117992295,0.0 -49.8655578,-27.3112428992295,0.0 -49.8653983,-27.3113517992295,0.0 -49.8652817,-27.3115072992295,0.0 -49.8651611,-27.3117561992295,0.0 -49.8650654,-27.3126081992294,0.0 -49.8649006,-27.3135761992294,0.0 -49.8648267,-27.3138327992294,0.0 -49.8646906,-27.3140427992294,0.0 -49.8644961,-27.3142566992294,0.0 -49.8642929,-27.3145152992294,0.0 -49.8640907,-27.3147952992294,0.0 -49.8639507,-27.3152386992294,0.0 -49.8638924,-27.3156663992294,0.0 -49.8638846,-27.3162963992294,0.0 -49.8638885,-27.3165024992294,0.0 -49.8639301,-27.3168664992294,0.0 -49.8639786,-27.3172913992294,0.0 -49.8642346,-27.3178013992294,0.0 -49.8643246,-27.3180049992293,0.0 -49.8645146,-27.3181979992293,0.0 -49.8645535,-27.3184779992293,0.0 -49.8645224,-27.3187424992293,0.0 -49.8644102,-27.3190585992293,0.0 -49.8642735,-27.3192246992293,0.0 -49.863962,-27.3196031992293,0.0 -49.8634801,-27.3198532992293,0.0 -49.863341,-27.3199290992293,0.0 -49.8631673,-27.3200029992293,0.0 -49.8631257,-27.3200696992293,0.0 -49.8630967,-27.3201524992293,0.0 -49.8631224,-27.3202423992293,0.0 -49.8632029,-27.3204734992293,0.0 -49.8630266,-27.3203560992293,0.0 -49.8629387,-27.3203042992293,0.0 -49.8628801,-27.3202696992293,0.0 -49.8628368,-27.3202545992293,0.0 -49.8627934,-27.3202467992293,0.0 -49.8627583,-27.3202461992293,0.0 -49.8627033,-27.3202511992293,0.0 -49.8626696,-27.3202581992293,0.0 -49.8626344,-27.3202701992293,0.0 -49.8625902,-27.3202880992293,0.0 -49.862559,-27.3203023992293,0.0 -49.862534,-27.3203157992293,0.0 -49.8625078,-27.3203346992293,0.0 -49.8624651,-27.3203698992293,0.0 -49.8624244,-27.3204112992293,0.0 -49.862354,-27.3204877992293,0.0 -49.8623222,-27.3205193992293,0.0 -49.8622922,-27.3205393992293,0.0 -49.8622059,-27.3205926992293,0.0 -49.8620967,-27.3206615992293,0.0 -49.8620878,-27.3206676992293,0.0 -49.8620817,-27.3206752992293,0.0 -49.862078,-27.3206887992293,0.0 -49.8620666,-27.3207174992293,0.0 -49.8620567,-27.3207439992293,0.0 -49.8620367,-27.3207829992293,0.0 -49.8620098,-27.3208144992293,0.0 -49.8619645,-27.3208570992293,0.0 -49.8619119,-27.3208959992293,0.0 -49.8618763,-27.3209212992293,0.0 -49.861836,-27.3209412992293,0.0 -49.8618203,-27.3209519992293,0.0 -49.8618149,-27.3209619992293,0.0 -49.8618045,-27.3209741992293,0.0 -49.8617588,-27.3210164992293,0.0 -49.8617072,-27.3210557992293,0.0 -49.8616599,-27.3210815992293,0.0 -49.8615741,-27.3211188992293,0.0 -49.861486,-27.3211484992293,0.0 -49.8614712,-27.3211560992293,0.0 -49.8614455,-27.3211776992293,0.0 -49.8614113,-27.3211966992293,0.0 -49.8613456,-27.3212254992293,0.0 -49.8612373,-27.3212708992293,0.0 -49.8612099,-27.3212823992293,0.0 -49.8611723,-27.3212952992293,0.0 -49.8611386,-27.3213051992293,0.0 -49.8611152,-27.3213123992293,0.0 -49.8610457,-27.3213319992293,0.0 -49.8609586,-27.3213562992293,0.0 -49.8608467,-27.3213825992293,0.0 -49.8607541,-27.3214061992293,0.0 -49.8606605,-27.3214275992293,0.0 -49.8606283,-27.3214348992293,0.0 -49.8605712,-27.3214457992293,0.0 -49.8604745,-27.3214608992293,0.0 -49.8603817,-27.3214739992293,0.0 -49.8603261,-27.3214821992293,0.0 -49.8602675,-27.3214930992293,0.0 -49.8601963,-27.3215092992293,0.0 -49.8601507,-27.3215168992293,0.0 -49.8601128,-27.3215202992293,0.0 -49.8600614,-27.3215217992293,0.0 -49.8599885,-27.3215208992293,0.0 -49.8599111,-27.3215145992293,0.0 -49.8598157,-27.3215067992293,0.0 -49.8597619,-27.3215038992293,0.0 -49.8596583,-27.3215029992293,0.0 -49.8595689,-27.3214978992293,0.0 -49.8595491,-27.3214967992293,0.0 -49.8595294,-27.3214924992293,0.0 -49.8595128,-27.3214869992293,0.0 -49.8594877,-27.3214804992293,0.0 -49.859464,-27.3214773992293,0.0 -49.8594301,-27.3214749992293,0.0 -49.8593852,-27.3214789992293,0.0 -49.8593153,-27.3214938992293,0.0 -49.8592065,-27.3215148992293,0.0 -49.8590364,-27.3215375992293,0.0 -49.858982,-27.3215418992293,0.0 -49.8589575,-27.3215438992293,0.0 -49.8589377,-27.3215443992293,0.0 -49.8589006,-27.3215446992293,0.0 -49.8588471,-27.3215508992293,0.0 -49.8587819,-27.3215604992293,0.0 -49.8587241,-27.3215719992293,0.0 -49.8586819,-27.3215858992293,0.0 -49.8586345,-27.3216170992293,0.0 -49.8585987,-27.3216352992293,0.0 -49.8585727,-27.3216558992293,0.0 -49.8585091,-27.3216806992293,0.0 -49.8584205,-27.3216989992293,0.0 -49.8582619,-27.3217160992293,0.0 -49.8581874,-27.3217237992293,0.0 -49.8581099,-27.3217207992293,0.0 -49.85799,-27.3217301992293,0.0 -49.8579035,-27.3217314992293,0.0 -49.8578479,-27.3217317992293,0.0 -49.8577972,-27.3217281992293,0.0 -49.8577496,-27.3217194992293,0.0 -49.857721,-27.3217106992293,0.0 -49.8576983,-27.3217028992293,0.0 -49.8576425,-27.3216748992293,0.0 -49.8576131,-27.3216597992293,0.0 -49.8575019,-27.3215464992293,0.0 -49.8573186,-27.3213817992293,0.0 -49.8571502,-27.3212367992293,0.0 -49.8570038,-27.3210964992293,0.0 -49.8568535,-27.3212005992293,0.0 -49.8567671,-27.3212603992293,0.0 -49.8549217,-27.3225388992293,0.0 -49.8530763,-27.3238173992292,0.0 -49.8490432,-27.3266114992292,0.0 -49.8486019,-27.3269172992292,0.0 -49.8488088,-27.3271460992292,0.0 -49.8491801,-27.3276673992292,0.0 -49.8494066,-27.3280787992292,0.0 -49.8495777,-27.3284093992291,0.0 -49.8498489,-27.3288394992291,0.0 -49.850165,-27.3292637992291,0.0 -49.8505921,-27.3297682992291,0.0 -49.8509149,-27.3300482992291,0.0 -49.8513271,-27.3304837992291,0.0 -49.8516538,-27.3308104992291,0.0 -49.8519766,-27.3311040992291,0.0 -49.8528948,-27.3317369992291,0.0 -49.8530659,-27.3318225992291,0.0 -49.8532458,-27.3319006992291,0.0 -49.853937,-27.3323047992291,0.0 -49.8540858,-27.3323620992291,0.0 -49.8541849,-27.3324145992291,0.0 -49.8542501,-27.3324631992291,0.0 -49.8543308,-27.3325273992291,0.0 -49.8545651,-27.3327431992291,0.0 -49.8546555,-27.3329201992291,0.0 -49.8547332,-27.3331651992291,0.0 -49.8547916,-27.3333323992291,0.0 -49.854916,-27.3335851992291,0.0 -49.8550871,-27.333837899229,0.0 -49.855371,-27.334127699229,0.0 -49.8557132,-27.334399899229,0.0 -49.8561254,-27.334672099229,0.0 -49.8563704,-27.334832599229,0.0 -49.8565027,-27.334967599229,0.0 -49.8570782,-27.335434299229,0.0 -49.8575993,-27.335784299229,0.0 -49.8580504,-27.336173199229,0.0 -49.8582595,-27.336434899229,0.0 -49.8585508,-27.336699699229,0.0 -49.8587776,-27.336799299229,0.0 -49.8590148,-27.336842099229,0.0 -49.8593959,-27.336896499229,0.0 -49.8596177,-27.337011099229,0.0 -49.8597664,-27.337114299229,0.0 -49.8599375,-27.337246499229,0.0 -49.8600697,-27.337370899229,0.0 -49.8601086,-27.337417599229,0.0 -49.8601902,-27.337553699229,0.0 -49.8602369,-27.337678099229,0.0 -49.8602875,-27.337790899229,0.0 -49.8603458,-27.337903699229,0.0 -49.8603925,-27.338000899229,0.0 -49.8604352,-27.338078699229,0.0 -49.8604702,-27.338179799229,0.0 -49.8605441,-27.338401499229,0.0 -49.8606025,-27.338619199229,0.0 -49.8606841,-27.338852599229,0.0 -49.8607891,-27.339050899229,0.0 -49.8609836,-27.3394922992289,0.0 -49.8610816,-27.3397093992289,0.0 -49.8613324,-27.3401810992289,0.0 -49.8614594,-27.3403985992289,0.0 -49.8615715,-27.3406091992289,0.0 -49.8616849,-27.3408068992289,0.0 -49.8617734,-27.3408665992289,0.0 -49.8618861,-27.3409212992289,0.0 -49.8620302,-27.3409710992289,0.0 -49.8621531,-27.3410007992289,0.0 -49.8622183,-27.3410106992289,0.0 -49.862308,-27.3410057992289,0.0 -49.8624975,-27.3409383992289,0.0 -49.8626521,-27.3409195992289,0.0 -49.8627775,-27.3409345992289,0.0 -49.8628747,-27.3409695992289,0.0 -49.8629681,-27.3410433992289,0.0 -49.8630303,-27.3411289992289,0.0 -49.86311,-27.3412426992289,0.0 -49.8632208,-27.3414740992289,0.0 -49.863285,-27.3416199992289,0.0 -49.8633414,-27.3417637992289,0.0 -49.863427,-27.3420972992289,0.0 -49.8634308,-27.3421730992289,0.0 -49.8634464,-27.3422780992289,0.0 -49.8634717,-27.3423772992289,0.0 -49.8635164,-27.3424861992289,0.0 -49.8636467,-27.3426864992289,0.0 -49.8637711,-27.3428808992289,0.0 -49.8639588,-27.3431725992289,0.0 -49.8640469,-27.3433488992289,0.0 -49.864196,-27.3435186992289,0.0 -49.8643049,-27.3436041992289,0.0 -49.8644449,-27.3437130992289,0.0 -49.8645654,-27.3437714992289,0.0 -49.8650437,-27.3440319992289,0.0 -49.8655104,-27.3442536992288,0.0 -49.8661054,-27.3444558992288,0.0 -49.8664763,-27.3445831992288,0.0 -49.8665774,-27.3446143992288,0.0 -49.8666416,-27.3446415992288,0.0 -49.8666999,-27.3446881992288,0.0 -49.8667991,-27.3447659992288,0.0 -49.8669079,-27.3448165992288,0.0 -49.8669779,-27.3448398992288,0.0 -49.8670518,-27.3448476992288,0.0 -49.8671607,-27.3448495992288,0.0 -49.867291,-27.3448729992288,0.0 -49.8673338,-27.3449059992288,0.0 -49.8673765,-27.3449526992288,0.0 -49.8674096,-27.3450051992288,0.0 -49.8674135,-27.3450595992288,0.0 -49.867397,-27.3450940992288,0.0 -49.8671743,-27.3454465992288,0.0 -49.8670693,-27.3456292992288,0.0 -49.8668982,-27.3458470992288,0.0 -49.8668477,-27.3459481992288,0.0 -49.8668321,-27.3460298992288,0.0 -49.866836,-27.3461115992288,0.0 -49.8668749,-27.3461892992288,0.0 -49.8669682,-27.3462709992288,0.0 -49.8670693,-27.3463370992288,0.0 -49.8671743,-27.3463720992288,0.0 -49.8673765,-27.3464109992288,0.0 -49.8675068,-27.3464342992288,0.0 -49.8678568,-27.3464731992288,0.0 -49.8685101,-27.3465353992288,0.0 -49.8689155,-27.3466242992288,0.0 -49.8694639,-27.3467784992288,0.0 -49.8696311,-27.3468406992288,0.0 -49.8697244,-27.3469106992288,0.0 -49.8697789,-27.3469612992288,0.0 -49.8698683,-27.3470973992288,0.0 -49.86995,-27.3472178992288,0.0 -49.8700282,-27.3473841992288,0.0 -49.8700866,-27.3475416992288,0.0 -49.8701702,-27.3476855992288,0.0 -49.8702343,-27.3478410992288,0.0 -49.8702732,-27.3479596992288,0.0 -49.8703238,-27.3480899992288,0.0 -49.8703522,-27.3481894992288,0.0 -49.8703573,-27.3483835992288,0.0 -49.8704021,-27.3485429992288,0.0 -49.8704623,-27.3486616992288,0.0 -49.8705362,-27.3487393992288,0.0 -49.8705965,-27.3487850992288,0.0 -49.8708279,-27.3489134992288,0.0 -49.8710301,-27.3489872992288,0.0 -49.8712206,-27.3490689992288,0.0 -49.8713568,-27.3491408992288,0.0 -49.871452,-27.3491953992288,0.0 -49.8716416,-27.3493314992288,0.0 -49.8717622,-27.3495025992288,0.0 -49.8718594,-27.3496658992288,0.0 -49.8719216,-27.3498214992287,0.0 -49.8719838,-27.3499731992287,0.0 -49.8720383,-27.3501578992287,0.0 -49.8721005,-27.3503483992287,0.0 -49.8721744,-27.3505875992287,0.0 -49.8721977,-27.3507722992287,0.0 -49.8721724,-27.3508928992287,0.0 -49.8721238,-27.3510017992287,0.0 -49.8720577,-27.3511689992287,0.0 -49.8719722,-27.3512933992287,0.0 -49.8719306,-27.3514542992287,0.0 -49.8719177,-27.3516297992287,0.0 -49.8719488,-27.3517775992287,0.0 -49.8721044,-27.3519991992287,0.0 -49.8722677,-27.3521975992287,0.0 -49.8723455,-27.3523802992287,0.0 -49.8723766,-27.3527069992287,0.0 -49.8724155,-27.3529325992287,0.0 -49.8724077,-27.3534224992287,0.0 -49.8723802,-27.3536266992287,0.0 -49.8723922,-27.3539552992287,0.0 -49.8722988,-27.3541185992287,0.0 -49.8721433,-27.3543985992287,0.0 -49.8719099,-27.3546941992286,0.0 -49.8717544,-27.3549974992286,0.0 -49.8716844,-27.3552385992286,0.0 -49.8716844,-27.3554096992286,0.0 -49.8717077,-27.3555885992286,0.0 -49.8717311,-27.3557519992286,0.0 -49.8717855,-27.3558919992286,0.0 -49.8719099,-27.3561407992286,0.0 -49.8720266,-27.3563507992286,0.0 -49.8722444,-27.3571052992286,0.0 -49.8723144,-27.3574629992286,0.0 -49.8723066,-27.3577352992286,0.0 -49.872291,-27.3578752992286,0.0 -49.8721588,-27.3581163992286,0.0 -49.8719799,-27.3583418992286,0.0 -49.8717855,-27.3587307992286,0.0 -49.8717077,-27.3591040992286,0.0 -49.8717311,-27.3594073992286,0.0 -49.8718244,-27.3598118992285,0.0 -49.8719099,-27.3600840992285,0.0 -49.8720072,-27.3604787992285,0.0 -49.8719644,-27.3607898992285,0.0 -49.8719527,-27.3609920992285,0.0 -49.8718983,-27.3611670992285,0.0 -49.8718007,-27.3613886992285,0.0 -49.8715327,-27.3616590992285,0.0 -49.871315,-27.3617368992285,0.0 -49.8709134,-27.3618534992285,0.0 -49.8706334,-27.3619156992285,0.0 -49.870299,-27.3619273992285,0.0 -49.870158,-27.3619136992285,0.0 -49.8699218,-27.3618534992285,0.0 -49.869593,-27.3618092992285,0.0 -49.8693035,-27.3617873992285,0.0 -49.8689457,-27.3617562992285,0.0 -49.8686579,-27.3618184992285,0.0 -49.868424,-27.3619639992285,0.0 -49.8681951,-27.3621373992285,0.0 -49.8678763,-27.3623629992285,0.0 -49.8676352,-27.3626156992285,0.0 -49.8675768,-27.3627634992285,0.0 -49.8675302,-27.3629928992285,0.0 -49.8675302,-27.3631990992285,0.0 -49.8675457,-27.3635256992285,0.0 -49.8676274,-27.3640020992285,0.0 -49.8676857,-27.3643189992285,0.0 -49.8676974,-27.3645056992285,0.0 -49.867674,-27.3646845992285,0.0 -49.8676157,-27.3648906992285,0.0 -49.8675068,-27.3650967992285,0.0 -49.8673737,-27.3653017992284,0.0 -49.8671029,-27.3659414992284,0.0 -49.8670868,-27.3661234992284,0.0 -49.8670013,-27.3664578992284,0.0 -49.8669624,-27.3669828992284,0.0 -49.8669391,-27.3671461992284,0.0 -49.8670713,-27.3676905992284,0.0 -49.8671257,-27.3681961992284,0.0 -49.8671024,-27.3686005992284,0.0 -49.8670402,-27.3687833992284,0.0 -49.8669079,-27.3691800992284,0.0 -49.8668613,-27.3694755992284,0.0 -49.8669002,-27.3696233992284,0.0 -49.8669857,-27.3700005992284,0.0 -49.8670479,-27.3703350992283,0.0 -49.8671413,-27.3707083992283,0.0 -49.8672852,-27.3712527992283,0.0 -49.8673969,-27.3716073992283,0.0 -49.8677124,-27.3719597992283,0.0 -49.8680979,-27.3724153992283,0.0 -49.8682977,-27.3726206992283,0.0 -49.8683483,-27.3727062992283,0.0 -49.8684455,-27.3729006992283,0.0 -49.8684494,-27.3729667992283,0.0 -49.8684222,-27.3730639992283,0.0 -49.8683483,-27.3731689992283,0.0 -49.8682277,-27.3732778992283,0.0 -49.8681091,-27.3733264992283,0.0 -49.867971,-27.3733381992283,0.0 -49.8677299,-27.3733673992283,0.0 -49.8675336,-27.3733925992283,0.0 -49.8673333,-27.3734178992283,0.0 -49.8671233,-27.3734411992283,0.0 -49.8669988,-27.3734859992283,0.0 -49.866853,-27.3735967992283,0.0 -49.8667616,-27.3737406992283,0.0 -49.8667242,-27.3738096992283,0.0 -49.8666775,-27.3739185992283,0.0 -49.8665745,-27.3740721992283,0.0 -49.8665142,-27.3741791992283,0.0 -49.8664384,-27.3742588992283,0.0 -49.8661506,-27.3744513992283,0.0 -49.8660067,-27.3745524992283,0.0 -49.865925,-27.3746496992283,0.0 -49.8658278,-27.3747546992283,0.0 -49.8657656,-27.3749102992283,0.0 -49.8656645,-27.3751046992283,0.0 -49.8655595,-27.3753535992283,0.0 -49.8654312,-27.3755440992283,0.0 -49.8652017,-27.3758065992283,0.0 -49.8650345,-27.3759465992282,0.0 -49.8649684,-27.3760399992282,0.0 -49.8649451,-27.3761099992282,0.0 -49.8649451,-27.3761837992282,0.0 -49.8649839,-27.3762810992282,0.0 -49.8651006,-27.3764599992282,0.0 -49.8651978,-27.3766621992282,0.0 -49.8652484,-27.3767982992282,0.0 -49.8652601,-27.3769265992282,0.0 -49.8652406,-27.3770471992282,0.0 -49.8652095,-27.3771443992282,0.0 -49.8651473,-27.3772687992282,0.0 -49.8650112,-27.3774593992282,0.0 -49.8648906,-27.3776459992282,0.0 -49.8647338,-27.3778526992282,0.0 -49.8645936,-27.3782848992282,0.0 -49.8648803,-27.3787997992282,0.0 -49.8648954,-27.3791626992282,0.0 -49.8648221,-27.3795754992282,0.0 -49.8645823,-27.3801598992282,0.0 -49.8644369,-27.3806431992282,0.0 -49.8643428,-27.3810992992281,0.0 -49.8643536,-27.3814647992281,0.0 -49.8644258,-27.3818143992281,0.0 -49.8646353,-27.3826443992281,0.0 -49.8647976,-27.3829346992281,0.0 -49.8650589,-27.3831364992281,0.0 -49.8652434,-27.3833591992281,0.0 -49.8655253,-27.3835063992281,0.0 -49.8658647,-27.3836981992281,0.0 -49.866002,-27.3838399992281,0.0 -49.8660856,-27.3840305992281,0.0 -49.8659676,-27.3843568992281,0.0 -49.865804,-27.3846300992281,0.0 -49.8653929,-27.3848780992281,0.0 -49.8646512,-27.3851603992281,0.0 -49.8641662,-27.3854329992281,0.0 -49.8636715,-27.3859114992281,0.0 -49.8631636,-27.386764299228,0.0 -49.8629859,-27.387000699228,0.0 -49.862472,-27.387830099228,0.0 -49.8622029,-27.388719199228,0.0 -49.8621235,-27.389275399228,0.0 -49.8622486,-27.389733699228,0.0 -49.8623982,-27.390188699228,0.0 -49.8627517,-27.390817599228,0.0 -49.8628372,-27.391254999228,0.0 -49.8627685,-27.3916876992279,0.0 -49.8626084,-27.3921098992279,0.0 -49.862403,-27.3925655992279,0.0 -49.8623571,-27.3929197992279,0.0 -49.8624766,-27.3933624992279,0.0 -49.8628237,-27.3936457992279,0.0 -49.8632035,-27.3937493992279,0.0 -49.8641843,-27.3931710992279,0.0 -49.864602,-27.3930962992279,0.0 -49.864958,-27.3931355992279,0.0 -49.8658429,-27.3933388992279,0.0 -49.8675049,-27.3944849992279,0.0 -49.8679319,-27.3949249992279,0.0 -49.8685239,-27.3956433992279,0.0 -49.8697933,-27.3968869992278,0.0 -49.870401,-27.3974116992278,0.0 -49.8706255,-27.3976112992278,0.0 -49.8708854,-27.3977140992278,0.0 -49.8718173,-27.3979783992278,0.0 -49.8721608,-27.3981571992278,0.0 -49.8723652,-27.3985131992278,0.0 -49.8724252,-27.3990092992278,0.0 -49.8723286,-27.4000854992278,0.0 -49.8723728,-27.4008501992278,0.0 -49.8724434,-27.4016830992278,0.0 -49.8725249,-27.4019041992278,0.0 -49.872684,-27.4020616992278,0.0 -49.872934,-27.4022079992278,0.0 -49.8730407,-27.4023416992278,0.0 -49.873122,-27.4025266992277,0.0 -49.8731754,-27.4028200992277,0.0 -49.8731438,-27.4030927992277,0.0 -49.8731728,-27.4040793992277,0.0 -49.873262,-27.4051433992277,0.0 -49.8733608,-27.4059953992277,0.0 -49.8733959,-27.4062084992277,0.0 -49.8734678,-27.4064038992277,0.0 -49.8738353,-27.4067638992277,0.0 -49.8742641,-27.4070779992277,0.0 -49.8747164,-27.4075352992276,0.0 -49.8750386,-27.4078735992276,0.0 -49.8753365,-27.4084468992276,0.0 -49.8755043,-27.4088898992276,0.0 -49.8755953,-27.4091931992276,0.0 -49.8755885,-27.4094646992276,0.0 -49.8755222,-27.4097128992276,0.0 -49.8754322,-27.4098900992276,0.0 -49.8754085,-27.4100288992276,0.0 -49.8753948,-27.4101398992276,0.0 -49.8754466,-27.4102060992276,0.0 -49.8755222,-27.4102529992276,0.0 -49.8758515,-27.4103373992276,0.0 -49.8764666,-27.4105078992276,0.0 -49.8771025,-27.4106029992276,0.0 -49.8773672,-27.4105861992276,0.0 -49.8776391,-27.4105142992276,0.0 -49.8778576,-27.4103042992276,0.0 -49.8786199,-27.4097693992276,0.0 -49.8791252,-27.4096362992276,0.0 -49.8798427,-27.4096637992276,0.0 -49.8805404,-27.4097089992276,0.0 -49.8811275,-27.4098506992276,0.0 -49.8822501,-27.4102276992276,0.0 -49.882815,-27.4104991992276,0.0 -49.8833304,-27.4108277992276,0.0 -49.8840734,-27.4114584992276,0.0 -49.8845223,-27.4118103992276,0.0 -49.8852729,-27.4123886992276,0.0 -49.8858211,-27.4128557992275,0.0 -49.8860711,-27.4130270992275,0.0 -49.8862921,-27.4130890992275,0.0 -49.8867921,-27.4131749992275,0.0 -49.8871185,-27.4131949992275,0.0 -49.8874355,-27.4132884992275,0.0 -49.8876907,-27.4134918992275,0.0 -49.8878789,-27.4138057992275,0.0 -49.8879448,-27.4143855992275,0.0 -49.8877444,-27.4154070992275,0.0 -49.8877067,-27.4158280992275,0.0 -49.887819,-27.4161937992275,0.0 -49.8882329,-27.4165886992275,0.0 -49.888366,-27.4167668992275,0.0 -49.8884621,-27.4169540992275,0.0 -49.8885183,-27.4177152992275,0.0 -49.8884658,-27.4187728992274,0.0 -49.8885199,-27.4199749992274,0.0 -49.8887709,-27.4204702992274,0.0 -49.8891294,-27.4208814992274,0.0 -49.8900313,-27.4216290992274,0.0 -49.8911574,-27.4223016992274,0.0 -49.8916258,-27.4227783992274,0.0 -49.892233,-27.4234067992273,0.0 -49.8923537,-27.4235891992273,0.0 -49.8924693,-27.4237121992273,0.0 -49.8926193,-27.4237926992273,0.0 -49.892798,-27.4238317992273,0.0 -49.8939325,-27.4239827992273,0.0 -49.894536,-27.4240498992273,0.0 -49.8954237,-27.4241290992273,0.0 -49.8969558,-27.4239631992273,0.0 -49.8979077,-27.4240056992273,0.0 -49.898819,-27.4238028992273,0.0 -49.8991993,-27.4235832992273,0.0 -49.8994774,-27.4234086992273,0.0 -49.8997114,-27.4232986992274,0.0 -49.8999951,-27.4231881992274,0.0 -49.9001465,-27.4231840992273,0.0 -49.9003009,-27.4232242992274,0.0 -49.9004293,-27.4232859992274,0.0 -49.900535,-27.4233674992274,0.0 -49.9006556,-27.4234808992273,0.0 -49.9008137,-27.4235764992274,0.0 -49.9009759,-27.4236477992273,0.0 -49.9010691,-27.4236760992273,0.0 -49.9011417,-27.4237116992273,0.0 -49.9012692,-27.4238203992273,0.0 -49.9013171,-27.4238970992273,0.0 -49.901527,-27.4245057992273,0.0 -49.9015821,-27.4248738992273,0.0 -49.9016112,-27.4249755992273,0.0 -49.9016731,-27.4250557992273,0.0 -49.901775,-27.4251314992273,0.0 -49.9019328,-27.4251853992273,0.0 -49.9020588,-27.4252482992273,0.0 -49.9021973,-27.4253387992273,0.0 -49.9024032,-27.4255208992273,0.0 -49.9027733,-27.4258873992273,0.0 -49.9031096,-27.4262646992273,0.0 -49.9033854,-27.4265720992273,0.0 -49.9039536,-27.4270766992273,0.0 -49.9041337,-27.4271951992273,0.0 -49.9043316,-27.4272927992273,0.0 -49.9048567,-27.4275231992273,0.0 -49.9050875,-27.4276659992273,0.0 -49.9052906,-27.4278524992273,0.0 -49.9054702,-27.4280369992273,0.0 -49.9057386,-27.4283075992273,0.0 -49.9058605,-27.4284561992272,0.0 -49.9059153,-27.4285472992273,0.0 -49.9059461,-27.4286569992273,0.0 -49.905951,-27.4288825992272,0.0 -49.9059396,-27.4290878992272,0.0 -49.9059588,-27.4293488992272,0.0 -49.906054,-27.4295791992272,0.0 -49.9063441,-27.4300099992272,0.0 -49.9067151,-27.4304816992272,0.0 -49.9068423,-27.4306075992272,0.0 -49.9070361,-27.4308380992272,0.0 -49.9071556,-27.4310331992272,0.0 -49.9072692,-27.4312611992272,0.0 -49.9073717,-27.4315276992272,0.0 -49.907447,-27.4318395992272,0.0 -49.9074007,-27.4320586992272,0.0 -49.9075397,-27.4320716992272,0.0 -49.9076755,-27.4322443992272,0.0 -49.9077611,-27.4324555992272,0.0 -49.9077953,-27.4325390992272,0.0 -49.907877,-27.4327152992272,0.0 -49.9080587,-27.4329594992272,0.0 -49.9083125,-27.4332726992272,0.0 -49.908603,-27.4334977992272,0.0 -49.9089304,-27.4336757992271,0.0 -49.9093482,-27.4337668992272,0.0 -49.9096343,-27.4337472992272,0.0 -49.9102228,-27.4337071992272,0.0 -49.9105344,-27.4336062992272,0.0 -49.9108986,-27.4336232992272,0.0 -49.9112802,-27.4338654992271,0.0 -49.9117682,-27.4340580992272,0.0 -49.9119618,-27.4341344992271,0.0 -49.912298,-27.4342555992271,0.0 -49.9123182,-27.4344219992271,0.0 -49.9123696,-27.4346818992271,0.0 -49.9127779,-27.4348298992271,0.0 -49.9133037,-27.4347512992271,0.0 -49.9137044,-27.4347309992271,0.0 -49.9141578,-27.4345562992271,0.0 -49.9143004,-27.4341978992271,0.0 -49.9144333,-27.4340582992271,0.0 -49.9145224,-27.4337313992272,0.0 -49.9147853,-27.4334226992272,0.0 -49.9150789,-27.4330922992272,0.0 -49.9150945,-27.4328458992272,0.0 -49.9150952,-27.4327152992272,0.0 -49.9151785,-27.4326458992272,0.0 -49.9155004,-27.4327577992272,0.0 -49.9157417,-27.4328852992272,0.0 -49.9160281,-27.4329784992272,0.0 -49.9163214,-27.4330184992272,0.0 -49.9166624,-27.4328305992272,0.0 -49.916965,-27.4327322992272,0.0 -49.9171495,-27.4326084992272,0.0 -49.9173414,-27.4325353992272,0.0 -49.9177117,-27.4325220992272,0.0 -49.9179742,-27.4325328992272,0.0</coordinates>
</LinearRing>
</outerBoundaryIs>
</Polygon>
</MultiGeometry>
</Placemark>
</Folder>
</Document></kml>
