<?xml version='1.0' encoding='UTF-8'?>
<kml xmlns:xsd="http://www.w3.org/2001/XMLSchema" xmlns:gx="http://www.google.com/kml/ext/2.2" xmlns:atom="http://www.w3.org/2005/Atom" xmlns="http://www.opengis.net/kml/2.2">
<Document>
<name>capivari_de_baixo_4203956_localidades_2022</name>
<visibility>1</visibility>
<Schema name="Agrupamentos Quilombolas" id="kml_schema_ft_Agrupamentos_Quilombolas">
<SimpleField type="xsd:string" name="CD_UF">
<displayName>CD_UF</displayName>
</SimpleField>
<SimpleField type="xsd:string" name="NM_UF">
<displayName>NM_UF</displayName>
</SimpleField>
<SimpleField type="xsd:string" name="SIGLA_UF">
<displayName>SIGLA_UF</displayName>
</SimpleField>
<SimpleField type="xsd:string" name="CD_MUN">
<displayName>CD_MUN</displayName>
</SimpleField>
<SimpleField type="xsd:string" name="NM_MUN">
<displayName>NM_MUN</displayName>
</SimpleField>
<SimpleField type="xsd:string" name="CD_RGINT">
<displayName>CD_RGINT</displayName>
</SimpleField>
<SimpleField type="xsd:string" name="NM_RGINT">
<displayName>NM_RGINT</displayName>
</SimpleField>
<SimpleField type="xsd:string" name="CD_RGI">
<displayName>CD_RGI</displayName>
</SimpleField>
<SimpleField type="xsd:string" name="NM_RGI">
<displayName>NM_RGI</displayName>
</SimpleField>
<SimpleField type="xsd:string" name="CT_LOCALIDADE">
<displayName>CT_LOCALIDADE</displayName>
</SimpleField>
<SimpleField type="xsd:string" name="SCT_LOCALIDADE">
<displayName>SCT_LOCALIDADE</displayName>
</SimpleField>
<SimpleField type="xsd:string" name="CD_LOCALIDADE">
<displayName>CD_LOCALIDADE</displayName>
</SimpleField>
<SimpleField type="xsd:string" name="NM_LOCALIDADE">
<displayName>NM_LOCALIDADE</displayName>
</SimpleField>
<SimpleField type="xsd:string" name="LAT_LOCALIDADE">
<displayName>LAT_LOCALIDADE</displayName>
</SimpleField>
<SimpleField type="xsd:string" name="LONG_LOCALIDADE">
<displayName>LONG_LOCALIDADE</displayName>
</SimpleField>
</Schema>
<Schema name="01. Cidade" id="kml_schema_ft_01._Cidade">
<SimpleField type="xsd:string" name="CD_UF">
<displayName>CD_UF</displayName>
</SimpleField>
<SimpleField type="xsd:string" name="NM_UF">
<displayName>NM_UF</displayName>
</SimpleField>
<SimpleField type="xsd:string" name="SIGLA_UF">
<displayName>SIGLA_UF</displayName>
</SimpleField>
<SimpleField type="xsd:string" name="CD_MUN">
<displayName>CD_MUN</displayName>
</SimpleField>
<SimpleField type="xsd:string" name="NM_MUN">
<displayName>NM_MUN</displayName>
</SimpleField>
<SimpleField type="xsd:string" name="CD_RGINT">
<displayName>CD_RGINT</displayName>
</SimpleField>
<SimpleField type="xsd:string" name="NM_RGINT">
<displayName>NM_RGINT</displayName>
</SimpleField>
<SimpleField type="xsd:string" name="CD_RGI">
<displayName>CD_RGI</displayName>
</SimpleField>
<SimpleField type="xsd:string" name="NM_RGI">
<displayName>NM_RGI</displayName>
</SimpleField>
<SimpleField type="xsd:string" name="CT_LOCALIDADE">
<displayName>CT_LOCALIDADE</displayName>
</SimpleField>
<SimpleField type="xsd:string" name="SCT_LOCALIDADE">
<displayName>SCT_LOCALIDADE</displayName>
</SimpleField>
<SimpleField type="xsd:string" name="CD_LOCALIDADE">
<displayName>CD_LOCALIDADE</displayName>
</SimpleField>
<SimpleField type="xsd:string" name="NM_LOCALIDADE">
<displayName>NM_LOCALIDADE</displayName>
</SimpleField>
<SimpleField type="xsd:string" name="LAT_LOCALIDADE">
<displayName>LAT_LOCALIDADE</displayName>
</SimpleField>
<SimpleField type="xsd:string" name="LONG_LOCALIDADE">
<displayName>LONG_LOCALIDADE</displayName>
</SimpleField>
</Schema>
<Schema name="Município" id="kml_schema_ft_Município">
<SimpleField type="xsd:string" name="CD_UF">
<displayName>CD_UF</displayName>
</SimpleField>
<SimpleField type="xsd:string" name="NM_UF">
<displayName>NM_UF</displayName>
</SimpleField>
<SimpleField type="xsd:string" name="CD_MUN">
<displayName>CD_MUN</displayName>
</SimpleField>
<SimpleField type="xsd:string" name="NM_MUN">
<displayName>NM_MUN</displayName>
</SimpleField>
<SimpleField type="xsd:string" name="CD_RGINT">
<displayName>CD_RGINT</displayName>
</SimpleField>
<SimpleField type="xsd:string" name="NM_RGINT">
<displayName>NM_RGINT</displayName>
</SimpleField>
<SimpleField type="xsd:string" name="CD_RGI">
<displayName>CD_RGI</displayName>
</SimpleField>
<SimpleField type="xsd:string" name="NM_RGI">
<displayName>NM_RGI</displayName>
</SimpleField>
</Schema>
<Folder id="01. Cidade">
<name>01. Cidade</name>
<Folder id="01.03. Sede Municipal">
<name>01.03. Sede Municipal</name>
<Placemark id="01.03. Sede Municipal">
<name>Capivari de Baixo [4203956]</name>
<visibility>1</visibility>
<snippet> </snippet>
<description>&lt;center&gt;&lt;table&gt;&lt;tr&gt;&lt;th colspan='2' align='center'&gt;&lt;em&gt;Atributos&lt;/em&gt;&lt;/th&gt;&lt;/tr&gt;&lt;tr bgcolor="#E3E3F3"&gt;
&lt;th&gt;CD_UF&lt;/th&gt;
&lt;td&gt;42&lt;/td&gt;
&lt;/tr&gt;&lt;tr bgcolor=""&gt;
&lt;th&gt;NM_UF&lt;/th&gt;
&lt;td&gt;Santa Catarina&lt;/td&gt;
&lt;/tr&gt;&lt;tr bgcolor="#E3E3F3"&gt;
&lt;th&gt;SIGLA_UF&lt;/th&gt;
&lt;td&gt;SC&lt;/td&gt;
&lt;/tr&gt;&lt;tr bgcolor=""&gt;
&lt;th&gt;CD_MUN&lt;/th&gt;
&lt;td&gt;4203956&lt;/td&gt;
&lt;/tr&gt;&lt;tr bgcolor="#E3E3F3"&gt;
&lt;th&gt;NM_MUN&lt;/th&gt;
&lt;td&gt;Capivari de Baixo&lt;/td&gt;
&lt;/tr&gt;&lt;tr bgcolor=""&gt;
&lt;th&gt;CD_RGINT&lt;/th&gt;
&lt;td&gt;4202&lt;/td&gt;
&lt;/tr&gt;&lt;tr bgcolor="#E3E3F3"&gt;
&lt;th&gt;NM_RGINT&lt;/th&gt;
&lt;td&gt;Criciúma&lt;/td&gt;
&lt;/tr&gt;&lt;tr bgcolor=""&gt;
&lt;th&gt;CD_RGI&lt;/th&gt;
&lt;td&gt;420003&lt;/td&gt;
&lt;/tr&gt;&lt;tr bgcolor="#E3E3F3"&gt;
&lt;th&gt;NM_RGI&lt;/th&gt;
&lt;td&gt;Tubarão&lt;/td&gt;
&lt;/tr&gt;&lt;tr bgcolor=""&gt;
&lt;th&gt;CT_LOCALIDADE&lt;/th&gt;
&lt;td&gt;Cidade&lt;/td&gt;
&lt;/tr&gt;&lt;tr bgcolor="#E3E3F3"&gt;
&lt;th&gt;SCT_LOCALIDADE&lt;/th&gt;
&lt;td&gt;Sede Municipal&lt;/td&gt;
&lt;/tr&gt;&lt;tr bgcolor=""&gt;
&lt;th&gt;CD_LOCALIDADE&lt;/th&gt;
&lt;td&gt;4203956&lt;/td&gt;
&lt;/tr&gt;&lt;tr bgcolor="#E3E3F3"&gt;
&lt;th&gt;NM_LOCALIDADE&lt;/th&gt;
&lt;td&gt;Capivari de Baixo&lt;/td&gt;
&lt;/tr&gt;&lt;tr bgcolor=""&gt;
&lt;th&gt;LAT_LOCALIDADE&lt;/th&gt;
&lt;td&gt;-28.4477&lt;/td&gt;
&lt;/tr&gt;&lt;tr bgcolor="#E3E3F3"&gt;
&lt;th&gt;LONG_LOCALIDADE&lt;/th&gt;
&lt;td&gt;-48.9553&lt;/td&gt;
&lt;/tr&gt;&lt;/table&gt;&lt;/center&gt;</description>
<Style>
<IconStyle>
<color>ff00aaff</color>
<scale>1.0</scale>
<Icon>
<href>http://maps.google.com/mapfiles/kml/shapes/placemark_circle.png</href>
</Icon>
</IconStyle>
<LabelStyle>
<scale>1.0</scale>
</LabelStyle>
<LineStyle>
<color>ffffffff</color>
<width>3</width>
<gx:labelVisibility>1</gx:labelVisibility>
</LineStyle>
<PolyStyle>
<color>00ffffff</color>
</PolyStyle>
</Style>
<ExtendedData>
<SchemaData schemaUrl="#kml_schema_ft_01._Cidade">
<SimpleData name="CD_UF">42</SimpleData>
<SimpleData name="NM_UF">Santa Catarina</SimpleData>
<SimpleData name="SIGLA_UF">SC</SimpleData>
<SimpleData name="CD_MUN">4203956</SimpleData>
<SimpleData name="NM_MUN">Capivari de Baixo</SimpleData>
<SimpleData name="CD_RGINT">4202</SimpleData>
<SimpleData name="NM_RGINT">Criciúma</SimpleData>
<SimpleData name="CD_RGI">420003</SimpleData>
<SimpleData name="NM_RGI">Tubarão</SimpleData>
<SimpleData name="CT_LOCALIDADE">Cidade</SimpleData>
<SimpleData name="SCT_LOCALIDADE">Sede Municipal</SimpleData>
<SimpleData name="CD_LOCALIDADE">4203956</SimpleData>
<SimpleData name="NM_LOCALIDADE">Capivari de Baixo</SimpleData>
<SimpleData name="LAT_LOCALIDADE">-28.4477</SimpleData>
<SimpleData name="LONG_LOCALIDADE">-48.9553</SimpleData>
</SchemaData>
</ExtendedData>
<Point>
<extrude>0</extrude>
<coordinates>-48.955298,-28.4476939992085,0.0</coordinates>
</Point>
</Placemark>
</Folder>
</Folder>
<Folder id="10. Localidades Quilombolas">
<name>10. Localidades Quilombolas</name>
<visibility>1</visibility>
<Style>
<IconStyle>
<color>ffff54ff</color>
<scale>0.8</scale>
<Icon>
<href>http://maps.google.com/mapfiles/kml/shapes/placemark_circle.png</href>
</Icon>
</IconStyle>
<LabelStyle>
<scale>0.8</scale>
</LabelStyle>
<LineStyle>
<color>7200ffff</color>
<width>1.0</width>
<gx:labelVisibility>1</gx:labelVisibility>
</LineStyle>
<PolyStyle>
<color>6600ffff</color>
</PolyStyle>
</Style>
<Folder id="10.01. Agrupamentos Quilombolas">
<name>10.01. Agrupamentos Quilombolas</name>
<visibility>1</visibility>
<Style>
<IconStyle>
<color>ffff54ff</color>
<scale>0.8</scale>
<Icon>
<href>http://maps.google.com/mapfiles/kml/shapes/placemark_circle.png</href>
</Icon>
</IconStyle>
<LabelStyle>
<scale>0.8</scale>
</LabelStyle>
<LineStyle>
<color>7200ffff</color>
<width>1.0</width>
<gx:labelVisibility>1</gx:labelVisibility>
</LineStyle>
<PolyStyle>
<color>6600ffff</color>
</PolyStyle>
</Style>
<Placemark id="10.01. Agrupamentos Quilombolas">
<name>Comunidade Quilombola Ilhotinha [420395600002]</name>
<visibility>1</visibility>
<snippet> </snippet>
<description>&lt;center&gt;&lt;table&gt;&lt;tr&gt;&lt;th colspan='2' align='center'&gt;&lt;em&gt;Attributes&lt;/em&gt;&lt;/th&gt;&lt;/tr&gt;&lt;tr bgcolor="#E3E3F3"&gt;
&lt;th&gt;CD_UF&lt;/th&gt;
&lt;td&gt;42&lt;/td&gt;
&lt;/tr&gt;&lt;tr bgcolor=""&gt;
&lt;th&gt;NM_UF&lt;/th&gt;
&lt;td&gt;Santa Catarina&lt;/td&gt;
&lt;/tr&gt;&lt;tr bgcolor="#E3E3F3"&gt;
&lt;th&gt;SIGLA_UF&lt;/th&gt;
&lt;td&gt;SC&lt;/td&gt;
&lt;/tr&gt;&lt;tr bgcolor=""&gt;
&lt;th&gt;CD_MUN&lt;/th&gt;
&lt;td&gt;4203956&lt;/td&gt;
&lt;/tr&gt;&lt;tr bgcolor="#E3E3F3"&gt;
&lt;th&gt;NM_MUN&lt;/th&gt;
&lt;td&gt;Capivari de Baixo&lt;/td&gt;
&lt;/tr&gt;&lt;tr bgcolor=""&gt;
&lt;th&gt;CD_RGINT&lt;/th&gt;
&lt;td&gt;4202&lt;/td&gt;
&lt;/tr&gt;&lt;tr bgcolor="#E3E3F3"&gt;
&lt;th&gt;NM_RGINT&lt;/th&gt;
&lt;td&gt;Criciúma&lt;/td&gt;
&lt;/tr&gt;&lt;tr bgcolor=""&gt;
&lt;th&gt;CD_RGI&lt;/th&gt;
&lt;td&gt;420003&lt;/td&gt;
&lt;/tr&gt;&lt;tr bgcolor="#E3E3F3"&gt;
&lt;th&gt;NM_RGI&lt;/th&gt;
&lt;td&gt;Tubarão&lt;/td&gt;
&lt;/tr&gt;&lt;tr bgcolor=""&gt;
&lt;th&gt;CT_LOCALIDADE&lt;/th&gt;
&lt;td&gt;Localidade Quilombola&lt;/td&gt;
&lt;/tr&gt;&lt;tr bgcolor="#E3E3F3"&gt;
&lt;th&gt;SCT_LOCALIDADE&lt;/th&gt;
&lt;td&gt;Agrupamento Quilombola&lt;/td&gt;
&lt;/tr&gt;&lt;tr bgcolor=""&gt;
&lt;th&gt;CD_LOCALIDADE&lt;/th&gt;
&lt;td&gt;420395600002&lt;/td&gt;
&lt;/tr&gt;&lt;tr bgcolor="#E3E3F3"&gt;
&lt;th&gt;NM_LOCALIDADE&lt;/th&gt;
&lt;td&gt;Comunidade Quilombola Ilhotinha&lt;/td&gt;
&lt;/tr&gt;&lt;tr bgcolor=""&gt;
&lt;th&gt;LAT_LOCALIDADE&lt;/th&gt;
&lt;td&gt;-28.4288&lt;/td&gt;
&lt;/tr&gt;&lt;tr bgcolor="#E3E3F3"&gt;
&lt;th&gt;LONG_LOCALIDADE&lt;/th&gt;
&lt;td&gt;-48.9606&lt;/td&gt;
&lt;/tr&gt;&lt;/table&gt;&lt;/center&gt;</description>
<Style>
<IconStyle>
<color>ffff54ff</color>
<scale>0.8</scale>
<Icon>
<href>http://maps.google.com/mapfiles/kml/shapes/placemark_circle.png</href>
</Icon>
</IconStyle>
<LabelStyle>
<scale>0.8</scale>
</LabelStyle>
<LineStyle>
<color>7200ffff</color>
<width>1.0</width>
<gx:labelVisibility>1</gx:labelVisibility>
</LineStyle>
<PolyStyle>
<color>6600ffff</color>
</PolyStyle>
</Style>
<ExtendedData>
<SchemaData schemaUrl="#kml_schema_ft_Agrupamentos_Quilombolas">
<SimpleData name="CD_UF">42</SimpleData>
<SimpleData name="NM_UF">Santa Catarina</SimpleData>
<SimpleData name="SIGLA_UF">SC</SimpleData>
<SimpleData name="CD_MUN">4203956</SimpleData>
<SimpleData name="NM_MUN">Capivari de Baixo</SimpleData>
<SimpleData name="CD_RGINT">4202</SimpleData>
<SimpleData name="NM_RGINT">Criciúma</SimpleData>
<SimpleData name="CD_RGI">420003</SimpleData>
<SimpleData name="NM_RGI">Tubarão</SimpleData>
<SimpleData name="CT_LOCALIDADE">Localidade Quilombola</SimpleData>
<SimpleData name="SCT_LOCALIDADE">Agrupamento Quilombola</SimpleData>
<SimpleData name="CD_LOCALIDADE">420395600002</SimpleData>
<SimpleData name="NM_LOCALIDADE">Comunidade Quilombola Ilhotinha</SimpleData>
<SimpleData name="LAT_LOCALIDADE">-28.4288</SimpleData>
<SimpleData name="LONG_LOCALIDADE">-48.9606</SimpleData>
</SchemaData>
</ExtendedData>
<Point>
<extrude>0</extrude>
<coordinates>-48.9605853772951,-28.428797831257,0.0</coordinates>
</Point>
</Placemark>
</Folder>
</Folder>
<Folder id="13. Referência">
<name>13. Referência</name>
<Placemark id="13. Referência">
<name>Capivari de Baixo [4203956]</name>
<visibility>1</visibility>
<snippet> </snippet>
<description>&lt;center&gt;&lt;table&gt;&lt;tr&gt;&lt;th colspan='2' align='center'&gt;&lt;em&gt;Attributes&lt;/em&gt;&lt;/th&gt;&lt;/tr&gt;&lt;tr bgcolor="#E3E3F3"&gt;
&lt;th&gt;CD_UF&lt;/th&gt;
&lt;td&gt;42&lt;/td&gt;
&lt;/tr&gt;&lt;tr bgcolor=""&gt;
&lt;th&gt;NM_UF&lt;/th&gt;
&lt;td&gt;Santa Catarina&lt;/td&gt;
&lt;/tr&gt;&lt;tr bgcolor="#E3E3F3"&gt;
&lt;th&gt;CD_MUN&lt;/th&gt;
&lt;td&gt;4203956&lt;/td&gt;
&lt;/tr&gt;&lt;tr bgcolor=""&gt;
&lt;th&gt;NM_MUN&lt;/th&gt;
&lt;td&gt;Capivari de Baixo&lt;/td&gt;
&lt;/tr&gt;&lt;tr bgcolor="#E3E3F3"&gt;
&lt;th&gt;CD_RGINT&lt;/th&gt;
&lt;td&gt;4202&lt;/td&gt;
&lt;/tr&gt;&lt;tr bgcolor=""&gt;
&lt;th&gt;NM_RGINT&lt;/th&gt;
&lt;td&gt;Criciúma&lt;/td&gt;
&lt;/tr&gt;&lt;tr bgcolor="#E3E3F3"&gt;
&lt;th&gt;CD_RGI&lt;/th&gt;
&lt;td&gt;420003&lt;/td&gt;
&lt;/tr&gt;&lt;tr bgcolor=""&gt;
&lt;th&gt;NM_RGI&lt;/th&gt;
&lt;td&gt;Tubarão&lt;/td&gt;
&lt;/tr&gt;&lt;/table&gt;&lt;/center&gt;</description>
<Style>
<IconStyle>
<scale>0.7</scale>
</IconStyle>
<LabelStyle>
<scale>0.7</scale>
</LabelStyle>
<LineStyle>
<color>ffffffff</color>
<width>3</width>
<gx:labelVisibility>1</gx:labelVisibility>
</LineStyle>
<PolyStyle>
<color>00ffffff</color>
</PolyStyle>
</Style>
<ExtendedData>
<SchemaData schemaUrl="#kml_schema_ft_Município">
<SimpleData name="CD_UF">42</SimpleData>
<SimpleData name="NM_UF">Santa Catarina</SimpleData>
<SimpleData name="CD_MUN">4203956</SimpleData>
<SimpleData name="NM_MUN">Capivari de Baixo</SimpleData>
<SimpleData name="CD_RGINT">4202</SimpleData>
<SimpleData name="NM_RGINT">Criciúma</SimpleData>
<SimpleData name="CD_RGI">420003</SimpleData>
<SimpleData name="NM_RGI">Tubarão</SimpleData>
</SchemaData>
</ExtendedData>
<MultiGeometry>
<Polygon>
<extrude>0</extrude>
<tessellate>1</tessellate>
<outerBoundaryIs>
<LinearRing>
<coordinates>-48.9735493,-28.4655120992082,0.0 -48.9741359,-28.4640727992082,0.0 -48.974735,-28.4630691992082,0.0 -48.9747602,-28.4630479992082,0.0 -48.9749295,-28.4629057992082,0.0 -48.9754585,-28.4625401992082,0.0 -48.9764232,-28.4620577992082,0.0 -48.977489,-28.4618399992082,0.0 -48.9786716,-28.4618554992082,0.0 -48.9799163,-28.4620733992082,0.0 -48.981353,-28.4627415992082,0.0 -48.9825504,-28.4621608992082,0.0 -48.9827416,-28.4620393992082,0.0 -48.9828584,-28.4619651992082,0.0 -48.9830322,-28.4617926992082,0.0 -48.9831152,-28.4617208992082,0.0 -48.9832251,-28.4616863992082,0.0 -48.9837558,-28.4615390992082,0.0 -48.9838942,-28.4614571992082,0.0 -48.9844298,-28.4610245992082,0.0 -48.984559,-28.4608633992083,0.0 -48.9848503,-28.4605788992083,0.0 -48.9859128,-28.4598465992083,0.0 -48.9859991,-28.4596060992083,0.0 -48.9859009,-28.4591831992083,0.0 -48.985441,-28.4587249992083,0.0 -48.9852392,-28.4585940992083,0.0 -48.984893,-28.4583289992083,0.0 -48.9844806,-28.4579439992083,0.0 -48.9839567,-28.4576043992083,0.0 -48.9833084,-28.4576154992083,0.0 -48.982966,-28.4575454992083,0.0 -48.982686,-28.4575376992083,0.0 -48.9822814,-28.4574909992083,0.0 -48.9821142,-28.4573859992083,0.0 -48.9819391,-28.4572770992083,0.0 -48.9818068,-28.4571253992083,0.0 -48.9816318,-28.4569930992083,0.0 -48.9814529,-28.4569114992083,0.0 -48.9811028,-28.4568686992083,0.0 -48.9808032,-28.4568802992083,0.0 -48.9805115,-28.4570280992083,0.0 -48.9802042,-28.4572264992083,0.0 -48.9799514,-28.4574559992083,0.0 -48.9796907,-28.4575882992083,0.0 -48.979469,-28.4576738992083,0.0 -48.9792045,-28.4576349992083,0.0 -48.9790294,-28.4575765992083,0.0 -48.9785279,-28.4574288992083,0.0 -48.9780764,-28.4574637992083,0.0 -48.9774696,-28.4574520992083,0.0 -48.9772362,-28.4573743992083,0.0 -48.9770962,-28.4572109992083,0.0 -48.9770184,-28.4570514992083,0.0 -48.9769483,-28.4568219992083,0.0 -48.9769094,-28.4565885992083,0.0 -48.9769561,-28.4562851992083,0.0 -48.9770689,-28.4559972992083,0.0 -48.9771701,-28.4557599992083,0.0 -48.977244,-28.4552504992084,0.0 -48.9772673,-28.4549586992084,0.0 -48.9772206,-28.4546746992084,0.0 -48.9770767,-28.4544918992084,0.0 -48.9767811,-28.4543479992084,0.0 -48.9763298,-28.4542001992084,0.0 -48.9760459,-28.4541145992084,0.0 -48.9758358,-28.4540406992084,0.0 -48.9755091,-28.4539433992084,0.0 -48.9750189,-28.4537839992084,0.0 -48.9744354,-28.4536166992084,0.0 -48.9739998,-28.4534532992084,0.0 -48.9735408,-28.4533093992084,0.0 -48.9731946,-28.4532081992084,0.0 -48.9729837,-28.4530636992084,0.0 -48.9727905,-28.4529163992084,0.0 -48.9726188,-28.4527063992084,0.0 -48.9724866,-28.4524457992084,0.0 -48.9722882,-28.4523174992084,0.0 -48.9720937,-28.4520995992084,0.0 -48.9719731,-28.4518700992084,0.0 -48.9719381,-28.4515433992084,0.0 -48.9719692,-28.4513721992084,0.0 -48.9721054,-28.4510064992084,0.0 -48.9723855,-28.4506875992084,0.0 -48.9725527,-28.4505397992084,0.0 -48.9725488,-28.4502557992084,0.0 -48.9724119,-28.4498519992085,0.0 -48.9723366,-28.4496083992085,0.0 -48.972141,-28.4494749992085,0.0 -48.9716308,-28.4491276992085,0.0 -48.971094,-28.4488398992085,0.0 -48.9704794,-28.4485286992085,0.0 -48.9702947,-28.4483347992085,0.0 -48.970152,-28.4480599992085,0.0 -48.970166,-28.4478679992085,0.0 -48.970269,-28.4474849992085,0.0 -48.970436,-28.4472029992085,0.0 -48.9705027,-28.4468092992085,0.0 -48.9702927,-28.4465136992085,0.0 -48.9694836,-28.4458056992085,0.0 -48.9691802,-28.4453933992085,0.0 -48.9687445,-28.4451910992085,0.0 -48.9682077,-28.4450588992085,0.0 -48.9678576,-28.4449187992085,0.0 -48.9677249,-28.4448248992085,0.0 -48.967632,-28.4446909992085,0.0 -48.967735,-28.4444769992086,0.0 -48.967902,-28.4441499992086,0.0 -48.96798,-28.4438569992086,0.0 -48.968046,-28.4431119992086,0.0 -48.968047,-28.4429199992086,0.0 -48.968047,-28.4426269992086,0.0 -48.968048,-28.4424009992086,0.0 -48.968049,-28.4421749992086,0.0 -48.968011,-28.4419379992086,0.0 -48.967999,-28.4416329992086,0.0 -48.968026,-28.4412949992086,0.0 -48.968052,-28.4411259992086,0.0 -48.968167,-28.4409449992086,0.0 -48.968244,-28.4408549992086,0.0 -48.968385,-28.4406749992086,0.0 -48.968488,-28.4406299992086,0.0 -48.968834,-28.4403489992086,0.0 -48.969051,-28.4401569992086,0.0 -48.969192,-28.4399879992086,0.0 -48.969218,-28.4397959992086,0.0 -48.969206,-28.4396839992086,0.0 -48.96913,-28.4395249992086,0.0 -48.969028,-28.4392879992086,0.0 -48.969003,-28.4391979992086,0.0 -48.968977,-28.4391529992086,0.0 -48.968991,-28.4388479992087,0.0 -48.969055,-28.4388369992086,0.0 -48.969209,-28.4386679992087,0.0 -48.969465,-28.4383969992087,0.0 -48.969593,-28.4382739992087,0.0 -48.969594,-28.4381489992087,0.0 -48.9695184,-28.4380222992087,0.0 -48.969427,-28.4378760992087,0.0 -48.9693242,-28.4377115992087,0.0 -48.9691067,-28.4373697992087,0.0 -48.9691067,-28.4370746992087,0.0 -48.9690989,-28.4367872992087,0.0 -48.969177,-28.4364439992087,0.0 -48.969127,-28.4361959992087,0.0 -48.968796,-28.4359639992087,0.0 -48.9683377,-28.4358318992087,0.0 -48.968097,-28.4356842992087,0.0 -48.9680581,-28.4355134992087,0.0 -48.968145,-28.4353589992087,0.0 -48.9684853,-28.4353036992087,0.0 -48.9688271,-28.4351172992087,0.0 -48.9689281,-28.4349463992087,0.0 -48.968939,-28.4347849992087,0.0 -48.9688271,-28.4347211992087,0.0 -48.9685475,-28.4344570992087,0.0 -48.9682212,-28.4343094992087,0.0 -48.9677552,-28.4341774992087,0.0 -48.9675765,-28.4338900992087,0.0 -48.967614,-28.4335629992087,0.0 -48.967653,-28.4334049992087,0.0 -48.967743,-28.4332469992088,0.0 -48.967833,-28.4331349992088,0.0 -48.967922,-28.4330439992088,0.0 -48.968166,-28.4328309992088,0.0 -48.968332,-28.4326389992088,0.0 -48.9686096,-28.4323365992088,0.0 -48.968679,-28.4319629992088,0.0 -48.969064,-28.4314779992088,0.0 -48.969218,-28.4313429992088,0.0 -48.969397,-28.4312649992088,0.0 -48.969665,-28.4311969992088,0.0 -48.9698291,-28.4311481992088,0.0 -48.969864,-28.4311171992088,0.0 -48.9698932,-28.4310426992088,0.0 -48.9699029,-28.4310180992088,0.0 -48.9698562,-28.4309306992088,0.0 -48.9697553,-28.4308102992088,0.0 -48.9697184,-28.4307267992088,0.0 -48.9697533,-28.4305792992088,0.0 -48.9697863,-28.4304996992088,0.0 -48.9699495,-28.4303442992088,0.0 -48.97023,-28.4303069992088,0.0 -48.9706951,-28.4302743992088,0.0 -48.9710757,-28.4301500992088,0.0 -48.9713476,-28.4299248992088,0.0 -48.971561,-28.4295649992088,0.0 -48.9716816,-28.4291636992088,0.0 -48.9721864,-28.4286975992088,0.0 -48.9728389,-28.4282626992088,0.0 -48.97375,-28.4280009992088,0.0 -48.9740701,-28.4279498992088,0.0 -48.974759,-28.4278119992089,0.0 -48.974977,-28.4276199992089,0.0 -48.974977,-28.4274739992089,0.0 -48.974978,-28.4273609992089,0.0 -48.974787,-28.4271349992089,0.0 -48.9744467,-28.4271907992089,0.0 -48.9742525,-28.4271829992089,0.0 -48.9741205,-28.4269887992089,0.0 -48.9741205,-28.4266625992089,0.0 -48.9743613,-28.4264683992089,0.0 -48.974674,-28.4264119992089,0.0 -48.974763,-28.4264009992089,0.0 -48.974891,-28.4263329992089,0.0 -48.975007,-28.4261529992089,0.0 -48.975096,-28.4260519992089,0.0 -48.975135,-28.4258939992089,0.0 -48.975135,-28.4257919992089,0.0 -48.975136,-28.4255209992089,0.0 -48.9751963,-28.4249770992089,0.0 -48.9753516,-28.4243867992089,0.0 -48.975472,-28.4241071992089,0.0 -48.9755924,-28.4240527992089,0.0 -48.9757827,-28.4240255992089,0.0 -48.9759264,-28.4240527992089,0.0 -48.9761428,-28.4242006992089,0.0 -48.9763691,-28.4244915992089,0.0 -48.9767459,-28.4247634992089,0.0 -48.9770488,-28.4248178992089,0.0 -48.9772624,-28.4248139992089,0.0 -48.977399,-28.4247249992089,0.0 -48.977515,-28.4246239992089,0.0 -48.9778139,-28.4242469992089,0.0 -48.9779692,-28.4237265992089,0.0 -48.977927,-28.4234118992089,0.0 -48.978043,-28.4229999992089,0.0 -48.978159,-28.4228419992089,0.0 -48.9782966,-28.4225366992089,0.0 -48.9783295,-28.422339299209,0.0 -48.9785721,-28.422026499209,0.0 -48.9787812,-28.4219694992089,0.0 -48.9789978,-28.421965499209,0.0 -48.9790438,-28.421964599209,0.0 -48.9705794,-28.4141970992091,0.0 -48.9662091,-28.4101865992092,0.0 -48.9654097,-28.4094529992092,0.0 -48.9629574,-28.4072025992092,0.0 -48.9602236,-28.4046937992093,0.0 -48.9543691,-28.3993212992094,0.0 -48.9515453,-28.3967300992094,0.0 -48.9508946,-28.3961328992094,0.0 -48.9507316,-28.3959833992094,0.0 -48.9506394,-28.3958986992094,0.0 -48.9505608,-28.3958265992094,0.0 -48.9505118,-28.3957816992094,0.0 -48.9477243,-28.3932235992095,0.0 -48.942464,-28.3883963992096,0.0 -48.9372245,-28.3835882992096,0.0 -48.937296,-28.3839258992096,0.0 -48.9373068,-28.3841139992096,0.0 -48.9372902,-28.3842850992096,0.0 -48.9372737,-28.3845251992096,0.0 -48.9372566,-28.3848075992096,0.0 -48.9372067,-28.3852699992096,0.0 -48.9371527,-28.3858560992096,0.0 -48.9371834,-28.3860238992096,0.0 -48.9372344,-28.3861613992096,0.0 -48.9372981,-28.3862803992096,0.0 -48.9375001,-28.3866460992096,0.0 -48.9375403,-28.3867640992096,0.0 -48.9375581,-28.3868900992096,0.0 -48.9375563,-28.3869995992096,0.0 -48.9375004,-28.3871534992096,0.0 -48.9372525,-28.3875430992096,0.0 -48.93712,-28.3877472992096,0.0 -48.9370704,-28.3878410992096,0.0 -48.9370374,-28.3879880992096,0.0 -48.937046,-28.3880770992096,0.0 -48.9370647,-28.3881342992096,0.0 -48.9370835,-28.3881913992096,0.0 -48.9371437,-28.3883088992096,0.0 -48.9371761,-28.3883721992096,0.0 -48.9372076,-28.3884691992096,0.0 -48.9371914,-28.3885451992095,0.0 -48.9371566,-28.3886142992096,0.0 -48.9368415,-28.3888314992095,0.0 -48.9367186,-28.3889488992095,0.0 -48.9366657,-28.3890054992095,0.0 -48.9366103,-28.3890615992095,0.0 -48.9365603,-28.3891059992095,0.0 -48.9364967,-28.3891634992095,0.0 -48.9364533,-28.3892203992095,0.0 -48.9364211,-28.3892993992095,0.0 -48.9364046,-28.3893825992095,0.0 -48.936399,-28.3894404992095,0.0 -48.9363885,-28.3894708992095,0.0 -48.9362998,-28.3895433992095,0.0 -48.9362254,-28.3895642992095,0.0 -48.9361324,-28.3895736992095,0.0 -48.9360375,-28.3895840992095,0.0 -48.9359524,-28.3896036992095,0.0 -48.9358941,-28.3896328992095,0.0 -48.9358481,-28.3896723992095,0.0 -48.9358193,-28.3897245992095,0.0 -48.935815,-28.3897802992095,0.0 -48.9358119,-28.3898560992095,0.0 -48.9357973,-28.3899181992095,0.0 -48.9357511,-28.3899849992095,0.0 -48.9356968,-28.3900466992095,0.0 -48.9356266,-28.3901714992095,0.0 -48.9355918,-28.3903116992095,0.0 -48.935579,-28.3903978992095,0.0 -48.9355555,-28.3905204992095,0.0 -48.9355203,-28.3906160992095,0.0 -48.9354735,-28.3907013992095,0.0 -48.9354126,-28.3907901992095,0.0 -48.93538,-28.3908433992095,0.0 -48.9353643,-28.3909004992095,0.0 -48.935361,-28.3909845992095,0.0 -48.9353652,-28.3910716992095,0.0 -48.9353755,-28.3911634992095,0.0 -48.9353738,-28.3912341992095,0.0 -48.9353529,-28.3912961992095,0.0 -48.9353136,-28.3913442992095,0.0 -48.9352818,-28.3913908992095,0.0 -48.9352402,-28.3914706992095,0.0 -48.9352144,-28.3916071992095,0.0 -48.9351981,-28.3916430992095,0.0 -48.9351671,-28.3916868992095,0.0 -48.9351116,-28.3917445992095,0.0 -48.9350028,-28.3918153992095,0.0 -48.9349172,-28.3918511992095,0.0 -48.9348422,-28.3918893992095,0.0 -48.9347636,-28.3919425992095,0.0 -48.9346965,-28.3919899992095,0.0 -48.9346281,-28.3920384992095,0.0 -48.9345722,-28.3920698992095,0.0 -48.9345097,-28.3920950992095,0.0 -48.9344456,-28.3921263992095,0.0 -48.9343839,-28.3921627992095,0.0 -48.9343347,-28.3922021992095,0.0 -48.9342937,-28.3922418992095,0.0 -48.9342515,-28.3923009992095,0.0 -48.9341948,-28.3924251992095,0.0 -48.934188,-28.3924595992095,0.0 -48.9341822,-28.3924921992095,0.0 -48.9341682,-28.3925251992095,0.0 -48.9341451,-28.3925517992095,0.0 -48.9341083,-28.3925732992095,0.0 -48.9340527,-28.3925875992095,0.0 -48.9339922,-28.3925958992095,0.0 -48.9339364,-28.3925955992095,0.0 -48.9338978,-28.3925928992095,0.0 -48.9338838,-28.3925936992095,0.0 -48.933835,-28.3925994992095,0.0 -48.9338238,-28.3926212992095,0.0 -48.9338132,-28.3926541992095,0.0 -48.9338109,-28.3926868992095,0.0 -48.9338098,-28.3927317992095,0.0 -48.9337986,-28.3927757992095,0.0 -48.9337695,-28.3928316992095,0.0 -48.9337377,-28.3928858992095,0.0 -48.9336745,-28.3930064992095,0.0 -48.9336653,-28.3930668992095,0.0 -48.9336516,-28.3932182992095,0.0 -48.9335972,-28.3934585992095,0.0 -48.9335665,-28.3936383992095,0.0 -48.9335547,-28.3937075992095,0.0 -48.9335437,-28.3937843992095,0.0 -48.9335421,-28.3938438992095,0.0 -48.9335444,-28.3939204992095,0.0 -48.9335552,-28.3939900992095,0.0 -48.9335724,-28.3940656992094,0.0 -48.9335843,-28.3941203992095,0.0 -48.9335894,-28.3941605992095,0.0 -48.9335856,-28.3942003992094,0.0 -48.9335815,-28.3942106992094,0.0 -48.9335687,-28.3942430992094,0.0 -48.9335383,-28.3942913992095,0.0 -48.9334311,-28.3944791992094,0.0 -48.9333995,-28.3945371992094,0.0 -48.9333819,-28.3945813992094,0.0 -48.9333768,-28.3946418992095,0.0 -48.9333751,-28.3946939992094,0.0 -48.9333731,-28.3947561992094,0.0 -48.9333737,-28.3949589992094,0.0 -48.9333709,-28.3950438992094,0.0 -48.9333756,-28.3951079992094,0.0 -48.9333877,-28.3951643992094,0.0 -48.9334159,-28.3952264992094,0.0 -48.9334392,-28.3952798992094,0.0 -48.9334478,-28.3953394992094,0.0 -48.9334443,-28.3953910992094,0.0 -48.9334308,-28.3954358992094,0.0 -48.9333972,-28.3954933992094,0.0 -48.9332853,-28.3956696992094,0.0 -48.9331706,-28.3958846992094,0.0 -48.9330523,-28.3961621992094,0.0 -48.932991,-28.3962744992094,0.0 -48.9329584,-28.3963216992094,0.0 -48.9329098,-28.3963748992094,0.0 -48.9328695,-28.3964256992094,0.0 -48.9328206,-28.3964757992094,0.0 -48.9327775,-28.3965237992094,0.0 -48.9327471,-28.3965619992094,0.0 -48.9327341,-28.3965919992094,0.0 -48.9327294,-28.3966307992094,0.0 -48.9327391,-28.3966604992094,0.0 -48.9327401,-28.3966635992094,0.0 -48.932842,-28.3968207992094,0.0 -48.9328794,-28.3968721992094,0.0 -48.9329155,-28.3969036992094,0.0 -48.9329771,-28.3969501992094,0.0 -48.9330256,-28.3969906992094,0.0 -48.9331031,-28.3970683992094,0.0 -48.9331225,-28.3971176992094,0.0 -48.9331397,-28.3971831992094,0.0 -48.9331821,-28.3973564992094,0.0 -48.9331964,-28.3974251992094,0.0 -48.9332038,-28.3974523992094,0.0 -48.9332135,-28.3974663992094,0.0 -48.9332409,-28.3974832992094,0.0 -48.9332896,-28.3975069992094,0.0 -48.9333427,-28.3975242992094,0.0 -48.9334691,-28.3975502992094,0.0 -48.9335085,-28.3975658992094,0.0 -48.9335361,-28.3975956992094,0.0 -48.933546,-28.3976441992094,0.0 -48.9335508,-28.3976919992094,0.0 -48.9335741,-28.3977478992094,0.0 -48.9336604,-28.3979783992094,0.0 -48.9336898,-28.3980492992094,0.0 -48.9337204,-28.3981262992094,0.0 -48.9337457,-28.3981987992094,0.0 -48.9337623,-28.3982628992094,0.0 -48.933775,-28.3983138992094,0.0 -48.9337819,-28.3983567992094,0.0 -48.9337785,-28.3983933992094,0.0 -48.9337703,-28.3984200992094,0.0 -48.9337719,-28.3984408992094,0.0 -48.9337836,-28.3984624992094,0.0 -48.9338025,-28.3984769992094,0.0 -48.9338454,-28.3984839992094,0.0 -48.9340627,-28.3984824992094,0.0 -48.9341236,-28.3984840992094,0.0 -48.9341753,-28.3984853992094,0.0 -48.9342077,-28.3984917992094,0.0 -48.9342594,-28.3985236992094,0.0 -48.9343161,-28.3985660992094,0.0 -48.9343717,-28.3986016992094,0.0 -48.9344225,-28.3986215992094,0.0 -48.9344553,-28.3986371992094,0.0 -48.934494,-28.3986673992094,0.0 -48.9345406,-28.3987181992094,0.0 -48.9348411,-28.3990545992094,0.0 -48.9349,-28.3991087992094,0.0 -48.934938,-28.3991318992094,0.0 -48.9349762,-28.3991468992094,0.0 -48.9350317,-28.3991575992094,0.0 -48.9351001,-28.3991677992094,0.0 -48.9351632,-28.3991704992094,0.0 -48.9352082,-28.3991729992094,0.0 -48.9352482,-28.3991829992094,0.0 -48.9352761,-28.3992038992094,0.0 -48.9352957,-28.3992442992094,0.0 -48.9352983,-28.3993124992094,0.0 -48.9353058,-28.3993667992094,0.0 -48.9353296,-28.3994049992094,0.0 -48.9355705,-28.3996705992094,0.0 -48.9356204,-28.3997230992093,0.0 -48.9358483,-28.3999633992094,0.0 -48.9359072,-28.4000265992093,0.0 -48.9359584,-28.4000719992093,0.0 -48.936001,-28.4001086992093,0.0 -48.9360364,-28.4001543992093,0.0 -48.9360632,-28.4002089992093,0.0 -48.9360914,-28.4002783992093,0.0 -48.9361749,-28.4005256992093,0.0 -48.9362019,-28.4005762992093,0.0 -48.9362289,-28.4006125992093,0.0 -48.9362541,-28.4006476992093,0.0 -48.9362776,-28.4006996992093,0.0 -48.9363041,-28.4007723992093,0.0 -48.9363322,-28.4008370992093,0.0 -48.9363666,-28.4009125992093,0.0 -48.936383,-28.4009737992093,0.0 -48.9363892,-28.4010404992093,0.0 -48.9363868,-28.4011155992093,0.0 -48.9363964,-28.4011906992093,0.0 -48.9364258,-28.4012758992093,0.0 -48.9364578,-28.4013352992093,0.0 -48.9364914,-28.4013756992093,0.0 -48.9365369,-28.4014130992093,0.0 -48.9366057,-28.4014601992093,0.0 -48.9366462,-28.4014878992093,0.0 -48.9368923,-28.4016486992093,0.0 -48.9369527,-28.4016858992093,0.0 -48.9370072,-28.4017062992093,0.0 -48.9370554,-28.4017091992093,0.0 -48.9371083,-28.4017099992093,0.0 -48.9371545,-28.4017041992093,0.0 -48.9372056,-28.4016950992093,0.0 -48.9372497,-28.4017031992093,0.0 -48.9373006,-28.4017280992093,0.0 -48.9373538,-28.4017605992093,0.0 -48.9374151,-28.4017979992093,0.0 -48.9374559,-28.4018436992093,0.0 -48.9375001,-28.4019082992093,0.0 -48.9375623,-28.4019971992093,0.0 -48.9375705,-28.4020089992093,0.0 -48.937598,-28.4020530992093,0.0 -48.9376111,-28.4020988992093,0.0 -48.9376171,-28.4021604992093,0.0 -48.937616,-28.4022254992093,0.0 -48.9376137,-28.4022989992093,0.0 -48.9376099,-28.4024160992093,0.0 -48.9375552,-28.4027697992093,0.0 -48.9375001,-28.4029647992093,0.0 -48.9374773,-28.4030454992093,0.0 -48.9374592,-28.4030845992093,0.0 -48.9374245,-28.4031279992093,0.0 -48.9373856,-28.4031657992093,0.0 -48.9373423,-28.4032100992093,0.0 -48.9373084,-28.4032571992093,0.0 -48.9372531,-28.4034324992093,0.0 -48.9372159,-28.4035535992093,0.0 -48.9371476,-28.4038645992093,0.0 -48.9370658,-28.4042032992093,0.0 -48.9370123,-28.4044786992093,0.0 -48.9369625,-28.4047758992093,0.0 -48.936935,-28.4049409992093,0.0 -48.9369331,-28.4050009992093,0.0 -48.9369349,-28.4050752992093,0.0 -48.9369558,-28.4051675992093,0.0 -48.9369736,-28.4052350992093,0.0 -48.9370018,-28.4053254992093,0.0 -48.9370249,-28.4054074992092,0.0 -48.9370303,-28.4054568992093,0.0 -48.9370405,-28.4055593992092,0.0 -48.937059,-28.4057807992092,0.0 -48.9370963,-28.4058683992092,0.0 -48.9371577,-28.4059553992092,0.0 -48.9372553,-28.4060680992092,0.0 -48.9373615,-28.4061651992092,0.0 -48.9375001,-28.4062778992092,0.0 -48.9375574,-28.4063264992092,0.0 -48.9376512,-28.4064165992092,0.0 -48.9377315,-28.4065079992092,0.0 -48.9379851,-28.4068512992092,0.0 -48.9383897,-28.4073658992092,0.0 -48.9388291,-28.4080342992092,0.0 -48.9388964,-28.4081911992092,0.0 -48.9389052,-28.4082117992092,0.0 -48.9392561,-28.4090303992092,0.0 -48.9392948,-28.4092180992092,0.0 -48.9392813,-28.4093355992092,0.0 -48.9392456,-28.4094416992092,0.0 -48.9392254,-28.4095795992092,0.0 -48.9392926,-28.4102492992092,0.0 -48.9395217,-28.4105823992092,0.0 -48.9399822,-28.4109448992092,0.0 -48.9401984,-28.4114680992091,0.0 -48.9402467,-28.4116793992091,0.0 -48.9400824,-28.4123052992091,0.0 -48.9396665,-28.4128041992091,0.0 -48.9393952,-28.4129767992091,0.0 -48.9390859,-28.4130300992091,0.0 -48.9389495,-28.4130657992091,0.0 -48.9388355,-28.4131121992091,0.0 -48.9387439,-28.4131739992091,0.0 -48.9386832,-28.4132587992091,0.0 -48.9386463,-28.4133364992091,0.0 -48.9385837,-28.4135313992091,0.0 -48.9385625,-28.4136490992091,0.0 -48.9385112,-28.4137459992091,0.0 -48.9384652,-28.4138291992091,0.0 -48.9384009,-28.4139322992091,0.0 -48.9383668,-28.4140670992091,0.0 -48.938377,-28.4142409992091,0.0 -48.9384305,-28.4143757992091,0.0 -48.9385578,-28.4146642992091,0.0 -48.9385717,-28.4148272992091,0.0 -48.938517,-28.4149683992091,0.0 -48.9384472,-28.4150640992091,0.0 -48.9384226,-28.4151376992091,0.0 -48.9384394,-28.4152074992091,0.0 -48.9384852,-28.4152580992091,0.0 -48.9385399,-28.4152732992091,0.0 -48.9386065,-28.4152442992091,0.0 -48.9386918,-28.4151613992091,0.0 -48.938761,-28.4151216992091,0.0 -48.9387735,-28.4151145992091,0.0 -48.938839,-28.4151282992091,0.0 -48.9388729,-28.4152197992091,0.0 -48.938972,-28.4153732992091,0.0 -48.9391232,-28.4155134992091,0.0 -48.9391803,-28.4156237992091,0.0 -48.9392312,-28.4157144992091,0.0 -48.9393613,-28.4158262992091,0.0 -48.939493,-28.4159359992091,0.0 -48.9395393,-28.4160321992091,0.0 -48.93955,-28.4161040992091,0.0 -48.9395191,-28.4161620992091,0.0 -48.939448,-28.4162000992091,0.0 -48.939369,-28.4162142992091,0.0 -48.9391935,-28.4162658992091,0.0 -48.9391303,-28.4163247992091,0.0 -48.9391165,-28.4164023992091,0.0 -48.9391387,-28.416475599209,0.0 -48.9392129,-28.4166669992091,0.0 -48.9392167,-28.416676799209,0.0 -48.9392152,-28.416755699209,0.0 -48.9391702,-28.416796099209,0.0 -48.9390974,-28.416808199209,0.0 -48.9390197,-28.416804699209,0.0 -48.9389559,-28.416801799209,0.0 -48.9389107,-28.416813699209,0.0 -48.938874,-28.416828299209,0.0 -48.938845,-28.416847499209,0.0 -48.9388206,-28.416948999209,0.0 -48.9388361,-28.417118699209,0.0 -48.9388575,-28.417268099209,0.0 -48.9388022,-28.417346599209,0.0 -48.9387653,-28.417429799209,0.0 -48.9387684,-28.417507299209,0.0 -48.9388653,-28.417753899209,0.0 -48.93893,-28.418008899209,0.0 -48.9389469,-28.418167799209,0.0 -48.9389364,-28.418271099209,0.0 -48.9389141,-28.418322899209,0.0 -48.9389124,-28.418326999209,0.0 -48.9388536,-28.418369599209,0.0 -48.9387623,-28.418379199209,0.0 -48.9384681,-28.418394299209,0.0 -48.93837,-28.418420199209,0.0 -48.9382821,-28.418470499209,0.0 -48.9382169,-28.418558699209,0.0 -48.9381576,-28.418622299209,0.0 -48.9381131,-28.418625399209,0.0 -48.9380758,-28.418590999209,0.0 -48.9380715,-28.418534599209,0.0 -48.9381153,-28.418457499209,0.0 -48.9381712,-28.418364699209,0.0 -48.9382003,-28.418269299209,0.0 -48.9382164,-28.418192399209,0.0 -48.9382034,-28.418123199209,0.0 -48.9381746,-28.418079199209,0.0 -48.9381409,-28.418014299209,0.0 -48.9381115,-28.417830299209,0.0 -48.9380626,-28.417702299209,0.0 -48.9379969,-28.417583899209,0.0 -48.9379252,-28.417485199209,0.0 -48.937818,-28.417365099209,0.0 -48.9377118,-28.417270799209,0.0 -48.9375,-28.417143799209,0.0 -48.9374218,-28.417096899209,0.0 -48.9373521,-28.417054899209,0.0 -48.9373054,-28.417039599209,0.0 -48.9372459,-28.417014399209,0.0 -48.9372038,-28.417007299209,0.0 -48.9370728,-28.417087599209,0.0 -48.9369831,-28.417176699209,0.0 -48.9369297,-28.417268599209,0.0 -48.9369268,-28.417287099209,0.0 -48.9369135,-28.417369399209,0.0 -48.9369171,-28.417463899209,0.0 -48.9369543,-28.417557599209,0.0 -48.9370476,-28.417708499209,0.0 -48.9371332,-28.417921799209,0.0 -48.9371906,-28.418045699209,0.0 -48.9372131,-28.418110399209,0.0 -48.9372162,-28.418155799209,0.0 -48.9371886,-28.418204499209,0.0 -48.9371406,-28.418213999209,0.0 -48.9370403,-28.418187399209,0.0 -48.9366304,-28.417992099209,0.0 -48.9364098,-28.417940899209,0.0 -48.9363043,-28.417956199209,0.0 -48.9361832,-28.418060699209,0.0 -48.9361265,-28.418165399209,0.0 -48.9361103,-28.418275199209,0.0 -48.9360976,-28.418380799209,0.0 -48.9360908,-28.418460899209,0.0 -48.9361169,-28.418542499209,0.0 -48.9361656,-28.418621599209,0.0 -48.9362305,-28.418703199209,0.0 -48.9362685,-28.418732399209,0.0 -48.9363107,-28.418742099209,0.0 -48.9363566,-28.418737199209,0.0 -48.9364087,-28.418727699209,0.0 -48.9364588,-28.418730099209,0.0 -48.9365252,-28.418749399209,0.0 -48.9365752,-28.418782299209,0.0 -48.9366291,-28.418822899209,0.0 -48.9366708,-28.418846199209,0.0 -48.9369657,-28.418918699209,0.0 -48.937086,-28.418946999209,0.0 -48.9371702,-28.419008199209,0.0 -48.937231,-28.419055099209,0.0 -48.9372986,-28.419096399209,0.0 -48.9373326,-28.419131999209,0.0 -48.9373529,-28.419183299209,0.0 -48.9373591,-28.419252999209,0.0 -48.9373533,-28.419297299209,0.0 -48.9373317,-28.419338099209,0.0 -48.9372916,-28.419377799209,0.0 -48.9372233,-28.419413999209,0.0 -48.9371502,-28.419441199209,0.0 -48.9371099,-28.419457299209,0.0 -48.9370904,-28.419504699209,0.0 -48.9371531,-28.419610399209,0.0 -48.9372488,-28.419726699209,0.0 -48.937251,-28.419733299209,0.0 -48.9372137,-28.419789999209,0.0 -48.9371968,-28.419807699209,0.0 -48.9371495,-28.419817099209,0.0 -48.9370864,-28.419818799209,0.0 -48.936991,-28.419810899209,0.0 -48.9368575,-28.419770099209,0.0 -48.9366984,-28.419694199209,0.0 -48.9366709,-28.419681699209,0.0 -48.9366283,-28.419676499209,0.0 -48.9366057,-28.419682699209,0.0 -48.9366003,-28.419691199209,0.0 -48.9365972,-28.419726399209,0.0 -48.9366197,-28.419785699209,0.0 -48.9367216,-28.420134799209,0.0 -48.9367038,-28.420210699209,0.0 -48.936657,-28.420267999209,0.0 -48.9365847,-28.420315799209,0.0 -48.9362289,-28.420407399209,0.0 -48.93611,-28.420460399209,0.0 -48.9359926,-28.420522499209,0.0 -48.9359168,-28.420566599209,0.0 -48.9356825,-28.420713799209,0.0 -48.935492,-28.420918299209,0.0 -48.9353496,-28.421115599209,0.0 -48.9353288,-28.421237199209,0.0 -48.935525,-28.421382799209,0.0 -48.9360067,-28.421560699209,0.0 -48.9361138,-28.421600899209,0.0 -48.9361924,-28.421630499209,0.0 -48.9362694,-28.421673299209,0.0 -48.9363202,-28.421714299209,0.0 -48.9363785,-28.421776399209,0.0 -48.9363844,-28.421778799209,0.0 -48.9363372,-28.421864799209,0.0 -48.9362625,-28.421941199209,0.0 -48.9361281,-28.422027599209,0.0 -48.9358835,-28.422131199209,0.0 -48.9357643,-28.422151399209,0.0 -48.935645,-28.422151699209,0.0 -48.9355414,-28.422154199209,0.0 -48.9354106,-28.4221799992089,0.0 -48.9347577,-28.422418599209,0.0 -48.9346792,-28.4224609992089,0.0 -48.934599,-28.4225348992089,0.0 -48.9345749,-28.4226041992089,0.0 -48.9346621,-28.4229098992089,0.0 -48.9346727,-28.4230177992089,0.0 -48.9346778,-28.4231201992089,0.0 -48.9346716,-28.4232663992089,0.0 -48.9346195,-28.4234207992089,0.0 -48.9345542,-28.4234764992089,0.0 -48.9344273,-28.4234748992089,0.0 -48.934388,-28.4234572992089,0.0 -48.9339547,-28.4232628992089,0.0 -48.9337579,-28.4232017992089,0.0 -48.9336508,-28.4231891992089,0.0 -48.9335832,-28.4232211992089,0.0 -48.9335472,-28.4232596992089,0.0 -48.9335209,-28.4233137992089,0.0 -48.9334815,-28.4234298992089,0.0 -48.9334598,-28.4235104992089,0.0 -48.9334312,-28.4235936992089,0.0 -48.9334215,-28.4236038992089,0.0 -48.9334064,-28.4236089992089,0.0 -48.933388,-28.4236088992089,0.0 -48.9331388,-28.4235516992089,0.0 -48.9331095,-28.4235523992089,0.0 -48.9330789,-28.4235637992089,0.0 -48.9330205,-28.4235869992089,0.0 -48.9329827,-28.4236241992089,0.0 -48.9329586,-28.4236534992089,0.0 -48.9329468,-28.4237080992089,0.0 -48.932848,-28.4239246992089,0.0 -48.9328461,-28.4239291992089,0.0 -48.932845,-28.4239321992089,0.0 -48.9328431,-28.4239381992089,0.0 -48.9328424,-28.4239412992089,0.0 -48.9328412,-28.4239473992089,0.0 -48.9328404,-28.4239535992089,0.0 -48.93284,-28.4239577992089,0.0 -48.9328398,-28.4239662992089,0.0 -48.9328402,-28.4239758992089,0.0 -48.9328408,-28.4239822992089,0.0 -48.9328425,-28.4239952992089,0.0 -48.9328436,-28.4240017992089,0.0 -48.9328463,-28.4240147992089,0.0 -48.932852,-28.4240405992089,0.0 -48.9328546,-28.4240533992089,0.0 -48.9328672,-28.4241188992089,0.0 -48.9328736,-28.4241513992089,0.0 -48.9328836,-28.4241998992089,0.0 -48.9328941,-28.4242480992089,0.0 -48.9328997,-28.4242720992089,0.0 -48.9329076,-28.4243038992089,0.0 -48.9329116,-28.4243197992089,0.0 -48.932918,-28.4243435992089,0.0 -48.932845,-28.4247339992089,0.0 -48.9328385,-28.4248969992089,0.0 -48.9328357,-28.4249677992089,0.0 -48.9328085,-28.4250563992089,0.0 -48.9327598,-28.4252147992089,0.0 -48.9326308,-28.4255544992089,0.0 -48.932574,-28.4257039992089,0.0 -48.932445,-28.4260079992089,0.0 -48.932419,-28.4261769992089,0.0 -48.932226,-28.4265939992089,0.0 -48.932059,-28.4268309992089,0.0 -48.931931,-28.4270789992089,0.0 -48.931853,-28.4274739992089,0.0 -48.931775,-28.4277559992088,0.0 -48.9317269,-28.4280724992088,0.0 -48.93171,-28.4281839992088,0.0 -48.931696,-28.4286019992088,0.0 -48.931694,-28.4291099992088,0.0 -48.931591,-28.4294479992088,0.0 -48.931487,-28.4298429992088,0.0 -48.9313575,-28.4301080992088,0.0 -48.931256,-28.4303159992088,0.0 -48.930974,-28.4307329992088,0.0 -48.930871,-28.4308339992088,0.0 -48.930564,-28.4309919992088,0.0 -48.930308,-28.4311599992088,0.0 -48.930052,-28.4312159992088,0.0 -48.929387,-28.4315079992088,0.0 -48.929093,-28.4316199992088,0.0 -48.928785,-28.4318789992088,0.0 -48.928491,-28.4321039992088,0.0 -48.928324,-28.4322719992088,0.0 -48.927863,-28.4327679992088,0.0 -48.927581,-28.4329479992088,0.0 -48.927274,-28.4331159992088,0.0 -48.927043,-28.4332739992088,0.0 -48.9268,-28.4333969992087,0.0 -48.926468,-28.4335769992087,0.0 -48.926147,-28.4338359992087,0.0 -48.925929,-28.4341399992087,0.0 -48.925647,-28.4344549992087,0.0 -48.925442,-28.4346689992087,0.0 -48.925275,-28.4348489992087,0.0 -48.925057,-28.4350969992087,0.0 -48.924891,-28.4352769992087,0.0 -48.924801,-28.4353669992087,0.0 -48.924596,-28.4356259992087,0.0 -48.924403,-28.4358629992087,0.0 -48.924108,-28.4362119992087,0.0 -48.923941,-28.4364929992087,0.0 -48.923838,-28.4366509992087,0.0 -48.923825,-28.4367409992087,0.0 -48.923812,-28.4369329992087,0.0 -48.92376,-28.4372599992087,0.0 -48.923619,-28.4374179992087,0.0 -48.923592,-28.4376999992087,0.0 -48.923156,-28.4382179992087,0.0 -48.923027,-28.4386129992087,0.0 -48.922949,-28.4390409992086,0.0 -48.922935,-28.4392899992086,0.0 -48.922947,-28.4395609992086,0.0 -48.922972,-28.4398769992086,0.0 -48.923035,-28.4401589992086,0.0 -48.923085,-28.4403619992086,0.0 -48.923084,-28.4406219992086,0.0 -48.923071,-28.4408249992086,0.0 -48.922724,-28.4412299992086,0.0 -48.922545,-28.4414329992086,0.0 -48.922404,-28.4416359992086,0.0 -48.92239,-28.4418729992086,0.0 -48.922377,-28.4420639992086,0.0 -48.922491,-28.4421549992086,0.0 -48.922541,-28.4423919992086,0.0 -48.922541,-28.4426629992086,0.0 -48.9225368,-28.4427691992086,0.0 -48.922527,-28.4430129992086,0.0 -48.9225,-28.4432159992086,0.0 -48.9225,-28.4434299992086,0.0 -48.922614,-28.4436789992086,0.0 -48.922741,-28.4438939992086,0.0 -48.922868,-28.4440749992086,0.0 -48.9228868,-28.4442006992085,0.0 -48.922905,-28.4443229992086,0.0 -48.922828,-28.4444699992085,0.0 -48.922572,-28.4446489992085,0.0 -48.92215,-28.4447609992085,0.0 -48.921741,-28.4448049992085,0.0 -48.921281,-28.4448719992085,0.0 -48.920961,-28.4450399992085,0.0 -48.920781,-28.4452769992085,0.0 -48.920602,-28.4455019992085,0.0 -48.920524,-28.4457499992085,0.0 -48.920434,-28.4460769992085,0.0 -48.920433,-28.4463479992085,0.0 -48.920419,-28.4466079992085,0.0 -48.920353,-28.4472389992085,0.0 -48.920402,-28.4479279992085,0.0 -48.920439,-28.4483789992085,0.0 -48.9204956,-28.4487199992085,0.0 -48.920514,-28.4488309992085,0.0 -48.920564,-28.4492369992085,0.0 -48.920613,-28.4496209992085,0.0 -48.920676,-28.4500389992085,0.0 -48.920739,-28.4503549992084,0.0 -48.920891,-28.4507169992084,0.0 -48.92089,-28.4509199992084,0.0 -48.920799,-28.4513029992084,0.0 -48.920479,-28.4516519992084,0.0 -48.920311,-28.4519679992084,0.0 -48.9200478,-28.4523991992084,0.0 -48.919733,-28.4529149992084,0.0 -48.9194,-28.4532629992084,0.0 -48.919169,-28.4534889992084,0.0 -48.918874,-28.4537139992084,0.0 -48.91858,-28.4539499992084,0.0 -48.918528,-28.4541529992084,0.0 -48.9183092,-28.4546092992084,0.0 -48.918258,-28.4547159992084,0.0 -48.918052,-28.4549639992084,0.0 -48.917834,-28.4552679992084,0.0 -48.917564,-28.4556619992084,0.0 -48.917321,-28.4560119992083,0.0 -48.9172578,-28.4561041992083,0.0 -48.917051,-28.4564059992083,0.0 -48.916781,-28.4569239992083,0.0 -48.916434,-28.4573639992083,0.0 -48.916203,-28.4576789992083,0.0 -48.91583,-28.4583779992083,0.0 -48.915649,-28.4589299992083,0.0 -48.915366,-28.4596069992083,0.0 -48.91525,-28.4600129992083,0.0 -48.915069,-28.4606099992083,0.0 -48.914926,-28.4613319992082,0.0 -48.914821,-28.4621329992082,0.0 -48.914716,-28.4627199992082,0.0 -48.914637,-28.4633969992082,0.0 -48.914597,-28.4638709992082,0.0 -48.914506,-28.4644459992082,0.0 -48.914505,-28.4648069992082,0.0 -48.914491,-28.4650889992082,0.0 -48.914463,-28.4656759992082,0.0 -48.914396,-28.4664999992082,0.0 -48.914126,-28.4672099992081,0.0 -48.9140813,-28.4673651992081,0.0 -48.914048,-28.4674809992081,0.0 -48.913982,-28.4680789992081,0.0 -48.914043,-28.4688459992081,0.0 -48.9140573,-28.4689591992081,0.0 -48.914093,-28.4692409992081,0.0 -48.914156,-28.4694669992081,0.0 -48.91441,-28.4698519992081,0.0 -48.9145291,-28.4700165992081,0.0 -48.914614,-28.4701339992081,0.0 -48.914766,-28.4705179992081,0.0 -48.9148272,-28.4706311992081,0.0 -48.914931,-28.4708229992081,0.0 -48.915006,-28.4711399992081,0.0 -48.915018,-28.4713429992081,0.0 -48.915222,-28.4715129992081,0.0 -48.915566,-28.4718629992081,0.0 -48.915782,-28.4721799992081,0.0 -48.916075,-28.472631999208,0.0 -48.916495,-28.473061999208,0.0 -48.9166392,-28.473220899208,0.0 -48.916711,-28.473299999208,0.0 -48.9169038,-28.473436599208,0.0 -48.91703,-28.473525999208,0.0 -48.917132,-28.473650999208,0.0 -48.917157,-28.473808999208,0.0 -48.917271,-28.474147999208,0.0 -48.917256,-28.474643999208,0.0 -48.9171946,-28.474808999208,0.0 -48.917063,-28.475162999208,0.0 -48.916819,-28.475443999208,0.0 -48.916524,-28.475713999208,0.0 -48.916139,-28.476096999208,0.0 -48.915998,-28.476434999208,0.0 -48.9160949,-28.476846399208,0.0 -48.916123,-28.476965999208,0.0 -48.916454,-28.477327999208,0.0 -48.9167376,-28.477661199208,0.0 -48.916849,-28.4777919992079,0.0 -48.917053,-28.4780629992079,0.0 -48.917409,-28.4785039992079,0.0 -48.917675,-28.4790579992079,0.0 -48.917764,-28.4792949992079,0.0 -48.918031,-28.4797589992079,0.0 -48.918247,-28.4800079992079,0.0 -48.918451,-28.4800529992079,0.0 -48.918783,-28.4802229992079,0.0 -48.919191,-28.4804279992079,0.0 -48.919421,-28.4806309992079,0.0 -48.919433,-28.4807329992079,0.0 -48.919484,-28.4809359992079,0.0 -48.919508,-28.4811279992079,0.0 -48.919635,-28.4814109992079,0.0 -48.919864,-28.4817159992079,0.0 -48.919979,-28.4819419992079,0.0 -48.920106,-28.4820549992079,0.0 -48.920284,-28.4822809992079,0.0 -48.920462,-28.4825529992079,0.0 -48.920525,-28.4827329992079,0.0 -48.920614,-28.4829369992079,0.0 -48.920741,-28.4831059992079,0.0 -48.920856,-28.4831409992079,0.0 -48.921098,-28.4833329992078,0.0 -48.921405,-28.4834349992079,0.0 -48.921839,-28.4834699992079,0.0 -48.922172,-28.4834709992079,0.0 -48.922376,-28.4834719992079,0.0 -48.922516,-28.4835509992078,0.0 -48.922822,-28.4838229992078,0.0 -48.922949,-28.4839809992078,0.0 -48.922872,-28.4842069992078,0.0 -48.922782,-28.4843979992078,0.0 -48.922756,-28.4844429992078,0.0 -48.922871,-28.4845899992078,0.0 -48.922985,-28.4848389992078,0.0 -48.923086,-28.4850649992078,0.0 -48.923162,-28.4852569992078,0.0 -48.923379,-28.4853819992078,0.0 -48.923545,-28.4854499992078,0.0 -48.923474,-28.4857639992078,0.0 -48.923415,-28.4860249992078,0.0 -48.9233056,-28.4862940992078,0.0 -48.923209,-28.4865319992078,0.0 -48.923093,-28.4867459992078,0.0 -48.923041,-28.4871409992078,0.0 -48.9230348,-28.4873472992078,0.0 -48.923026,-28.4876379992078,0.0 -48.923075,-28.4878825992078,0.0 -48.9230909,-28.4879620992078,0.0 -48.9231545,-28.4881261992078,0.0 -48.9232162,-28.4882626992078,0.0 -48.923368,-28.4885979992078,0.0 -48.923648,-28.4890159992078,0.0 -48.923749,-28.4893889992077,0.0 -48.923876,-28.4897279992077,0.0 -48.923875,-28.4899759992077,0.0 -48.92409,-28.4905069992077,0.0 -48.924294,-28.4907669992077,0.0 -48.924523,-28.4910159992077,0.0 -48.924765,-28.4913329992077,0.0 -48.924956,-28.4914909992077,0.0 -48.925121,-28.4917169992077,0.0 -48.925248,-28.4920339992077,0.0 -48.925311,-28.4924519992077,0.0 -48.925323,-28.4926209992077,0.0 -48.925283,-28.4930159992077,0.0 -48.92518,-28.4932189992077,0.0 -48.925204,-28.4936929992077,0.0 -48.92514,-28.4937709992077,0.0 -48.924974,-28.4938279992077,0.0 -48.924948,-28.4938499992077,0.0 -48.924896,-28.4939629992077,0.0 -48.9247117,-28.4939793992077,0.0 -48.924564,-28.4940749992077,0.0 -48.924257,-28.4941639992077,0.0 -48.923911,-28.4942309992077,0.0 -48.923592,-28.4942869992077,0.0 -48.923246,-28.4943309992077,0.0 -48.922735,-28.4943299992077,0.0 -48.922083,-28.4943279992077,0.0 -48.921252,-28.4942919992077,0.0 -48.920473,-28.4942899992077,0.0 -48.919718,-28.4944119992077,0.0 -48.918759,-28.4945109992077,0.0 -48.918005,-28.4945649992077,0.0 -48.917314,-28.4948229992076,0.0 -48.91661,-28.4951709992076,0.0 -48.915829,-28.4954849992076,0.0 -48.91524,-28.4958109992076,0.0 -48.91474,-28.4961589992076,0.0 -48.914355,-28.4964969992076,0.0 -48.914009,-28.4967439992076,0.0 -48.913753,-28.4970819992076,0.0 -48.91347,-28.4975209992076,0.0 -48.913213,-28.4979379992076,0.0 -48.913123,-28.4981189992076,0.0 -48.912878,-28.4987269992076,0.0 -48.912762,-28.4989869992076,0.0 -48.912697,-28.4992909992076,0.0 -48.91267,-28.4996069992076,0.0 -48.912657,-28.4998209992076,0.0 -48.912509,-28.5001489992076,0.0 -48.912196,-28.5007549992075,0.0 -48.912117,-28.5012619992075,0.0 -48.912065,-28.5017129992075,0.0 -48.911949,-28.5021299992075,0.0 -48.911845,-28.5024899992075,0.0 -48.911768,-28.5026479992075,0.0 -48.911742,-28.5029519992075,0.0 -48.911715,-28.5033469992075,0.0 -48.911535,-28.5037069992075,0.0 -48.911303,-28.5042129992075,0.0 -48.911111,-28.5045849992075,0.0 -48.910931,-28.5050569992075,0.0 -48.91075,-28.5055419992074,0.0 -48.910287,-28.5068019992074,0.0 -48.910081,-28.5073769992074,0.0 -48.910027,-28.5080419992074,0.0 -48.909744,-28.5088409992074,0.0 -48.909717,-28.5092019992074,0.0 -48.909498,-28.5098209992074,0.0 -48.909229,-28.5101469992074,0.0 -48.908871,-28.5104159992074,0.0 -48.908615,-28.5104709992074,0.0 -48.908258,-28.5105149992074,0.0 -48.907747,-28.5105239992074,0.0 -48.906727,-28.5105199992074,0.0 -48.906216,-28.5105849992074,0.0 -48.905679,-28.5108419992074,0.0 -48.905385,-28.5111229992074,0.0 -48.904912,-28.5114249992073,0.0 -48.9046578,-28.5116730992073,0.0 -48.904515,-28.5117959992073,0.0 -48.903812,-28.5121089992073,0.0 -48.903263,-28.5122749992073,0.0 -48.9031092,-28.5122744992073,0.0 -48.90265,-28.5122729992073,0.0 -48.902012,-28.5122479992073,0.0 -48.90149,-28.5121099992073,0.0 -48.901146,-28.5120069992073,0.0 -48.900763,-28.5119379992073,0.0 -48.900151,-28.5119129992073,0.0 -48.899103,-28.5122799992073,0.0 -48.898822,-28.5123239992073,0.0 -48.898757,-28.5126619992073,0.0 -48.898718,-28.5128759992073,0.0 -48.898527,-28.5129319992073,0.0 -48.898283,-28.5131339992073,0.0 -48.898015,-28.5133919992073,0.0 -48.8974936,-28.5136341992073,0.0 -48.897413,-28.5137729992073,0.0 -48.89708,-28.5143239992073,0.0 -48.896963,-28.5148979992073,0.0 -48.896846,-28.5153829992073,0.0 -48.896845,-28.5157549992073,0.0 -48.896843,-28.5162619992073,0.0 -48.89703,-28.5176389992072,0.0 -48.897129,-28.5182709992072,0.0 -48.897129,-28.5184959992072,0.0 -48.897036,-28.5193859992072,0.0 -48.896995,-28.5201529992072,0.0 -48.89698,-28.5207389992072,0.0 -48.8967112,-28.5229232992071,0.0 -48.8962909,-28.5235899992071,0.0 -48.896001,-28.5240247992071,0.0 -48.8966822,-28.5245030992071,0.0 -48.8974794,-28.5242566992071,0.0 -48.898332,-28.5243759992071,0.0 -48.8991607,-28.5245030992071,0.0 -48.8998129,-28.5238798992071,0.0 -48.9000883,-28.5231261992071,0.0 -48.9008854,-28.5226768992072,0.0 -48.9015522,-28.5225608992071,0.0 -48.9020015,-28.5225028992072,0.0 -48.9021899,-28.5221405992072,0.0 -48.903045,-28.5216332992072,0.0 -48.903307,-28.5213639992072,0.0 -48.903538,-28.5210599992072,0.0 -48.903845,-28.5208469992072,0.0 -48.904189,-28.5208489992072,0.0 -48.90447,-28.5208839992072,0.0 -48.904636,-28.5210079992072,0.0 -48.904737,-28.5210879992072,0.0 -48.904814,-28.5211109992072,0.0 -48.905171,-28.5211349992072,0.0 -48.905567,-28.5210909992072,0.0 -48.9062047,-28.5210680992072,0.0 -48.9069439,-28.5214303992072,0.0 -48.9077265,-28.5216042992072,0.0 -48.9085382,-28.5213578992072,0.0 -48.9096977,-28.5210535992072,0.0 -48.9101035,-28.5204592992072,0.0 -48.910176,-28.5198940992072,0.0 -48.9099151,-28.5195606992072,0.0 -48.9100601,-28.5190243992072,0.0 -48.9097702,-28.5188214992072,0.0 -48.9097992,-28.5181837992072,0.0 -48.9099296,-28.5177344992072,0.0 -48.910205,-28.5174590992072,0.0 -48.9102195,-28.5167633992073,0.0 -48.9108862,-28.5161545992073,0.0 -48.9107992,-28.5155023992073,0.0 -48.9111471,-28.5148791992073,0.0 -48.911321,-28.5139370992073,0.0 -48.9114515,-28.5132703992073,0.0 -48.9121327,-28.5127630992073,0.0 -48.912611,-28.5125166992073,0.0 -48.9130023,-28.5122412992073,0.0 -48.9135821,-28.5120528992073,0.0 -48.9141908,-28.5116614992073,0.0 -48.9150894,-28.5114006992073,0.0 -48.9156257,-28.5111107992074,0.0 -48.9164373,-28.5109223992074,0.0 -48.9170026,-28.5109223992074,0.0 -48.9174229,-28.5111252992074,0.0 -48.9183071,-28.5110382992074,0.0 -48.918745,-28.5108399992074,0.0 -48.919128,-28.5109319992074,0.0 -48.919395,-28.5109439992074,0.0 -48.919791,-28.5109119992074,0.0 -48.920136,-28.5109129992074,0.0 -48.9208356,-28.5111088992073,0.0 -48.921079,-28.5111769992074,0.0 -48.921487,-28.5113589992073,0.0 -48.921703,-28.5114839992073,0.0 -48.9218391,-28.5116047992073,0.0 -48.921881,-28.5116419992074,0.0 -48.922097,-28.5118119992073,0.0 -48.922364,-28.5121399992073,0.0 -48.92253,-28.5123099992073,0.0 -48.922963,-28.5124864992073,0.0 -48.923396,-28.5126629992073,0.0 -48.9256853,-28.5114172992074,0.0 -48.9283296,-28.5102714992074,0.0 -48.9302541,-28.5097719992074,0.0 -48.9329425,-28.5093018992074,0.0 -48.9358953,-28.5089345992074,0.0 -48.9386866,-28.5081265992074,0.0 -48.9404054,-28.5073920992074,0.0 -48.9427265,-28.5058054992075,0.0 -48.944416,-28.5039397992075,0.0 -48.9451505,-28.5027791992075,0.0 -48.945456,-28.5019929992075,0.0 -48.9463111,-28.4993415992076,0.0 -48.94669,-28.4977079992076,0.0 -48.9474423,-28.4955072992076,0.0 -48.9482649,-28.4933770992077,0.0 -48.9492786,-28.4914672992077,0.0 -48.9506595,-28.4893664992077,0.0 -48.9517026,-28.4879267992078,0.0 -48.9531863,-28.4864283992078,0.0 -48.9541559,-28.4854293992078,0.0 -48.956624,-28.4835489992079,0.0 -48.9588716,-28.4816979992079,0.0 -48.960599,-28.4803269992079,0.0 -48.9639106,-28.477878399208,0.0 -48.9671425,-28.475219399208,0.0 -48.969157,-28.473326999208,0.0 -48.969362,-28.473315999208,0.0 -48.969566,-28.473338999208,0.0 -48.969835,-28.473372999208,0.0 -48.970282,-28.473373999208,0.0 -48.970934,-28.473364999208,0.0 -48.971343,-28.473342999208,0.0 -48.971636,-28.473331999208,0.0 -48.9718395,-28.473268499208,0.0 -48.971995,-28.473219999208,0.0 -48.97234,-28.473141999208,0.0 -48.9728,-28.472995999208,0.0 -48.973274,-28.472793999208,0.0 -48.973607,-28.472625999208,0.0 -48.973952,-28.4723439992081,0.0 -48.974209,-28.4721529992081,0.0 -48.974439,-28.4718829992081,0.0 -48.974773,-28.4716009992081,0.0 -48.9751222,-28.4712688992081,0.0 -48.9752917,-28.4711056992081,0.0 -48.9754627,-28.4709064992081,0.0 -48.9755666,-28.4707241992081,0.0 -48.9756183,-28.4705642992081,0.0 -48.9756821,-28.4702476992081,0.0 -48.9757106,-28.4698828992081,0.0 -48.9757028,-28.4695594992081,0.0 -48.9756963,-28.4692063992081,0.0 -48.9756589,-28.4689323992081,0.0 -48.9756446,-28.4687977992081,0.0 -48.9756322,-28.4686803992081,0.0 -48.9755184,-28.4684170992081,0.0 -48.9753606,-28.4681062992081,0.0 -48.9752633,-28.4678839992081,0.0 -48.9751715,-28.4677009992081,0.0 -48.9750719,-28.4675184992081,0.0 -48.9749914,-28.4674024992081,0.0 -48.9749014,-28.4672960992081,0.0 -48.9748411,-28.4671727992081,0.0 -48.9747723,-28.4670133992081,0.0 -48.9735493,-28.4655120992082,0.0</coordinates>
</LinearRing>
</outerBoundaryIs>
</Polygon>
</MultiGeometry>
</Placemark>
</Folder>
</Document></kml>
