<?xml version='1.0' encoding='UTF-8'?>
<kml xmlns:xsd="http://www.w3.org/2001/XMLSchema" xmlns:gx="http://www.google.com/kml/ext/2.2" xmlns:atom="http://www.w3.org/2005/Atom" xmlns="http://www.opengis.net/kml/2.2">
<Document>
<name>cocal_do_sul_4204251_localidades_2022</name>
<visibility>1</visibility>
<Schema name="Povoados" id="kml_schema_ft_Povoados">
<SimpleField type="xsd:string" name="CD_UF">
<displayName>CD_UF</displayName>
</SimpleField>
<SimpleField type="xsd:string" name="NM_UF">
<displayName>NM_UF</displayName>
</SimpleField>
<SimpleField type="xsd:string" name="SIGLA_UF">
<displayName>SIGLA_UF</displayName>
</SimpleField>
<SimpleField type="xsd:string" name="CD_MUN">
<displayName>CD_MUN</displayName>
</SimpleField>
<SimpleField type="xsd:string" name="NM_MUN">
<displayName>NM_MUN</displayName>
</SimpleField>
<SimpleField type="xsd:string" name="CD_RGINT">
<displayName>CD_RGINT</displayName>
</SimpleField>
<SimpleField type="xsd:string" name="NM_RGINT">
<displayName>NM_RGINT</displayName>
</SimpleField>
<SimpleField type="xsd:string" name="CD_RGI">
<displayName>CD_RGI</displayName>
</SimpleField>
<SimpleField type="xsd:string" name="NM_RGI">
<displayName>NM_RGI</displayName>
</SimpleField>
<SimpleField type="xsd:string" name="CT_LOCALIDADE">
<displayName>CT_LOCALIDADE</displayName>
</SimpleField>
<SimpleField type="xsd:string" name="CD_LOCALIDADE">
<displayName>CD_LOCALIDADE</displayName>
</SimpleField>
<SimpleField type="xsd:string" name="NM_LOCALIDADE">
<displayName>NM_LOCALIDADE</displayName>
</SimpleField>
<SimpleField type="xsd:string" name="LAT_LOCALIDADE">
<displayName>LAT_LOCALIDADE</displayName>
</SimpleField>
<SimpleField type="xsd:string" name="LONG_LOCALIDADE">
<displayName>LONG_LOCALIDADE</displayName>
</SimpleField>
</Schema>
<Schema name="Núcleos Urbanos" id="kml_schema_ft_Núcleos_Urbanos">
<SimpleField type="xsd:string" name="CD_UF">
<displayName>CD_UF</displayName>
</SimpleField>
<SimpleField type="xsd:string" name="NM_UF">
<displayName>NM_UF</displayName>
</SimpleField>
<SimpleField type="xsd:string" name="SIGLA_UF">
<displayName>SIGLA_UF</displayName>
</SimpleField>
<SimpleField type="xsd:string" name="CD_MUN">
<displayName>CD_MUN</displayName>
</SimpleField>
<SimpleField type="xsd:string" name="NM_MUN">
<displayName>NM_MUN</displayName>
</SimpleField>
<SimpleField type="xsd:string" name="CD_RGINT">
<displayName>CD_RGINT</displayName>
</SimpleField>
<SimpleField type="xsd:string" name="NM_RGINT">
<displayName>NM_RGINT</displayName>
</SimpleField>
<SimpleField type="xsd:string" name="CD_RGI">
<displayName>CD_RGI</displayName>
</SimpleField>
<SimpleField type="xsd:string" name="NM_RGI">
<displayName>NM_RGI</displayName>
</SimpleField>
<SimpleField type="xsd:string" name="CT_LOCALIDADE">
<displayName>CT_LOCALIDADE</displayName>
</SimpleField>
<SimpleField type="xsd:string" name="CD_LOCALIDADE">
<displayName>CD_LOCALIDADE</displayName>
</SimpleField>
<SimpleField type="xsd:string" name="NM_LOCALIDADE">
<displayName>NM_LOCALIDADE</displayName>
</SimpleField>
<SimpleField type="xsd:string" name="LAT_LOCALIDADE">
<displayName>LAT_LOCALIDADE</displayName>
</SimpleField>
<SimpleField type="xsd:string" name="LONG_LOCALIDADE">
<displayName>LONG_LOCALIDADE</displayName>
</SimpleField>
</Schema>
<Schema name="01. Cidade" id="kml_schema_ft_01._Cidade">
<SimpleField type="xsd:string" name="CD_UF">
<displayName>CD_UF</displayName>
</SimpleField>
<SimpleField type="xsd:string" name="NM_UF">
<displayName>NM_UF</displayName>
</SimpleField>
<SimpleField type="xsd:string" name="SIGLA_UF">
<displayName>SIGLA_UF</displayName>
</SimpleField>
<SimpleField type="xsd:string" name="CD_MUN">
<displayName>CD_MUN</displayName>
</SimpleField>
<SimpleField type="xsd:string" name="NM_MUN">
<displayName>NM_MUN</displayName>
</SimpleField>
<SimpleField type="xsd:string" name="CD_RGINT">
<displayName>CD_RGINT</displayName>
</SimpleField>
<SimpleField type="xsd:string" name="NM_RGINT">
<displayName>NM_RGINT</displayName>
</SimpleField>
<SimpleField type="xsd:string" name="CD_RGI">
<displayName>CD_RGI</displayName>
</SimpleField>
<SimpleField type="xsd:string" name="NM_RGI">
<displayName>NM_RGI</displayName>
</SimpleField>
<SimpleField type="xsd:string" name="CT_LOCALIDADE">
<displayName>CT_LOCALIDADE</displayName>
</SimpleField>
<SimpleField type="xsd:string" name="SCT_LOCALIDADE">
<displayName>SCT_LOCALIDADE</displayName>
</SimpleField>
<SimpleField type="xsd:string" name="CD_LOCALIDADE">
<displayName>CD_LOCALIDADE</displayName>
</SimpleField>
<SimpleField type="xsd:string" name="NM_LOCALIDADE">
<displayName>NM_LOCALIDADE</displayName>
</SimpleField>
<SimpleField type="xsd:string" name="LAT_LOCALIDADE">
<displayName>LAT_LOCALIDADE</displayName>
</SimpleField>
<SimpleField type="xsd:string" name="LONG_LOCALIDADE">
<displayName>LONG_LOCALIDADE</displayName>
</SimpleField>
</Schema>
<Schema name="Município" id="kml_schema_ft_Município">
<SimpleField type="xsd:string" name="CD_UF">
<displayName>CD_UF</displayName>
</SimpleField>
<SimpleField type="xsd:string" name="NM_UF">
<displayName>NM_UF</displayName>
</SimpleField>
<SimpleField type="xsd:string" name="CD_MUN">
<displayName>CD_MUN</displayName>
</SimpleField>
<SimpleField type="xsd:string" name="NM_MUN">
<displayName>NM_MUN</displayName>
</SimpleField>
<SimpleField type="xsd:string" name="CD_RGINT">
<displayName>CD_RGINT</displayName>
</SimpleField>
<SimpleField type="xsd:string" name="NM_RGINT">
<displayName>NM_RGINT</displayName>
</SimpleField>
<SimpleField type="xsd:string" name="CD_RGI">
<displayName>CD_RGI</displayName>
</SimpleField>
<SimpleField type="xsd:string" name="NM_RGI">
<displayName>NM_RGI</displayName>
</SimpleField>
</Schema>
<Folder id="01. Cidade">
<name>01. Cidade</name>
<Folder id="01.03. Sede Municipal">
<name>01.03. Sede Municipal</name>
<Placemark id="01.03. Sede Municipal">
<name>Cocal do Sul [4204251]</name>
<visibility>1</visibility>
<snippet> </snippet>
<description>&lt;center&gt;&lt;table&gt;&lt;tr&gt;&lt;th colspan='2' align='center'&gt;&lt;em&gt;Atributos&lt;/em&gt;&lt;/th&gt;&lt;/tr&gt;&lt;tr bgcolor="#E3E3F3"&gt;
&lt;th&gt;CD_UF&lt;/th&gt;
&lt;td&gt;42&lt;/td&gt;
&lt;/tr&gt;&lt;tr bgcolor=""&gt;
&lt;th&gt;NM_UF&lt;/th&gt;
&lt;td&gt;Santa Catarina&lt;/td&gt;
&lt;/tr&gt;&lt;tr bgcolor="#E3E3F3"&gt;
&lt;th&gt;SIGLA_UF&lt;/th&gt;
&lt;td&gt;SC&lt;/td&gt;
&lt;/tr&gt;&lt;tr bgcolor=""&gt;
&lt;th&gt;CD_MUN&lt;/th&gt;
&lt;td&gt;4204251&lt;/td&gt;
&lt;/tr&gt;&lt;tr bgcolor="#E3E3F3"&gt;
&lt;th&gt;NM_MUN&lt;/th&gt;
&lt;td&gt;Cocal do Sul&lt;/td&gt;
&lt;/tr&gt;&lt;tr bgcolor=""&gt;
&lt;th&gt;CD_RGINT&lt;/th&gt;
&lt;td&gt;4202&lt;/td&gt;
&lt;/tr&gt;&lt;tr bgcolor="#E3E3F3"&gt;
&lt;th&gt;NM_RGINT&lt;/th&gt;
&lt;td&gt;Criciúma&lt;/td&gt;
&lt;/tr&gt;&lt;tr bgcolor=""&gt;
&lt;th&gt;CD_RGI&lt;/th&gt;
&lt;td&gt;420002&lt;/td&gt;
&lt;/tr&gt;&lt;tr bgcolor="#E3E3F3"&gt;
&lt;th&gt;NM_RGI&lt;/th&gt;
&lt;td&gt;Criciúma&lt;/td&gt;
&lt;/tr&gt;&lt;tr bgcolor=""&gt;
&lt;th&gt;CT_LOCALIDADE&lt;/th&gt;
&lt;td&gt;Cidade&lt;/td&gt;
&lt;/tr&gt;&lt;tr bgcolor="#E3E3F3"&gt;
&lt;th&gt;SCT_LOCALIDADE&lt;/th&gt;
&lt;td&gt;Sede Municipal&lt;/td&gt;
&lt;/tr&gt;&lt;tr bgcolor=""&gt;
&lt;th&gt;CD_LOCALIDADE&lt;/th&gt;
&lt;td&gt;4204251&lt;/td&gt;
&lt;/tr&gt;&lt;tr bgcolor="#E3E3F3"&gt;
&lt;th&gt;NM_LOCALIDADE&lt;/th&gt;
&lt;td&gt;Cocal do Sul&lt;/td&gt;
&lt;/tr&gt;&lt;tr bgcolor=""&gt;
&lt;th&gt;LAT_LOCALIDADE&lt;/th&gt;
&lt;td&gt;-28.6014&lt;/td&gt;
&lt;/tr&gt;&lt;tr bgcolor="#E3E3F3"&gt;
&lt;th&gt;LONG_LOCALIDADE&lt;/th&gt;
&lt;td&gt;-49.3255&lt;/td&gt;
&lt;/tr&gt;&lt;/table&gt;&lt;/center&gt;</description>
<Style>
<IconStyle>
<color>ff00aaff</color>
<scale>1.0</scale>
<Icon>
<href>http://maps.google.com/mapfiles/kml/shapes/placemark_circle.png</href>
</Icon>
</IconStyle>
<LabelStyle>
<scale>1.0</scale>
</LabelStyle>
<LineStyle>
<color>ffffffff</color>
<width>3</width>
<gx:labelVisibility>1</gx:labelVisibility>
</LineStyle>
<PolyStyle>
<color>00ffffff</color>
</PolyStyle>
</Style>
<ExtendedData>
<SchemaData schemaUrl="#kml_schema_ft_01._Cidade">
<SimpleData name="CD_UF">42</SimpleData>
<SimpleData name="NM_UF">Santa Catarina</SimpleData>
<SimpleData name="SIGLA_UF">SC</SimpleData>
<SimpleData name="CD_MUN">4204251</SimpleData>
<SimpleData name="NM_MUN">Cocal do Sul</SimpleData>
<SimpleData name="CD_RGINT">4202</SimpleData>
<SimpleData name="NM_RGINT">Criciúma</SimpleData>
<SimpleData name="CD_RGI">420002</SimpleData>
<SimpleData name="NM_RGI">Criciúma</SimpleData>
<SimpleData name="CT_LOCALIDADE">Cidade</SimpleData>
<SimpleData name="SCT_LOCALIDADE">Sede Municipal</SimpleData>
<SimpleData name="CD_LOCALIDADE">4204251</SimpleData>
<SimpleData name="NM_LOCALIDADE">Cocal do Sul</SimpleData>
<SimpleData name="LAT_LOCALIDADE">-28.6014</SimpleData>
<SimpleData name="LONG_LOCALIDADE">-49.3255</SimpleData>
</SchemaData>
</ExtendedData>
<Point>
<extrude>0</extrude>
<coordinates>-49.3255,-28.6013999992057,0.0</coordinates>
</Point>
</Placemark>
</Folder>
</Folder>
<Folder id="05. Núcleos Urbanos">
<name>05. Núcleos Urbanos</name>
<Placemark id="localidades">
<name>Área Industrial [4204251001]</name>
<visibility>1</visibility>
<snippet> </snippet>
<description>&lt;center&gt;&lt;table&gt;&lt;tr&gt;&lt;th colspan='2' align='center'&gt;&lt;em&gt;Attributes&lt;/em&gt;&lt;/th&gt;&lt;/tr&gt;&lt;tr bgcolor="#E3E3F3"&gt;
&lt;th&gt;CD_UF&lt;/th&gt;
&lt;td&gt;42&lt;/td&gt;
&lt;/tr&gt;&lt;tr bgcolor=""&gt;
&lt;th&gt;NM_UF&lt;/th&gt;
&lt;td&gt;Santa Catarina&lt;/td&gt;
&lt;/tr&gt;&lt;tr bgcolor="#E3E3F3"&gt;
&lt;th&gt;SIGLA_UF&lt;/th&gt;
&lt;td&gt;SC&lt;/td&gt;
&lt;/tr&gt;&lt;tr bgcolor=""&gt;
&lt;th&gt;CD_MUN&lt;/th&gt;
&lt;td&gt;4204251&lt;/td&gt;
&lt;/tr&gt;&lt;tr bgcolor="#E3E3F3"&gt;
&lt;th&gt;NM_MUN&lt;/th&gt;
&lt;td&gt;Cocal do Sul&lt;/td&gt;
&lt;/tr&gt;&lt;tr bgcolor=""&gt;
&lt;th&gt;CD_RGINT&lt;/th&gt;
&lt;td&gt;4202&lt;/td&gt;
&lt;/tr&gt;&lt;tr bgcolor="#E3E3F3"&gt;
&lt;th&gt;NM_RGINT&lt;/th&gt;
&lt;td&gt;Criciúma&lt;/td&gt;
&lt;/tr&gt;&lt;tr bgcolor=""&gt;
&lt;th&gt;CD_RGI&lt;/th&gt;
&lt;td&gt;420002&lt;/td&gt;
&lt;/tr&gt;&lt;tr bgcolor="#E3E3F3"&gt;
&lt;th&gt;NM_RGI&lt;/th&gt;
&lt;td&gt;Criciúma&lt;/td&gt;
&lt;/tr&gt;&lt;tr bgcolor=""&gt;
&lt;th&gt;CT_LOCALIDADE&lt;/th&gt;
&lt;td&gt;Núcleo Urbano&lt;/td&gt;
&lt;/tr&gt;&lt;tr bgcolor="#E3E3F3"&gt;
&lt;th&gt;CD_LOCALIDADE&lt;/th&gt;
&lt;td&gt;4204251001&lt;/td&gt;
&lt;/tr&gt;&lt;tr bgcolor=""&gt;
&lt;th&gt;NM_LOCALIDADE&lt;/th&gt;
&lt;td&gt;Área Industrial&lt;/td&gt;
&lt;/tr&gt;&lt;tr bgcolor="#E3E3F3"&gt;
&lt;th&gt;LAT_LOCALIDADE&lt;/th&gt;
&lt;td&gt;-28.6161&lt;/td&gt;
&lt;/tr&gt;&lt;tr bgcolor=""&gt;
&lt;th&gt;LONG_LOCALIDADE&lt;/th&gt;
&lt;td&gt;-49.2988&lt;/td&gt;
&lt;/tr&gt;&lt;/table&gt;&lt;/center&gt;</description>
<Style>
<IconStyle>
<color>ff0000ff</color>
<scale>0.9</scale>
<Icon>
<href>http://maps.google.com/mapfiles/kml/shapes/placemark_circle.png</href>
</Icon>
</IconStyle>
<LabelStyle>
<scale>0.9</scale>
</LabelStyle>
<LineStyle>
<color>72ffffff</color>
<width>1.0</width>
<gx:labelVisibility>1</gx:labelVisibility>
</LineStyle>
<PolyStyle>
<color>66ff54ff</color>
</PolyStyle>
</Style>
<ExtendedData>
<SchemaData schemaUrl="#kml_schema_ft_Núcleos_Urbanos">
<SimpleData name="CD_UF">42</SimpleData>
<SimpleData name="NM_UF">Santa Catarina</SimpleData>
<SimpleData name="SIGLA_UF">SC</SimpleData>
<SimpleData name="CD_MUN">4204251</SimpleData>
<SimpleData name="NM_MUN">Cocal do Sul</SimpleData>
<SimpleData name="CD_RGINT">4202</SimpleData>
<SimpleData name="NM_RGINT">Criciúma</SimpleData>
<SimpleData name="CD_RGI">420002</SimpleData>
<SimpleData name="NM_RGI">Criciúma</SimpleData>
<SimpleData name="CT_LOCALIDADE">Núcleo Urbano</SimpleData>
<SimpleData name="CD_LOCALIDADE">4204251001</SimpleData>
<SimpleData name="NM_LOCALIDADE">Área Industrial</SimpleData>
<SimpleData name="LAT_LOCALIDADE">-28.6161</SimpleData>
<SimpleData name="LONG_LOCALIDADE">-49.2988</SimpleData>
</SchemaData>
</ExtendedData>
<Point>
<extrude>0</extrude>
<coordinates>-49.2988318260869,-28.6161343252924,0.0</coordinates>
</Point>
</Placemark>
</Folder>
<Folder id="06. Povoados">
<name>06. Povoados</name>
<Placemark id="06. Povoados">
<name>Rio Perso [420425100001]</name>
<visibility>1</visibility>
<snippet> </snippet>
<description>&lt;center&gt;&lt;table&gt;&lt;tr&gt;&lt;th colspan='2' align='center'&gt;&lt;em&gt;Atributos&lt;/em&gt;&lt;/th&gt;&lt;/tr&gt;&lt;tr bgcolor="#E3E3F3"&gt;
&lt;th&gt;CD_UF&lt;/th&gt;
&lt;td&gt;42&lt;/td&gt;
&lt;/tr&gt;&lt;tr bgcolor=""&gt;
&lt;th&gt;NM_UF&lt;/th&gt;
&lt;td&gt;Santa Catarina&lt;/td&gt;
&lt;/tr&gt;&lt;tr bgcolor="#E3E3F3"&gt;
&lt;th&gt;SIGLA_UF&lt;/th&gt;
&lt;td&gt;SC&lt;/td&gt;
&lt;/tr&gt;&lt;tr bgcolor=""&gt;
&lt;th&gt;CD_MUN&lt;/th&gt;
&lt;td&gt;4204251&lt;/td&gt;
&lt;/tr&gt;&lt;tr bgcolor="#E3E3F3"&gt;
&lt;th&gt;NM_MUN&lt;/th&gt;
&lt;td&gt;Cocal do Sul&lt;/td&gt;
&lt;/tr&gt;&lt;tr bgcolor=""&gt;
&lt;th&gt;CD_RGINT&lt;/th&gt;
&lt;td&gt;4202&lt;/td&gt;
&lt;/tr&gt;&lt;tr bgcolor="#E3E3F3"&gt;
&lt;th&gt;NM_RGINT&lt;/th&gt;
&lt;td&gt;Criciúma&lt;/td&gt;
&lt;/tr&gt;&lt;tr bgcolor=""&gt;
&lt;th&gt;CD_RGI&lt;/th&gt;
&lt;td&gt;420002&lt;/td&gt;
&lt;/tr&gt;&lt;tr bgcolor="#E3E3F3"&gt;
&lt;th&gt;NM_RGI&lt;/th&gt;
&lt;td&gt;Criciúma&lt;/td&gt;
&lt;/tr&gt;&lt;tr bgcolor=""&gt;
&lt;th&gt;CT_LOCALIDADE&lt;/th&gt;
&lt;td&gt;Povoado&lt;/td&gt;
&lt;/tr&gt;&lt;tr bgcolor="#E3E3F3"&gt;
&lt;th&gt;CD_LOCALIDADE&lt;/th&gt;
&lt;td&gt;420425100001&lt;/td&gt;
&lt;/tr&gt;&lt;tr bgcolor=""&gt;
&lt;th&gt;NM_LOCALIDADE&lt;/th&gt;
&lt;td&gt;Rio Perso&lt;/td&gt;
&lt;/tr&gt;&lt;tr bgcolor="#E3E3F3"&gt;
&lt;th&gt;LAT_LOCALIDADE&lt;/th&gt;
&lt;td&gt;-28.5711&lt;/td&gt;
&lt;/tr&gt;&lt;tr bgcolor=""&gt;
&lt;th&gt;LONG_LOCALIDADE&lt;/th&gt;
&lt;td&gt;-49.3562&lt;/td&gt;
&lt;/tr&gt;&lt;/table&gt;&lt;/center&gt;</description>
<Style>
<IconStyle>
<color>ff00ff54</color>
<scale>0.8</scale>
<Icon>
<href>http://maps.google.com/mapfiles/kml/shapes/placemark_circle.png</href>
</Icon>
</IconStyle>
<LabelStyle>
<scale>0.8</scale>
</LabelStyle>
<LineStyle>
<color>72ff54ff</color>
<width>1.0</width>
<gx:labelVisibility>1</gx:labelVisibility>
</LineStyle>
<PolyStyle>
<color>66ff54ff</color>
</PolyStyle>
</Style>
<ExtendedData>
<SchemaData schemaUrl="#kml_schema_ft_Povoados">
<SimpleData name="CD_UF">42</SimpleData>
<SimpleData name="NM_UF">Santa Catarina</SimpleData>
<SimpleData name="SIGLA_UF">SC</SimpleData>
<SimpleData name="CD_MUN">4204251</SimpleData>
<SimpleData name="NM_MUN">Cocal do Sul</SimpleData>
<SimpleData name="CD_RGINT">4202</SimpleData>
<SimpleData name="NM_RGINT">Criciúma</SimpleData>
<SimpleData name="CD_RGI">420002</SimpleData>
<SimpleData name="NM_RGI">Criciúma</SimpleData>
<SimpleData name="CT_LOCALIDADE">Povoado</SimpleData>
<SimpleData name="CD_LOCALIDADE">420425100001</SimpleData>
<SimpleData name="NM_LOCALIDADE">Rio Perso</SimpleData>
<SimpleData name="LAT_LOCALIDADE">-28.5711</SimpleData>
<SimpleData name="LONG_LOCALIDADE">-49.3562</SimpleData>
</SchemaData>
</ExtendedData>
<Point>
<extrude>0</extrude>
<coordinates>-49.356156,-28.5710739992063,0.0</coordinates>
</Point>
</Placemark>
</Folder>
<Folder id="13. Referência">
<name>13. Referência</name>
<Placemark id="13. Referência">
<name>Cocal do Sul [4204251]</name>
<visibility>1</visibility>
<snippet> </snippet>
<description>&lt;center&gt;&lt;table&gt;&lt;tr&gt;&lt;th colspan='2' align='center'&gt;&lt;em&gt;Attributes&lt;/em&gt;&lt;/th&gt;&lt;/tr&gt;&lt;tr bgcolor="#E3E3F3"&gt;
&lt;th&gt;CD_UF&lt;/th&gt;
&lt;td&gt;42&lt;/td&gt;
&lt;/tr&gt;&lt;tr bgcolor=""&gt;
&lt;th&gt;NM_UF&lt;/th&gt;
&lt;td&gt;Santa Catarina&lt;/td&gt;
&lt;/tr&gt;&lt;tr bgcolor="#E3E3F3"&gt;
&lt;th&gt;CD_MUN&lt;/th&gt;
&lt;td&gt;4204251&lt;/td&gt;
&lt;/tr&gt;&lt;tr bgcolor=""&gt;
&lt;th&gt;NM_MUN&lt;/th&gt;
&lt;td&gt;Cocal do Sul&lt;/td&gt;
&lt;/tr&gt;&lt;tr bgcolor="#E3E3F3"&gt;
&lt;th&gt;CD_RGINT&lt;/th&gt;
&lt;td&gt;4202&lt;/td&gt;
&lt;/tr&gt;&lt;tr bgcolor=""&gt;
&lt;th&gt;NM_RGINT&lt;/th&gt;
&lt;td&gt;Criciúma&lt;/td&gt;
&lt;/tr&gt;&lt;tr bgcolor="#E3E3F3"&gt;
&lt;th&gt;CD_RGI&lt;/th&gt;
&lt;td&gt;420002&lt;/td&gt;
&lt;/tr&gt;&lt;tr bgcolor=""&gt;
&lt;th&gt;NM_RGI&lt;/th&gt;
&lt;td&gt;Criciúma&lt;/td&gt;
&lt;/tr&gt;&lt;/table&gt;&lt;/center&gt;</description>
<Style>
<IconStyle>
<scale>0.7</scale>
</IconStyle>
<LabelStyle>
<scale>0.7</scale>
</LabelStyle>
<LineStyle>
<color>ffffffff</color>
<width>3</width>
<gx:labelVisibility>1</gx:labelVisibility>
</LineStyle>
<PolyStyle>
<color>00ffffff</color>
</PolyStyle>
</Style>
<ExtendedData>
<SchemaData schemaUrl="#kml_schema_ft_Município">
<SimpleData name="CD_UF">42</SimpleData>
<SimpleData name="NM_UF">Santa Catarina</SimpleData>
<SimpleData name="CD_MUN">4204251</SimpleData>
<SimpleData name="NM_MUN">Cocal do Sul</SimpleData>
<SimpleData name="CD_RGINT">4202</SimpleData>
<SimpleData name="NM_RGINT">Criciúma</SimpleData>
<SimpleData name="CD_RGI">420002</SimpleData>
<SimpleData name="NM_RGI">Criciúma</SimpleData>
</SchemaData>
</ExtendedData>
<MultiGeometry>
<Polygon>
<extrude>0</extrude>
<tessellate>1</tessellate>
<outerBoundaryIs>
<LinearRing>
<coordinates>-49.3208391,-28.5656385992064,0.0 -49.3202846,-28.5657396992064,0.0 -49.3200503,-28.5658199992064,0.0 -49.3198804,-28.5658875992064,0.0 -49.3197462,-28.5659606992064,0.0 -49.3196215,-28.5660397992064,0.0 -49.3194781,-28.5661152992064,0.0 -49.3193305,-28.5661356992064,0.0 -49.3192137,-28.5661041992064,0.0 -49.3191048,-28.5660236992064,0.0 -49.3189847,-28.5658990992064,0.0 -49.3188429,-28.5657440992064,0.0 -49.3187335,-28.5656276992064,0.0 -49.3185613,-28.5654754992064,0.0 -49.3185139,-28.5654522992064,0.0 -49.3184452,-28.5654187992064,0.0 -49.3183423,-28.5654132992064,0.0 -49.3181855,-28.5654398992064,0.0 -49.3180097,-28.5655030992064,0.0 -49.3178277,-28.5655725992064,0.0 -49.3176437,-28.5656228992064,0.0 -49.3174624,-28.5656329992064,0.0 -49.3172658,-28.5656262992064,0.0 -49.3171132,-28.5656257992064,0.0 -49.3169526,-28.5656587992064,0.0 -49.3168141,-28.5657354992064,0.0 -49.3166959,-28.5658205992064,0.0 -49.3165495,-28.5658954992064,0.0 -49.3163345,-28.5659314992064,0.0 -49.3162865,-28.5659319992064,0.0 -49.3158957,-28.5659154992064,0.0 -49.3157151,-28.5658683992064,0.0 -49.3155625,-28.5657619992064,0.0 -49.3154933,-28.5656392992064,0.0 -49.3154517,-28.5654684992064,0.0 -49.3154226,-28.5653112992064,0.0 -49.3152988,-28.5649769992064,0.0 -49.3152517,-28.5649156992064,0.0 -49.3151064,-28.5647836992064,0.0 -49.3149617,-28.5647029992064,0.0 -49.3147709,-28.5646268992064,0.0 -49.3141661,-28.5642531992064,0.0 -49.313631,-28.5647914992064,0.0 -49.3132068,-28.5652284992064,0.0 -49.3129305,-28.5655299992064,0.0 -49.3127325,-28.5657092992064,0.0 -49.3125001,-28.5659968992064,0.0 -49.3124157,-28.5661012992064,0.0 -49.3123632,-28.5662916992064,0.0 -49.3123481,-28.5665776992064,0.0 -49.3123386,-28.5666167992064,0.0 -49.3123031,-28.5666520992064,0.0 -49.3122649,-28.5666560992064,0.0 -49.3122268,-28.5666575992064,0.0 -49.3121741,-28.5666792992064,0.0 -49.3120846,-28.5667206992064,0.0 -49.3119996,-28.5667366992064,0.0 -49.3118965,-28.5667349992064,0.0 -49.3112772,-28.5669350992064,0.0 -49.311213,-28.5669400992064,0.0 -49.3110448,-28.5669504992064,0.0 -49.3107734,-28.5671013992064,0.0 -49.3104962,-28.5672427992064,0.0 -49.3101122,-28.5675269992064,0.0 -49.3098201,-28.5678088992063,0.0 -49.3096087,-28.5681032992063,0.0 -49.3093945,-28.5684509992063,0.0 -49.3091952,-28.5687455992063,0.0 -49.3090354,-28.5689246992063,0.0 -49.308836,-28.5690921992063,0.0 -49.3080804,-28.5696842992063,0.0 -49.3079167,-28.5697918992063,0.0 -49.3076481,-28.5698854992063,0.0 -49.3074742,-28.5699173992063,0.0 -49.3073965,-28.5699056992063,0.0 -49.3072864,-28.5698603992063,0.0 -49.3068401,-28.5696871992063,0.0 -49.306779,-28.5697102992063,0.0 -49.3067178,-28.5697333992063,0.0 -49.3066891,-28.5697622992063,0.0 -49.3062999,-28.5702697992063,0.0 -49.3062265,-28.5704222992063,0.0 -49.3062039,-28.5704939992063,0.0 -49.3061907,-28.5713485992063,0.0 -49.3061623,-28.5717293992063,0.0 -49.3060752,-28.5723007992063,0.0 -49.3058717,-28.5729621992063,0.0 -49.3057148,-28.5731738992063,0.0 -49.3056567,-28.5732706992063,0.0 -49.305634,-28.5733401992062,0.0 -49.3056433,-28.5734047992063,0.0 -49.3056873,-28.5735230992062,0.0 -49.3056956,-28.5736164992062,0.0 -49.3056823,-28.5736557992062,0.0 -49.3056581,-28.5736823992062,0.0 -49.3056108,-28.5737026992062,0.0 -49.3055732,-28.5737108992062,0.0 -49.305486,-28.5737202992062,0.0 -49.3054384,-28.5737182992062,0.0 -49.3048876,-28.5736083992062,0.0 -49.3048322,-28.5736176992062,0.0 -49.3047441,-28.5736592992062,0.0 -49.3045837,-28.5738624992062,0.0 -49.304541,-28.5739422992062,0.0 -49.3045458,-28.5740009992062,0.0 -49.3045714,-28.5741080992062,0.0 -49.3045741,-28.5741724992062,0.0 -49.3045458,-28.5742443992062,0.0 -49.3041987,-28.5747161992062,0.0 -49.3039504,-28.5750840992062,0.0 -49.3038825,-28.5751577992062,0.0 -49.303818,-28.5751712992062,0.0 -49.3037112,-28.5751569992062,0.0 -49.3034325,-28.5750125992062,0.0 -49.3032398,-28.5748896992062,0.0 -49.3030358,-28.5747978992062,0.0 -49.3029191,-28.5747561992062,0.0 -49.3025983,-28.5746991992062,0.0 -49.3025703,-28.5747039992062,0.0 -49.3018901,-28.5750050992062,0.0 -49.3013075,-28.5752259992062,0.0 -49.3011429,-28.5752435992062,0.0 -49.3005709,-28.5752421992062,0.0 -49.3004443,-28.5752248992062,0.0 -49.300345,-28.5751939992062,0.0 -49.3002796,-28.5751453992062,0.0 -49.3001164,-28.5749777992062,0.0 -49.3000544,-28.5749511992062,0.0 -49.2999752,-28.5749595992062,0.0 -49.2999358,-28.5749980992062,0.0 -49.2999569,-28.5751085992062,0.0 -49.2999983,-28.5752898992062,0.0 -49.2999808,-28.5754341992062,0.0 -49.2999271,-28.5755221992062,0.0 -49.2998415,-28.5756244992062,0.0 -49.2994431,-28.5762482992062,0.0 -49.2993501,-28.5763455992062,0.0 -49.2992751,-28.5763757992062,0.0 -49.2990273,-28.5763529992062,0.0 -49.2990212,-28.5763526992062,0.0 -49.2990092,-28.5763517992062,0.0 -49.2989469,-28.5763965992062,0.0 -49.2989474,-28.5764131992062,0.0 -49.2989377,-28.5764446992062,0.0 -49.2988867,-28.5764920992062,0.0 -49.2988065,-28.5765277992062,0.0 -49.2987301,-28.5765626992062,0.0 -49.2986735,-28.5765933992062,0.0 -49.2986329,-28.5766340992062,0.0 -49.2985922,-28.5766906992062,0.0 -49.2983691,-28.5770532992062,0.0 -49.2982276,-28.5771712992062,0.0 -49.2981028,-28.5772230992062,0.0 -49.2974963,-28.5770438992062,0.0 -49.297426,-28.5770342992062,0.0 -49.2973937,-28.5770441992062,0.0 -49.2973703,-28.5770745992062,0.0 -49.2972914,-28.5771114992062,0.0 -49.297218,-28.5771189992062,0.0 -49.2971059,-28.5771266992062,0.0 -49.2970229,-28.5771363992062,0.0 -49.2969327,-28.5771767992062,0.0 -49.2968508,-28.5772296992062,0.0 -49.2965865,-28.5774811992062,0.0 -49.2964648,-28.5775558992062,0.0 -49.2964063,-28.5775741992062,0.0 -49.2963385,-28.5775840992062,0.0 -49.296183,-28.5775730992062,0.0 -49.2961124,-28.5775538992062,0.0 -49.2960634,-28.5775329992062,0.0 -49.2960078,-28.5775070992062,0.0 -49.2959532,-28.5774837992062,0.0 -49.2959231,-28.5774753992062,0.0 -49.295891,-28.5774836992062,0.0 -49.295874,-28.5775019992062,0.0 -49.2958759,-28.5775393992062,0.0 -49.2958937,-28.5775959992062,0.0 -49.2958935,-28.5776741992062,0.0 -49.2958982,-28.5777232992062,0.0 -49.2959443,-28.5777574992062,0.0 -49.295964,-28.5777674992062,0.0 -49.295981,-28.5777890992062,0.0 -49.2959856,-28.5778090992062,0.0 -49.295979,-28.5778290992062,0.0 -49.2959488,-28.5778547992062,0.0 -49.2955856,-28.5780964992062,0.0 -49.2955243,-28.5781097992062,0.0 -49.2954848,-28.5781005992062,0.0 -49.2954414,-28.5780780992062,0.0 -49.2954207,-28.5780879992062,0.0 -49.2954008,-28.5781253992062,0.0 -49.2953668,-28.5781744992062,0.0 -49.2953499,-28.5781802992062,0.0 -49.2953159,-28.5781768992062,0.0 -49.2952801,-28.5781676992062,0.0 -49.295251,-28.5781443992062,0.0 -49.2952275,-28.5781143992062,0.0 -49.2952115,-28.5780760992062,0.0 -49.2952145,-28.5780020992062,0.0 -49.295223,-28.5779396992062,0.0 -49.2952259,-28.5778988992062,0.0 -49.2952194,-28.5778764992062,0.0 -49.2952006,-28.5778664992062,0.0 -49.2951695,-28.5778613992062,0.0 -49.2951497,-28.5778530992062,0.0 -49.2951111,-28.5778363992062,0.0 -49.2950715,-28.5778288992062,0.0 -49.2950096,-28.5778810992062,0.0 -49.2948043,-28.5780973992062,0.0 -49.2945717,-28.5782595992062,0.0 -49.29451,-28.5782840992062,0.0 -49.2944459,-28.5783039992062,0.0 -49.2943639,-28.5783396992062,0.0 -49.2943195,-28.5783670992062,0.0 -49.2942592,-28.5783952992062,0.0 -49.2942139,-28.5784110992062,0.0 -49.294162,-28.5784284992062,0.0 -49.2941064,-28.5784491992062,0.0 -49.293816,-28.5785620992062,0.0 -49.2937254,-28.5786301992062,0.0 -49.2936923,-28.5786683992062,0.0 -49.2934172,-28.5791638992061,0.0 -49.2933625,-28.5792054992061,0.0 -49.2933267,-28.5792153992061,0.0 -49.2929073,-28.5792215992061,0.0 -49.2927924,-28.5791972992062,0.0 -49.2922489,-28.5790277992061,0.0 -49.2921274,-28.5790043992061,0.0 -49.2919644,-28.5789633992061,0.0 -49.2918731,-28.5789266992061,0.0 -49.2918232,-28.5788941992062,0.0 -49.291747,-28.5788275992062,0.0 -49.2915692,-28.5786525992062,0.0 -49.2914929,-28.5786192992061,0.0 -49.2914006,-28.5785875992062,0.0 -49.2910135,-28.5784581992061,0.0 -49.2906104,-28.5783270992062,0.0 -49.2905737,-28.5783211992062,0.0 -49.290518,-28.5783343992062,0.0 -49.2905058,-28.5783460992062,0.0 -49.2903452,-28.5785579992062,0.0 -49.2901434,-28.5789134992061,0.0 -49.2901153,-28.5789849992061,0.0 -49.2901117,-28.5790290992061,0.0 -49.2901197,-28.5790907992061,0.0 -49.2901313,-28.5791633992061,0.0 -49.2901329,-28.5792033992061,0.0 -49.2901241,-28.5792424992061,0.0 -49.2900982,-28.5792839992061,0.0 -49.2900592,-28.5793136992061,0.0 -49.2900213,-28.5793351992061,0.0 -49.2899711,-28.5793522992061,0.0 -49.2898178,-28.5793887992061,0.0 -49.2897362,-28.5793614992061,0.0 -49.2897016,-28.5793379992061,0.0 -49.2896521,-28.5792969992061,0.0 -49.2896223,-28.5792610992061,0.0 -49.2895915,-28.5792367992061,0.0 -49.2895428,-28.5792173992062,0.0 -49.2893437,-28.5791761992061,0.0 -49.2892842,-28.5791762992061,0.0 -49.2891728,-28.5791914992061,0.0 -49.2882229,-28.5794833992062,0.0 -49.2880486,-28.5794448992061,0.0 -49.2877602,-28.5794299992061,0.0 -49.2873905,-28.5794478992061,0.0 -49.2869822,-28.5794913992061,0.0 -49.286693,-28.5795176992061,0.0 -49.2862418,-28.5795906992061,0.0 -49.2859359,-28.5796450992061,0.0 -49.2858849,-28.5796654992061,0.0 -49.2858488,-28.5796912992061,0.0 -49.2857944,-28.5797378992061,0.0 -49.2857655,-28.5797645992061,0.0 -49.2857128,-28.5798130992061,0.0 -49.2855978,-28.5799220992061,0.0 -49.2854977,-28.5800337992061,0.0 -49.2854221,-28.5801064992061,0.0 -49.2851871,-28.5802716992061,0.0 -49.2849743,-28.5803557992061,0.0 -49.2848092,-28.5803796992061,0.0 -49.2847591,-28.5803801992061,0.0 -49.2846751,-28.5803862992061,0.0 -49.2846334,-28.5804042992061,0.0 -49.2846001,-28.5804340992061,0.0 -49.2845733,-28.5804763992061,0.0 -49.2844348,-28.5810049992061,0.0 -49.2843948,-28.5810504992061,0.0 -49.2840824,-28.5812449992061,0.0 -49.2839303,-28.5812967992061,0.0 -49.2838708,-28.5813030992061,0.0 -49.2838282,-28.5813193992061,0.0 -49.2837866,-28.5813349992061,0.0 -49.2837469,-28.5813446992061,0.0 -49.2837186,-28.5813452992061,0.0 -49.2836696,-28.5813374992061,0.0 -49.2836357,-28.5813339992061,0.0 -49.2835941,-28.5813469992061,0.0 -49.2835346,-28.5813606992061,0.0 -49.2835044,-28.5813596992061,0.0 -49.2834629,-28.5813568992061,0.0 -49.2834073,-28.5813573992061,0.0 -49.2830901,-28.5813942992061,0.0 -49.2830295,-28.5814263992061,0.0 -49.282862,-28.5814901992061,0.0 -49.2828214,-28.5815031992061,0.0 -49.2827797,-28.5815211992061,0.0 -49.2827343,-28.5815400992061,0.0 -49.2826898,-28.5815563992061,0.0 -49.2826397,-28.5815718992061,0.0 -49.2825952,-28.5815890992061,0.0 -49.2825317,-28.5816235992061,0.0 -49.2825033,-28.5816333992061,0.0 -49.2824731,-28.5816389992061,0.0 -49.2824334,-28.5816478992061,0.0 -49.2823825,-28.5816500992061,0.0 -49.2823528,-28.5816464992061,0.0 -49.2823231,-28.5816429992061,0.0 -49.2823058,-28.5816444992061,0.0 -49.2822327,-28.5816627992061,0.0 -49.282196,-28.5816828992061,0.0 -49.2821451,-28.5816970992061,0.0 -49.2820866,-28.5817063992061,0.0 -49.2820292,-28.5817163992061,0.0 -49.2814777,-28.5818279992061,0.0 -49.2813655,-28.5818476992061,0.0 -49.2812086,-28.5818750992061,0.0 -49.2809395,-28.5819220992061,0.0 -49.2808414,-28.5819197992061,0.0 -49.2807565,-28.5819173992061,0.0 -49.2806565,-28.5819017992061,0.0 -49.2805632,-28.5818819992061,0.0 -49.2804622,-28.5818645992061,0.0 -49.2803707,-28.5818505992061,0.0 -49.2802858,-28.5818265992061,0.0 -49.2802273,-28.5818050992061,0.0 -49.2801612,-28.5817660992061,0.0 -49.2798314,-28.5814402992061,0.0 -49.279754,-28.5813987992061,0.0 -49.279654,-28.5813639992061,0.0 -49.2795917,-28.5813590992061,0.0 -49.2791686,-28.5813742992061,0.0 -49.2790805,-28.5813867992061,0.0 -49.2790053,-28.5813974992061,0.0 -49.278944,-28.5814050992061,0.0 -49.278861,-28.5814276992061,0.0 -49.2787951,-28.5814402992061,0.0 -49.2787376,-28.5814536992061,0.0 -49.278681,-28.5814687992061,0.0 -49.2785256,-28.5815330992061,0.0 -49.2784455,-28.5815764992061,0.0 -49.2783532,-28.5816165992061,0.0 -49.2782797,-28.5816574992061,0.0 -49.2782439,-28.5816816992061,0.0 -49.2782072,-28.5817100992061,0.0 -49.2781592,-28.5817667992061,0.0 -49.2781273,-28.5818058992061,0.0 -49.2781019,-28.5818367992061,0.0 -49.2780109,-28.5820716992061,0.0 -49.2779511,-28.5821358992061,0.0 -49.2779403,-28.5821474992061,0.0 -49.2778631,-28.5822000992061,0.0 -49.2777821,-28.5822484992061,0.0 -49.2777077,-28.5822793992061,0.0 -49.2776625,-28.5823043992061,0.0 -49.2776295,-28.5823269992061,0.0 -49.277606,-28.5823444992061,0.0 -49.2775617,-28.5823936992061,0.0 -49.2775382,-28.5824236992061,0.0 -49.2774988,-28.5825094992061,0.0 -49.2774558,-28.5826734992061,0.0 -49.2774381,-28.5827683992061,0.0 -49.2774251,-28.5828616992061,0.0 -49.2774261,-28.5829115992061,0.0 -49.2774271,-28.5829431992061,0.0 -49.2774234,-28.5829756992061,0.0 -49.277415,-28.5830022992061,0.0 -49.2773933,-28.5830314992061,0.0 -49.2773783,-28.5830406992061,0.0 -49.2773594,-28.5830481992061,0.0 -49.2773359,-28.5830473992061,0.0 -49.2773085,-28.5830399992061,0.0 -49.2772774,-28.5830349992061,0.0 -49.2772519,-28.5830375992061,0.0 -49.2772255,-28.5830467992061,0.0 -49.2771879,-28.5830725992061,0.0 -49.2771596,-28.5831059992061,0.0 -49.2771465,-28.5831308992061,0.0 -49.2771353,-28.5831891992061,0.0 -49.277147,-28.5833368992061,0.0 -49.2771605,-28.5835062992061,0.0 -49.2771936,-28.5835703992061,0.0 -49.2771994,-28.5836335992061,0.0 -49.2771826,-28.5837343992061,0.0 -49.2771923,-28.5838400992061,0.0 -49.2771972,-28.5839407992061,0.0 -49.2771813,-28.5840056992061,0.0 -49.2770199,-28.5843621992061,0.0 -49.2769456,-28.584483899206,0.0 -49.2768694,-28.584579699206,0.0 -49.2767915,-28.584732999206,0.0 -49.2767143,-28.584810499206,0.0 -49.276656,-28.584869699206,0.0 -49.276625,-28.584912999206,0.0 -49.2766072,-28.584982099206,0.0 -49.2765923,-28.585058699206,0.0 -49.2765556,-28.585134599206,0.0 -49.2764972,-28.585243899206,0.0 -49.2764204,-28.585387799206,0.0 -49.2761462,-28.585933399206,0.0 -49.2761083,-28.585990499206,0.0 -49.2760098,-28.586139199206,0.0 -49.2759233,-28.586236799206,0.0 -49.2758829,-28.586292599206,0.0 -49.2758547,-28.586351699206,0.0 -49.2758246,-28.586390099206,0.0 -49.2757818,-28.586429499206,0.0 -49.275761,-28.586493799206,0.0 -49.2757155,-28.586528799206,0.0 -49.2755662,-28.586569499206,0.0 -49.2754639,-28.586620399206,0.0 -49.2753828,-28.586642999206,0.0 -49.2752848,-28.586648999206,0.0 -49.2748744,-28.586582999206,0.0 -49.2747574,-28.586539899206,0.0 -49.2747046,-28.586533299206,0.0 -49.2746584,-28.586540099206,0.0 -49.2745943,-28.586563499206,0.0 -49.2743042,-28.586723699206,0.0 -49.2742062,-28.586764699206,0.0 -49.2741006,-28.586802299206,0.0 -49.274046,-28.586822399206,0.0 -49.273997,-28.586864099206,0.0 -49.2739688,-28.586890699206,0.0 -49.2739443,-28.586894099206,0.0 -49.2739094,-28.586899999206,0.0 -49.2738623,-28.586924199206,0.0 -49.2738359,-28.586934199206,0.0 -49.2738029,-28.586935099206,0.0 -49.273768,-28.586929299206,0.0 -49.273736,-28.586930999206,0.0 -49.2736917,-28.586946099206,0.0 -49.273621,-28.586997799206,0.0 -49.2735579,-28.587000399206,0.0 -49.2735164,-28.586993799206,0.0 -49.2734569,-28.586989699206,0.0 -49.2733919,-28.586996499206,0.0 -49.2731393,-28.587080099206,0.0 -49.2730507,-28.587113599206,0.0 -49.2729942,-28.587126999206,0.0 -49.2729565,-28.587122899206,0.0 -49.2729027,-28.587103799206,0.0 -49.2727223,-28.587003399206,0.0 -49.272605,-28.586935499206,0.0 -49.2724726,-28.586851699206,0.0 -49.2724131,-28.586781399206,0.0 -49.2723715,-28.586711999206,0.0 -49.2723309,-28.586639999206,0.0 -49.272296,-28.586585599206,0.0 -49.2722251,-28.586513699206,0.0 -49.2720602,-28.586503999206,0.0 -49.2719559,-28.586483899206,0.0 -49.2717747,-28.586472099206,0.0 -49.2716382,-28.586462899206,0.0 -49.2715083,-28.586447999206,0.0 -49.2713723,-28.586410499206,0.0 -49.2712149,-28.586378399206,0.0 -49.2711067,-28.586335599206,0.0 -49.2709797,-28.586250699206,0.0 -49.2709185,-28.586210399206,0.0 -49.2708768,-28.586153299206,0.0 -49.2708587,-28.586085299206,0.0 -49.2708426,-28.586022999206,0.0 -49.2708348,-28.585979599206,0.0 -49.2707951,-28.585924499206,0.0 -49.2707505,-28.585910699206,0.0 -49.2706607,-28.585924599206,0.0 -49.2705825,-28.586008399206,0.0 -49.2705638,-28.586102299206,0.0 -49.2705447,-28.586226299206,0.0 -49.2704727,-28.586327099206,0.0 -49.2704226,-28.586386699206,0.0 -49.2703473,-28.586423399206,0.0 -49.2700471,-28.586477999206,0.0 -49.269972,-28.586503499206,0.0 -49.2699265,-28.586546199206,0.0 -49.2699194,-28.586585599206,0.0 -49.2699519,-28.586685799206,0.0 -49.2699618,-28.586738699206,0.0 -49.2699695,-28.586787699206,0.0 -49.2699709,-28.586829199206,0.0 -49.2699663,-28.586849799206,0.0 -49.2699515,-28.586871299206,0.0 -49.2698696,-28.586898599206,0.0 -49.2698056,-28.586922599206,0.0 -49.2697698,-28.586936699206,0.0 -49.2697114,-28.586951599206,0.0 -49.2696314,-28.586947299206,0.0 -49.2695712,-28.586928999206,0.0 -49.2694575,-28.586883099206,0.0 -49.2693935,-28.586861499206,0.0 -49.2693239,-28.586840599206,0.0 -49.2692841,-28.586812599206,0.0 -49.2692548,-28.586791999206,0.0 -49.2692312,-28.586759399206,0.0 -49.2692361,-28.586678299206,0.0 -49.2692552,-28.586620599206,0.0 -49.2692534,-28.586568699206,0.0 -49.2692317,-28.586510199206,0.0 -49.2691958,-28.586458299206,0.0 -49.2691636,-28.586425599206,0.0 -49.2691097,-28.586397099206,0.0 -49.2690301,-28.586384399206,0.0 -49.2689135,-28.586398499206,0.0 -49.2687941,-28.586414199206,0.0 -49.2686813,-28.586433299206,0.0 -49.2686054,-28.586444899206,0.0 -49.2685372,-28.586451399206,0.0 -49.2684775,-28.586456399206,0.0 -49.2683912,-28.586459599206,0.0 -49.2682699,-28.586470299206,0.0 -49.2681249,-28.586495199206,0.0 -49.2674157,-28.586660599206,0.0 -49.2672346,-28.586726399206,0.0 -49.2671085,-28.586770499206,0.0 -49.2670241,-28.586806299206,0.0 -49.266914,-28.586845499206,0.0 -49.2667661,-28.586891299206,0.0 -49.2666893,-28.586902899206,0.0 -49.2665917,-28.586900999206,0.0 -49.2663834,-28.586827999206,0.0 -49.2662688,-28.586782699206,0.0 -49.26616,-28.586719799206,0.0 -49.2660748,-28.586666999206,0.0 -49.2659546,-28.586600699206,0.0 -49.2656109,-28.586417699206,0.0 -49.2655295,-28.586374299206,0.0 -49.2653497,-28.586256999206,0.0 -49.2652835,-28.586207499206,0.0 -49.2651851,-28.586122899206,0.0 -49.265099,-28.586046699206,0.0 -49.2650423,-28.585983899206,0.0 -49.2649893,-28.585921899206,0.0 -49.2649316,-28.585858299206,0.0 -49.2648579,-28.585790399206,0.0 -49.2647897,-28.585733499206,0.0 -49.2647207,-28.585681499206,0.0 -49.2646138,-28.585588499206,0.0 -49.2645684,-28.585547499206,0.0 -49.2645135,-28.585510599206,0.0 -49.2644444,-28.585482099206,0.0 -49.2643875,-28.585459399206,0.0 -49.2641943,-28.585408099206,0.0 -49.2640494,-28.585366099206,0.0 -49.2638089,-28.585282099206,0.0 -49.2637066,-28.585244299206,0.0 -49.2636375,-28.585222499206,0.0 -49.2635314,-28.585199699206,0.0 -49.2634016,-28.585179499206,0.0 -49.2633183,-28.585149199206,0.0 -49.2632539,-28.585126599206,0.0 -49.2632103,-28.585119799206,0.0 -49.2630767,-28.585119599206,0.0 -49.2629734,-28.585121999206,0.0 -49.2629241,-28.585115199206,0.0 -49.2628844,-28.585102599206,0.0 -49.2628427,-28.585074099206,0.0 -49.2628011,-28.585028899206,0.0 -49.262787,-28.585005399206,0.0 -49.2627681,-28.584975299206,0.0 -49.2627387,-28.584946799206,0.0 -49.262626,-28.584917399206,0.0 -49.2623702,-28.584891099206,0.0 -49.2621854,-28.584893299206,0.0 -49.2620073,-28.584905599206,0.0 -49.2616793,-28.584925999206,0.0 -49.2616132,-28.584932299206,0.0 -49.2614642,-28.584946599206,0.0 -49.2613258,-28.584981499206,0.0 -49.2612367,-28.584988099206,0.0 -49.2611817,-28.584983799206,0.0 -49.2611287,-28.584985399206,0.0 -49.2610813,-28.584994499206,0.0 -49.2609347,-28.584923399206,0.0 -49.2607624,-28.584839699206,0.0 -49.2606281,-28.584845199206,0.0 -49.2605225,-28.584850199206,0.0 -49.2604699,-28.584853099206,0.0 -49.2599679,-28.584787399206,0.0 -49.2591751,-28.5844812992061,0.0 -49.2588551,-28.584482999206,0.0 -49.2585171,-28.5845794992061,0.0 -49.2581464,-28.584755599206,0.0 -49.2577128,-28.584949199206,0.0 -49.2573809,-28.585069599206,0.0 -49.2569892,-28.585184999206,0.0 -49.2567826,-28.585283499206,0.0 -49.2563418,-28.585604599206,0.0 -49.255916,-28.585648199206,0.0 -49.2555681,-28.585667599206,0.0 -49.2551562,-28.585790999206,0.0 -49.2546273,-28.586079299206,0.0 -49.2542213,-28.586327599206,0.0 -49.253598,-28.587194099206,0.0 -49.2529133,-28.588689999206,0.0 -49.2527236,-28.588658999206,0.0 -49.2524897,-28.588597199206,0.0 -49.2521644,-28.588484699206,0.0 -49.2520835,-28.588454899206,0.0 -49.2520026,-28.588425099206,0.0 -49.2518492,-28.588412799206,0.0 -49.2517141,-28.588477199206,0.0 -49.2516264,-28.588590799206,0.0 -49.2516345,-28.588750299206,0.0 -49.2516893,-28.588905499206,0.0 -49.251895,-28.589121899206,0.0 -49.2520901,-28.589327699206,0.0 -49.2521299,-28.589422199206,0.0 -49.2521256,-28.589529799206,0.0 -49.2520945,-28.589633399206,0.0 -49.2520617,-28.589691999206,0.0 -49.252005,-28.589742699206,0.0 -49.2518609,-28.589764099206,0.0 -49.2517927,-28.589760699206,0.0 -49.2517283,-28.589733099206,0.0 -49.2515687,-28.589600799206,0.0 -49.2513417,-28.589370199206,0.0 -49.251217,-28.589313699206,0.0 -49.2511075,-28.589313499206,0.0 -49.2510436,-28.589329899206,0.0 -49.2509798,-28.589366699206,0.0 -49.2509374,-28.589469499206,0.0 -49.250916,-28.589632699206,0.0 -49.250994,-28.589852599206,0.0 -49.2511359,-28.590015799206,0.0 -49.251292,-28.5901860992059,0.0 -49.2513736,-28.590335099206,0.0 -49.2513842,-28.5905088992059,0.0 -49.2512069,-28.5907216992059,0.0 -49.2508521,-28.5909486992059,0.0 -49.2505967,-28.5909983992059,0.0 -49.2503281,-28.5910024992059,0.0 -49.2501074,-28.5909562992059,0.0 -49.24986,-28.5908066992059,0.0 -49.2495869,-28.5907363992059,0.0 -49.2494228,-28.5907501992059,0.0 -49.249036,-28.5906932992059,0.0 -49.2488019,-28.5907500992059,0.0 -49.2485323,-28.5907464992059,0.0 -49.2484587,-28.5907397992059,0.0 -49.2484081,-28.5907039992059,0.0 -49.2483797,-28.5906436992059,0.0 -49.248284,-28.5905123992059,0.0 -49.2481243,-28.590416599206,0.0 -49.2479257,-28.5903350992059,0.0 -49.2477874,-28.590295999206,0.0 -49.2475,-28.5902002992059,0.0 -49.2471985,-28.590093899206,0.0 -49.2470531,-28.5900015992059,0.0 -49.2468864,-28.589873899206,0.0 -49.2467313,-28.589801199206,0.0 -49.2464337,-28.589737299206,0.0 -49.2462368,-28.589753199206,0.0 -49.2458731,-28.590105399206,0.0 -49.2453085,-28.5905986992059,0.0 -49.2493781,-28.5930350992059,0.0 -49.2494516,-28.5930730992059,0.0 -49.2496455,-28.5932170992059,0.0 -49.2497808,-28.5933234992059,0.0 -49.2500001,-28.5934481992059,0.0 -49.2501018,-28.5935060992059,0.0 -49.2501335,-28.5935241992059,0.0 -49.2501638,-28.5935373992059,0.0 -49.2502038,-28.5935488992059,0.0 -49.2503565,-28.5935819992059,0.0 -49.2505013,-28.5936099992059,0.0 -49.2506173,-28.5936216992059,0.0 -49.2506946,-28.5936210992059,0.0 -49.2507478,-28.5936143992059,0.0 -49.2508685,-28.5935780992059,0.0 -49.2509879,-28.5935438992059,0.0 -49.2510746,-28.5935014992059,0.0 -49.2513994,-28.5933088992059,0.0 -49.251462,-28.5932706992059,0.0 -49.2515844,-28.5932075992059,0.0 -49.2520952,-28.5929886992059,0.0 -49.2521499,-28.5929692992059,0.0 -49.2525057,-28.5928946992059,0.0 -49.2526337,-28.5928739992059,0.0 -49.2528568,-28.5928422992059,0.0 -49.2533345,-28.5928059992059,0.0 -49.2536054,-28.5927837992059,0.0 -49.253747,-28.5927855992059,0.0 -49.2539851,-28.5928112992059,0.0 -49.2541414,-28.5928366992059,0.0 -49.2544047,-28.5928947992059,0.0 -49.2546801,-28.5929863992059,0.0 -49.254886,-28.5930726992059,0.0 -49.2554175,-28.5933498992059,0.0 -49.2555618,-28.5934180992059,0.0 -49.2559518,-28.5936022992059,0.0 -49.2560126,-28.5936296992059,0.0 -49.2561383,-28.5936737992059,0.0 -49.2562231,-28.5937067992059,0.0 -49.2565748,-28.5938913992059,0.0 -49.2568048,-28.5940032992059,0.0 -49.257106,-28.5941806992059,0.0 -49.2571881,-28.5942263992059,0.0 -49.2573307,-28.5942803992059,0.0 -49.2575004,-28.5943401992059,0.0 -49.2575859,-28.5943854992059,0.0 -49.2578335,-28.5945644992059,0.0 -49.257906,-28.5946105992059,0.0 -49.2581523,-28.5947102992059,0.0 -49.258412,-28.5948121992059,0.0 -49.2586452,-28.5949152992059,0.0 -49.2588235,-28.5949980992059,0.0 -49.259085,-28.5951493992059,0.0 -49.2592473,-28.5952446992059,0.0 -49.2594792,-28.5953373992058,0.0 -49.2596418,-28.5953988992059,0.0 -49.2597814,-28.5954528992059,0.0 -49.2599192,-28.5955343992059,0.0 -49.260028,-28.5956114992059,0.0 -49.2600931,-28.5956539992059,0.0 -49.2601952,-28.5957069992059,0.0 -49.2603444,-28.5957682992058,0.0 -49.260652,-28.5959518992058,0.0 -49.2607628,-28.5960076992058,0.0 -49.2609296,-28.5960910992058,0.0 -49.2610752,-28.5961560992058,0.0 -49.2612309,-28.5962069992058,0.0 -49.2614914,-28.5963279992058,0.0 -49.2619547,-28.5965474992058,0.0 -49.2620853,-28.5966036992058,0.0 -49.262217,-28.5967133992058,0.0 -49.2622838,-28.5967764992058,0.0 -49.2623836,-28.5968438992058,0.0 -49.262508,-28.5969065992058,0.0 -49.2628279,-28.5970484992058,0.0 -49.2633931,-28.5973424992058,0.0 -49.2640505,-28.5976360992058,0.0 -49.2641721,-28.5976935992058,0.0 -49.2643812,-28.5978124992058,0.0 -49.2646856,-28.5979740992058,0.0 -49.264922,-28.5980673992058,0.0 -49.2652336,-28.5981759992058,0.0 -49.2653912,-28.5982365992058,0.0 -49.2656014,-28.5983473992058,0.0 -49.2658716,-28.5985073992058,0.0 -49.2660238,-28.5986147992058,0.0 -49.2661043,-28.5986545992058,0.0 -49.2662884,-28.5987262992058,0.0 -49.266468,-28.5988134992058,0.0 -49.2667742,-28.5990021992058,0.0 -49.2669337,-28.5991357992058,0.0 -49.267121,-28.5992966992058,0.0 -49.2672737,-28.5993964992058,0.0 -49.2672836,-28.5994043992058,0.0 -49.2675063,-28.5995828992058,0.0 -49.2675797,-28.5996559992058,0.0 -49.2679062,-28.6000167992058,0.0 -49.2680255,-28.6001561992058,0.0 -49.2680766,-28.6002539992058,0.0 -49.2681976,-28.6004536992058,0.0 -49.2685254,-28.6008784992058,0.0 -49.2685909,-28.6009426992058,0.0 -49.2686315,-28.6009795992058,0.0 -49.2686905,-28.6010384992058,0.0 -49.2687245,-28.6010925992058,0.0 -49.2688241,-28.6012508992057,0.0 -49.2689141,-28.6013973992057,0.0 -49.2692295,-28.6017835992057,0.0 -49.2692943,-28.6018729992057,0.0 -49.2693541,-28.6019738992057,0.0 -49.2696106,-28.6023448992057,0.0 -49.2698444,-28.6026502992057,0.0 -49.2700089,-28.6028543992057,0.0 -49.2700791,-28.6029426992057,0.0 -49.2701698,-28.6031135992057,0.0 -49.2702348,-28.6032137992057,0.0 -49.2703455,-28.6033469992057,0.0 -49.2704541,-28.6034686992057,0.0 -49.2705983,-28.6037018992057,0.0 -49.2706442,-28.6037858992057,0.0 -49.2707892,-28.6040620992057,0.0 -49.2708384,-28.6041541992057,0.0 -49.2708942,-28.6042300992057,0.0 -49.2709777,-28.6043111992057,0.0 -49.2710746,-28.6043992992057,0.0 -49.2713541,-28.6047116992057,0.0 -49.2714966,-28.6048439992057,0.0 -49.271795,-28.6050944992057,0.0 -49.2719011,-28.6051898992057,0.0 -49.2720188,-28.6052833992057,0.0 -49.2722886,-28.6054671992057,0.0 -49.2724401,-28.6055812992057,0.0 -49.2730315,-28.6059087992057,0.0 -49.2731567,-28.6059679992057,0.0 -49.2733267,-28.6060590992057,0.0 -49.2735672,-28.6062022992057,0.0 -49.2736466,-28.6062350992057,0.0 -49.2737554,-28.6062687992057,0.0 -49.2738456,-28.6063160992057,0.0 -49.2740593,-28.6064601992057,0.0 -49.2741843,-28.6065547992057,0.0 -49.2743821,-28.6066811992057,0.0 -49.274467,-28.6067238992057,0.0 -49.2745187,-28.6067474992056,0.0 -49.2745841,-28.6067712992057,0.0 -49.2746605,-28.6067984992057,0.0 -49.2749981,-28.6069995992057,0.0 -49.2756418,-28.6073792992056,0.0 -49.2756877,-28.6074050992056,0.0 -49.2757147,-28.6074136992056,0.0 -49.275758,-28.6074275992056,0.0 -49.2758006,-28.6074382992056,0.0 -49.2758542,-28.6074461992056,0.0 -49.2759232,-28.6074528992056,0.0 -49.2760024,-28.6074637992056,0.0 -49.2761054,-28.6074985992056,0.0 -49.2761704,-28.6075474992056,0.0 -49.2762392,-28.6076695992056,0.0 -49.2762689,-28.6077270992056,0.0 -49.2763202,-28.6077860992056,0.0 -49.2763574,-28.6078111992056,0.0 -49.2764113,-28.6078370992056,0.0 -49.2766288,-28.6079211992056,0.0 -49.2766876,-28.6079464992056,0.0 -49.2767415,-28.6079753992056,0.0 -49.2769124,-28.6081770992056,0.0 -49.27694,-28.6082173992056,0.0 -49.2769876,-28.6082491992056,0.0 -49.2770564,-28.6082787992056,0.0 -49.277169,-28.6083125992056,0.0 -49.2773014,-28.6083454992056,0.0 -49.2774167,-28.6083880992056,0.0 -49.277571,-28.6084648992056,0.0 -49.2777165,-28.6085615992056,0.0 -49.2779082,-28.6087341992056,0.0 -49.2779676,-28.6087752992056,0.0 -49.2780107,-28.6087962992056,0.0 -49.2780884,-28.6088197992056,0.0 -49.2781749,-28.6088460992056,0.0 -49.2782827,-28.6088813992056,0.0 -49.2783661,-28.6089238992056,0.0 -49.2787742,-28.6091120992056,0.0 -49.2789285,-28.6091781992056,0.0 -49.279054,-28.6092640992056,0.0 -49.2791908,-28.6093588992056,0.0 -49.27944,-28.6095505992056,0.0 -49.2795291,-28.6095982992056,0.0 -49.27959,-28.6096319992056,0.0 -49.279822,-28.6097601992056,0.0 -49.2803287,-28.6099936992056,0.0 -49.2803907,-28.6100233992056,0.0 -49.2805249,-28.6101057992056,0.0 -49.2805836,-28.6101462992056,0.0 -49.2806918,-28.6102031992056,0.0 -49.2810035,-28.6103815992056,0.0 -49.2812547,-28.6105198992056,0.0 -49.2814302,-28.6106314992056,0.0 -49.2815692,-28.6107163992056,0.0 -49.2817486,-28.6108415992056,0.0 -49.2818141,-28.6108772992056,0.0 -49.2821526,-28.6110496992056,0.0 -49.2823965,-28.6111738992056,0.0 -49.2825802,-28.6112643992056,0.0 -49.2832087,-28.6116524992056,0.0 -49.2838936,-28.6120219992056,0.0 -49.2839565,-28.6120606992056,0.0 -49.2840874,-28.6121645992056,0.0 -49.2841523,-28.6122042992056,0.0 -49.2842214,-28.6122439992056,0.0 -49.2842783,-28.6122700992056,0.0 -49.2844209,-28.6123398992056,0.0 -49.2846383,-28.6124565992056,0.0 -49.2847756,-28.6125380992056,0.0 -49.2848141,-28.6125647992056,0.0 -49.2848569,-28.6125815992055,0.0 -49.2850843,-28.6126595992055,0.0 -49.2851862,-28.6126970992055,0.0 -49.285241,-28.6127248992056,0.0 -49.2852866,-28.6127606992055,0.0 -49.2853705,-28.6128525992055,0.0 -49.2854107,-28.6129018992055,0.0 -49.2854593,-28.6129377992056,0.0 -49.2857707,-28.6131140992055,0.0 -49.2859675,-28.6137837992055,0.0 -49.2862539,-28.6147132992055,0.0 -49.2865391,-28.6156867992055,0.0 -49.2865432,-28.6157008992055,0.0 -49.2867036,-28.6161301992055,0.0 -49.2868261,-28.6165147992055,0.0 -49.2870082,-28.6168779992055,0.0 -49.2871068,-28.6170427992055,0.0 -49.2872095,-28.6171972992055,0.0 -49.2873253,-28.6173618992055,0.0 -49.2875159,-28.6175723992055,0.0 -49.2875575,-28.6176138992055,0.0 -49.2876615,-28.6176933992055,0.0 -49.2879239,-28.6179135992055,0.0 -49.2881306,-28.6180963992055,0.0 -49.2884331,-28.6183681992054,0.0 -49.2891719,-28.6190147992054,0.0 -49.2898607,-28.6196042992054,0.0 -49.2905553,-28.6201788992054,0.0 -49.2906152,-28.6202321992054,0.0 -49.290971,-28.6205598992054,0.0 -49.2912795,-28.6208150992054,0.0 -49.2914971,-28.6210085992054,0.0 -49.2918805,-28.6213359992054,0.0 -49.2923823,-28.6215600992054,0.0 -49.2928263,-28.6216939992054,0.0 -49.2928955,-28.6217065992054,0.0 -49.2931709,-28.6217223992054,0.0 -49.2932321,-28.6217107992054,0.0 -49.2938744,-28.6213239992054,0.0 -49.2939606,-28.6212610992054,0.0 -49.2940468,-28.6211958992054,0.0 -49.294105,-28.6211761992054,0.0 -49.2941656,-28.6211676992054,0.0 -49.2942147,-28.6211723992054,0.0 -49.2942574,-28.6211881992054,0.0 -49.2942775,-28.6212027992054,0.0 -49.294334,-28.6212309992054,0.0 -49.2953199,-28.6213945992054,0.0 -49.2955503,-28.6214248992054,0.0 -49.2956474,-28.6214264992054,0.0 -49.2957022,-28.6214214992054,0.0 -49.2957269,-28.6214191992054,0.0 -49.2957661,-28.6214026992054,0.0 -49.2957802,-28.6213749992054,0.0 -49.2957767,-28.6213404992054,0.0 -49.295739,-28.6213157992054,0.0 -49.2956775,-28.6212853992054,0.0 -49.2956701,-28.6212708992054,0.0 -49.2956703,-28.6212430992054,0.0 -49.2956703,-28.6212361992054,0.0 -49.2956864,-28.6212142992054,0.0 -49.2957116,-28.6211997992054,0.0 -49.2957482,-28.6212063992054,0.0 -49.2957785,-28.6212319992054,0.0 -49.2958289,-28.6212552992054,0.0 -49.2960218,-28.6212683992054,0.0 -49.2960961,-28.6212616992054,0.0 -49.2962046,-28.6212748992054,0.0 -49.2962877,-28.6212985992054,0.0 -49.2964101,-28.6213335992054,0.0 -49.2964895,-28.6213556992054,0.0 -49.2965652,-28.6213567992054,0.0 -49.2966181,-28.6213344992054,0.0 -49.296647,-28.6212921992054,0.0 -49.2966835,-28.6212398992054,0.0 -49.2967715,-28.6210706992054,0.0 -49.2968217,-28.6209471992054,0.0 -49.2968557,-28.6208959992054,0.0 -49.2969412,-28.6208090992054,0.0 -49.29727,-28.6206252992054,0.0 -49.2976276,-28.6204190992054,0.0 -49.2976944,-28.6204089992054,0.0 -49.2977184,-28.6204122992054,0.0 -49.297958,-28.6205499992054,0.0 -49.2980236,-28.6205643992054,0.0 -49.2980362,-28.6205598992054,0.0 -49.2981042,-28.6205130992054,0.0 -49.2981369,-28.6204763992054,0.0 -49.298186,-28.6204506992054,0.0 -49.2982138,-28.6204539992054,0.0 -49.2982441,-28.6204706992054,0.0 -49.2983955,-28.6205927992054,0.0 -49.2988043,-28.6208814992054,0.0 -49.2988485,-28.6209014992054,0.0 -49.2988901,-28.6209103992054,0.0 -49.2989355,-28.6209169992054,0.0 -49.2989821,-28.6209168992054,0.0 -49.299001,-28.6209157992054,0.0 -49.2990287,-28.6209068992054,0.0 -49.2990438,-28.6208956992054,0.0 -49.2990677,-28.6208533992054,0.0 -49.2990866,-28.6208300992054,0.0 -49.2991018,-28.6208256992054,0.0 -49.2991304,-28.6208295992054,0.0 -49.2991634,-28.6208518992054,0.0 -49.2991936,-28.6208936992054,0.0 -49.2993009,-28.6209498992054,0.0 -49.2994155,-28.6210049992054,0.0 -49.2994524,-28.6210482992054,0.0 -49.2994838,-28.6211035992054,0.0 -49.2994974,-28.6211366992054,0.0 -49.2995084,-28.6211662992054,0.0 -49.2995265,-28.6212277992054,0.0 -49.2995541,-28.6213358992054,0.0 -49.2995778,-28.6214115992054,0.0 -49.2996485,-28.6215486992054,0.0 -49.2996797,-28.6216007992054,0.0 -49.2997146,-28.6216420992054,0.0 -49.2997689,-28.6216820992054,0.0 -49.2997972,-28.6216991992054,0.0 -49.2998643,-28.6217138992054,0.0 -49.299956,-28.6217469992054,0.0 -49.3003955,-28.6218356992054,0.0 -49.3004946,-28.6218520992054,0.0 -49.3005712,-28.6218554992054,0.0 -49.3006329,-28.6218306992054,0.0 -49.3006822,-28.6218232992054,0.0 -49.3007678,-28.6218329992054,0.0 -49.300908,-28.6218798992054,0.0 -49.3009313,-28.6218876992054,0.0 -49.3010083,-28.6219134992054,0.0 -49.3011396,-28.6219574992054,0.0 -49.3012832,-28.6219776992054,0.0 -49.3014765,-28.6220516992054,0.0 -49.3017136,-28.6221583992054,0.0 -49.3017688,-28.6221844992054,0.0 -49.3018657,-28.6221963992054,0.0 -49.3019653,-28.6221961992054,0.0 -49.3020764,-28.6221915992054,0.0 -49.3021659,-28.6221923992054,0.0 -49.3022657,-28.6221732992054,0.0 -49.30232,-28.6221703992054,0.0 -49.3023539,-28.6221773992054,0.0 -49.3024856,-28.6222430992054,0.0 -49.30266,-28.6223179992054,0.0 -49.3027505,-28.6223443992054,0.0 -49.3028022,-28.6223448992054,0.0 -49.3028302,-28.6223321992054,0.0 -49.3028554,-28.6223208992054,0.0 -49.3029152,-28.6222779992054,0.0 -49.3029886,-28.6222507992054,0.0 -49.3030204,-28.6222210992054,0.0 -49.3031405,-28.6218671992054,0.0 -49.3031547,-28.6218350992054,0.0 -49.3031939,-28.6218220992054,0.0 -49.3032317,-28.6218256992054,0.0 -49.3032631,-28.6218348992054,0.0 -49.3032895,-28.6218440992054,0.0 -49.3033233,-28.6218687992054,0.0 -49.3033319,-28.6218855992054,0.0 -49.303349,-28.6219379992054,0.0 -49.3033487,-28.6219657992054,0.0 -49.3033659,-28.6220060992054,0.0 -49.3033907,-28.6220418992054,0.0 -49.3034131,-28.6220653992054,0.0 -49.3034434,-28.6220645992054,0.0 -49.3035217,-28.6220474992054,0.0 -49.3035787,-28.6220312992054,0.0 -49.3036215,-28.6220349992054,0.0 -49.3036375,-28.6220684992054,0.0 -49.3036471,-28.6221075992054,0.0 -49.3036631,-28.6221443992054,0.0 -49.3037182,-28.6221771992054,0.0 -49.3038577,-28.6222206992054,0.0 -49.3041758,-28.6222723992054,0.0 -49.3042818,-28.6222576992054,0.0 -49.3043727,-28.6222340992054,0.0 -49.3045106,-28.6220730992054,0.0 -49.3045625,-28.6219356992054,0.0 -49.3046153,-28.6214960992054,0.0 -49.3046738,-28.6214455992054,0.0 -49.3047167,-28.6214392992054,0.0 -49.3048424,-28.6214647992054,0.0 -49.3052692,-28.6215862992054,0.0 -49.3054002,-28.6215830992054,0.0 -49.3054535,-28.6215434992054,0.0 -49.3055154,-28.6214173992054,0.0 -49.3055968,-28.6213424992054,0.0 -49.3057435,-28.6212926992054,0.0 -49.3061803,-28.6211942992054,0.0 -49.3072502,-28.6210214992054,0.0 -49.3084322,-28.6207317992054,0.0 -49.308772,-28.6206621992054,0.0 -49.3089623,-28.6206341992054,0.0 -49.309158,-28.6206980992054,0.0 -49.3093036,-28.6207438992054,0.0 -49.3094685,-28.6208608992054,0.0 -49.3095554,-28.6209727992054,0.0 -49.3096192,-28.6211244992054,0.0 -49.3097183,-28.6212697992054,0.0 -49.3098001,-28.6213837992054,0.0 -49.309907,-28.6215114992054,0.0 -49.3100262,-28.6216613992054,0.0 -49.3101284,-28.6217578992054,0.0 -49.3103779,-28.6219622992054,0.0 -49.3108035,-28.6224193992054,0.0 -49.3112207,-28.6229585992054,0.0 -49.3112929,-28.6230370992054,0.0 -49.3113671,-28.6231554992054,0.0 -49.3114262,-28.6232782992054,0.0 -49.3114733,-28.6235653992054,0.0 -49.3115818,-28.6239951992053,0.0 -49.3116712,-28.6241093992053,0.0 -49.3116793,-28.6241136992053,0.0 -49.3117213,-28.6241364992053,0.0 -49.3117383,-28.6241362992053,0.0 -49.3119991,-28.6241575992053,0.0 -49.312057,-28.6241436992053,0.0 -49.3120734,-28.6241372992053,0.0 -49.3120853,-28.6240919992053,0.0 -49.3120798,-28.6239224992053,0.0 -49.3120991,-28.6238905992053,0.0 -49.3121067,-28.6238784992053,0.0 -49.3121633,-28.6238745992053,0.0 -49.3123138,-28.6238792992053,0.0 -49.3123666,-28.6238797992054,0.0 -49.3124078,-28.6238923992054,0.0 -49.3124589,-28.6239260992053,0.0 -49.3125,-28.6239431992053,0.0 -49.3125051,-28.6239452992053,0.0 -49.3125427,-28.6239500992053,0.0 -49.312728,-28.6238853992053,0.0 -49.3128859,-28.6238609992053,0.0 -49.3129707,-28.6238478992054,0.0 -49.3130259,-28.6238550992054,0.0 -49.3130543,-28.6238951992054,0.0 -49.3130538,-28.6239316992054,0.0 -49.313037,-28.6239758992054,0.0 -49.3130329,-28.6240034992053,0.0 -49.3130546,-28.6240756992053,0.0 -49.3130815,-28.6241334992053,0.0 -49.3131172,-28.6241858992053,0.0 -49.3131395,-28.6242126992053,0.0 -49.3131432,-28.6242134992053,0.0 -49.3131733,-28.6242196992053,0.0 -49.3131959,-28.6242165992053,0.0 -49.3132581,-28.6241639992053,0.0 -49.3132911,-28.6241354992053,0.0 -49.3133201,-28.6241224992053,0.0 -49.3133333,-28.6241701992053,0.0 -49.3133444,-28.6241869992053,0.0 -49.3133781,-28.6242082992053,0.0 -49.3134243,-28.6242242992053,0.0 -49.313463,-28.6242445992053,0.0 -49.3135053,-28.6242748992053,0.0 -49.3135072,-28.6243224992053,0.0 -49.3134846,-28.6244274992053,0.0 -49.3134718,-28.6244494992053,0.0 -49.3134651,-28.6244837992053,0.0 -49.3134798,-28.6245093992053,0.0 -49.3135123,-28.6245262992053,0.0 -49.3135424,-28.6245276992053,0.0 -49.3135889,-28.6245181992053,0.0 -49.3136128,-28.6245194992053,0.0 -49.3136422,-28.6245728992053,0.0 -49.3136813,-28.6246640992053,0.0 -49.3136869,-28.6247205992053,0.0 -49.3136744,-28.6248145992053,0.0 -49.3136435,-28.6248785992053,0.0 -49.3136265,-28.6249381992053,0.0 -49.3136262,-28.6249625992053,0.0 -49.3136285,-28.6249758992053,0.0 -49.3136385,-28.6249781992053,0.0 -49.3136825,-28.6249785992053,0.0 -49.3137228,-28.6249623992053,0.0 -49.3137936,-28.6249242992053,0.0 -49.3138439,-28.6249147992053,0.0 -49.3138852,-28.6249217992053,0.0 -49.314176,-28.6249621992053,0.0 -49.3142223,-28.6249703992053,0.0 -49.3142332,-28.6250003992053,0.0 -49.3142345,-28.6250037992053,0.0 -49.3142253,-28.6250368992053,0.0 -49.3142199,-28.6250666992053,0.0 -49.3142246,-28.6250944992053,0.0 -49.3142408,-28.6251023992053,0.0 -49.3142634,-28.6251014992053,0.0 -49.3143013,-28.6250829992053,0.0 -49.3143581,-28.6250602992053,0.0 -49.3145231,-28.6250004992053,0.0 -49.3145396,-28.6249944992053,0.0 -49.3146141,-28.6249641992053,0.0 -49.3146821,-28.6249426992053,0.0 -49.3147411,-28.6249409992053,0.0 -49.3147662,-28.6249423992053,0.0 -49.3148024,-28.6249592992053,0.0 -49.3148285,-28.6250004992053,0.0 -49.3148369,-28.6250138992053,0.0 -49.3149761,-28.6253340992053,0.0 -49.3150682,-28.6256040992053,0.0 -49.3151038,-28.6256674992053,0.0 -49.3151296,-28.6257153992053,0.0 -49.3151441,-28.6257619992053,0.0 -49.3151446,-28.6258195992053,0.0 -49.3151315,-28.6258703992053,0.0 -49.3151241,-28.6259600992053,0.0 -49.3151403,-28.6261716992053,0.0 -49.3151485,-28.6262171992053,0.0 -49.3151695,-28.6262472992053,0.0 -49.3153208,-28.6264026992053,0.0 -49.3153717,-28.6264507992053,0.0 -49.3154062,-28.6264986992053,0.0 -49.3154258,-28.6265375992053,0.0 -49.3154892,-28.6265924992053,0.0 -49.3155601,-28.6266473992053,0.0 -49.3156347,-28.6267001992053,0.0 -49.315762,-28.6267666992053,0.0 -49.3158257,-28.6267883992053,0.0 -49.3158671,-28.6267898992053,0.0 -49.3158948,-28.6267878992053,0.0 -49.315944,-28.6267639992053,0.0 -49.3159671,-28.6267497992053,0.0 -49.3160031,-28.6267320992053,0.0 -49.3160323,-28.6267169992053,0.0 -49.3160604,-28.6266931992053,0.0 -49.3161036,-28.6266451992053,0.0 -49.3161453,-28.6265844992053,0.0 -49.3161925,-28.6265219992053,0.0 -49.3162909,-28.6264155992053,0.0 -49.3163003,-28.6264001992053,0.0 -49.316343,-28.6264127992053,0.0 -49.3166865,-28.6265138992053,0.0 -49.3167162,-28.6265236992053,0.0 -49.3167501,-28.6265327992053,0.0 -49.3168641,-28.6265627992053,0.0 -49.3170072,-28.6265873992053,0.0 -49.317812,-28.6265883992053,0.0 -49.3178686,-28.6265822992053,0.0 -49.3179496,-28.6265430992053,0.0 -49.3180121,-28.6264704992053,0.0 -49.318029,-28.6264262992053,0.0 -49.3180359,-28.6263719992053,0.0 -49.3180193,-28.6262885992053,0.0 -49.3179802,-28.6262027992053,0.0 -49.3179675,-28.6261039992053,0.0 -49.3179694,-28.6260551992053,0.0 -49.3179851,-28.6260064992053,0.0 -49.3180181,-28.6259778992053,0.0 -49.3180523,-28.6259604992053,0.0 -49.3181078,-28.6259465992053,0.0 -49.3182796,-28.6258783992053,0.0 -49.3183177,-28.6258498992053,0.0 -49.3183468,-28.6258367992053,0.0 -49.3183933,-28.6258383992053,0.0 -49.3184635,-28.6258534992053,0.0 -49.3185164,-28.6258494992053,0.0 -49.3185428,-28.6258464992053,0.0 -49.3186008,-28.6258391992053,0.0 -49.3186876,-28.6258322992053,0.0 -49.3187581,-28.6258262992053,0.0 -49.3188235,-28.6258268992053,0.0 -49.3188737,-28.6258295992053,0.0 -49.3189362,-28.6258612992053,0.0 -49.318975,-28.6258816992053,0.0 -49.3190324,-28.6259120992053,0.0 -49.3190872,-28.6259569992053,0.0 -49.319132,-28.6259928992053,0.0 -49.3191707,-28.6260220992053,0.0 -49.3192383,-28.6260449992053,0.0 -49.3195684,-28.6260924992053,0.0 -49.3197164,-28.6261293992053,0.0 -49.3198052,-28.6261634992053,0.0 -49.3200987,-28.6263259992053,0.0 -49.3201575,-28.6263565992053,0.0 -49.3202288,-28.6263893992053,0.0 -49.3202613,-28.6263937992053,0.0 -49.3204839,-28.6263976992053,0.0 -49.3206093,-28.6263922992053,0.0 -49.3207144,-28.6263906992053,0.0 -49.3208016,-28.6264041992053,0.0 -49.3209552,-28.6264480992053,0.0 -49.3210518,-28.6264750992053,0.0 -49.3211842,-28.6265537992053,0.0 -49.321208,-28.6265678992053,0.0 -49.3213965,-28.6265058992053,0.0 -49.3216059,-28.6264205992053,0.0 -49.3216498,-28.6263935992053,0.0 -49.321737,-28.6263398992053,0.0 -49.3221519,-28.6261358992053,0.0 -49.3222696,-28.6260791992053,0.0 -49.3228453,-28.6256665992053,0.0 -49.3229204,-28.6256042992053,0.0 -49.3229873,-28.6254929992053,0.0 -49.323093,-28.6252749992053,0.0 -49.3231445,-28.6250019992053,0.0 -49.3231533,-28.6249551992053,0.0 -49.3231879,-28.6248984992053,0.0 -49.323248,-28.6248336992053,0.0 -49.3232967,-28.6248061992053,0.0 -49.3239872,-28.6243928992053,0.0 -49.3240268,-28.6243749992053,0.0 -49.3240612,-28.6243593992053,0.0 -49.3241883,-28.6243185992053,0.0 -49.3243639,-28.6242546992053,0.0 -49.3245134,-28.6242188992053,0.0 -49.324682,-28.6242123992053,0.0 -49.3249712,-28.6242253992053,0.0 -49.3255625,-28.6242519992053,0.0 -49.32565,-28.6242654992054,0.0 -49.325717,-28.6242916992053,0.0 -49.3257754,-28.6243442992053,0.0 -49.3258519,-28.6243840992053,0.0 -49.3259391,-28.6244063992053,0.0 -49.326079,-28.6244301992053,0.0 -49.326262,-28.6244395992053,0.0 -49.3263528,-28.6244309992053,0.0 -49.3263763,-28.6244050992054,0.0 -49.3263964,-28.6243690992053,0.0 -49.3264333,-28.6243201992053,0.0 -49.3264854,-28.6242651992053,0.0 -49.3265135,-28.6242537992053,0.0 -49.3265413,-28.6242467992053,0.0 -49.3266002,-28.6242494992053,0.0 -49.3269288,-28.6242971992054,0.0 -49.3269865,-28.6242965992053,0.0 -49.3270347,-28.6242834992053,0.0 -49.3270994,-28.6242631992053,0.0 -49.3272962,-28.6242374992053,0.0 -49.3274846,-28.6242359992053,0.0 -49.3275311,-28.6242328992053,0.0 -49.3276391,-28.6241839992053,0.0 -49.3277156,-28.6241419992053,0.0 -49.327792,-28.6240998992053,0.0 -49.3279454,-28.6240754992053,0.0 -49.3281603,-28.6240768992053,0.0 -49.3292241,-28.6242493992053,0.0 -49.3293859,-28.6242691992053,0.0 -49.3294598,-28.6242998992053,0.0 -49.3295953,-28.6243565992053,0.0 -49.329712,-28.6243773992053,0.0 -49.329827,-28.6243782992053,0.0 -49.3299568,-28.6243818992053,0.0 -49.3300586,-28.6244022992053,0.0 -49.330063,-28.6244200992053,0.0 -49.3300688,-28.6244664992053,0.0 -49.3300874,-28.6245067992053,0.0 -49.3300943,-28.6245245992053,0.0 -49.3301209,-28.6245239992053,0.0 -49.3301752,-28.6244903992053,0.0 -49.330245,-28.6244462992053,0.0 -49.3303417,-28.6244208992053,0.0 -49.3304954,-28.6244107992053,0.0 -49.3305689,-28.6243978992053,0.0 -49.3306214,-28.6244041992053,0.0 -49.3306832,-28.6244262992053,0.0 -49.330702,-28.6244427992053,0.0 -49.3307122,-28.6244516992053,0.0 -49.3307374,-28.6245057992053,0.0 -49.3307425,-28.6245591992053,0.0 -49.3308192,-28.6246970992053,0.0 -49.3308378,-28.6247287992053,0.0 -49.3308649,-28.6247408992053,0.0 -49.3309539,-28.6247727992053,0.0 -49.330999,-28.6247765992053,0.0 -49.3310997,-28.6247734992053,0.0 -49.3312661,-28.6247594992053,0.0 -49.331397,-28.6247551992053,0.0 -49.3314258,-28.6247513992053,0.0 -49.3315102,-28.6248121992053,0.0 -49.3316005,-28.6248650992053,0.0 -49.3316464,-28.6249043992053,0.0 -49.3317026,-28.6250030992053,0.0 -49.3318344,-28.6252346992053,0.0 -49.3319471,-28.6254325992053,0.0 -49.331972,-28.6254931992053,0.0 -49.3319865,-28.6256418992053,0.0 -49.3319974,-28.6257628992053,0.0 -49.3320178,-28.6258099992053,0.0 -49.332032,-28.6258281992053,0.0 -49.3321198,-28.6259097992053,0.0 -49.3321805,-28.6259539992053,0.0 -49.3322364,-28.6259924992053,0.0 -49.3324118,-28.6260783992053,0.0 -49.3325342,-28.6261382992053,0.0 -49.3326812,-28.6262750992053,0.0 -49.3328249,-28.6264228992053,0.0 -49.3329182,-28.6265188992053,0.0 -49.3329551,-28.6265610992053,0.0 -49.332977,-28.6266026992053,0.0 -49.332992,-28.6267977992053,0.0 -49.3329913,-28.6268673992053,0.0 -49.3329937,-28.6268972992053,0.0 -49.3330168,-28.6269411992053,0.0 -49.3330508,-28.6269921992053,0.0 -49.3331307,-28.6271087992053,0.0 -49.3331311,-28.6271281992053,0.0 -49.3331306,-28.6271581992053,0.0 -49.3331301,-28.6271901992053,0.0 -49.3331241,-28.6272479992053,0.0 -49.3331195,-28.6272749992053,0.0 -49.3331215,-28.6273230992053,0.0 -49.3331254,-28.6273464992053,0.0 -49.3331363,-28.6273613992053,0.0 -49.3331557,-28.6273702992053,0.0 -49.3331793,-28.6273779992053,0.0 -49.3332086,-28.6273782992053,0.0 -49.3332478,-28.6273762992053,0.0 -49.3332758,-28.6273704992053,0.0 -49.333315,-28.6273635992053,0.0 -49.3333597,-28.6273653992053,0.0 -49.3333972,-28.6273744992053,0.0 -49.3334342,-28.6274229992053,0.0 -49.3334838,-28.6275071992053,0.0 -49.3335035,-28.6275343992053,0.0 -49.3335708,-28.6275917992053,0.0 -49.3336089,-28.6276084992053,0.0 -49.3336532,-28.6276251992053,0.0 -49.3337009,-28.6276457992053,0.0 -49.3337441,-28.6276755992053,0.0 -49.3337674,-28.6276896992053,0.0 -49.3337861,-28.6277237992053,0.0 -49.3338047,-28.6277609992053,0.0 -49.3338275,-28.6278669992053,0.0 -49.3338321,-28.6279085992053,0.0 -49.3338342,-28.6279401992053,0.0 -49.3338302,-28.6279732992053,0.0 -49.3338069,-28.6280114992053,0.0 -49.3337838,-28.6280396992053,0.0 -49.3337347,-28.6280708992053,0.0 -49.3337091,-28.6280934992053,0.0 -49.3336927,-28.6281127992053,0.0 -49.333684,-28.6281458992053,0.0 -49.3336836,-28.6282160992053,0.0 -49.3337038,-28.6282697992053,0.0 -49.3337068,-28.6283329992053,0.0 -49.3337027,-28.6283649992053,0.0 -49.3336947,-28.6284065992053,0.0 -49.3336831,-28.6284529992053,0.0 -49.3336607,-28.6284878992053,0.0 -49.3336274,-28.6285243992053,0.0 -49.3335979,-28.6285512992053,0.0 -49.3335503,-28.6285763992053,0.0 -49.3335154,-28.6285967992053,0.0 -49.3334914,-28.6286236992053,0.0 -49.3334747,-28.6286442992053,0.0 -49.3334469,-28.6286792992053,0.0 -49.333428,-28.6287238992053,0.0 -49.3334344,-28.6288832992053,0.0 -49.3334472,-28.6289692992053,0.0 -49.3334868,-28.6290324992053,0.0 -49.333535,-28.6290812992053,0.0 -49.33356,-28.6291197992053,0.0 -49.3335793,-28.6291594992053,0.0 -49.3335872,-28.6291965992053,0.0 -49.333591,-28.6292363992053,0.0 -49.3335681,-28.6293060992053,0.0 -49.3335453,-28.6293416992053,0.0 -49.333544,-28.6293680992052,0.0 -49.3335469,-28.6293880992053,0.0 -49.333596,-28.6294361992053,0.0 -49.3336644,-28.6294727992052,0.0 -49.3337511,-28.6295188992053,0.0 -49.3338074,-28.6295726992053,0.0 -49.3338751,-28.6296522992053,0.0 -49.3338872,-28.6297166992052,0.0 -49.33388,-28.6297649992052,0.0 -49.3338507,-28.6298036992052,0.0 -49.333811,-28.6298806992052,0.0 -49.3338005,-28.6299464992052,0.0 -49.3337915,-28.6299936992052,0.0 -49.3337483,-28.6302205992052,0.0 -49.3337037,-28.6304550992052,0.0 -49.3336953,-28.6305010992052,0.0 -49.3336422,-28.6305973992052,0.0 -49.3336121,-28.6306272992052,0.0 -49.333601,-28.6306347992052,0.0 -49.3335721,-28.6306544992052,0.0 -49.3334781,-28.6306864992052,0.0 -49.3334131,-28.6307128992052,0.0 -49.3333751,-28.6307512992052,0.0 -49.3333687,-28.6307819992052,0.0 -49.3333668,-28.6308249992052,0.0 -49.3333707,-28.6308758992052,0.0 -49.3334072,-28.6309256992052,0.0 -49.3334486,-28.6309789992052,0.0 -49.3334868,-28.6310178992052,0.0 -49.333502,-28.6310275992052,0.0 -49.3335488,-28.6310575992052,0.0 -49.3336065,-28.6310816992052,0.0 -49.3337505,-28.6311054992052,0.0 -49.3338478,-28.6311110992052,0.0 -49.3339008,-28.6311283992052,0.0 -49.3339399,-28.6311592992052,0.0 -49.3339624,-28.6311768992052,0.0 -49.3342688,-28.6314789992052,0.0 -49.3344391,-28.6316416992052,0.0 -49.3345892,-28.6317506992052,0.0 -49.334743,-28.6318343992052,0.0 -49.3348094,-28.6318598992052,0.0 -49.3348638,-28.6318670992052,0.0 -49.3348671,-28.6320238992052,0.0 -49.3348522,-28.6321040992052,0.0 -49.3348521,-28.6321891992052,0.0 -49.3348645,-28.6322481992052,0.0 -49.334923,-28.6323386992052,0.0 -49.3349676,-28.6323788992052,0.0 -49.3350384,-28.6324200992052,0.0 -49.3350904,-28.6324329992052,0.0 -49.3352842,-28.6324408992052,0.0 -49.3354012,-28.6324593992052,0.0 -49.3354773,-28.6324653992052,0.0 -49.335499,-28.6324696992052,0.0 -49.3355648,-28.6326354992052,0.0 -49.3355845,-28.6326692992052,0.0 -49.3356083,-28.6326954992052,0.0 -49.3356074,-28.6327444992052,0.0 -49.3356063,-28.6328787992052,0.0 -49.3356212,-28.6333771992052,0.0 -49.3356515,-28.6334817992052,0.0 -49.3356706,-28.6335551992052,0.0 -49.3357029,-28.6336135992052,0.0 -49.3357893,-28.6336914992052,0.0 -49.3362988,-28.6339044992052,0.0 -49.3364724,-28.6339908992052,0.0 -49.336602,-28.6340527992052,0.0 -49.3367054,-28.6341400992052,0.0 -49.3367531,-28.6342298992052,0.0 -49.3367721,-28.6342657992052,0.0 -49.3368095,-28.6343221992052,0.0 -49.3368996,-28.6343737992052,0.0 -49.337079,-28.6343822992052,0.0 -49.3371987,-28.6343865992052,0.0 -49.3372688,-28.6343823992052,0.0 -49.3375016,-28.6343685992052,0.0 -49.3378192,-28.6343598992052,0.0 -49.3381997,-28.6343930992052,0.0 -49.3382769,-28.6343979992052,0.0 -49.3384082,-28.6344224992052,0.0 -49.3385592,-28.6344519992052,0.0 -49.3389252,-28.6344736992052,0.0 -49.3392069,-28.6344857992052,0.0 -49.3393093,-28.6344924992052,0.0 -49.3395624,-28.6345111992052,0.0 -49.3396365,-28.6345284992052,0.0 -49.3397016,-28.6345575992052,0.0 -49.3397516,-28.6345906992052,0.0 -49.3397863,-28.6345947992052,0.0 -49.3398389,-28.6345851992052,0.0 -49.3398792,-28.6345697992052,0.0 -49.3399476,-28.6345703992052,0.0 -49.339966,-28.6345773992052,0.0 -49.3399878,-28.6345988992052,0.0 -49.3400347,-28.6346483992052,0.0 -49.3400723,-28.6346800992052,0.0 -49.3400994,-28.6346884992052,0.0 -49.3401404,-28.6346905992052,0.0 -49.3403964,-28.6346651992052,0.0 -49.3404872,-28.6346652992052,0.0 -49.3405744,-28.6346631992052,0.0 -49.3406863,-28.6346670992052,0.0 -49.3408501,-28.6346821992052,0.0 -49.3409988,-28.6347013992052,0.0 -49.3411657,-28.6347362992051,0.0 -49.3413267,-28.6347634992051,0.0 -49.3415714,-28.6348168992052,0.0 -49.3416048,-28.6348231992052,0.0 -49.3416386,-28.6348163992052,0.0 -49.341675,-28.6348052992052,0.0 -49.3417281,-28.6347801992052,0.0 -49.3418305,-28.6347707992052,0.0 -49.3418889,-28.6347721992052,0.0 -49.3419297,-28.6347798992052,0.0 -49.3419665,-28.6347983992052,0.0 -49.342202,-28.6349459992052,0.0 -49.3422364,-28.6349599992052,0.0 -49.3423041,-28.6349825992052,0.0 -49.3425742,-28.6350212992051,0.0 -49.3427333,-28.6350274992052,0.0 -49.3428091,-28.6350327992051,0.0 -49.3428784,-28.6350454992052,0.0 -49.3429991,-28.6350441992052,0.0 -49.3431477,-28.6350302992052,0.0 -49.3433117,-28.6350224992052,0.0 -49.3433931,-28.6350184992052,0.0 -49.3434194,-28.6350793992051,0.0 -49.3434598,-28.6351001992052,0.0 -49.3442444,-28.6351079992052,0.0 -49.3442766,-28.6351131992051,0.0 -49.3443371,-28.6351695992051,0.0 -49.3444622,-28.6352581992051,0.0 -49.344515,-28.6352769992051,0.0 -49.3445983,-28.6352725992051,0.0 -49.3446205,-28.6352796992051,0.0 -49.3446682,-28.6353016992052,0.0 -49.3447023,-28.6353606992051,0.0 -49.3448273,-28.6355022992051,0.0 -49.3448369,-28.6355124992051,0.0 -49.3449835,-28.6355271992051,0.0 -49.3450942,-28.6355694992051,0.0 -49.3454604,-28.6357677992051,0.0 -49.3456743,-28.6359324992051,0.0 -49.3457038,-28.6359452992051,0.0 -49.3457637,-28.6359379992051,0.0 -49.3458265,-28.6359198992051,0.0 -49.3459163,-28.6358748992051,0.0 -49.3460191,-28.6358489992051,0.0 -49.3465898,-28.6358227992051,0.0 -49.3466371,-28.6358217992051,0.0 -49.346689,-28.6358340992051,0.0 -49.3467101,-28.6358740992051,0.0 -49.3467097,-28.6359640992051,0.0 -49.3466957,-28.6360536992051,0.0 -49.3466945,-28.6361304992051,0.0 -49.3467121,-28.6361627992051,0.0 -49.3467351,-28.6361841992051,0.0 -49.3467836,-28.6361854992051,0.0 -49.3468674,-28.6361304992051,0.0 -49.3469041,-28.6360710992051,0.0 -49.3469439,-28.6360336992051,0.0 -49.3470093,-28.6360111992051,0.0 -49.3470662,-28.6360224992051,0.0 -49.3473483,-28.6361096992051,0.0 -49.3474591,-28.6361464992051,0.0 -49.3475202,-28.6361842992051,0.0 -49.3480765,-28.6365681992051,0.0 -49.3481475,-28.6366072992051,0.0 -49.3482239,-28.6366295992051,0.0 -49.3482971,-28.6366553992051,0.0 -49.3483787,-28.6366508992051,0.0 -49.3485299,-28.6366264992051,0.0 -49.3485426,-28.6366158992051,0.0 -49.3486757,-28.6365430992051,0.0 -49.3487324,-28.6364866992051,0.0 -49.3491689,-28.6365602992051,0.0 -49.3493018,-28.6365808992051,0.0 -49.3495513,-28.6366042992051,0.0 -49.3513571,-28.6366458992051,0.0 -49.3514373,-28.6366456992051,0.0 -49.3516465,-28.6366360992051,0.0 -49.3516811,-28.6366299992051,0.0 -49.3523476,-28.6365123992051,0.0 -49.352875,-28.6369453992051,0.0 -49.3530207,-28.6370095992051,0.0 -49.3532145,-28.6371421992051,0.0 -49.3533608,-28.6372067992051,0.0 -49.3535101,-28.6372637992051,0.0 -49.3537108,-28.6373233992051,0.0 -49.3539026,-28.6373567992051,0.0 -49.3540954,-28.6373606992051,0.0 -49.3544127,-28.6373332992051,0.0 -49.3547679,-28.6373035992051,0.0 -49.3551564,-28.6372796992051,0.0 -49.3553557,-28.6372573992051,0.0 -49.3553953,-28.6372580992051,0.0 -49.3555269,-28.6372603992051,0.0 -49.3559953,-28.6372987992051,0.0 -49.3564529,-28.6373394992051,0.0 -49.3567087,-28.6373332992051,0.0 -49.3570632,-28.6373005992051,0.0 -49.3575364,-28.6372028992051,0.0 -49.357785,-28.6371455992051,0.0 -49.3579325,-28.6371027992051,0.0 -49.3579397,-28.6370983992051,0.0 -49.3580325,-28.6370421992051,0.0 -49.3580906,-28.6370038992051,0.0 -49.3581469,-28.6369599992051,0.0 -49.3582224,-28.6368796992051,0.0 -49.3583244,-28.6367995992051,0.0 -49.3584575,-28.6367152992051,0.0 -49.3586339,-28.6366274992051,0.0 -49.3588102,-28.6365544992051,0.0 -49.3590086,-28.6364786992051,0.0 -49.3592759,-28.6363567992051,0.0 -49.3595099,-28.6362657992051,0.0 -49.3597386,-28.6361793992051,0.0 -49.3600434,-28.6360242992051,0.0 -49.3603066,-28.6358734992051,0.0 -49.3604664,-28.6357792992051,0.0 -49.3608807,-28.6357568992051,0.0 -49.3611648,-28.6359061992051,0.0 -49.3616078,-28.6361976992051,0.0 -49.3623281,-28.6367215992051,0.0 -49.3629082,-28.6366498992051,0.0 -49.3634079,-28.6365881992051,0.0 -49.3635711,-28.6364748992051,0.0 -49.3639656,-28.6362009992051,0.0 -49.3652267,-28.6356686992051,0.0 -49.3655489,-28.6355687992051,0.0 -49.3672415,-28.6350443992052,0.0 -49.3681814,-28.6346851992052,0.0 -49.3692795,-28.6342366992052,0.0 -49.369758,-28.6339248992052,0.0 -49.3703496,-28.6335394992052,0.0 -49.370714,-28.6330068992052,0.0 -49.3709041,-28.6327520992052,0.0 -49.3713568,-28.6315716992052,0.0 -49.371569,-28.6308791992052,0.0 -49.3718694,-28.6306550992052,0.0 -49.372078,-28.6304223992052,0.0 -49.3721235,-28.6301193992052,0.0 -49.3719536,-28.6295286992053,0.0 -49.3719635,-28.6292186992053,0.0 -49.3720402,-28.6289841992053,0.0 -49.3722428,-28.6284173992053,0.0 -49.3724352,-28.6275961992053,0.0 -49.3727173,-28.6266821992053,0.0 -49.3730026,-28.6256294992053,0.0 -49.3730809,-28.6253473992053,0.0 -49.3734333,-28.6249156992053,0.0 -49.3737253,-28.6246997992053,0.0 -49.3739208,-28.6244109992053,0.0 -49.3741766,-28.6239404992053,0.0 -49.3746708,-28.6231372992054,0.0 -49.3750513,-28.6224445992054,0.0 -49.3755117,-28.6217414992054,0.0 -49.3758423,-28.6210643992054,0.0 -49.3762062,-28.6206693992054,0.0 -49.376648,-28.6203188992054,0.0 -49.3770826,-28.6199525992054,0.0 -49.3774052,-28.6196531992054,0.0 -49.3777566,-28.6191945992054,0.0 -49.3781757,-28.6189092992054,0.0 -49.3783395,-28.6188404992054,0.0 -49.3786845,-28.6188622992054,0.0 -49.3790059,-28.6187228992054,0.0 -49.3794063,-28.6184462992054,0.0 -49.3797531,-28.6182107992055,0.0 -49.3801643,-28.6178907992055,0.0 -49.3802719,-28.6177750992055,0.0 -49.3805345,-28.6174904992055,0.0 -49.3817298,-28.6166724992055,0.0 -49.3826262,-28.6157948992055,0.0 -49.383014,-28.6153964992055,0.0 -49.3835616,-28.6151035992055,0.0 -49.3843722,-28.6147107992055,0.0 -49.3844847,-28.6146061992055,0.0 -49.3845921,-28.6142659992055,0.0 -49.3848951,-28.6135604992055,0.0 -49.3851082,-28.6132582992055,0.0 -49.3853803,-28.6131026992055,0.0 -49.3859968,-28.6129878992055,0.0 -49.3862723,-28.6129533992055,0.0 -49.3864681,-28.6128661992055,0.0 -49.3871535,-28.6124070992056,0.0 -49.3873061,-28.6123649992056,0.0 -49.3882338,-28.6123542992056,0.0 -49.3883738,-28.6123674992056,0.0 -49.3885133,-28.6122854992056,0.0 -49.3887984,-28.6119352992056,0.0 -49.3889725,-28.6118659992056,0.0 -49.3894178,-28.6118807992056,0.0 -49.38979,-28.6116493992056,0.0 -49.3904417,-28.6116760992056,0.0 -49.390622,-28.6116466992056,0.0 -49.3907705,-28.6114742992056,0.0 -49.390854,-28.6112646992056,0.0 -49.3909806,-28.6110956992056,0.0 -49.3912255,-28.6109980992056,0.0 -49.3920946,-28.6107524992056,0.0 -49.3924796,-28.6105865992056,0.0 -49.3933369,-28.6099294992056,0.0 -49.3939549,-28.6095319992056,0.0 -49.3941372,-28.6093310992056,0.0 -49.3946308,-28.6091171992056,0.0 -49.3957575,-28.6090681992056,0.0 -49.3965168,-28.6089946992056,0.0 -49.3973741,-28.6084802992056,0.0 -49.3975456,-28.6078679992056,0.0 -49.3974231,-28.6070351992057,0.0 -49.3974231,-28.6062023992057,0.0 -49.3979375,-28.6054430992057,0.0 -49.3984077,-28.6048483992057,0.0 -49.3987703,-28.6043897992057,0.0 -49.3993092,-28.6035325992057,0.0 -49.4001175,-28.6027241992057,0.0 -49.4005829,-28.6019648992057,0.0 -49.4011217,-28.6012055992057,0.0 -49.4015136,-28.6006422992058,0.0 -49.4015381,-28.6000788992058,0.0 -49.4014646,-28.5995399992058,0.0 -49.4014685,-28.5994342992058,0.0 -49.401485,-28.5989797992058,0.0 -49.4017819,-28.5986562992058,0.0 -49.4019623,-28.5985196992058,0.0 -49.4021045,-28.5983752992058,0.0 -49.4021168,-28.5980759992058,0.0 -49.4020911,-28.5978605992058,0.0 -49.4020919,-28.5976624992058,0.0 -49.4020563,-28.5974700992058,0.0 -49.4016432,-28.5961812992058,0.0 -49.4015894,-28.5959259992058,0.0 -49.4015765,-28.5956546992059,0.0 -49.4012932,-28.5949351992059,0.0 -49.4009503,-28.5944942992059,0.0 -49.4007014,-28.5942935992059,0.0 -49.4004526,-28.5940928992059,0.0 -49.4000896,-28.5940233992059,0.0 -49.3996368,-28.5938774992059,0.0 -49.3992596,-28.5937386992059,0.0 -49.3986877,-28.5935091992059,0.0 -49.3983579,-28.5933683992059,0.0 -49.3980844,-28.5932534992059,0.0 -49.3976639,-28.5931206992059,0.0 -49.3972106,-28.5930247992059,0.0 -49.3967951,-28.5928922992059,0.0 -49.3964561,-28.5927295992059,0.0 -49.3961307,-28.5925461992059,0.0 -49.395821,-28.5922143992059,0.0 -49.3956141,-28.5915670992059,0.0 -49.3954772,-28.5914392992059,0.0 -49.3952512,-28.5913274992059,0.0 -49.3949713,-28.5909739992059,0.0 -49.3948059,-28.5907995992059,0.0 -49.3943919,-28.5904449992059,0.0 -49.3941842,-28.5902810992059,0.0 -49.3940703,-28.590191199206,0.0 -49.3938392,-28.5899834992059,0.0 -49.3936351,-28.589718899206,0.0 -49.3933855,-28.589555799206,0.0 -49.3931308,-28.589458299206,0.0 -49.3927721,-28.589241899206,0.0 -49.3924932,-28.588972899206,0.0 -49.3916239,-28.588042499206,0.0 -49.3913085,-28.587660799206,0.0 -49.3908713,-28.587150399206,0.0 -49.3906101,-28.586861699206,0.0 -49.3904827,-28.586714499206,0.0 -49.3903553,-28.586567299206,0.0 -49.3896357,-28.585976799206,0.0 -49.3892113,-28.585459099206,0.0 -49.3889787,-28.585099499206,0.0 -49.3888231,-28.584935899206,0.0 -49.3885535,-28.584727499206,0.0 -49.3880431,-28.5841816992061,0.0 -49.3878055,-28.5838664992061,0.0 -49.3876492,-28.5835368992061,0.0 -49.3874353,-28.5831004992061,0.0 -49.3872558,-28.5826335992061,0.0 -49.3871046,-28.5823417992061,0.0 -49.386698,-28.5817161992061,0.0 -49.3864258,-28.5812266992061,0.0 -49.3862044,-28.5807622992061,0.0 -49.3860649,-28.5803275992061,0.0 -49.3859335,-28.5800250992061,0.0 -49.3857741,-28.5797574992061,0.0 -49.3853397,-28.5794711992061,0.0 -49.3849418,-28.5792592992061,0.0 -49.3846739,-28.5792228992061,0.0 -49.3844703,-28.5791714992061,0.0 -49.3843435,-28.5790939992061,0.0 -49.3842282,-28.5789795992061,0.0 -49.3840509,-28.5788130992062,0.0 -49.3839315,-28.5787588992062,0.0 -49.3837987,-28.5787462992061,0.0 -49.3836738,-28.5786970992061,0.0 -49.3835777,-28.5786347992062,0.0 -49.3835065,-28.5784748992062,0.0 -49.3834558,-28.5782745992062,0.0 -49.3832304,-28.5779771992062,0.0 -49.3831633,-28.5778171992062,0.0 -49.383067,-28.5777226992062,0.0 -49.3828618,-28.5776504992062,0.0 -49.3827013,-28.5776292992062,0.0 -49.3824928,-28.5776420992062,0.0 -49.3821926,-28.5775848992062,0.0 -49.381809,-28.5775407992062,0.0 -49.3813334,-28.5773999992062,0.0 -49.3809308,-28.5772694992062,0.0 -49.3807136,-28.5771984992062,0.0 -49.380499,-28.5771771992062,0.0 -49.380304,-28.5771548992062,0.0 -49.3799944,-28.5772166992062,0.0 -49.3797829,-28.5773112992062,0.0 -49.3795356,-28.5774513992062,0.0 -49.3792064,-28.5774392992062,0.0 -49.3786952,-28.5772858992062,0.0 -49.3783208,-28.5772504992062,0.0 -49.3779638,-28.5769315992062,0.0 -49.377779,-28.5767146992062,0.0 -49.3775703,-28.5765605992062,0.0 -49.3773365,-28.5764089992062,0.0 -49.3770834,-28.5763169992062,0.0 -49.3768375,-28.5762965992062,0.0 -49.3764525,-28.5762362992062,0.0 -49.3760467,-28.5761941992062,0.0 -49.3759524,-28.5762223992062,0.0 -49.3755215,-28.5762148992062,0.0 -49.374825,-28.5762089992062,0.0 -49.3743818,-28.5762402992062,0.0 -49.3738529,-28.5763221992062,0.0 -49.3736187,-28.5763780992062,0.0 -49.3734476,-28.5764952992062,0.0 -49.373175,-28.5767013992062,0.0 -49.37286,-28.5767707992062,0.0 -49.3725628,-28.5767667992062,0.0 -49.3722719,-28.5767049992062,0.0 -49.3719102,-28.5765537992062,0.0 -49.371731,-28.5764714992062,0.0 -49.3714571,-28.5764772992062,0.0 -49.3711696,-28.5764691992062,0.0 -49.3708258,-28.5763808992062,0.0 -49.3705189,-28.5763438992062,0.0 -49.3701792,-28.5763397992062,0.0 -49.3698594,-28.5764424992062,0.0 -49.3695304,-28.5764479992062,0.0 -49.3693998,-28.5764374992062,0.0 -49.3692825,-28.5763902992062,0.0 -49.3690769,-28.5764322992062,0.0 -49.368873,-28.5763947992062,0.0 -49.3686256,-28.5762666992062,0.0 -49.3684022,-28.5761423992062,0.0 -49.3681458,-28.5759598992062,0.0 -49.3677978,-28.5757980992062,0.0 -49.3676563,-28.5757065992062,0.0 -49.3675071,-28.5756322992062,0.0 -49.3673438,-28.5755928992062,0.0 -49.367142,-28.5755299992062,0.0 -49.3669238,-28.5754984992062,0.0 -49.3665895,-28.5754534992062,0.0 -49.3663961,-28.5754184992062,0.0 -49.3662357,-28.5753955992062,0.0 -49.3659402,-28.5753315992062,0.0 -49.3655928,-28.5752476992062,0.0 -49.3652224,-28.5751053992062,0.0 -49.3650453,-28.5749630992062,0.0 -49.3649435,-28.5747581992062,0.0 -49.3648846,-28.5746465992062,0.0 -49.3648637,-28.5744937992062,0.0 -49.3647675,-28.5740896992062,0.0 -49.3646692,-28.5737952992062,0.0 -49.364564,-28.5733642992062,0.0 -49.3644837,-28.5730814992062,0.0 -49.3641919,-28.5720661992063,0.0 -49.3638907,-28.5711416992063,0.0 -49.3636874,-28.5707103992063,0.0 -49.3635262,-28.5702698992063,0.0 -49.3634189,-28.5701183992063,0.0 -49.3633643,-28.5700650992063,0.0 -49.3632262,-28.5700384992063,0.0 -49.3630422,-28.5700431992063,0.0 -49.3628681,-28.5700133992063,0.0 -49.3626532,-28.5699054992063,0.0 -49.3624549,-28.5697199992063,0.0 -49.3622132,-28.5695775992063,0.0 -49.361595,-28.5692220992063,0.0 -49.3609826,-28.5688987992063,0.0 -49.3598138,-28.5682631992063,0.0 -49.3596625,-28.5678986992063,0.0 -49.3595719,-28.5677627992064,0.0 -49.3594184,-28.5675423992063,0.0 -49.3589583,-28.5669403992064,0.0 -49.3583034,-28.5667946992064,0.0 -49.3580069,-28.5667147992064,0.0 -49.3576804,-28.5665633992064,0.0 -49.3573825,-28.5663334992064,0.0 -49.3571377,-28.5661001992064,0.0 -49.3569586,-28.5658549992064,0.0 -49.3567407,-28.5657573992064,0.0 -49.3565464,-28.5657558992064,0.0 -49.3563038,-28.5657432992064,0.0 -49.3559782,-28.5657714992064,0.0 -49.3557328,-28.5657212992064,0.0 -49.3555009,-28.5655912992064,0.0 -49.3553231,-28.5654388992064,0.0 -49.3551883,-28.5652493992064,0.0 -49.3550269,-28.5650149992064,0.0 -49.3548405,-28.5647133992064,0.0 -49.3546786,-28.5645374992064,0.0 -49.3544467,-28.5643897992064,0.0 -49.3539555,-28.5642558992064,0.0 -49.3536389,-28.5642637992064,0.0 -49.3534015,-28.5641928992064,0.0 -49.3531836,-28.5640684992064,0.0 -49.3528291,-28.5638453992064,0.0 -49.3525882,-28.5636217992064,0.0 -49.3523742,-28.5634145992064,0.0 -49.3522661,-28.5631294992064,0.0 -49.3519412,-28.5628197992064,0.0 -49.3514695,-28.5626188992064,0.0 -49.3511418,-28.5625353992064,0.0 -49.3507579,-28.5624501992064,0.0 -49.3503836,-28.5623601992064,0.0 -49.350107,-28.5623422992064,0.0 -49.3498405,-28.5623757992064,0.0 -49.3495912,-28.5624336992064,0.0 -49.3494962,-28.5625958992064,0.0 -49.3493625,-28.5628069992064,0.0 -49.3490481,-28.5629914992064,0.0 -49.3485959,-28.5630451992064,0.0 -49.3482241,-28.5631572992064,0.0 -49.3478657,-28.5632572992064,0.0 -49.3476538,-28.5632612992064,0.0 -49.3474128,-28.5632331992064,0.0 -49.3472177,-28.5631888992064,0.0 -49.346667,-28.5631708992064,0.0 -49.3464047,-28.5632515992064,0.0 -49.3460903,-28.5633691992064,0.0 -49.3458597,-28.5635188992064,0.0 -49.345648,-28.5637018992064,0.0 -49.3454922,-28.5638869992064,0.0 -49.3453398,-28.5640550992064,0.0 -49.3452058,-28.5645592992064,0.0 -49.3452133,-28.5648536992064,0.0 -49.345107,-28.5652520992064,0.0 -49.3449876,-28.5653574992064,0.0 -49.3448224,-28.5654163992064,0.0 -49.3445905,-28.5654787992064,0.0 -49.344419,-28.5655251992064,0.0 -49.3441364,-28.5655528992064,0.0 -49.3438789,-28.5656903992064,0.0 -49.3436642,-28.5658646992064,0.0 -49.342819,-28.5660037992064,0.0 -49.3425595,-28.5660423992064,0.0 -49.3422987,-28.5660186992064,0.0 -49.3419301,-28.5658957992064,0.0 -49.341475,-28.5658472992064,0.0 -49.3406915,-28.5659448992064,0.0 -49.3402013,-28.5660615992064,0.0 -49.3398151,-28.5662488992064,0.0 -49.3394084,-28.5663808992064,0.0 -49.3386971,-28.5665008992064,0.0 -49.3380837,-28.5665550992064,0.0 -49.3380367,-28.5665642992064,0.0 -49.337708,-28.5666282992064,0.0 -49.3370851,-28.5665416992064,0.0 -49.3367753,-28.5665690992064,0.0 -49.3365049,-28.5665967992064,0.0 -49.3364387,-28.5667201992064,0.0 -49.3363785,-28.5669029992064,0.0 -49.3364959,-28.5673799992063,0.0 -49.3364751,-28.5675788992064,0.0 -49.3363815,-28.5676983992064,0.0 -49.3361404,-28.5678831992063,0.0 -49.3358417,-28.5680361992063,0.0 -49.3356499,-28.5681293992063,0.0 -49.335374,-28.5681532992063,0.0 -49.3351333,-28.5681892992063,0.0 -49.3345541,-28.5680699992063,0.0 -49.3334597,-28.5678153992063,0.0 -49.3329104,-28.5676269992064,0.0 -49.3327009,-28.5675049992064,0.0 -49.3326226,-28.5674801992064,0.0 -49.3323534,-28.5674233992063,0.0 -49.3322701,-28.5674094992064,0.0 -49.3321979,-28.5673981992064,0.0 -49.3321497,-28.5673944992064,0.0 -49.3321021,-28.5673935992063,0.0 -49.3319257,-28.5673917992064,0.0 -49.3318668,-28.5673965992064,0.0 -49.3318005,-28.5673963992063,0.0 -49.3317402,-28.5673947992064,0.0 -49.3316789,-28.5673857992064,0.0 -49.3316359,-28.5673734992064,0.0 -49.3316014,-28.5673527992064,0.0 -49.3315798,-28.5673381992064,0.0 -49.3315093,-28.5673003992064,0.0 -49.3314408,-28.5672598992063,0.0 -49.3313149,-28.5672016992064,0.0 -49.3310039,-28.5670191992064,0.0 -49.3309884,-28.5670113992064,0.0 -49.3308094,-28.5669201992064,0.0 -49.3307772,-28.5669132992064,0.0 -49.3307249,-28.5669130992064,0.0 -49.3306885,-28.5669204992064,0.0 -49.3306374,-28.5669474992064,0.0 -49.3306024,-28.5669727992064,0.0 -49.3305427,-28.5670210992064,0.0 -49.3304728,-28.5670614992064,0.0 -49.3304279,-28.5670769992064,0.0 -49.3304025,-28.5670834992064,0.0 -49.3303279,-28.5671043992064,0.0 -49.3301857,-28.5671475992064,0.0 -49.3300865,-28.5671665992064,0.0 -49.3298949,-28.5671838992064,0.0 -49.3296005,-28.5671456992064,0.0 -49.3291771,-28.5670787992064,0.0 -49.3291305,-28.5670713992064,0.0 -49.3290567,-28.5670502992064,0.0 -49.3289816,-28.5670174992064,0.0 -49.3289282,-28.5669905992064,0.0 -49.3288931,-28.5669512992064,0.0 -49.328814,-28.5668478992064,0.0 -49.3286395,-28.5667288992064,0.0 -49.3284226,-28.5666403992064,0.0 -49.3282817,-28.5665687992064,0.0 -49.3282209,-28.5665438992064,0.0 -49.3281145,-28.5665022992064,0.0 -49.3280625,-28.5665018992064,0.0 -49.3280277,-28.5665014992064,0.0 -49.327993,-28.5664999992064,0.0 -49.3278832,-28.5664849992064,0.0 -49.3277803,-28.5664591992064,0.0 -49.3277513,-28.5664503992064,0.0 -49.3277337,-28.5664427992064,0.0 -49.3277217,-28.5664325992064,0.0 -49.327462,-28.5662837992064,0.0 -49.3273571,-28.5662212992064,0.0 -49.3273286,-28.5662042992064,0.0 -49.3272139,-28.5661595992064,0.0 -49.3270842,-28.5661380992064,0.0 -49.3269415,-28.5661391992064,0.0 -49.3268167,-28.5661819992064,0.0 -49.326353,-28.5663786992064,0.0 -49.3261424,-28.5664361992064,0.0 -49.3258751,-28.5664396992064,0.0 -49.3254299,-28.5664005992064,0.0 -49.3239598,-28.5662715992064,0.0 -49.3239034,-28.5662764992064,0.0 -49.3238491,-28.5662769992064,0.0 -49.3238097,-28.5662768992064,0.0 -49.3237871,-28.5662725992064,0.0 -49.3237714,-28.5662554992064,0.0 -49.3237132,-28.5661831992064,0.0 -49.3236664,-28.5661505992064,0.0 -49.3230982,-28.5658956992064,0.0 -49.3230534,-28.5658762992064,0.0 -49.3230314,-28.5658646992064,0.0 -49.3229315,-28.5658118992064,0.0 -49.3228328,-28.5657593992064,0.0 -49.3224098,-28.5655662992064,0.0 -49.3223238,-28.5655446992064,0.0 -49.3222335,-28.5655377992064,0.0 -49.3220987,-28.5655353992064,0.0 -49.3217724,-28.5655450992064,0.0 -49.3216796,-28.5655404992064,0.0 -49.3216047,-28.5655073992064,0.0 -49.3215683,-28.5654607992064,0.0 -49.3215601,-28.5654093992064,0.0 -49.3215785,-28.5653292992064,0.0 -49.3216004,-28.5652439992064,0.0 -49.3215939,-28.5651698992064,0.0 -49.3215409,-28.5651084992064,0.0 -49.3212719,-28.5649509992064,0.0 -49.321194,-28.5649295992064,0.0 -49.3211209,-28.5649274992064,0.0 -49.3210622,-28.5649434992064,0.0 -49.3210345,-28.5649627992064,0.0 -49.321032,-28.5649702992064,0.0 -49.3210257,-28.5649887992064,0.0 -49.3210248,-28.5650306992064,0.0 -49.3210382,-28.5650816992064,0.0 -49.3210529,-28.5651391992064,0.0 -49.3210694,-28.5652246992064,0.0 -49.3210662,-28.5653661992064,0.0 -49.3210717,-28.5655518992064,0.0 -49.3210321,-28.5655893992064,0.0 -49.3209562,-28.5656171992064,0.0 -49.3208391,-28.5656385992064,0.0</coordinates>
</LinearRing>
</outerBoundaryIs>
</Polygon>
</MultiGeometry>
</Placemark>
</Folder>
</Document></kml>
