<?xml version='1.0' encoding='UTF-8'?>
<kml xmlns:xsd="http://www.w3.org/2001/XMLSchema" xmlns:gx="http://www.google.com/kml/ext/2.2" xmlns:atom="http://www.w3.org/2005/Atom" xmlns="http://www.opengis.net/kml/2.2">
<Document>
<name>ermo_4205191_localidades_2022</name>
<visibility>1</visibility>
<Schema name="Núcleos Urbanos" id="kml_schema_ft_Núcleos_Urbanos">
<SimpleField type="xsd:string" name="CD_UF">
<displayName>CD_UF</displayName>
</SimpleField>
<SimpleField type="xsd:string" name="NM_UF">
<displayName>NM_UF</displayName>
</SimpleField>
<SimpleField type="xsd:string" name="SIGLA_UF">
<displayName>SIGLA_UF</displayName>
</SimpleField>
<SimpleField type="xsd:string" name="CD_MUN">
<displayName>CD_MUN</displayName>
</SimpleField>
<SimpleField type="xsd:string" name="NM_MUN">
<displayName>NM_MUN</displayName>
</SimpleField>
<SimpleField type="xsd:string" name="CD_RGINT">
<displayName>CD_RGINT</displayName>
</SimpleField>
<SimpleField type="xsd:string" name="NM_RGINT">
<displayName>NM_RGINT</displayName>
</SimpleField>
<SimpleField type="xsd:string" name="CD_RGI">
<displayName>CD_RGI</displayName>
</SimpleField>
<SimpleField type="xsd:string" name="NM_RGI">
<displayName>NM_RGI</displayName>
</SimpleField>
<SimpleField type="xsd:string" name="CT_LOCALIDADE">
<displayName>CT_LOCALIDADE</displayName>
</SimpleField>
<SimpleField type="xsd:string" name="CD_LOCALIDADE">
<displayName>CD_LOCALIDADE</displayName>
</SimpleField>
<SimpleField type="xsd:string" name="NM_LOCALIDADE">
<displayName>NM_LOCALIDADE</displayName>
</SimpleField>
<SimpleField type="xsd:string" name="LAT_LOCALIDADE">
<displayName>LAT_LOCALIDADE</displayName>
</SimpleField>
<SimpleField type="xsd:string" name="LONG_LOCALIDADE">
<displayName>LONG_LOCALIDADE</displayName>
</SimpleField>
</Schema>
<Schema name="01. Cidade" id="kml_schema_ft_01._Cidade">
<SimpleField type="xsd:string" name="CD_UF">
<displayName>CD_UF</displayName>
</SimpleField>
<SimpleField type="xsd:string" name="NM_UF">
<displayName>NM_UF</displayName>
</SimpleField>
<SimpleField type="xsd:string" name="SIGLA_UF">
<displayName>SIGLA_UF</displayName>
</SimpleField>
<SimpleField type="xsd:string" name="CD_MUN">
<displayName>CD_MUN</displayName>
</SimpleField>
<SimpleField type="xsd:string" name="NM_MUN">
<displayName>NM_MUN</displayName>
</SimpleField>
<SimpleField type="xsd:string" name="CD_RGINT">
<displayName>CD_RGINT</displayName>
</SimpleField>
<SimpleField type="xsd:string" name="NM_RGINT">
<displayName>NM_RGINT</displayName>
</SimpleField>
<SimpleField type="xsd:string" name="CD_RGI">
<displayName>CD_RGI</displayName>
</SimpleField>
<SimpleField type="xsd:string" name="NM_RGI">
<displayName>NM_RGI</displayName>
</SimpleField>
<SimpleField type="xsd:string" name="CT_LOCALIDADE">
<displayName>CT_LOCALIDADE</displayName>
</SimpleField>
<SimpleField type="xsd:string" name="SCT_LOCALIDADE">
<displayName>SCT_LOCALIDADE</displayName>
</SimpleField>
<SimpleField type="xsd:string" name="CD_LOCALIDADE">
<displayName>CD_LOCALIDADE</displayName>
</SimpleField>
<SimpleField type="xsd:string" name="NM_LOCALIDADE">
<displayName>NM_LOCALIDADE</displayName>
</SimpleField>
<SimpleField type="xsd:string" name="LAT_LOCALIDADE">
<displayName>LAT_LOCALIDADE</displayName>
</SimpleField>
<SimpleField type="xsd:string" name="LONG_LOCALIDADE">
<displayName>LONG_LOCALIDADE</displayName>
</SimpleField>
</Schema>
<Schema name="Município" id="kml_schema_ft_Município">
<SimpleField type="xsd:string" name="CD_UF">
<displayName>CD_UF</displayName>
</SimpleField>
<SimpleField type="xsd:string" name="NM_UF">
<displayName>NM_UF</displayName>
</SimpleField>
<SimpleField type="xsd:string" name="CD_MUN">
<displayName>CD_MUN</displayName>
</SimpleField>
<SimpleField type="xsd:string" name="NM_MUN">
<displayName>NM_MUN</displayName>
</SimpleField>
<SimpleField type="xsd:string" name="CD_RGINT">
<displayName>CD_RGINT</displayName>
</SimpleField>
<SimpleField type="xsd:string" name="NM_RGINT">
<displayName>NM_RGINT</displayName>
</SimpleField>
<SimpleField type="xsd:string" name="CD_RGI">
<displayName>CD_RGI</displayName>
</SimpleField>
<SimpleField type="xsd:string" name="NM_RGI">
<displayName>NM_RGI</displayName>
</SimpleField>
</Schema>
<Folder id="01. Cidade">
<name>01. Cidade</name>
<Folder id="01.03. Sede Municipal">
<name>01.03. Sede Municipal</name>
<Placemark id="01.03. Sede Municipal">
<name>Ermo [4205191]</name>
<visibility>1</visibility>
<snippet> </snippet>
<description>&lt;center&gt;&lt;table&gt;&lt;tr&gt;&lt;th colspan='2' align='center'&gt;&lt;em&gt;Atributos&lt;/em&gt;&lt;/th&gt;&lt;/tr&gt;&lt;tr bgcolor="#E3E3F3"&gt;
&lt;th&gt;CD_UF&lt;/th&gt;
&lt;td&gt;42&lt;/td&gt;
&lt;/tr&gt;&lt;tr bgcolor=""&gt;
&lt;th&gt;NM_UF&lt;/th&gt;
&lt;td&gt;Santa Catarina&lt;/td&gt;
&lt;/tr&gt;&lt;tr bgcolor="#E3E3F3"&gt;
&lt;th&gt;SIGLA_UF&lt;/th&gt;
&lt;td&gt;SC&lt;/td&gt;
&lt;/tr&gt;&lt;tr bgcolor=""&gt;
&lt;th&gt;CD_MUN&lt;/th&gt;
&lt;td&gt;4205191&lt;/td&gt;
&lt;/tr&gt;&lt;tr bgcolor="#E3E3F3"&gt;
&lt;th&gt;NM_MUN&lt;/th&gt;
&lt;td&gt;Ermo&lt;/td&gt;
&lt;/tr&gt;&lt;tr bgcolor=""&gt;
&lt;th&gt;CD_RGINT&lt;/th&gt;
&lt;td&gt;4202&lt;/td&gt;
&lt;/tr&gt;&lt;tr bgcolor="#E3E3F3"&gt;
&lt;th&gt;NM_RGINT&lt;/th&gt;
&lt;td&gt;Criciúma&lt;/td&gt;
&lt;/tr&gt;&lt;tr bgcolor=""&gt;
&lt;th&gt;CD_RGI&lt;/th&gt;
&lt;td&gt;420004&lt;/td&gt;
&lt;/tr&gt;&lt;tr bgcolor="#E3E3F3"&gt;
&lt;th&gt;NM_RGI&lt;/th&gt;
&lt;td&gt;Araranguá&lt;/td&gt;
&lt;/tr&gt;&lt;tr bgcolor=""&gt;
&lt;th&gt;CT_LOCALIDADE&lt;/th&gt;
&lt;td&gt;Cidade&lt;/td&gt;
&lt;/tr&gt;&lt;tr bgcolor="#E3E3F3"&gt;
&lt;th&gt;SCT_LOCALIDADE&lt;/th&gt;
&lt;td&gt;Sede Municipal&lt;/td&gt;
&lt;/tr&gt;&lt;tr bgcolor=""&gt;
&lt;th&gt;CD_LOCALIDADE&lt;/th&gt;
&lt;td&gt;4205191&lt;/td&gt;
&lt;/tr&gt;&lt;tr bgcolor="#E3E3F3"&gt;
&lt;th&gt;NM_LOCALIDADE&lt;/th&gt;
&lt;td&gt;Ermo&lt;/td&gt;
&lt;/tr&gt;&lt;tr bgcolor=""&gt;
&lt;th&gt;LAT_LOCALIDADE&lt;/th&gt;
&lt;td&gt;-28.9861&lt;/td&gt;
&lt;/tr&gt;&lt;tr bgcolor="#E3E3F3"&gt;
&lt;th&gt;LONG_LOCALIDADE&lt;/th&gt;
&lt;td&gt;-49.6429&lt;/td&gt;
&lt;/tr&gt;&lt;/table&gt;&lt;/center&gt;</description>
<Style>
<IconStyle>
<color>ff00aaff</color>
<scale>1.0</scale>
<Icon>
<href>http://maps.google.com/mapfiles/kml/shapes/placemark_circle.png</href>
</Icon>
</IconStyle>
<LabelStyle>
<scale>1.0</scale>
</LabelStyle>
<LineStyle>
<color>ffffffff</color>
<width>3</width>
<gx:labelVisibility>1</gx:labelVisibility>
</LineStyle>
<PolyStyle>
<color>00ffffff</color>
</PolyStyle>
</Style>
<ExtendedData>
<SchemaData schemaUrl="#kml_schema_ft_01._Cidade">
<SimpleData name="CD_UF">42</SimpleData>
<SimpleData name="NM_UF">Santa Catarina</SimpleData>
<SimpleData name="SIGLA_UF">SC</SimpleData>
<SimpleData name="CD_MUN">4205191</SimpleData>
<SimpleData name="NM_MUN">Ermo</SimpleData>
<SimpleData name="CD_RGINT">4202</SimpleData>
<SimpleData name="NM_RGINT">Criciúma</SimpleData>
<SimpleData name="CD_RGI">420004</SimpleData>
<SimpleData name="NM_RGI">Araranguá</SimpleData>
<SimpleData name="CT_LOCALIDADE">Cidade</SimpleData>
<SimpleData name="SCT_LOCALIDADE">Sede Municipal</SimpleData>
<SimpleData name="CD_LOCALIDADE">4205191</SimpleData>
<SimpleData name="NM_LOCALIDADE">Ermo</SimpleData>
<SimpleData name="LAT_LOCALIDADE">-28.9861</SimpleData>
<SimpleData name="LONG_LOCALIDADE">-49.6429</SimpleData>
</SchemaData>
</ExtendedData>
<Point>
<extrude>0</extrude>
<coordinates>-49.6429,-28.986099999199,0.0</coordinates>
</Point>
</Placemark>
</Folder>
</Folder>
<Folder id="05. Núcleos Urbanos">
<name>05. Núcleos Urbanos</name>
<Placemark id="localidades">
<name>Santana [4205191001]</name>
<visibility>1</visibility>
<snippet> </snippet>
<description>&lt;center&gt;&lt;table&gt;&lt;tr&gt;&lt;th colspan='2' align='center'&gt;&lt;em&gt;Attributes&lt;/em&gt;&lt;/th&gt;&lt;/tr&gt;&lt;tr bgcolor="#E3E3F3"&gt;
&lt;th&gt;CD_UF&lt;/th&gt;
&lt;td&gt;42&lt;/td&gt;
&lt;/tr&gt;&lt;tr bgcolor=""&gt;
&lt;th&gt;NM_UF&lt;/th&gt;
&lt;td&gt;Santa Catarina&lt;/td&gt;
&lt;/tr&gt;&lt;tr bgcolor="#E3E3F3"&gt;
&lt;th&gt;SIGLA_UF&lt;/th&gt;
&lt;td&gt;SC&lt;/td&gt;
&lt;/tr&gt;&lt;tr bgcolor=""&gt;
&lt;th&gt;CD_MUN&lt;/th&gt;
&lt;td&gt;4205191&lt;/td&gt;
&lt;/tr&gt;&lt;tr bgcolor="#E3E3F3"&gt;
&lt;th&gt;NM_MUN&lt;/th&gt;
&lt;td&gt;Ermo&lt;/td&gt;
&lt;/tr&gt;&lt;tr bgcolor=""&gt;
&lt;th&gt;CD_RGINT&lt;/th&gt;
&lt;td&gt;4202&lt;/td&gt;
&lt;/tr&gt;&lt;tr bgcolor="#E3E3F3"&gt;
&lt;th&gt;NM_RGINT&lt;/th&gt;
&lt;td&gt;Criciúma&lt;/td&gt;
&lt;/tr&gt;&lt;tr bgcolor=""&gt;
&lt;th&gt;CD_RGI&lt;/th&gt;
&lt;td&gt;420004&lt;/td&gt;
&lt;/tr&gt;&lt;tr bgcolor="#E3E3F3"&gt;
&lt;th&gt;NM_RGI&lt;/th&gt;
&lt;td&gt;Araranguá&lt;/td&gt;
&lt;/tr&gt;&lt;tr bgcolor=""&gt;
&lt;th&gt;CT_LOCALIDADE&lt;/th&gt;
&lt;td&gt;Núcleo Urbano&lt;/td&gt;
&lt;/tr&gt;&lt;tr bgcolor="#E3E3F3"&gt;
&lt;th&gt;CD_LOCALIDADE&lt;/th&gt;
&lt;td&gt;4205191001&lt;/td&gt;
&lt;/tr&gt;&lt;tr bgcolor=""&gt;
&lt;th&gt;NM_LOCALIDADE&lt;/th&gt;
&lt;td&gt;Santana&lt;/td&gt;
&lt;/tr&gt;&lt;tr bgcolor="#E3E3F3"&gt;
&lt;th&gt;LAT_LOCALIDADE&lt;/th&gt;
&lt;td&gt;-28.9827&lt;/td&gt;
&lt;/tr&gt;&lt;tr bgcolor=""&gt;
&lt;th&gt;LONG_LOCALIDADE&lt;/th&gt;
&lt;td&gt;-49.6852&lt;/td&gt;
&lt;/tr&gt;&lt;/table&gt;&lt;/center&gt;</description>
<Style>
<IconStyle>
<color>ff0000ff</color>
<scale>0.9</scale>
<Icon>
<href>http://maps.google.com/mapfiles/kml/shapes/placemark_circle.png</href>
</Icon>
</IconStyle>
<LabelStyle>
<scale>0.9</scale>
</LabelStyle>
<LineStyle>
<color>72ffffff</color>
<width>1.0</width>
<gx:labelVisibility>1</gx:labelVisibility>
</LineStyle>
<PolyStyle>
<color>66ff54ff</color>
</PolyStyle>
</Style>
<ExtendedData>
<SchemaData schemaUrl="#kml_schema_ft_Núcleos_Urbanos">
<SimpleData name="CD_UF">42</SimpleData>
<SimpleData name="NM_UF">Santa Catarina</SimpleData>
<SimpleData name="SIGLA_UF">SC</SimpleData>
<SimpleData name="CD_MUN">4205191</SimpleData>
<SimpleData name="NM_MUN">Ermo</SimpleData>
<SimpleData name="CD_RGINT">4202</SimpleData>
<SimpleData name="NM_RGINT">Criciúma</SimpleData>
<SimpleData name="CD_RGI">420004</SimpleData>
<SimpleData name="NM_RGI">Araranguá</SimpleData>
<SimpleData name="CT_LOCALIDADE">Núcleo Urbano</SimpleData>
<SimpleData name="CD_LOCALIDADE">4205191001</SimpleData>
<SimpleData name="NM_LOCALIDADE">Santana</SimpleData>
<SimpleData name="LAT_LOCALIDADE">-28.9827</SimpleData>
<SimpleData name="LONG_LOCALIDADE">-49.6852</SimpleData>
</SchemaData>
</ExtendedData>
<Point>
<extrude>0</extrude>
<coordinates>-49.6851510204081,-28.9827381624643,0.0</coordinates>
</Point>
</Placemark>
<Placemark id="localidades">
<name>Morro do Soares [4205191002]</name>
<visibility>1</visibility>
<snippet> </snippet>
<description>&lt;center&gt;&lt;table&gt;&lt;tr&gt;&lt;th colspan='2' align='center'&gt;&lt;em&gt;Attributes&lt;/em&gt;&lt;/th&gt;&lt;/tr&gt;&lt;tr bgcolor="#E3E3F3"&gt;
&lt;th&gt;CD_UF&lt;/th&gt;
&lt;td&gt;42&lt;/td&gt;
&lt;/tr&gt;&lt;tr bgcolor=""&gt;
&lt;th&gt;NM_UF&lt;/th&gt;
&lt;td&gt;Santa Catarina&lt;/td&gt;
&lt;/tr&gt;&lt;tr bgcolor="#E3E3F3"&gt;
&lt;th&gt;SIGLA_UF&lt;/th&gt;
&lt;td&gt;SC&lt;/td&gt;
&lt;/tr&gt;&lt;tr bgcolor=""&gt;
&lt;th&gt;CD_MUN&lt;/th&gt;
&lt;td&gt;4205191&lt;/td&gt;
&lt;/tr&gt;&lt;tr bgcolor="#E3E3F3"&gt;
&lt;th&gt;NM_MUN&lt;/th&gt;
&lt;td&gt;Ermo&lt;/td&gt;
&lt;/tr&gt;&lt;tr bgcolor=""&gt;
&lt;th&gt;CD_RGINT&lt;/th&gt;
&lt;td&gt;4202&lt;/td&gt;
&lt;/tr&gt;&lt;tr bgcolor="#E3E3F3"&gt;
&lt;th&gt;NM_RGINT&lt;/th&gt;
&lt;td&gt;Criciúma&lt;/td&gt;
&lt;/tr&gt;&lt;tr bgcolor=""&gt;
&lt;th&gt;CD_RGI&lt;/th&gt;
&lt;td&gt;420004&lt;/td&gt;
&lt;/tr&gt;&lt;tr bgcolor="#E3E3F3"&gt;
&lt;th&gt;NM_RGI&lt;/th&gt;
&lt;td&gt;Araranguá&lt;/td&gt;
&lt;/tr&gt;&lt;tr bgcolor=""&gt;
&lt;th&gt;CT_LOCALIDADE&lt;/th&gt;
&lt;td&gt;Núcleo Urbano&lt;/td&gt;
&lt;/tr&gt;&lt;tr bgcolor="#E3E3F3"&gt;
&lt;th&gt;CD_LOCALIDADE&lt;/th&gt;
&lt;td&gt;4205191002&lt;/td&gt;
&lt;/tr&gt;&lt;tr bgcolor=""&gt;
&lt;th&gt;NM_LOCALIDADE&lt;/th&gt;
&lt;td&gt;Morro do Soares&lt;/td&gt;
&lt;/tr&gt;&lt;tr bgcolor="#E3E3F3"&gt;
&lt;th&gt;LAT_LOCALIDADE&lt;/th&gt;
&lt;td&gt;-29.0042&lt;/td&gt;
&lt;/tr&gt;&lt;tr bgcolor=""&gt;
&lt;th&gt;LONG_LOCALIDADE&lt;/th&gt;
&lt;td&gt;-49.6323&lt;/td&gt;
&lt;/tr&gt;&lt;/table&gt;&lt;/center&gt;</description>
<Style>
<IconStyle>
<color>ff0000ff</color>
<scale>0.9</scale>
<Icon>
<href>http://maps.google.com/mapfiles/kml/shapes/placemark_circle.png</href>
</Icon>
</IconStyle>
<LabelStyle>
<scale>0.9</scale>
</LabelStyle>
<LineStyle>
<color>72ffffff</color>
<width>1.0</width>
<gx:labelVisibility>1</gx:labelVisibility>
</LineStyle>
<PolyStyle>
<color>66ff54ff</color>
</PolyStyle>
</Style>
<ExtendedData>
<SchemaData schemaUrl="#kml_schema_ft_Núcleos_Urbanos">
<SimpleData name="CD_UF">42</SimpleData>
<SimpleData name="NM_UF">Santa Catarina</SimpleData>
<SimpleData name="SIGLA_UF">SC</SimpleData>
<SimpleData name="CD_MUN">4205191</SimpleData>
<SimpleData name="NM_MUN">Ermo</SimpleData>
<SimpleData name="CD_RGINT">4202</SimpleData>
<SimpleData name="NM_RGINT">Criciúma</SimpleData>
<SimpleData name="CD_RGI">420004</SimpleData>
<SimpleData name="NM_RGI">Araranguá</SimpleData>
<SimpleData name="CT_LOCALIDADE">Núcleo Urbano</SimpleData>
<SimpleData name="CD_LOCALIDADE">4205191002</SimpleData>
<SimpleData name="NM_LOCALIDADE">Morro do Soares</SimpleData>
<SimpleData name="LAT_LOCALIDADE">-29.0042</SimpleData>
<SimpleData name="LONG_LOCALIDADE">-49.6323</SimpleData>
</SchemaData>
</ExtendedData>
<Point>
<extrude>0</extrude>
<coordinates>-49.6322966975806,-29.0042276403277,0.0</coordinates>
</Point>
</Placemark>
</Folder>
<Folder id="13. Referência">
<name>13. Referência</name>
<Placemark id="13. Referência">
<name>Ermo [4205191]</name>
<visibility>1</visibility>
<snippet> </snippet>
<description>&lt;center&gt;&lt;table&gt;&lt;tr&gt;&lt;th colspan='2' align='center'&gt;&lt;em&gt;Attributes&lt;/em&gt;&lt;/th&gt;&lt;/tr&gt;&lt;tr bgcolor="#E3E3F3"&gt;
&lt;th&gt;CD_UF&lt;/th&gt;
&lt;td&gt;42&lt;/td&gt;
&lt;/tr&gt;&lt;tr bgcolor=""&gt;
&lt;th&gt;NM_UF&lt;/th&gt;
&lt;td&gt;Santa Catarina&lt;/td&gt;
&lt;/tr&gt;&lt;tr bgcolor="#E3E3F3"&gt;
&lt;th&gt;CD_MUN&lt;/th&gt;
&lt;td&gt;4205191&lt;/td&gt;
&lt;/tr&gt;&lt;tr bgcolor=""&gt;
&lt;th&gt;NM_MUN&lt;/th&gt;
&lt;td&gt;Ermo&lt;/td&gt;
&lt;/tr&gt;&lt;tr bgcolor="#E3E3F3"&gt;
&lt;th&gt;CD_RGINT&lt;/th&gt;
&lt;td&gt;4202&lt;/td&gt;
&lt;/tr&gt;&lt;tr bgcolor=""&gt;
&lt;th&gt;NM_RGINT&lt;/th&gt;
&lt;td&gt;Criciúma&lt;/td&gt;
&lt;/tr&gt;&lt;tr bgcolor="#E3E3F3"&gt;
&lt;th&gt;CD_RGI&lt;/th&gt;
&lt;td&gt;420004&lt;/td&gt;
&lt;/tr&gt;&lt;tr bgcolor=""&gt;
&lt;th&gt;NM_RGI&lt;/th&gt;
&lt;td&gt;Araranguá&lt;/td&gt;
&lt;/tr&gt;&lt;/table&gt;&lt;/center&gt;</description>
<Style>
<IconStyle>
<scale>0.7</scale>
</IconStyle>
<LabelStyle>
<scale>0.7</scale>
</LabelStyle>
<LineStyle>
<color>ffffffff</color>
<width>3</width>
<gx:labelVisibility>1</gx:labelVisibility>
</LineStyle>
<PolyStyle>
<color>00ffffff</color>
</PolyStyle>
</Style>
<ExtendedData>
<SchemaData schemaUrl="#kml_schema_ft_Município">
<SimpleData name="CD_UF">42</SimpleData>
<SimpleData name="NM_UF">Santa Catarina</SimpleData>
<SimpleData name="CD_MUN">4205191</SimpleData>
<SimpleData name="NM_MUN">Ermo</SimpleData>
<SimpleData name="CD_RGINT">4202</SimpleData>
<SimpleData name="NM_RGINT">Criciúma</SimpleData>
<SimpleData name="CD_RGI">420004</SimpleData>
<SimpleData name="NM_RGI">Araranguá</SimpleData>
</SchemaData>
</ExtendedData>
<MultiGeometry>
<Polygon>
<extrude>0</extrude>
<tessellate>1</tessellate>
<outerBoundaryIs>
<LinearRing>
<coordinates>-49.6374993,-28.9729730991992,0.0 -49.6381845,-28.9703240991993,0.0 -49.6388427,-28.9681720991993,0.0 -49.6401339,-28.9659694991993,0.0 -49.6480472,-28.9588272991995,0.0 -49.6384587,-28.9504931991996,0.0 -49.6376631,-28.9498015991996,0.0 -49.635632,-28.9480362991996,0.0 -49.635631,-28.9481120991997,0.0 -49.6356296,-28.9482185991996,0.0 -49.6356323,-28.9485046991996,0.0 -49.6356282,-28.9486682991996,0.0 -49.6356138,-28.9488442991996,0.0 -49.6356036,-28.9489791991996,0.0 -49.6355964,-28.9490479991996,0.0 -49.6355796,-28.9490964991996,0.0 -49.6355449,-28.9491817991996,0.0 -49.635457,-28.9493586991996,0.0 -49.6353864,-28.9495033991996,0.0 -49.6353307,-28.9496178991996,0.0 -49.6352801,-28.9496863991996,0.0 -49.6352166,-28.9497645991996,0.0 -49.6351611,-28.9498149991996,0.0 -49.635118,-28.9498459991996,0.0 -49.635046,-28.9498821991996,0.0 -49.6348491,-28.9499879991996,0.0 -49.6347315,-28.9500555991996,0.0 -49.6346552,-28.9501003991996,0.0 -49.6345996,-28.9501194991996,0.0 -49.6345427,-28.9501312991996,0.0 -49.6343996,-28.9501595991996,0.0 -49.6343138,-28.9501814991996,0.0 -49.6342792,-28.9501995991996,0.0 -49.6342508,-28.9502282991996,0.0 -49.6342102,-28.9502777991996,0.0 -49.6341848,-28.9503301991996,0.0 -49.6341609,-28.9503871991996,0.0 -49.6341245,-28.9504897991996,0.0 -49.6340936,-28.9505932991996,0.0 -49.6340585,-28.9506495991996,0.0 -49.6340163,-28.9507150991996,0.0 -49.633975,-28.9507495991996,0.0 -49.6339389,-28.9507774991996,0.0 -49.6339162,-28.9508037991996,0.0 -49.6338933,-28.9508392991996,0.0 -49.633868,-28.9508913991996,0.0 -49.6338563,-28.9509210991996,0.0 -49.6338509,-28.9509623991996,0.0 -49.6338538,-28.9510054991996,0.0 -49.6338491,-28.9510481991996,0.0 -49.6338388,-28.9510868991996,0.0 -49.6338188,-28.9511149991996,0.0 -49.6337662,-28.9511698991996,0.0 -49.6336771,-28.9512269991996,0.0 -49.6335477,-28.9512862991996,0.0 -49.6332325,-28.9514315991996,0.0 -49.6330192,-28.9515209991996,0.0 -49.6328952,-28.9515671991996,0.0 -49.6326813,-28.9516259991996,0.0 -49.6326057,-28.9516389991996,0.0 -49.6324822,-28.9516487991996,0.0 -49.6323476,-28.9516486991996,0.0 -49.6321306,-28.9516279991996,0.0 -49.6320032,-28.9516272991996,0.0 -49.6317767,-28.9516329991996,0.0 -49.6315545,-28.9516609991996,0.0 -49.6313676,-28.9516941991996,0.0 -49.6311275,-28.9517498991996,0.0 -49.6309404,-28.9517978991996,0.0 -49.6307928,-28.9518421991996,0.0 -49.6307162,-28.9518549991996,0.0 -49.6306489,-28.9518573991996,0.0 -49.630576,-28.9518590991996,0.0 -49.6305233,-28.9518714991996,0.0 -49.6304724,-28.9519017991996,0.0 -49.6303373,-28.9519909991996,0.0 -49.6302133,-28.9520663991996,0.0 -49.6301069,-28.9521632991996,0.0 -49.6299846,-28.9522800991996,0.0 -49.6299582,-28.9523167991996,0.0 -49.6299351,-28.9523639991996,0.0 -49.6298992,-28.9524642991996,0.0 -49.6298738,-28.9525323991996,0.0 -49.6298185,-28.9526269991996,0.0 -49.6297779,-28.9526717991996,0.0 -49.6297287,-28.9527297991996,0.0 -49.6296903,-28.9527700991996,0.0 -49.629662,-28.9527900991996,0.0 -49.629636,-28.9527978991996,0.0 -49.6295883,-28.9528016991996,0.0 -49.629526,-28.9527930991996,0.0 -49.6294172,-28.9527543991996,0.0 -49.6292754,-28.9526887991996,0.0 -49.6292189,-28.9526684991996,0.0 -49.6291308,-28.9526484991996,0.0 -49.6290763,-28.9526386991996,0.0 -49.6290076,-28.9526323991996,0.0 -49.6289259,-28.9526358991996,0.0 -49.6288248,-28.9526514991996,0.0 -49.6287762,-28.9526657991996,0.0 -49.6287063,-28.9527013991996,0.0 -49.6286193,-28.9527608991996,0.0 -49.628515,-28.9528410991996,0.0 -49.6282858,-28.9530515991996,0.0 -49.628086,-28.9532118991996,0.0 -49.6278843,-28.9533723991996,0.0 -49.6278109,-28.9534169991996,0.0 -49.6277466,-28.9534507991996,0.0 -49.6276858,-28.9534688991996,0.0 -49.6276263,-28.9534761991995,0.0 -49.6275647,-28.9534705991996,0.0 -49.6275155,-28.9534651991996,0.0 -49.6274569,-28.9534675991996,0.0 -49.6273849,-28.9534972991995,0.0 -49.6272472,-28.9535690991996,0.0 -49.6271399,-28.9536299991996,0.0 -49.6269906,-28.9537451991995,0.0 -49.6268047,-28.9538849991995,0.0 -49.6266304,-28.9540080991995,0.0 -49.6265693,-28.9540558991995,0.0 -49.626507,-28.9541284991995,0.0 -49.6264285,-28.9542186991995,0.0 -49.6262972,-28.9543410991995,0.0 -49.6261808,-28.9544621991995,0.0 -49.6261144,-28.9545310991995,0.0 -49.626068,-28.9545865991995,0.0 -49.6260463,-28.9546250991995,0.0 -49.6260292,-28.9546739991995,0.0 -49.6260163,-28.9547519991995,0.0 -49.6259961,-28.9548503991995,0.0 -49.6259716,-28.9549150991995,0.0 -49.6259374,-28.9549451991995,0.0 -49.6258899,-28.9549701991995,0.0 -49.6258109,-28.9549991991995,0.0 -49.6257121,-28.9550409991995,0.0 -49.6255853,-28.9551035991995,0.0 -49.6254679,-28.9551797991995,0.0 -49.6253636,-28.9552495991995,0.0 -49.6252329,-28.9553214991995,0.0 -49.625131,-28.9553632991995,0.0 -49.6250529,-28.9553831991995,0.0 -49.625,-28.9553969991995,0.0 -49.6249472,-28.9554127991995,0.0 -49.6248944,-28.9554286991995,0.0 -49.6247357,-28.9554832991995,0.0 -49.624583,-28.9555240991995,0.0 -49.6244749,-28.9555565991995,0.0 -49.6243805,-28.9555796991995,0.0 -49.6243057,-28.9555779991995,0.0 -49.6242442,-28.9555518991995,0.0 -49.6241475,-28.9554888991995,0.0 -49.6240565,-28.9554239991995,0.0 -49.6239808,-28.9553578991995,0.0 -49.6239383,-28.9552923991995,0.0 -49.6238992,-28.9552357991995,0.0 -49.623876,-28.9552100991995,0.0 -49.6238494,-28.9551967991995,0.0 -49.6238106,-28.9551939991995,0.0 -49.6237641,-28.9551959991995,0.0 -49.6236874,-28.9552119991995,0.0 -49.6235417,-28.9552508991995,0.0 -49.6234479,-28.9552748991995,0.0 -49.6233705,-28.9552995991995,0.0 -49.6232758,-28.9553528991995,0.0 -49.6232164,-28.9553951991995,0.0 -49.6231218,-28.9554388991995,0.0 -49.6230358,-28.9554942991995,0.0 -49.6229504,-28.9555505991995,0.0 -49.6228739,-28.9556091991995,0.0 -49.6227862,-28.9556673991995,0.0 -49.6227023,-28.9557270991995,0.0 -49.6226402,-28.9557824991995,0.0 -49.6225667,-28.9558441991995,0.0 -49.6224871,-28.9559072991995,0.0 -49.6224285,-28.9559422991995,0.0 -49.6223709,-28.9559561991995,0.0 -49.6223353,-28.9559571991995,0.0 -49.6222993,-28.9559553991995,0.0 -49.6221725,-28.9559487991995,0.0 -49.6220522,-28.9559403991995,0.0 -49.6219429,-28.9559325991995,0.0 -49.6218136,-28.9559162991995,0.0 -49.6217277,-28.9559028991995,0.0 -49.6216,-28.9558842991995,0.0 -49.621507,-28.9558751991995,0.0 -49.621394,-28.9558658991995,0.0 -49.6212764,-28.9558646991995,0.0 -49.6211816,-28.9558670991995,0.0 -49.6210509,-28.9558662991995,0.0 -49.6209192,-28.9558643991995,0.0 -49.6208041,-28.9558732991995,0.0 -49.6206654,-28.9558935991995,0.0 -49.6205283,-28.9559276991995,0.0 -49.6204747,-28.9559483991995,0.0 -49.6204467,-28.9559566991995,0.0 -49.620422,-28.9559646991995,0.0 -49.620405,-28.9559673991995,0.0 -49.620393,-28.9559676991995,0.0 -49.6203832,-28.9559680991995,0.0 -49.620369,-28.9559655991995,0.0 -49.6203571,-28.9559557991995,0.0 -49.6203475,-28.9559403991995,0.0 -49.620334,-28.9559223991995,0.0 -49.6202868,-28.9558536991995,0.0 -49.6202316,-28.9557562991995,0.0 -49.6202007,-28.9556545991995,0.0 -49.6201759,-28.9555860991995,0.0 -49.6201572,-28.9555035991995,0.0 -49.6201685,-28.9554544991995,0.0 -49.6201905,-28.9553902991995,0.0 -49.6201997,-28.9553323991995,0.0 -49.6201993,-28.9552860991995,0.0 -49.6201912,-28.9552064991995,0.0 -49.620191,-28.9551603991995,0.0 -49.6202005,-28.9550592991995,0.0 -49.6202072,-28.9549927991995,0.0 -49.6202211,-28.9549211991995,0.0 -49.6202365,-28.9548501991995,0.0 -49.6202514,-28.9547844991995,0.0 -49.6202672,-28.9547197991995,0.0 -49.6202722,-28.9546818991995,0.0 -49.6202862,-28.9546236991995,0.0 -49.6202986,-28.9545695991995,0.0 -49.620311,-28.9545268991995,0.0 -49.6203224,-28.9544650991995,0.0 -49.6203314,-28.9544173991995,0.0 -49.6203517,-28.9543702991995,0.0 -49.620403,-28.9543024991995,0.0 -49.620437,-28.9542612991995,0.0 -49.6204729,-28.9542123991995,0.0 -49.6205275,-28.9541496991995,0.0 -49.6205634,-28.9541110991995,0.0 -49.6205999,-28.9540660991995,0.0 -49.6206278,-28.9540246991996,0.0 -49.6206612,-28.9539667991995,0.0 -49.6207016,-28.9539029991995,0.0 -49.6207315,-28.9538608991996,0.0 -49.6207571,-28.9538244991995,0.0 -49.6207673,-28.9537902991995,0.0 -49.6207705,-28.9537449991996,0.0 -49.6207576,-28.9536898991995,0.0 -49.6207339,-28.9536473991995,0.0 -49.6206833,-28.9535863991995,0.0 -49.6206452,-28.9535402991996,0.0 -49.6205927,-28.9534937991996,0.0 -49.620538,-28.9534504991995,0.0 -49.6204935,-28.9534073991996,0.0 -49.6204584,-28.9533652991996,0.0 -49.6204094,-28.9533064991996,0.0 -49.6203597,-28.9532392991996,0.0 -49.6203047,-28.9531610991996,0.0 -49.6202414,-28.9530846991996,0.0 -49.6201779,-28.9530048991996,0.0 -49.6201238,-28.9529458991996,0.0 -49.6200715,-28.9528874991996,0.0 -49.6200339,-28.9528403991996,0.0 -49.6199956,-28.9527724991996,0.0 -49.6199559,-28.9526914991996,0.0 -49.6199165,-28.9526127991996,0.0 -49.6198824,-28.9525261991996,0.0 -49.6198491,-28.9524718991996,0.0 -49.6198077,-28.9524180991996,0.0 -49.6197639,-28.9523558991996,0.0 -49.6197019,-28.9522887991996,0.0 -49.6196288,-28.9522184991996,0.0 -49.6195717,-28.9521676991996,0.0 -49.6194885,-28.9521309991996,0.0 -49.6194121,-28.9521076991996,0.0 -49.6193205,-28.9520977991996,0.0 -49.6192245,-28.9520990991996,0.0 -49.6191307,-28.9521066991996,0.0 -49.6190132,-28.9521226991996,0.0 -49.6189296,-28.9521452991996,0.0 -49.6188658,-28.9521686991996,0.0 -49.6188075,-28.9522132991996,0.0 -49.6187626,-28.9522624991996,0.0 -49.6186968,-28.9523264991996,0.0 -49.6186387,-28.9523703991996,0.0 -49.6185916,-28.9523975991996,0.0 -49.6185445,-28.9524124991996,0.0 -49.6184447,-28.9524431991996,0.0 -49.6183457,-28.9524746991996,0.0 -49.6182638,-28.9524899991996,0.0 -49.618166,-28.9524997991996,0.0 -49.6180746,-28.9525007991996,0.0 -49.6179953,-28.9525092991996,0.0 -49.6178829,-28.9525256991996,0.0 -49.6178038,-28.9525428991996,0.0 -49.6177182,-28.9525647991996,0.0 -49.6176428,-28.9525744991996,0.0 -49.6175587,-28.9525754991996,0.0 -49.6174915,-28.9525639991996,0.0 -49.6173902,-28.9525483991996,0.0 -49.6173105,-28.9525370991996,0.0 -49.617221,-28.9525338991996,0.0 -49.6171521,-28.9525363991996,0.0 -49.6171169,-28.9525376991996,0.0 -49.6170191,-28.9525426991996,0.0 -49.6169117,-28.9525587991996,0.0 -49.6167921,-28.9525739991996,0.0 -49.6166745,-28.9525835991996,0.0 -49.6165479,-28.9525863991996,0.0 -49.6164305,-28.9525881991996,0.0 -49.6162975,-28.9525804991996,0.0 -49.6161964,-28.9525760991996,0.0 -49.6161185,-28.9525744991996,0.0 -49.6160433,-28.9525733991996,0.0 -49.6159512,-28.9525682991996,0.0 -49.6158641,-28.9525554991996,0.0 -49.6158074,-28.9525376991996,0.0 -49.6157529,-28.9524788991996,0.0 -49.615712,-28.9524158991996,0.0 -49.6156473,-28.9523315991996,0.0 -49.615593,-28.9523001991996,0.0 -49.6155242,-28.9522659991996,0.0 -49.6154358,-28.9522202991996,0.0 -49.6153097,-28.9521472991996,0.0 -49.6152025,-28.9520928991996,0.0 -49.6151155,-28.9520429991996,0.0 -49.6150136,-28.9519902991996,0.0 -49.6148944,-28.9519253991996,0.0 -49.6148253,-28.9518830991996,0.0 -49.6147504,-28.9518173991996,0.0 -49.6146886,-28.9517608991996,0.0 -49.6145943,-28.9516857991996,0.0 -49.6145539,-28.9516360991996,0.0 -49.6144959,-28.9515711991996,0.0 -49.6144176,-28.9515019991996,0.0 -49.6143441,-28.9514438991996,0.0 -49.6142735,-28.9513680991996,0.0 -49.6142041,-28.9512816991996,0.0 -49.6141273,-28.9511873991996,0.0 -49.6140741,-28.9511250991996,0.0 -49.6140472,-28.9510571991996,0.0 -49.6140251,-28.9509891991996,0.0 -49.6139962,-28.9509123991996,0.0 -49.6139542,-28.9508477991996,0.0 -49.613896,-28.9508049991996,0.0 -49.6138224,-28.9507553991996,0.0 -49.6137258,-28.9507087991996,0.0 -49.613649,-28.9506842991996,0.0 -49.6135639,-28.9506594991996,0.0 -49.6134616,-28.9506372991996,0.0 -49.6133584,-28.9506085991996,0.0 -49.6132492,-28.9505659991996,0.0 -49.6131174,-28.9505171991996,0.0 -49.6130059,-28.9504919991996,0.0 -49.61287,-28.9504680991996,0.0 -49.6127722,-28.9504514991996,0.0 -49.6126444,-28.9504247991996,0.0 -49.612512,-28.9504126991996,0.0 -49.6123724,-28.9504121991996,0.0 -49.6122323,-28.9504116991996,0.0 -49.6120828,-28.9504077991996,0.0 -49.6119785,-28.9504032991996,0.0 -49.6118379,-28.9503750991996,0.0 -49.6117029,-28.9503487991996,0.0 -49.6115754,-28.9503224991996,0.0 -49.6114369,-28.9502957991996,0.0 -49.6112957,-28.9502684991996,0.0 -49.6111936,-28.9502522991996,0.0 -49.6110752,-28.9502360991996,0.0 -49.6109524,-28.9502361991996,0.0 -49.6108052,-28.9502360991996,0.0 -49.6106781,-28.9502347991996,0.0 -49.6105972,-28.9502480991996,0.0 -49.6105373,-28.9502841991996,0.0 -49.6104797,-28.9503572991996,0.0 -49.6104508,-28.9503961991996,0.0 -49.610422,-28.9504350991996,0.0 -49.6103935,-28.9504883991996,0.0 -49.6103876,-28.9505292991996,0.0 -49.6103811,-28.9506129991996,0.0 -49.6103764,-28.9506865991996,0.0 -49.6103648,-28.9507546991996,0.0 -49.610343,-28.9508593991996,0.0 -49.610323,-28.9509206991996,0.0 -49.6103131,-28.9509776991996,0.0 -49.6103013,-28.9510577991996,0.0 -49.6102842,-28.9511371991996,0.0 -49.6102699,-28.9512074991996,0.0 -49.6102649,-28.9512643991996,0.0 -49.6102646,-28.9513268991996,0.0 -49.6102515,-28.9513836991996,0.0 -49.610233,-28.9514491991996,0.0 -49.6102023,-28.9515458991996,0.0 -49.6101822,-28.9516137991996,0.0 -49.6101384,-28.9516881991996,0.0 -49.6100873,-28.9517589991996,0.0 -49.6100661,-28.9518172991996,0.0 -49.6100468,-28.9519029991996,0.0 -49.6100277,-28.9519705991996,0.0 -49.6100109,-28.9520249991996,0.0 -49.6099698,-28.9520961991996,0.0 -49.6099208,-28.9521782991996,0.0 -49.6098802,-28.9522579991996,0.0 -49.6098645,-28.9523106991996,0.0 -49.6098299,-28.9523866991996,0.0 -49.6098116,-28.9524779991996,0.0 -49.6097765,-28.9525888991996,0.0 -49.6097475,-28.9526231991996,0.0 -49.6097091,-28.9526436991996,0.0 -49.6096685,-28.9526516991996,0.0 -49.6096066,-28.9526509991996,0.0 -49.6094596,-28.9526033991996,0.0 -49.6093294,-28.9525402991996,0.0 -49.6092241,-28.9524941991996,0.0 -49.6091638,-28.9524631991996,0.0 -49.6091282,-28.9524534991996,0.0 -49.6091115,-28.9524521991996,0.0 -49.6090949,-28.9524509991996,0.0 -49.6090543,-28.9524536991996,0.0 -49.6089862,-28.9524728991996,0.0 -49.6088471,-28.9525468991996,0.0 -49.6087335,-28.9526149991996,0.0 -49.6086352,-28.9526663991996,0.0 -49.6085455,-28.9526988991996,0.0 -49.6084976,-28.9527140991996,0.0 -49.6084689,-28.9527274991996,0.0 -49.6084352,-28.9527500991996,0.0 -49.6084052,-28.9527686991996,0.0 -49.608392,-28.9527737991996,0.0 -49.6083634,-28.9527755991996,0.0 -49.608304,-28.9527675991996,0.0 -49.6082141,-28.9527195991996,0.0 -49.6080471,-28.9526539991996,0.0 -49.6079233,-28.9526149991996,0.0 -49.6078425,-28.9526036991996,0.0 -49.6077818,-28.9526008991996,0.0 -49.6077282,-28.9525982991996,0.0 -49.6076796,-28.9525851991996,0.0 -49.6076312,-28.9525553991996,0.0 -49.6075313,-28.9524538991996,0.0 -49.6074458,-28.9523289991996,0.0 -49.607379,-28.9521639991996,0.0 -49.607354,-28.9520617991996,0.0 -49.6073315,-28.9519579991996,0.0 -49.6073024,-28.9519146991996,0.0 -49.6072669,-28.9518965991996,0.0 -49.6072145,-28.9518928991996,0.0 -49.6070859,-28.9518956991996,0.0 -49.6069546,-28.9519215991996,0.0 -49.6068098,-28.9519734991996,0.0 -49.6066799,-28.9520287991996,0.0 -49.6064359,-28.9521162991996,0.0 -49.6062511,-28.9521847991996,0.0 -49.606136,-28.9522400991996,0.0 -49.6060259,-28.9522860991996,0.0 -49.6059786,-28.9523075991996,0.0 -49.6059312,-28.9523289991996,0.0 -49.6058763,-28.9523409991996,0.0 -49.6058227,-28.9523425991996,0.0 -49.605762,-28.9523387991996,0.0 -49.6057195,-28.9523173991996,0.0 -49.6056643,-28.9522720991996,0.0 -49.6056421,-28.9522169991996,0.0 -49.6056215,-28.9521576991996,0.0 -49.6056092,-28.9520940991996,0.0 -49.6055532,-28.9519716991996,0.0 -49.6054094,-28.9522303991996,0.0 -49.6051144,-28.9525942991996,0.0 -49.6046908,-28.9532202991996,0.0 -49.6044623,-28.9536898991995,0.0 -49.6041361,-28.9542046991995,0.0 -49.6036981,-28.9549706991995,0.0 -49.6034254,-28.9552885991995,0.0 -49.6032594,-28.9554747991995,0.0 -49.6031444,-28.9555530991995,0.0 -49.6028656,-28.9557013991995,0.0 -49.6026289,-28.9558389991995,0.0 -49.602506,-28.9559298991995,0.0 -49.6024547,-28.9560067991995,0.0 -49.6024324,-28.9561023991995,0.0 -49.6024265,-28.9562276991995,0.0 -49.6024349,-28.9565447991995,0.0 -49.6024783,-28.9568083991995,0.0 -49.6025776,-28.9572186991995,0.0 -49.6027534,-28.9575596991995,0.0 -49.6028748,-28.9578852991995,0.0 -49.6029469,-28.9579855991995,0.0 -49.6030189,-28.9580858991995,0.0 -49.6032736,-28.9581732991995,0.0 -49.6038807,-28.9582496991995,0.0 -49.6042312,-28.9583101991995,0.0 -49.604243,-28.9583365991995,0.0 -49.604272,-28.9584401991995,0.0 -49.6042613,-28.9585832991995,0.0 -49.6042047,-28.9587700991995,0.0 -49.6041638,-28.9588463991995,0.0 -49.6040246,-28.9592052991995,0.0 -49.6039977,-28.9592959991994,0.0 -49.6039881,-28.9593906991994,0.0 -49.6038798,-28.9596990991994,0.0 -49.6038444,-28.9597715991994,0.0 -49.6038124,-28.9598181991994,0.0 -49.603787,-28.9598620991994,0.0 -49.6037571,-28.9599192991994,0.0 -49.6036617,-28.9602486991994,0.0 -49.6036231,-28.9604292991994,0.0 -49.6036052,-28.9604836991994,0.0 -49.6036008,-28.9604976991994,0.0 -49.6034116,-28.9610937991994,0.0 -49.6029326,-28.9624712991994,0.0 -49.6027238,-28.9630651991994,0.0 -49.6026313,-28.9633284991994,0.0 -49.6023923,-28.9640573991994,0.0 -49.6020177,-28.9651746991993,0.0 -49.6011317,-28.9673078991993,0.0 -49.6010869,-28.9673958991993,0.0 -49.6010421,-28.9674839991993,0.0 -49.6008065,-28.9677695991993,0.0 -49.6007192,-28.9678520991993,0.0 -49.6002325,-28.9683125991993,0.0 -49.6001232,-28.9684158991993,0.0 -49.6000139,-28.9685192991993,0.0 -49.5994427,-28.9690976991993,0.0 -49.5991435,-28.9694005991993,0.0 -49.5988714,-28.9696760991993,0.0 -49.5984359,-28.9700972991993,0.0 -49.5982181,-28.9703222991993,0.0 -49.5980003,-28.9705471991993,0.0 -49.597222,-28.9713254991992,0.0 -49.5971482,-28.9714102991992,0.0 -49.5969364,-28.9716538991992,0.0 -49.5965794,-28.9720180991992,0.0 -49.5963437,-28.9722679991992,0.0 -49.5962366,-28.9724036991992,0.0 -49.5961938,-28.9725892991992,0.0 -49.5962152,-28.9727463991992,0.0 -49.596308,-28.9729034991992,0.0 -49.5963651,-28.9730534991992,0.0 -49.5963937,-28.9731819991992,0.0 -49.596408,-28.9733176991992,0.0 -49.5968578,-28.9739602991992,0.0 -49.5973934,-28.9747099991992,0.0 -49.5979432,-28.9754811991992,0.0 -49.5981859,-28.9760309991992,0.0 -49.5976016,-28.9763921991992,0.0 -49.5970172,-28.9767533991992,0.0 -49.596665,-28.9769618991991,0.0 -49.5943594,-28.9783268991991,0.0 -49.5942862,-28.9783620991991,0.0 -49.5935331,-28.9786374991991,0.0 -49.5928885,-28.9788894991991,0.0 -49.5926541,-28.9785935991991,0.0 -49.5924548,-28.9785818991991,0.0 -49.5923376,-28.9785847991991,0.0 -49.5922848,-28.9784323991991,0.0 -49.5922072,-28.9783371991991,0.0 -49.5921295,-28.9782419991991,0.0 -49.5919068,-28.9781041991991,0.0 -49.5915787,-28.9780221991991,0.0 -49.5912458,-28.9779539991991,0.0 -49.5908183,-28.9779539991991,0.0 -49.5902506,-28.9778872991991,0.0 -49.5896896,-28.9778938991991,0.0 -49.5893824,-28.9779873991991,0.0 -49.5887012,-28.9784749991991,0.0 -49.5876515,-28.9791563991991,0.0 -49.5870449,-28.9795502991991,0.0 -49.5865795,-28.9798171991991,0.0 -49.5864869,-28.9797904991991,0.0 -49.5861708,-28.9796374991991,0.0 -49.5857139,-28.9794608991991,0.0 -49.5856114,-28.9794492991991,0.0 -49.5854878,-28.9794562991991,0.0 -49.5853635,-28.9794294991991,0.0 -49.5852493,-28.9794460991991,0.0 -49.5851209,-28.9795221991991,0.0 -49.5848069,-28.9797256991991,0.0 -49.5844929,-28.9799290991991,0.0 -49.5836287,-28.9804935991991,0.0 -49.5829129,-28.9809688991991,0.0 -49.5813273,-28.982812799199,0.0 -49.5803384,-28.983962799199,0.0 -49.589745,-28.9913765991989,0.0 -49.6144674,-29.0108689991986,0.0 -49.6185795,-29.0141754991985,0.0 -49.6233507,-29.0180118991984,0.0 -49.6321989,-29.0180311991984,0.0 -49.649153,-29.0180681991984,0.0 -49.6632248,-29.0187539991984,0.0 -49.6712079,-29.0191429991984,0.0 -49.6905059,-29.0200835991984,0.0 -49.6907289,-29.0200943991984,0.0 -49.69088,-29.0201017991984,0.0 -49.6911137,-29.0201131991984,0.0 -49.6924459,-29.0201780991984,0.0 -49.6924515,-29.0201783991984,0.0 -49.6924583,-29.0201786991984,0.0 -49.6926269,-29.0201868991984,0.0 -49.6926597,-29.0201884991984,0.0 -49.6927241,-29.0201916991984,0.0 -49.6927661,-29.0201936991984,0.0 -49.692851,-29.0201978991984,0.0 -49.6988647,-29.0204909991984,0.0 -49.6988943,-29.0201887991984,0.0 -49.6989455,-29.0200196991984,0.0 -49.6989967,-29.0198505991984,0.0 -49.6992294,-29.0194952991984,0.0 -49.6995577,-29.0190163991984,0.0 -49.6997843,-29.0187524991984,0.0 -49.6998833,-29.0186262991984,0.0 -49.6999593,-29.0184900991984,0.0 -49.7000238,-29.0181774991984,0.0 -49.7001572,-29.0178906991984,0.0 -49.7003049,-29.0177128991984,0.0 -49.7005444,-29.0174503991984,0.0 -49.700748,-29.0171004991984,0.0 -49.7008656,-29.0169685991984,0.0 -49.7011337,-29.0167563991985,0.0 -49.7014578,-29.0165569991985,0.0 -49.7018622,-29.0163103991985,0.0 -49.7023799,-29.0160421991985,0.0 -49.702747,-29.0158930991985,0.0 -49.7030625,-29.0158026991985,0.0 -49.7033192,-29.0157524991985,0.0 -49.7035816,-29.0156535991985,0.0 -49.7038684,-29.0153466991985,0.0 -49.7041954,-29.0149422991985,0.0 -49.7044865,-29.0146353991985,0.0 -49.70467,-29.0145364991985,0.0 -49.7049526,-29.0144260991985,0.0 -49.705324,-29.0144518991985,0.0 -49.7059621,-29.0144776991985,0.0 -49.7063579,-29.0144575991985,0.0 -49.7075295,-29.0143313991985,0.0 -49.7084286,-29.0142195991985,0.0 -49.7091356,-29.0141119991985,0.0 -49.7099645,-29.0138911991985,0.0 -49.7106973,-29.0135985991985,0.0 -49.7109138,-29.0133720991985,0.0 -49.7110988,-29.0130651991985,0.0 -49.7111805,-29.0126363991985,0.0 -49.7111576,-29.0121645991985,0.0 -49.7111949,-29.0118849991985,0.0 -49.7112737,-29.0116812991985,0.0 -49.7114731,-29.0114833991985,0.0 -49.7117054,-29.0112840991985,0.0 -49.712464,-29.0108151991986,0.0 -49.7131752,-29.0103404991986,0.0 -49.71366,-29.0099188991986,0.0 -49.7143598,-29.0093108991986,0.0 -49.7147555,-29.0089953991986,0.0 -49.7151743,-29.0086798991986,0.0 -49.7154797,-29.0083514991986,0.0 -49.7157178,-29.0079929991986,0.0 -49.7157895,-29.0076631991986,0.0 -49.715821,-29.0072730991986,0.0 -49.7158282,-29.0070121991986,0.0 -49.7158827,-29.0068930991986,0.0 -49.7159544,-29.0068041991986,0.0 -49.7166671,-29.0062993991986,0.0 -49.717116,-29.0059824991986,0.0 -49.7175562,-29.0057085991986,0.0 -49.7177699,-29.0055852991987,0.0 -49.7180223,-29.0055121991986,0.0 -49.7183779,-29.0054547991986,0.0 -49.7188038,-29.0053801991987,0.0 -49.719409,-29.0052898991986,0.0 -49.7200858,-29.0052496991986,0.0 -49.7210108,-29.0052095991987,0.0 -49.7213492,-29.0051765991987,0.0 -49.7216862,-29.0050489991987,0.0 -49.722092,-29.0048582991987,0.0 -49.7233425,-29.0042057991987,0.0 -49.724276,-29.0037755991987,0.0 -49.7250415,-29.0034749991987,0.0 -49.7257134,-29.0032111991987,0.0 -49.725711,-29.0032065991987,0.0 -49.7094203,-28.9726082991992,0.0 -49.7063667,-28.9668727991993,0.0 -49.706331,-28.9670447991993,0.0 -49.7063328,-28.9672654991993,0.0 -49.7063321,-28.9675688991993,0.0 -49.706318,-28.9678418991993,0.0 -49.7062952,-28.9680695991993,0.0 -49.706259,-28.9682751991993,0.0 -49.7061863,-28.9684547991993,0.0 -49.7060683,-28.9686938991993,0.0 -49.7058533,-28.9689931991993,0.0 -49.7055524,-28.9693020991993,0.0 -49.7051734,-28.9696534991993,0.0 -49.7047993,-28.9699565991993,0.0 -49.7043944,-28.9702259991993,0.0 -49.704216,-28.9703498991992,0.0 -49.7041957,-28.9703621991993,0.0 -49.7040064,-28.9704763991993,0.0 -49.7037906,-28.9705738991993,0.0 -49.7034034,-28.9706576991993,0.0 -49.7029667,-28.9706716991993,0.0 -49.7026461,-28.9706444991993,0.0 -49.7023267,-28.9705990991993,0.0 -49.7019968,-28.9704812991993,0.0 -49.7017938,-28.9703417991993,0.0 -49.7015472,-28.9701522991993,0.0 -49.7013158,-28.9698543991993,0.0 -49.7011702,-28.9696424991993,0.0 -49.7010284,-28.9694570991993,0.0 -49.7008265,-28.9692664991993,0.0 -49.7005165,-28.9690396991993,0.0 -49.7001266,-28.9687823991993,0.0 -49.6998835,-28.9685621991993,0.0 -49.6996614,-28.9683397991993,0.0 -49.699499,-28.9680889991993,0.0 -49.6993194,-28.9677397991993,0.0 -49.699151,-28.9673737991993,0.0 -49.6990277,-28.9670987991993,0.0 -49.6988896,-28.9669502991993,0.0 -49.6986993,-28.9667987991993,0.0 -49.6983917,-28.9665834991993,0.0 -49.6980834,-28.9664332991993,0.0 -49.697917,-28.9663998991993,0.0 -49.6977507,-28.9663664991993,0.0 -49.6974738,-28.9663396991993,0.0 -49.6973799,-28.9663357991993,0.0 -49.6970978,-28.9663239991993,0.0 -49.6963818,-28.9662856991993,0.0 -49.696025,-28.9661754991993,0.0 -49.6958282,-28.9661059991993,0.0 -49.6956775,-28.9660827991993,0.0 -49.6955459,-28.9660718991993,0.0 -49.6954086,-28.9660705991993,0.0 -49.6952493,-28.9660738991993,0.0 -49.6951476,-28.9660897991993,0.0 -49.6950125,-28.9661294991993,0.0 -49.6948468,-28.9662122991993,0.0 -49.6945175,-28.9664165991993,0.0 -49.6942598,-28.9666419991993,0.0 -49.6938765,-28.9669977991993,0.0 -49.6936183,-28.9671768991993,0.0 -49.6933311,-28.9673068991993,0.0 -49.6928708,-28.9674495991993,0.0 -49.692283,-28.9676947991993,0.0 -49.6921114,-28.9677732991993,0.0 -49.6919397,-28.9678517991993,0.0 -49.691405,-28.9680251991993,0.0 -49.6908839,-28.9681962991993,0.0 -49.6904479,-28.9683705991993,0.0 -49.6902261,-28.9685421991993,0.0 -49.6901136,-28.9686543991993,0.0 -49.6898523,-28.9689330991993,0.0 -49.6894419,-28.9692332991993,0.0 -49.6890292,-28.9695249991993,0.0 -49.6886477,-28.9697774991993,0.0 -49.6883737,-28.9699666991993,0.0 -49.6881854,-28.9701180991993,0.0 -49.6879973,-28.9702565991993,0.0 -49.6879339,-28.9702931991993,0.0 -49.6878705,-28.9703297991993,0.0 -49.6877711,-28.9703458991993,0.0 -49.6876693,-28.9703554991993,0.0 -49.6875001,-28.9703376991993,0.0 -49.6873663,-28.9703273991993,0.0 -49.6871822,-28.9702993991993,0.0 -49.6869923,-28.9702950991993,0.0 -49.6867994,-28.9703170991993,0.0 -49.6866278,-28.9703773991993,0.0 -49.6864744,-28.9704903991993,0.0 -49.6863731,-28.9705632991992,0.0 -49.6861934,-28.9706210991993,0.0 -49.6858996,-28.9706802991993,0.0 -49.6852545,-28.9708527991992,0.0 -49.6849162,-28.9709801991992,0.0 -49.6848102,-28.9710200991992,0.0 -49.6845887,-28.9710688991992,0.0 -49.6843252,-28.9711020991992,0.0 -49.6840781,-28.9711211991992,0.0 -49.6838501,-28.9711307991992,0.0 -49.6836492,-28.9711407991992,0.0 -49.6834305,-28.9711722991992,0.0 -49.6831828,-28.9712413991992,0.0 -49.6828932,-28.9714006991992,0.0 -49.6826521,-28.9715890991992,0.0 -49.6823321,-28.9717933991992,0.0 -49.6820686,-28.9719821991992,0.0 -49.6818749,-28.9720732991992,0.0 -49.6817632,-28.9721043991992,0.0 -49.6816516,-28.9721354991992,0.0 -49.6814173,-28.9722118991992,0.0 -49.6812563,-28.9722937991992,0.0 -49.6810365,-28.9724161991992,0.0 -49.6807639,-28.9725231991992,0.0 -49.6804441,-28.9727107991992,0.0 -49.6800093,-28.9728837991992,0.0 -49.6796218,-28.9730634991992,0.0 -49.6793979,-28.9731828991992,0.0 -49.6792013,-28.9732834991992,0.0 -49.6788698,-28.9734769991992,0.0 -49.6787504,-28.9735795991992,0.0 -49.6786311,-28.9736820991992,0.0 -49.678581,-28.9737864991992,0.0 -49.6785168,-28.9739288991992,0.0 -49.6785018,-28.9740384991992,0.0 -49.6784763,-28.9742753991992,0.0 -49.678421,-28.9743606991992,0.0 -49.6783031,-28.9744596991992,0.0 -49.6779354,-28.9747826991992,0.0 -49.677628,-28.9750681991992,0.0 -49.6774127,-28.9753345991992,0.0 -49.6771223,-28.9757704991992,0.0 -49.6767988,-28.9762440991992,0.0 -49.6766203,-28.9765895991992,0.0 -49.676356,-28.9771067991991,0.0 -49.6761105,-28.9776037991991,0.0 -49.6758023,-28.9779464991991,0.0 -49.6754355,-28.9782074991991,0.0 -49.6746718,-28.9784535991991,0.0 -49.6740915,-28.9787032991991,0.0 -49.673094,-28.9790099991991,0.0 -49.6719992,-28.9793547991991,0.0 -49.6714577,-28.9796278991991,0.0 -49.6710279,-28.9799820991991,0.0 -49.6705473,-28.9804330991991,0.0 -49.6701708,-28.9807118991991,0.0 -49.6700391,-28.9808093991991,0.0 -49.6693966,-28.9811766991991,0.0 -49.6689167,-28.9813778991991,0.0 -49.6684263,-28.9815526991991,0.0 -49.6679689,-28.9816287991991,0.0 -49.6675446,-28.9816132991991,0.0 -49.6670503,-28.9815746991991,0.0 -49.6664391,-28.9814166991991,0.0 -49.6657103,-28.9812013991991,0.0 -49.6648028,-28.9810260991991,0.0 -49.6637309,-28.9808234991991,0.0 -49.6634258,-28.9807778991991,0.0 -49.6630898,-28.9806396991991,0.0 -49.6628663,-28.9805144991991,0.0 -49.6627608,-28.9804924991991,0.0 -49.6626587,-28.9804764991991,0.0 -49.6625257,-28.9804659991991,0.0 -49.6624216,-28.9804811991991,0.0 -49.6623358,-28.9805053991991,0.0 -49.6622092,-28.9805659991991,0.0 -49.6620845,-28.9806177991991,0.0 -49.6619431,-28.9806532991991,0.0 -49.6614586,-28.9807281991991,0.0 -49.6610485,-28.9808007991991,0.0 -49.6605655,-28.9809061991991,0.0 -49.6600946,-28.9811083991991,0.0 -49.6596442,-28.9814963991991,0.0 -49.6590851,-28.9817995991991,0.0 -49.6587061,-28.9820715991991,0.0 -49.6583874,-28.9824042991991,0.0 -49.657998,-28.982855299199,0.0 -49.6577867,-28.983052599199,0.0 -49.6575221,-28.983299799199,0.0 -49.6570132,-28.983662399199,0.0 -49.6565752,-28.983929099199,0.0 -49.6562882,-28.984056399199,0.0 -49.656124,-28.984106599199,0.0 -49.6559062,-28.984146899199,0.0 -49.6557506,-28.984149999199,0.0 -49.6554638,-28.984132999199,0.0 -49.6548856,-28.984049499199,0.0 -49.6541422,-28.983968899199,0.0 -49.6535834,-28.983828899199,0.0 -49.6532081,-28.983701699199,0.0 -49.6531535,-28.983683199199,0.0 -49.6528241,-28.983441899199,0.0 -49.6525071,-28.983213999199,0.0 -49.6522314,-28.982968499199,0.0 -49.6520486,-28.982739299199,0.0 -49.6519848,-28.982488799199,0.0 -49.652018,-28.9822716991991,0.0 -49.6520766,-28.9819725991991,0.0 -49.6522,-28.9817433991991,0.0 -49.6524393,-28.9814049991991,0.0 -49.652449,-28.9812239991991,0.0 -49.6524008,-28.9808063991991,0.0 -49.65226,-28.9804738991991,0.0 -49.6520262,-28.9800967991991,0.0 -49.6518911,-28.9799464991991,0.0 -49.6517561,-28.9797960991991,0.0 -49.6515512,-28.9796738991991,0.0 -49.6513588,-28.9796176991991,0.0 -49.6512261,-28.9795079991991,0.0 -49.65106,-28.9792917991991,0.0 -49.6508624,-28.9788033991991,0.0 -49.6506178,-28.9780102991991,0.0 -49.6504769,-28.9774917991991,0.0 -49.6503623,-28.9768188991991,0.0 -49.6503144,-28.9766489991991,0.0 -49.6502107,-28.9762808991991,0.0 -49.6500702,-28.9757420991992,0.0 -49.6499516,-28.9751475991992,0.0 -49.6498862,-28.9746071991992,0.0 -49.6497949,-28.9739944991992,0.0 -49.6496771,-28.9735666991992,0.0 -49.6495731,-28.9730835991992,0.0 -49.6494745,-28.9728279991992,0.0 -49.6493263,-28.9726756991992,0.0 -49.6491903,-28.9726177991992,0.0 -49.648949,-28.9726129991992,0.0 -49.6483768,-28.9726071991992,0.0 -49.6480417,-28.9726165991992,0.0 -49.6476979,-28.9727530991992,0.0 -49.6473754,-28.9730710991992,0.0 -49.6473269,-28.9731594991992,0.0 -49.6469594,-28.9738294991992,0.0 -49.6467276,-28.9741217991992,0.0 -49.6464966,-28.9743598991992,0.0 -49.6462826,-28.9745203991992,0.0 -49.6458439,-28.9746455991992,0.0 -49.6457014,-28.9746723991992,0.0 -49.6455616,-28.9747016991992,0.0 -49.6454301,-28.9747073991992,0.0 -49.645296,-28.9747083991992,0.0 -49.6451273,-28.9746854991992,0.0 -49.6450365,-28.9746562991992,0.0 -49.6449192,-28.9746079991992,0.0 -49.6446878,-28.9745469991992,0.0 -49.6445378,-28.9745383991992,0.0 -49.6443018,-28.9745359991992,0.0 -49.6440473,-28.9745192991992,0.0 -49.6435149,-28.9744219991992,0.0 -49.6434256,-28.9744039991992,0.0 -49.6429131,-28.9743004991992,0.0 -49.6424786,-28.9741377991992,0.0 -49.6421852,-28.9740193991992,0.0 -49.6416291,-28.9738864991992,0.0 -49.6411106,-28.9737562991992,0.0 -49.6398373,-28.9734441991992,0.0 -49.6384393,-28.9731301991992,0.0 -49.637659,-28.9729910991992,0.0 -49.6374993,-28.9729730991992,0.0</coordinates>
</LinearRing>
</outerBoundaryIs>
</Polygon>
</MultiGeometry>
</Placemark>
</Folder>
</Document></kml>
