<?xml version='1.0' encoding='UTF-8'?>
<kml xmlns:xsd="http://www.w3.org/2001/XMLSchema" xmlns:gx="http://www.google.com/kml/ext/2.2" xmlns:atom="http://www.w3.org/2005/Atom" xmlns="http://www.opengis.net/kml/2.2">
<Document>
<name>icara_4207007_localidades_2022</name>
<visibility>1</visibility>
<Schema name="Núcleos Urbanos" id="kml_schema_ft_Núcleos_Urbanos">
<SimpleField type="xsd:string" name="CD_UF">
<displayName>CD_UF</displayName>
</SimpleField>
<SimpleField type="xsd:string" name="NM_UF">
<displayName>NM_UF</displayName>
</SimpleField>
<SimpleField type="xsd:string" name="SIGLA_UF">
<displayName>SIGLA_UF</displayName>
</SimpleField>
<SimpleField type="xsd:string" name="CD_MUN">
<displayName>CD_MUN</displayName>
</SimpleField>
<SimpleField type="xsd:string" name="NM_MUN">
<displayName>NM_MUN</displayName>
</SimpleField>
<SimpleField type="xsd:string" name="CD_RGINT">
<displayName>CD_RGINT</displayName>
</SimpleField>
<SimpleField type="xsd:string" name="NM_RGINT">
<displayName>NM_RGINT</displayName>
</SimpleField>
<SimpleField type="xsd:string" name="CD_RGI">
<displayName>CD_RGI</displayName>
</SimpleField>
<SimpleField type="xsd:string" name="NM_RGI">
<displayName>NM_RGI</displayName>
</SimpleField>
<SimpleField type="xsd:string" name="CT_LOCALIDADE">
<displayName>CT_LOCALIDADE</displayName>
</SimpleField>
<SimpleField type="xsd:string" name="CD_LOCALIDADE">
<displayName>CD_LOCALIDADE</displayName>
</SimpleField>
<SimpleField type="xsd:string" name="NM_LOCALIDADE">
<displayName>NM_LOCALIDADE</displayName>
</SimpleField>
<SimpleField type="xsd:string" name="LAT_LOCALIDADE">
<displayName>LAT_LOCALIDADE</displayName>
</SimpleField>
<SimpleField type="xsd:string" name="LONG_LOCALIDADE">
<displayName>LONG_LOCALIDADE</displayName>
</SimpleField>
</Schema>
<Schema name="01. Cidade" id="kml_schema_ft_01._Cidade">
<SimpleField type="xsd:string" name="CD_UF">
<displayName>CD_UF</displayName>
</SimpleField>
<SimpleField type="xsd:string" name="NM_UF">
<displayName>NM_UF</displayName>
</SimpleField>
<SimpleField type="xsd:string" name="SIGLA_UF">
<displayName>SIGLA_UF</displayName>
</SimpleField>
<SimpleField type="xsd:string" name="CD_MUN">
<displayName>CD_MUN</displayName>
</SimpleField>
<SimpleField type="xsd:string" name="NM_MUN">
<displayName>NM_MUN</displayName>
</SimpleField>
<SimpleField type="xsd:string" name="CD_RGINT">
<displayName>CD_RGINT</displayName>
</SimpleField>
<SimpleField type="xsd:string" name="NM_RGINT">
<displayName>NM_RGINT</displayName>
</SimpleField>
<SimpleField type="xsd:string" name="CD_RGI">
<displayName>CD_RGI</displayName>
</SimpleField>
<SimpleField type="xsd:string" name="NM_RGI">
<displayName>NM_RGI</displayName>
</SimpleField>
<SimpleField type="xsd:string" name="CT_LOCALIDADE">
<displayName>CT_LOCALIDADE</displayName>
</SimpleField>
<SimpleField type="xsd:string" name="SCT_LOCALIDADE">
<displayName>SCT_LOCALIDADE</displayName>
</SimpleField>
<SimpleField type="xsd:string" name="CD_LOCALIDADE">
<displayName>CD_LOCALIDADE</displayName>
</SimpleField>
<SimpleField type="xsd:string" name="NM_LOCALIDADE">
<displayName>NM_LOCALIDADE</displayName>
</SimpleField>
<SimpleField type="xsd:string" name="LAT_LOCALIDADE">
<displayName>LAT_LOCALIDADE</displayName>
</SimpleField>
<SimpleField type="xsd:string" name="LONG_LOCALIDADE">
<displayName>LONG_LOCALIDADE</displayName>
</SimpleField>
</Schema>
<Schema name="Município" id="kml_schema_ft_Município">
<SimpleField type="xsd:string" name="CD_UF">
<displayName>CD_UF</displayName>
</SimpleField>
<SimpleField type="xsd:string" name="NM_UF">
<displayName>NM_UF</displayName>
</SimpleField>
<SimpleField type="xsd:string" name="CD_MUN">
<displayName>CD_MUN</displayName>
</SimpleField>
<SimpleField type="xsd:string" name="NM_MUN">
<displayName>NM_MUN</displayName>
</SimpleField>
<SimpleField type="xsd:string" name="CD_RGINT">
<displayName>CD_RGINT</displayName>
</SimpleField>
<SimpleField type="xsd:string" name="NM_RGINT">
<displayName>NM_RGINT</displayName>
</SimpleField>
<SimpleField type="xsd:string" name="CD_RGI">
<displayName>CD_RGI</displayName>
</SimpleField>
<SimpleField type="xsd:string" name="NM_RGI">
<displayName>NM_RGI</displayName>
</SimpleField>
</Schema>
<Folder id="01. Cidade">
<name>01. Cidade</name>
<Folder id="01.03. Sede Municipal">
<name>01.03. Sede Municipal</name>
<Placemark id="01.03. Sede Municipal">
<name>Içara [4207007]</name>
<visibility>1</visibility>
<snippet> </snippet>
<description>&lt;center&gt;&lt;table&gt;&lt;tr&gt;&lt;th colspan='2' align='center'&gt;&lt;em&gt;Atributos&lt;/em&gt;&lt;/th&gt;&lt;/tr&gt;&lt;tr bgcolor="#E3E3F3"&gt;
&lt;th&gt;CD_UF&lt;/th&gt;
&lt;td&gt;42&lt;/td&gt;
&lt;/tr&gt;&lt;tr bgcolor=""&gt;
&lt;th&gt;NM_UF&lt;/th&gt;
&lt;td&gt;Santa Catarina&lt;/td&gt;
&lt;/tr&gt;&lt;tr bgcolor="#E3E3F3"&gt;
&lt;th&gt;SIGLA_UF&lt;/th&gt;
&lt;td&gt;SC&lt;/td&gt;
&lt;/tr&gt;&lt;tr bgcolor=""&gt;
&lt;th&gt;CD_MUN&lt;/th&gt;
&lt;td&gt;4207007&lt;/td&gt;
&lt;/tr&gt;&lt;tr bgcolor="#E3E3F3"&gt;
&lt;th&gt;NM_MUN&lt;/th&gt;
&lt;td&gt;Içara&lt;/td&gt;
&lt;/tr&gt;&lt;tr bgcolor=""&gt;
&lt;th&gt;CD_RGINT&lt;/th&gt;
&lt;td&gt;4202&lt;/td&gt;
&lt;/tr&gt;&lt;tr bgcolor="#E3E3F3"&gt;
&lt;th&gt;NM_RGINT&lt;/th&gt;
&lt;td&gt;Criciúma&lt;/td&gt;
&lt;/tr&gt;&lt;tr bgcolor=""&gt;
&lt;th&gt;CD_RGI&lt;/th&gt;
&lt;td&gt;420002&lt;/td&gt;
&lt;/tr&gt;&lt;tr bgcolor="#E3E3F3"&gt;
&lt;th&gt;NM_RGI&lt;/th&gt;
&lt;td&gt;Criciúma&lt;/td&gt;
&lt;/tr&gt;&lt;tr bgcolor=""&gt;
&lt;th&gt;CT_LOCALIDADE&lt;/th&gt;
&lt;td&gt;Cidade&lt;/td&gt;
&lt;/tr&gt;&lt;tr bgcolor="#E3E3F3"&gt;
&lt;th&gt;SCT_LOCALIDADE&lt;/th&gt;
&lt;td&gt;Sede Municipal&lt;/td&gt;
&lt;/tr&gt;&lt;tr bgcolor=""&gt;
&lt;th&gt;CD_LOCALIDADE&lt;/th&gt;
&lt;td&gt;4207007&lt;/td&gt;
&lt;/tr&gt;&lt;tr bgcolor="#E3E3F3"&gt;
&lt;th&gt;NM_LOCALIDADE&lt;/th&gt;
&lt;td&gt;Içara&lt;/td&gt;
&lt;/tr&gt;&lt;tr bgcolor=""&gt;
&lt;th&gt;LAT_LOCALIDADE&lt;/th&gt;
&lt;td&gt;-28.7141&lt;/td&gt;
&lt;/tr&gt;&lt;tr bgcolor="#E3E3F3"&gt;
&lt;th&gt;LONG_LOCALIDADE&lt;/th&gt;
&lt;td&gt;-49.2995&lt;/td&gt;
&lt;/tr&gt;&lt;/table&gt;&lt;/center&gt;</description>
<Style>
<IconStyle>
<color>ff00aaff</color>
<scale>1.0</scale>
<Icon>
<href>http://maps.google.com/mapfiles/kml/shapes/placemark_circle.png</href>
</Icon>
</IconStyle>
<LabelStyle>
<scale>1.0</scale>
</LabelStyle>
<LineStyle>
<color>ffffffff</color>
<width>3</width>
<gx:labelVisibility>1</gx:labelVisibility>
</LineStyle>
<PolyStyle>
<color>00ffffff</color>
</PolyStyle>
</Style>
<ExtendedData>
<SchemaData schemaUrl="#kml_schema_ft_01._Cidade">
<SimpleData name="CD_UF">42</SimpleData>
<SimpleData name="NM_UF">Santa Catarina</SimpleData>
<SimpleData name="SIGLA_UF">SC</SimpleData>
<SimpleData name="CD_MUN">4207007</SimpleData>
<SimpleData name="NM_MUN">Içara</SimpleData>
<SimpleData name="CD_RGINT">4202</SimpleData>
<SimpleData name="NM_RGINT">Criciúma</SimpleData>
<SimpleData name="CD_RGI">420002</SimpleData>
<SimpleData name="NM_RGI">Criciúma</SimpleData>
<SimpleData name="CT_LOCALIDADE">Cidade</SimpleData>
<SimpleData name="SCT_LOCALIDADE">Sede Municipal</SimpleData>
<SimpleData name="CD_LOCALIDADE">4207007</SimpleData>
<SimpleData name="NM_LOCALIDADE">Içara</SimpleData>
<SimpleData name="LAT_LOCALIDADE">-28.7141</SimpleData>
<SimpleData name="LONG_LOCALIDADE">-49.2995</SimpleData>
</SchemaData>
</ExtendedData>
<Point>
<extrude>0</extrude>
<coordinates>-49.2995,-28.7140999992037,0.0</coordinates>
</Point>
</Placemark>
</Folder>
</Folder>
<Folder id="05. Núcleos Urbanos">
<name>05. Núcleos Urbanos</name>
<Placemark id="localidades">
<name>Linha Anta [4207007001]</name>
<visibility>1</visibility>
<snippet> </snippet>
<description>&lt;center&gt;&lt;table&gt;&lt;tr&gt;&lt;th colspan='2' align='center'&gt;&lt;em&gt;Attributes&lt;/em&gt;&lt;/th&gt;&lt;/tr&gt;&lt;tr bgcolor="#E3E3F3"&gt;
&lt;th&gt;CD_UF&lt;/th&gt;
&lt;td&gt;42&lt;/td&gt;
&lt;/tr&gt;&lt;tr bgcolor=""&gt;
&lt;th&gt;NM_UF&lt;/th&gt;
&lt;td&gt;Santa Catarina&lt;/td&gt;
&lt;/tr&gt;&lt;tr bgcolor="#E3E3F3"&gt;
&lt;th&gt;SIGLA_UF&lt;/th&gt;
&lt;td&gt;SC&lt;/td&gt;
&lt;/tr&gt;&lt;tr bgcolor=""&gt;
&lt;th&gt;CD_MUN&lt;/th&gt;
&lt;td&gt;4207007&lt;/td&gt;
&lt;/tr&gt;&lt;tr bgcolor="#E3E3F3"&gt;
&lt;th&gt;NM_MUN&lt;/th&gt;
&lt;td&gt;Içara&lt;/td&gt;
&lt;/tr&gt;&lt;tr bgcolor=""&gt;
&lt;th&gt;CD_RGINT&lt;/th&gt;
&lt;td&gt;4202&lt;/td&gt;
&lt;/tr&gt;&lt;tr bgcolor="#E3E3F3"&gt;
&lt;th&gt;NM_RGINT&lt;/th&gt;
&lt;td&gt;Criciúma&lt;/td&gt;
&lt;/tr&gt;&lt;tr bgcolor=""&gt;
&lt;th&gt;CD_RGI&lt;/th&gt;
&lt;td&gt;420002&lt;/td&gt;
&lt;/tr&gt;&lt;tr bgcolor="#E3E3F3"&gt;
&lt;th&gt;NM_RGI&lt;/th&gt;
&lt;td&gt;Criciúma&lt;/td&gt;
&lt;/tr&gt;&lt;tr bgcolor=""&gt;
&lt;th&gt;CT_LOCALIDADE&lt;/th&gt;
&lt;td&gt;Núcleo Urbano&lt;/td&gt;
&lt;/tr&gt;&lt;tr bgcolor="#E3E3F3"&gt;
&lt;th&gt;CD_LOCALIDADE&lt;/th&gt;
&lt;td&gt;4207007001&lt;/td&gt;
&lt;/tr&gt;&lt;tr bgcolor=""&gt;
&lt;th&gt;NM_LOCALIDADE&lt;/th&gt;
&lt;td&gt;Linha Anta&lt;/td&gt;
&lt;/tr&gt;&lt;tr bgcolor="#E3E3F3"&gt;
&lt;th&gt;LAT_LOCALIDADE&lt;/th&gt;
&lt;td&gt;-28.678&lt;/td&gt;
&lt;/tr&gt;&lt;tr bgcolor=""&gt;
&lt;th&gt;LONG_LOCALIDADE&lt;/th&gt;
&lt;td&gt;-49.2547&lt;/td&gt;
&lt;/tr&gt;&lt;/table&gt;&lt;/center&gt;</description>
<Style>
<IconStyle>
<color>ff0000ff</color>
<scale>0.9</scale>
<Icon>
<href>http://maps.google.com/mapfiles/kml/shapes/placemark_circle.png</href>
</Icon>
</IconStyle>
<LabelStyle>
<scale>0.9</scale>
</LabelStyle>
<LineStyle>
<color>72ffffff</color>
<width>1.0</width>
<gx:labelVisibility>1</gx:labelVisibility>
</LineStyle>
<PolyStyle>
<color>66ff54ff</color>
</PolyStyle>
</Style>
<ExtendedData>
<SchemaData schemaUrl="#kml_schema_ft_Núcleos_Urbanos">
<SimpleData name="CD_UF">42</SimpleData>
<SimpleData name="NM_UF">Santa Catarina</SimpleData>
<SimpleData name="SIGLA_UF">SC</SimpleData>
<SimpleData name="CD_MUN">4207007</SimpleData>
<SimpleData name="NM_MUN">Içara</SimpleData>
<SimpleData name="CD_RGINT">4202</SimpleData>
<SimpleData name="NM_RGINT">Criciúma</SimpleData>
<SimpleData name="CD_RGI">420002</SimpleData>
<SimpleData name="NM_RGI">Criciúma</SimpleData>
<SimpleData name="CT_LOCALIDADE">Núcleo Urbano</SimpleData>
<SimpleData name="CD_LOCALIDADE">4207007001</SimpleData>
<SimpleData name="NM_LOCALIDADE">Linha Anta</SimpleData>
<SimpleData name="LAT_LOCALIDADE">-28.678</SimpleData>
<SimpleData name="LONG_LOCALIDADE">-49.2547</SimpleData>
</SchemaData>
</ExtendedData>
<Point>
<extrude>0</extrude>
<coordinates>-49.2547348904109,-28.6780399078802,0.0</coordinates>
</Point>
</Placemark>
<Placemark id="localidades">
<name>Esplanada [4207007003]</name>
<visibility>1</visibility>
<snippet> </snippet>
<description>&lt;center&gt;&lt;table&gt;&lt;tr&gt;&lt;th colspan='2' align='center'&gt;&lt;em&gt;Attributes&lt;/em&gt;&lt;/th&gt;&lt;/tr&gt;&lt;tr bgcolor="#E3E3F3"&gt;
&lt;th&gt;CD_UF&lt;/th&gt;
&lt;td&gt;42&lt;/td&gt;
&lt;/tr&gt;&lt;tr bgcolor=""&gt;
&lt;th&gt;NM_UF&lt;/th&gt;
&lt;td&gt;Santa Catarina&lt;/td&gt;
&lt;/tr&gt;&lt;tr bgcolor="#E3E3F3"&gt;
&lt;th&gt;SIGLA_UF&lt;/th&gt;
&lt;td&gt;SC&lt;/td&gt;
&lt;/tr&gt;&lt;tr bgcolor=""&gt;
&lt;th&gt;CD_MUN&lt;/th&gt;
&lt;td&gt;4207007&lt;/td&gt;
&lt;/tr&gt;&lt;tr bgcolor="#E3E3F3"&gt;
&lt;th&gt;NM_MUN&lt;/th&gt;
&lt;td&gt;Içara&lt;/td&gt;
&lt;/tr&gt;&lt;tr bgcolor=""&gt;
&lt;th&gt;CD_RGINT&lt;/th&gt;
&lt;td&gt;4202&lt;/td&gt;
&lt;/tr&gt;&lt;tr bgcolor="#E3E3F3"&gt;
&lt;th&gt;NM_RGINT&lt;/th&gt;
&lt;td&gt;Criciúma&lt;/td&gt;
&lt;/tr&gt;&lt;tr bgcolor=""&gt;
&lt;th&gt;CD_RGI&lt;/th&gt;
&lt;td&gt;420002&lt;/td&gt;
&lt;/tr&gt;&lt;tr bgcolor="#E3E3F3"&gt;
&lt;th&gt;NM_RGI&lt;/th&gt;
&lt;td&gt;Criciúma&lt;/td&gt;
&lt;/tr&gt;&lt;tr bgcolor=""&gt;
&lt;th&gt;CT_LOCALIDADE&lt;/th&gt;
&lt;td&gt;Núcleo Urbano&lt;/td&gt;
&lt;/tr&gt;&lt;tr bgcolor="#E3E3F3"&gt;
&lt;th&gt;CD_LOCALIDADE&lt;/th&gt;
&lt;td&gt;4207007003&lt;/td&gt;
&lt;/tr&gt;&lt;tr bgcolor=""&gt;
&lt;th&gt;NM_LOCALIDADE&lt;/th&gt;
&lt;td&gt;Esplanada&lt;/td&gt;
&lt;/tr&gt;&lt;tr bgcolor="#E3E3F3"&gt;
&lt;th&gt;LAT_LOCALIDADE&lt;/th&gt;
&lt;td&gt;-28.698&lt;/td&gt;
&lt;/tr&gt;&lt;tr bgcolor=""&gt;
&lt;th&gt;LONG_LOCALIDADE&lt;/th&gt;
&lt;td&gt;-49.1897&lt;/td&gt;
&lt;/tr&gt;&lt;/table&gt;&lt;/center&gt;</description>
<Style>
<IconStyle>
<color>ff0000ff</color>
<scale>0.9</scale>
<Icon>
<href>http://maps.google.com/mapfiles/kml/shapes/placemark_circle.png</href>
</Icon>
</IconStyle>
<LabelStyle>
<scale>0.9</scale>
</LabelStyle>
<LineStyle>
<color>72ffffff</color>
<width>1.0</width>
<gx:labelVisibility>1</gx:labelVisibility>
</LineStyle>
<PolyStyle>
<color>66ff54ff</color>
</PolyStyle>
</Style>
<ExtendedData>
<SchemaData schemaUrl="#kml_schema_ft_Núcleos_Urbanos">
<SimpleData name="CD_UF">42</SimpleData>
<SimpleData name="NM_UF">Santa Catarina</SimpleData>
<SimpleData name="SIGLA_UF">SC</SimpleData>
<SimpleData name="CD_MUN">4207007</SimpleData>
<SimpleData name="NM_MUN">Içara</SimpleData>
<SimpleData name="CD_RGINT">4202</SimpleData>
<SimpleData name="NM_RGINT">Criciúma</SimpleData>
<SimpleData name="CD_RGI">420002</SimpleData>
<SimpleData name="NM_RGI">Criciúma</SimpleData>
<SimpleData name="CT_LOCALIDADE">Núcleo Urbano</SimpleData>
<SimpleData name="CD_LOCALIDADE">4207007003</SimpleData>
<SimpleData name="NM_LOCALIDADE">Esplanada</SimpleData>
<SimpleData name="LAT_LOCALIDADE">-28.698</SimpleData>
<SimpleData name="LONG_LOCALIDADE">-49.1897</SimpleData>
</SchemaData>
</ExtendedData>
<Point>
<extrude>0</extrude>
<coordinates>-49.1897395751502,-28.6979929410877,0.0</coordinates>
</Point>
</Placemark>
</Folder>
<Folder id="13. Referência">
<name>13. Referência</name>
<Placemark id="13. Referência">
<name>Içara [4207007]</name>
<visibility>1</visibility>
<snippet> </snippet>
<description>&lt;center&gt;&lt;table&gt;&lt;tr&gt;&lt;th colspan='2' align='center'&gt;&lt;em&gt;Attributes&lt;/em&gt;&lt;/th&gt;&lt;/tr&gt;&lt;tr bgcolor="#E3E3F3"&gt;
&lt;th&gt;CD_UF&lt;/th&gt;
&lt;td&gt;42&lt;/td&gt;
&lt;/tr&gt;&lt;tr bgcolor=""&gt;
&lt;th&gt;NM_UF&lt;/th&gt;
&lt;td&gt;Santa Catarina&lt;/td&gt;
&lt;/tr&gt;&lt;tr bgcolor="#E3E3F3"&gt;
&lt;th&gt;CD_MUN&lt;/th&gt;
&lt;td&gt;4207007&lt;/td&gt;
&lt;/tr&gt;&lt;tr bgcolor=""&gt;
&lt;th&gt;NM_MUN&lt;/th&gt;
&lt;td&gt;Içara&lt;/td&gt;
&lt;/tr&gt;&lt;tr bgcolor="#E3E3F3"&gt;
&lt;th&gt;CD_RGINT&lt;/th&gt;
&lt;td&gt;4202&lt;/td&gt;
&lt;/tr&gt;&lt;tr bgcolor=""&gt;
&lt;th&gt;NM_RGINT&lt;/th&gt;
&lt;td&gt;Criciúma&lt;/td&gt;
&lt;/tr&gt;&lt;tr bgcolor="#E3E3F3"&gt;
&lt;th&gt;CD_RGI&lt;/th&gt;
&lt;td&gt;420002&lt;/td&gt;
&lt;/tr&gt;&lt;tr bgcolor=""&gt;
&lt;th&gt;NM_RGI&lt;/th&gt;
&lt;td&gt;Criciúma&lt;/td&gt;
&lt;/tr&gt;&lt;/table&gt;&lt;/center&gt;</description>
<Style>
<IconStyle>
<scale>0.7</scale>
</IconStyle>
<LabelStyle>
<scale>0.7</scale>
</LabelStyle>
<LineStyle>
<color>ffffffff</color>
<width>3</width>
<gx:labelVisibility>1</gx:labelVisibility>
</LineStyle>
<PolyStyle>
<color>00ffffff</color>
</PolyStyle>
</Style>
<ExtendedData>
<SchemaData schemaUrl="#kml_schema_ft_Município">
<SimpleData name="CD_UF">42</SimpleData>
<SimpleData name="NM_UF">Santa Catarina</SimpleData>
<SimpleData name="CD_MUN">4207007</SimpleData>
<SimpleData name="NM_MUN">Içara</SimpleData>
<SimpleData name="CD_RGINT">4202</SimpleData>
<SimpleData name="NM_RGINT">Criciúma</SimpleData>
<SimpleData name="CD_RGI">420002</SimpleData>
<SimpleData name="NM_RGI">Criciúma</SimpleData>
</SchemaData>
</ExtendedData>
<MultiGeometry>
<Polygon>
<extrude>0</extrude>
<tessellate>1</tessellate>
<outerBoundaryIs>
<LinearRing>
<coordinates>-49.2983813,-28.6784062992044,0.0 -49.2973044,-28.6785970992044,0.0 -49.296768,-28.6786839992044,0.0 -49.2958581,-28.6788428992044,0.0 -49.2953623,-28.6789399992044,0.0 -49.2945523,-28.6792044992044,0.0 -49.2934907,-28.6796413992044,0.0 -49.2924589,-28.6801126992044,0.0 -49.2918538,-28.6802130992044,0.0 -49.2914215,-28.6801628992044,0.0 -49.2900997,-28.6797668992044,0.0 -49.2891774,-28.6794541992044,0.0 -49.2888721,-28.6794340992044,0.0 -49.28883,-28.6794312992044,0.0 -49.2884598,-28.6794846992044,0.0 -49.2878719,-28.6797366992044,0.0 -49.2867993,-28.6802786992044,0.0 -49.2862687,-28.6804313992043,0.0 -49.2854824,-28.6804885992043,0.0 -49.2834315,-28.6803216992044,0.0 -49.2819444,-28.6801422992044,0.0 -49.2788074,-28.6794072992044,0.0 -49.2769665,-28.6794193992044,0.0 -49.2769455,-28.6794220992044,0.0 -49.2762893,-28.6795045992044,0.0 -49.2756,-28.6797802992044,0.0 -49.275008,-28.6801005992044,0.0 -49.2747427,-28.6801478992044,0.0 -49.2743935,-28.6801021992044,0.0 -49.2696977,-28.6777248992044,0.0 -49.2680492,-28.6768320992044,0.0 -49.2677846,-28.6767791992044,0.0 -49.2675502,-28.6767791992044,0.0 -49.2670743,-28.6769476992044,0.0 -49.2666316,-28.6770019992044,0.0 -49.2663392,-28.6769476992044,0.0 -49.2650946,-28.6761457992044,0.0 -49.2649559,-28.6760169992044,0.0 -49.2641005,-28.6752227992044,0.0 -49.2636163,-28.6749138992044,0.0 -49.2630415,-28.6746504992044,0.0 -49.2607488,-28.6740845992045,0.0 -49.260648,-28.6740719992045,0.0 -49.2598818,-28.6741685992045,0.0 -49.2592493,-28.6743224992045,0.0 -49.2586027,-28.6744863992045,0.0 -49.2571539,-28.6745243992045,0.0 -49.2551593,-28.6745767992044,0.0 -49.2548974,-28.6745765992044,0.0 -49.2548377,-28.6745764992044,0.0 -49.2522514,-28.6745740992045,0.0 -49.2435849,-28.6746286992045,0.0 -49.2434795,-28.6748795992044,0.0 -49.2434263,-28.6749947992044,0.0 -49.243283,-28.6753568992044,0.0 -49.243183,-28.6755391992044,0.0 -49.2430363,-28.6758087992044,0.0 -49.2428566,-28.6760228992044,0.0 -49.2427045,-28.6761913992044,0.0 -49.2424912,-28.6763497992044,0.0 -49.2423382,-28.6764710992044,0.0 -49.2421609,-28.6765725992044,0.0 -49.2419011,-28.6767033992044,0.0 -49.2417685,-28.6767607992044,0.0 -49.2416417,-28.6768157992044,0.0 -49.2414551,-28.6768795992044,0.0 -49.2412596,-28.6769092992044,0.0 -49.2409153,-28.6769575992044,0.0 -49.2407598,-28.6769788992044,0.0 -49.2406313,-28.6769779992044,0.0 -49.2403608,-28.6769457992044,0.0 -49.2399746,-28.6768962992044,0.0 -49.2396677,-28.6768609992044,0.0 -49.239513,-28.6768187992044,0.0 -49.2392625,-28.6767105992044,0.0 -49.2390007,-28.6766066992044,0.0 -49.2388494,-28.6765286992044,0.0 -49.2387802,-28.6764975992044,0.0 -49.2387487,-28.6764744992044,0.0 -49.2387325,-28.6764594992044,0.0 -49.2387196,-28.6764444992044,0.0 -49.2385259,-28.6762630992044,0.0 -49.2383681,-28.6761219992044,0.0 -49.2382017,-28.6759947992044,0.0 -49.2379935,-28.6758194992044,0.0 -49.2378542,-28.6756755992044,0.0 -49.2377843,-28.6755815992044,0.0 -49.2377224,-28.6754788992044,0.0 -49.2376527,-28.6754198992044,0.0 -49.2375422,-28.6753154992044,0.0 -49.2374274,-28.6752369992044,0.0 -49.2371463,-28.6750524992045,0.0 -49.236924,-28.6749278992044,0.0 -49.2368116,-28.6748879992044,0.0 -49.2366267,-28.6748222992044,0.0 -49.2363686,-28.6747486992044,0.0 -49.2363053,-28.6747283992044,0.0 -49.2361655,-28.6746934992044,0.0 -49.2360813,-28.6746862992044,0.0 -49.2360024,-28.6746779992045,0.0 -49.2359359,-28.6746655992044,0.0 -49.2358584,-28.6746455992045,0.0 -49.2357729,-28.6746234992044,0.0 -49.2357031,-28.6746118992045,0.0 -49.2356601,-28.6746100992044,0.0 -49.2355772,-28.6746010992044,0.0 -49.235472,-28.6745941992045,0.0 -49.2353596,-28.6745903992045,0.0 -49.2352968,-28.6745853992045,0.0 -49.2351089,-28.6745602992044,0.0 -49.2349674,-28.6745387992044,0.0 -49.2349059,-28.6745287992045,0.0 -49.2348318,-28.6745190992045,0.0 -49.2347698,-28.6745151992044,0.0 -49.2347108,-28.6745120992044,0.0 -49.2344814,-28.6744851992044,0.0 -49.2342388,-28.6744599992044,0.0 -49.233847,-28.6744254992044,0.0 -49.2336574,-28.6744028992045,0.0 -49.2335202,-28.6743700992045,0.0 -49.2334555,-28.6743478992045,0.0 -49.2334035,-28.6743289992045,0.0 -49.2333627,-28.6743226992045,0.0 -49.2333095,-28.6743169992045,0.0 -49.2332674,-28.6743151992045,0.0 -49.2331304,-28.6743165992045,0.0 -49.2330703,-28.6743133992045,0.0 -49.2330111,-28.6743019992045,0.0 -49.2329638,-28.6742837992045,0.0 -49.2329035,-28.6742659992045,0.0 -49.2328424,-28.6742531992045,0.0 -49.2327472,-28.6742507992045,0.0 -49.2326896,-28.6742499992045,0.0 -49.2326274,-28.6742504992045,0.0 -49.2325675,-28.6742497992045,0.0 -49.2325021,-28.6742410992045,0.0 -49.2324316,-28.6742238992045,0.0 -49.2323798,-28.6742073992045,0.0 -49.2323226,-28.6741888992045,0.0 -49.2322507,-28.6741828992045,0.0 -49.2321829,-28.6741869992045,0.0 -49.2321258,-28.6741868992045,0.0 -49.2320779,-28.6741832992045,0.0 -49.2320457,-28.6741754992045,0.0 -49.2319694,-28.6741384992045,0.0 -49.2319183,-28.6741190992045,0.0 -49.2318731,-28.6741146992045,0.0 -49.2318232,-28.6741097992045,0.0 -49.2317598,-28.6740999992045,0.0 -49.2316931,-28.6740789992045,0.0 -49.2315817,-28.6740467992045,0.0 -49.2314883,-28.6740167992045,0.0 -49.2313694,-28.6739727992045,0.0 -49.2313095,-28.6739505992045,0.0 -49.2312598,-28.6739424992045,0.0 -49.2312098,-28.6739320992045,0.0 -49.2311511,-28.6739150992045,0.0 -49.2311156,-28.6739006992045,0.0 -49.2308524,-28.6737679992045,0.0 -49.2307784,-28.6737352992045,0.0 -49.2306759,-28.6736992992045,0.0 -49.2305452,-28.6736516992045,0.0 -49.2304159,-28.6735898992045,0.0 -49.2302859,-28.6735168992045,0.0 -49.2301227,-28.6734206992045,0.0 -49.2299256,-28.6733031992045,0.0 -49.2297593,-28.6732069992045,0.0 -49.2295846,-28.6730944992045,0.0 -49.2292758,-28.6728764992045,0.0 -49.2291916,-28.6728039992045,0.0 -49.2288234,-28.6724752992045,0.0 -49.2284614,-28.6722039992045,0.0 -49.2283688,-28.6721368992045,0.0 -49.2282395,-28.6720542992045,0.0 -49.2279029,-28.6718666992045,0.0 -49.2274152,-28.6716475992045,0.0 -49.2270076,-28.6714713992045,0.0 -49.2267232,-28.6713643992045,0.0 -49.2265045,-28.6713114992045,0.0 -49.2262009,-28.6712181992045,0.0 -49.2261137,-28.6712207992045,0.0 -49.2259478,-28.6711759992045,0.0 -49.2257143,-28.6711172992045,0.0 -49.2255525,-28.6710957992045,0.0 -49.2253507,-28.6710978992045,0.0 -49.2251635,-28.6711153992045,0.0 -49.2251025,-28.6711123992045,0.0 -49.2250559,-28.6711101992045,0.0 -49.2249909,-28.6711190992045,0.0 -49.2248295,-28.6711450992045,0.0 -49.2246781,-28.6711691992045,0.0 -49.2245564,-28.6711820992045,0.0 -49.2244583,-28.6711871992045,0.0 -49.224377,-28.6711996992045,0.0 -49.2242526,-28.6711967992045,0.0 -49.224066,-28.6711900992045,0.0 -49.2237969,-28.6711976992045,0.0 -49.223617,-28.6711952992045,0.0 -49.2233944,-28.6711984992045,0.0 -49.223146,-28.6712120992045,0.0 -49.2229856,-28.6712216992045,0.0 -49.2227583,-28.6712454992045,0.0 -49.2225996,-28.6712471992045,0.0 -49.2223742,-28.6712394992045,0.0 -49.2220835,-28.6712541992045,0.0 -49.2218367,-28.6712639992045,0.0 -49.2216307,-28.6712744992045,0.0 -49.2214844,-28.6712658992045,0.0 -49.2213348,-28.6712677992045,0.0 -49.2211896,-28.6712738992045,0.0 -49.2209787,-28.6712887992045,0.0 -49.2207347,-28.6712922992045,0.0 -49.2205329,-28.6712701992045,0.0 -49.22034,-28.6712479992045,0.0 -49.2202434,-28.6712309992045,0.0 -49.2201324,-28.6712228992045,0.0 -49.2200186,-28.6711954992045,0.0 -49.2200164,-28.6711948992045,0.0 -49.2198801,-28.6711589992045,0.0 -49.2197278,-28.6711360992045,0.0 -49.2195836,-28.6711176992045,0.0 -49.2193135,-28.6710758992045,0.0 -49.2190724,-28.6710696992045,0.0 -49.2189538,-28.6710860992045,0.0 -49.2188736,-28.6710758992045,0.0 -49.2186569,-28.6710323992045,0.0 -49.2184083,-28.6710073992045,0.0 -49.2182014,-28.6709921992045,0.0 -49.2181139,-28.6709810992045,0.0 -49.2180036,-28.6709612992045,0.0 -49.2178984,-28.6709452992045,0.0 -49.2177228,-28.6709112992045,0.0 -49.2174636,-28.6709029992045,0.0 -49.2172237,-28.6708600992045,0.0 -49.2169666,-28.6708346992045,0.0 -49.2167635,-28.6708059992045,0.0 -49.216727,-28.6708034992045,0.0 -49.216568,-28.6707924992045,0.0 -49.2163341,-28.6707658992045,0.0 -49.2161671,-28.6707573992045,0.0 -49.2160654,-28.6707376992045,0.0 -49.2158905,-28.6707071992045,0.0 -49.2157792,-28.6707121992045,0.0 -49.2155126,-28.6707416992045,0.0 -49.215365,-28.6707686992045,0.0 -49.2152329,-28.6708058992045,0.0 -49.2151693,-28.6708120992045,0.0 -49.2151673,-28.6708114992045,0.0 -49.2151503,-28.6708068992045,0.0 -49.2151378,-28.6707879992045,0.0 -49.2151361,-28.6707741992045,0.0 -49.2151438,-28.6707414992045,0.0 -49.2151611,-28.6706939992045,0.0 -49.2151601,-28.6706642992045,0.0 -49.2151515,-28.6706404992045,0.0 -49.2151095,-28.6706033992045,0.0 -49.2150877,-28.6705958992045,0.0 -49.2150601,-28.6705962992045,0.0 -49.2150113,-28.6706061992045,0.0 -49.2148509,-28.6706288992045,0.0 -49.2148014,-28.6706349992045,0.0 -49.2147765,-28.6706352992045,0.0 -49.2147534,-28.6706351992045,0.0 -49.2147429,-28.6706346992045,0.0 -49.214698,-28.6706250992045,0.0 -49.2146593,-28.6706131992045,0.0 -49.2146248,-28.6706041992045,0.0 -49.214515,-28.6705935992045,0.0 -49.2144687,-28.6705881992045,0.0 -49.2144044,-28.6705795992045,0.0 -49.2143594,-28.6705716992045,0.0 -49.2143079,-28.6705584992045,0.0 -49.2142453,-28.6705422992045,0.0 -49.2141959,-28.6705352992045,0.0 -49.2141298,-28.6705342992045,0.0 -49.214078,-28.6705348992045,0.0 -49.2139976,-28.6705389992045,0.0 -49.2138576,-28.6705460992045,0.0 -49.2137842,-28.6705490992045,0.0 -49.2137151,-28.6705610992045,0.0 -49.2136541,-28.6705748992045,0.0 -49.2134942,-28.6706112992045,0.0 -49.2131488,-28.6706864992045,0.0 -49.2130919,-28.6707035992045,0.0 -49.2129948,-28.6707291992045,0.0 -49.2128996,-28.6707634992045,0.0 -49.2128249,-28.6707963992045,0.0 -49.2127432,-28.6708397992045,0.0 -49.2124442,-28.6709884992045,0.0 -49.2123716,-28.6710269992045,0.0 -49.212319,-28.6710573992045,0.0 -49.2122865,-28.6710792992045,0.0 -49.2122504,-28.6711104992045,0.0 -49.2122087,-28.6711501992045,0.0 -49.2119005,-28.6714650992045,0.0 -49.2114609,-28.6719753992045,0.0 -49.2113235,-28.6721138992045,0.0 -49.2112581,-28.6721796992045,0.0 -49.2112185,-28.6722151992045,0.0 -49.2111858,-28.6722380992045,0.0 -49.211136,-28.6722663992045,0.0 -49.2110913,-28.6722852992045,0.0 -49.2110481,-28.6723027992045,0.0 -49.2110029,-28.6723324992045,0.0 -49.2109859,-28.6723539992045,0.0 -49.2109606,-28.6723989992045,0.0 -49.21088,-28.6724950992045,0.0 -49.2108376,-28.6725206992045,0.0 -49.2107943,-28.6725480992045,0.0 -49.2107278,-28.6725852992045,0.0 -49.2104042,-28.6727382992045,0.0 -49.2102916,-28.6727879992045,0.0 -49.2102295,-28.6728159992045,0.0 -49.2101572,-28.6728754992045,0.0 -49.2101257,-28.6728800992045,0.0 -49.2095693,-28.6731481992045,0.0 -49.2093458,-28.6732658992045,0.0 -49.209065,-28.6734137992045,0.0 -49.2087057,-28.6736056992045,0.0 -49.2085621,-28.6736765992045,0.0 -49.2084205,-28.6737464992045,0.0 -49.2083354,-28.6737899992045,0.0 -49.2083006,-28.6738077992045,0.0 -49.2069922,-28.6744541992045,0.0 -49.2048995,-28.6755007992044,0.0 -49.2036913,-28.6761391992044,0.0 -49.2034493,-28.6762533992044,0.0 -49.2033596,-28.6762863992044,0.0 -49.2033043,-28.6763013992044,0.0 -49.2031968,-28.6763350992044,0.0 -49.2031404,-28.6763560992044,0.0 -49.2031014,-28.6763780992044,0.0 -49.2030624,-28.6764000992044,0.0 -49.2029782,-28.6764552992044,0.0 -49.2028879,-28.6765191992044,0.0 -49.2027551,-28.6765922992044,0.0 -49.2025984,-28.6766672992044,0.0 -49.2014178,-28.6771612992044,0.0 -49.2013709,-28.6771851992044,0.0 -49.2012783,-28.6772377992044,0.0 -49.2011595,-28.6773110992044,0.0 -49.2009684,-28.6774029992044,0.0 -49.2007922,-28.6774655992044,0.0 -49.2006429,-28.6775176992044,0.0 -49.2004373,-28.6776167992044,0.0 -49.2001643,-28.6777566992044,0.0 -49.1998557,-28.6779148992044,0.0 -49.1995955,-28.6780509992044,0.0 -49.199518,-28.6780999992044,0.0 -49.1994676,-28.6781359992044,0.0 -49.1994187,-28.6781694992044,0.0 -49.1993536,-28.6782248992044,0.0 -49.1992611,-28.6783080992044,0.0 -49.1991633,-28.6783775992044,0.0 -49.198876,-28.6786146992044,0.0 -49.1986886,-28.6787973992044,0.0 -49.1986206,-28.6788636992044,0.0 -49.1986059,-28.6788802992044,0.0 -49.1985678,-28.6789230992044,0.0 -49.1985312,-28.6789655992044,0.0 -49.1983552,-28.6791689992044,0.0 -49.1981602,-28.6794200992044,0.0 -49.197674,-28.6800124992043,0.0 -49.1967947,-28.6810832992043,0.0 -49.1966215,-28.6812871992043,0.0 -49.1959611,-28.6820646992043,0.0 -49.195946,-28.6820823992043,0.0 -49.1957751,-28.6822818992043,0.0 -49.1957277,-28.6823390992043,0.0 -49.1956849,-28.6824061992043,0.0 -49.1956234,-28.6824826992043,0.0 -49.195574,-28.6825346992043,0.0 -49.1953528,-28.6827756992043,0.0 -49.194923,-28.6833119992043,0.0 -49.1947924,-28.6834484992043,0.0 -49.1946678,-28.6835740992043,0.0 -49.1945592,-28.6836801992043,0.0 -49.1944655,-28.6837570992043,0.0 -49.1943752,-28.6838178992043,0.0 -49.1941442,-28.6839370992043,0.0 -49.193831,-28.6840801992043,0.0 -49.1937229,-28.6841257992043,0.0 -49.1936449,-28.6841534992043,0.0 -49.1932778,-28.6842544992043,0.0 -49.1931665,-28.6842850992043,0.0 -49.1930992,-28.6843020992043,0.0 -49.1928967,-28.6843112992043,0.0 -49.192685,-28.6843103992043,0.0 -49.1923237,-28.6842855992043,0.0 -49.1919392,-28.6842370992043,0.0 -49.1916513,-28.6841763992043,0.0 -49.1913727,-28.6840572992043,0.0 -49.1910807,-28.6839078992043,0.0 -49.1907781,-28.6837527992043,0.0 -49.1903877,-28.6835403992043,0.0 -49.1901001,-28.6833606992043,0.0 -49.1898859,-28.6832624992043,0.0 -49.1895771,-28.6831245992043,0.0 -49.1892557,-28.6830067992043,0.0 -49.1890109,-28.6829171992043,0.0 -49.1889399,-28.6828800992043,0.0 -49.1888908,-28.6828738992043,0.0 -49.1888664,-28.6828815992043,0.0 -49.1888488,-28.6828941992043,0.0 -49.1888256,-28.6829145992043,0.0 -49.1885051,-28.6832320992043,0.0 -49.1881511,-28.6835674992043,0.0 -49.1876802,-28.6840263992043,0.0 -49.1875001,-28.6841754992043,0.0 -49.1871928,-28.6844767992043,0.0 -49.1870483,-28.6846249992043,0.0 -49.1869531,-28.6846996992043,0.0 -49.1866024,-28.6849055992043,0.0 -49.1859001,-28.6853188992043,0.0 -49.1854685,-28.6855989992042,0.0 -49.1850775,-28.6858343992043,0.0 -49.1850407,-28.6858739992043,0.0 -49.1850114,-28.6858923992042,0.0 -49.1849544,-28.6859179992042,0.0 -49.1849027,-28.6859231992043,0.0 -49.1841865,-28.6854786992043,0.0 -49.1837183,-28.6852118992043,0.0 -49.1833809,-28.6849910992043,0.0 -49.1829327,-28.6847782992043,0.0 -49.1825694,-28.6845674992043,0.0 -49.1820669,-28.6843032992043,0.0 -49.1817046,-28.6841083992043,0.0 -49.1812752,-28.6839357992043,0.0 -49.1810522,-28.6838586992043,0.0 -49.1806928,-28.6837522992043,0.0 -49.1803108,-28.6836770992043,0.0 -49.1799543,-28.6836207992043,0.0 -49.1797256,-28.6835991992043,0.0 -49.1792388,-28.6835842992043,0.0 -49.1787851,-28.6836028992043,0.0 -49.1784037,-28.6836327992043,0.0 -49.177667,-28.6837323992043,0.0 -49.1773336,-28.6838225992043,0.0 -49.1769403,-28.6839450992043,0.0 -49.1767686,-28.6840086992043,0.0 -49.1763949,-28.6842103992043,0.0 -49.1762698,-28.6842827992043,0.0 -49.1761326,-28.6843777992043,0.0 -49.1760271,-28.6844657992043,0.0 -49.1759662,-28.6845351992043,0.0 -49.1759166,-28.6849346992043,0.0 -49.1758921,-28.6852220992043,0.0 -49.1758874,-28.6856001992043,0.0 -49.1758801,-28.6857965992043,0.0 -49.1758343,-28.6860671992043,0.0 -49.1757797,-28.6862869992042,0.0 -49.1756853,-28.6865243992042,0.0 -49.175515,-28.6868735992042,0.0 -49.1754538,-28.6870199992042,0.0 -49.1753552,-28.6872926992042,0.0 -49.175264,-28.6875768992042,0.0 -49.1751576,-28.6878348992042,0.0 -49.1747159,-28.6888938992042,0.0 -49.1744153,-28.6895370992042,0.0 -49.1739663,-28.6906528992042,0.0 -49.1735649,-28.6916869992041,0.0 -49.1727961,-28.6937075992041,0.0 -49.1726533,-28.6941770992041,0.0 -49.1726192,-28.6946396992041,0.0 -49.1727621,-28.6954832992041,0.0 -49.1734561,-28.6971773992041,0.0 -49.1738268,-28.697959999204,0.0 -49.1739767,-28.698357499204,0.0 -49.1741078,-28.698688399204,0.0 -49.1742415,-28.699134799204,0.0 -49.1743448,-28.699484599204,0.0 -49.1743913,-28.699623099204,0.0 -49.1745326,-28.699948199204,0.0 -49.1748302,-28.700489799204,0.0 -49.1748826,-28.700630799204,0.0 -49.1749353,-28.700862399204,0.0 -49.1750045,-28.701056999204,0.0 -49.1751763,-28.701410799204,0.0 -49.175255,-28.701619399204,0.0 -49.1753708,-28.701941799204,0.0 -49.1754848,-28.702257699204,0.0 -49.1756226,-28.702652499204,0.0 -49.1757457,-28.7029068992039,0.0 -49.1758897,-28.7032844992039,0.0 -49.1760602,-28.7037340992039,0.0 -49.1762157,-28.7042454992039,0.0 -49.1764513,-28.7047569992039,0.0 -49.1765729,-28.7050976992039,0.0 -49.1766436,-28.7052789992039,0.0 -49.1767189,-28.7054717992039,0.0 -49.1768369,-28.7057861992039,0.0 -49.1769366,-28.7060166992039,0.0 -49.1770096,-28.7062129992039,0.0 -49.1771205,-28.7064857992039,0.0 -49.1771975,-28.7066677992039,0.0 -49.1772537,-28.7069200992039,0.0 -49.1773464,-28.7072183992039,0.0 -49.177496,-28.7075046992039,0.0 -49.1776269,-28.7077572992039,0.0 -49.1777327,-28.7080903992039,0.0 -49.177841,-28.7083351992039,0.0 -49.1779654,-28.7087692992039,0.0 -49.1779754,-28.7088023992038,0.0 -49.1779855,-28.7088321992038,0.0 -49.1779934,-28.7088519992038,0.0 -49.1780022,-28.7088711992038,0.0 -49.1780405,-28.7089459992038,0.0 -49.178138,-28.7091478992038,0.0 -49.1781623,-28.7092005992038,0.0 -49.1781814,-28.7092468992038,0.0 -49.1781972,-28.7092904992038,0.0 -49.1782087,-28.7093276992038,0.0 -49.1782322,-28.7094297992038,0.0 -49.1782422,-28.7094676992038,0.0 -49.1782514,-28.7094990992038,0.0 -49.1782845,-28.7095926992038,0.0 -49.1783325,-28.7097290992038,0.0 -49.1783486,-28.7097728992038,0.0 -49.1783649,-28.7098144992038,0.0 -49.1784593,-28.7100428992038,0.0 -49.1785336,-28.7102277992038,0.0 -49.1785765,-28.7103389992038,0.0 -49.1786114,-28.7104321992038,0.0 -49.1786294,-28.7104820992038,0.0 -49.1786445,-28.7105278992038,0.0 -49.1786866,-28.7106658992038,0.0 -49.1787075,-28.7107385992038,0.0 -49.1787281,-28.7107998992038,0.0 -49.1787417,-28.7108614992038,0.0 -49.1787475,-28.7109061992038,0.0 -49.1787548,-28.7109843992038,0.0 -49.1787621,-28.7110874992038,0.0 -49.1787671,-28.7111699992038,0.0 -49.17877,-28.7112680992038,0.0 -49.1787666,-28.7113371992038,0.0 -49.178759,-28.7113988992038,0.0 -49.178757,-28.7114130992038,0.0 -49.1787537,-28.7114698992038,0.0 -49.1787462,-28.7115366992038,0.0 -49.1787162,-28.7117258992038,0.0 -49.1786996,-28.7118349992038,0.0 -49.1786947,-28.7118574992038,0.0 -49.1786797,-28.7119134992038,0.0 -49.1786525,-28.7120056992038,0.0 -49.1786357,-28.7120915992038,0.0 -49.1786311,-28.7121112992038,0.0 -49.1786234,-28.7121392992038,0.0 -49.1786096,-28.7121825992038,0.0 -49.1785907,-28.7122356992038,0.0 -49.1785654,-28.7123028992038,0.0 -49.1785252,-28.7124043992038,0.0 -49.1785134,-28.7124366992038,0.0 -49.1784925,-28.7125044992038,0.0 -49.1784827,-28.7125437992038,0.0 -49.1784725,-28.7125904992038,0.0 -49.1784613,-28.7126470992038,0.0 -49.178432,-28.7128082992038,0.0 -49.1784146,-28.7129190992038,0.0 -49.1784101,-28.7129541992038,0.0 -49.1784063,-28.7130093992038,0.0 -49.1783939,-28.7131929992038,0.0 -49.1783884,-28.7132567992038,0.0 -49.1783751,-28.7133499992038,0.0 -49.1783664,-28.7133984992038,0.0 -49.1783564,-28.7134463992038,0.0 -49.1783481,-28.7134794992038,0.0 -49.1783162,-28.7135951992038,0.0 -49.1782993,-28.7136510992038,0.0 -49.1782794,-28.7137079992037,0.0 -49.1782372,-28.7138133992038,0.0 -49.1782086,-28.7138910992038,0.0 -49.1781917,-28.7139414992038,0.0 -49.1781814,-28.7139744992038,0.0 -49.1781584,-28.7140546992038,0.0 -49.1781193,-28.7142020992037,0.0 -49.1781051,-28.7142558992037,0.0 -49.1780775,-28.7143659992037,0.0 -49.1780606,-28.7144395992037,0.0 -49.178018,-28.7146347992037,0.0 -49.1779602,-28.7148735992037,0.0 -49.177924,-28.7150336992037,0.0 -49.1779109,-28.7150882992037,0.0 -49.1778933,-28.7151549992037,0.0 -49.1778306,-28.7153776992037,0.0 -49.1778111,-28.7154513992037,0.0 -49.1777943,-28.7155187992037,0.0 -49.1777737,-28.7156057992037,0.0 -49.1777429,-28.7157410992037,0.0 -49.1777307,-28.7157992992037,0.0 -49.1777067,-28.7159224992037,0.0 -49.1776851,-28.7160180992037,0.0 -49.1776543,-28.7161411992037,0.0 -49.1776106,-28.7162989992037,0.0 -49.1775848,-28.7164048992037,0.0 -49.1775761,-28.7164405992037,0.0 -49.177569,-28.7164786992037,0.0 -49.1775585,-28.7165432992037,0.0 -49.1775117,-28.7168712992037,0.0 -49.1774934,-28.7169888992037,0.0 -49.1774805,-28.7170666992037,0.0 -49.1774605,-28.7171781992037,0.0 -49.1774471,-28.7172468992037,0.0 -49.1774336,-28.7173113992037,0.0 -49.1774134,-28.7174016992037,0.0 -49.1773929,-28.7174865992037,0.0 -49.1773792,-28.7175400992037,0.0 -49.1773591,-28.7176138992037,0.0 -49.177328,-28.7177149992037,0.0 -49.1772931,-28.7178200992037,0.0 -49.1772375,-28.7180021992037,0.0 -49.1770908,-28.7184397992037,0.0 -49.1770604,-28.7185458992037,0.0 -49.1770381,-28.7186449992037,0.0 -49.1770174,-28.7187573992037,0.0 -49.176986,-28.7189468992037,0.0 -49.1769395,-28.7192393992037,0.0 -49.1769288,-28.7193013992037,0.0 -49.1769175,-28.7193614992037,0.0 -49.1769043,-28.7194250992037,0.0 -49.1768896,-28.7194921992037,0.0 -49.1767869,-28.7199489992037,0.0 -49.176718,-28.7202402992036,0.0 -49.1765241,-28.7210389992036,0.0 -49.1764815,-28.7212191992036,0.0 -49.1764274,-28.7214538992036,0.0 -49.1763794,-28.7216473992036,0.0 -49.1763529,-28.7217434992036,0.0 -49.1763259,-28.7218361992036,0.0 -49.1762571,-28.7220639992036,0.0 -49.1762341,-28.7221433992036,0.0 -49.1762118,-28.7222286992036,0.0 -49.176203,-28.7222668992036,0.0 -49.1761924,-28.7223194992036,0.0 -49.1761871,-28.7223516992036,0.0 -49.176183,-28.7223815992036,0.0 -49.1761776,-28.7224364992036,0.0 -49.1761709,-28.7225380992036,0.0 -49.1761696,-28.7225755992036,0.0 -49.1761692,-28.7226109992036,0.0 -49.1761696,-28.7226668992036,0.0 -49.1761722,-28.7227336992036,0.0 -49.1761741,-28.7227633992036,0.0 -49.1761776,-28.7227975992036,0.0 -49.1761811,-28.7228229992036,0.0 -49.1761915,-28.7228832992036,0.0 -49.1762078,-28.7229615992036,0.0 -49.1762266,-28.7230385992036,0.0 -49.1762542,-28.7231371992036,0.0 -49.1762907,-28.7232558992036,0.0 -49.1763323,-28.7233821992036,0.0 -49.1763829,-28.7235239992036,0.0 -49.1764593,-28.7237194992036,0.0 -49.1764868,-28.7237849992036,0.0 -49.1765141,-28.7238476992036,0.0 -49.1765416,-28.7239073992036,0.0 -49.1765694,-28.7239643992036,0.0 -49.1765977,-28.7240184992036,0.0 -49.1766269,-28.7240700992036,0.0 -49.1766572,-28.7241193992036,0.0 -49.1766889,-28.7241667992036,0.0 -49.1767227,-28.7242129992036,0.0 -49.176741,-28.7242364992036,0.0 -49.1767823,-28.7242863992036,0.0 -49.1768527,-28.7243659992036,0.0 -49.1768603,-28.7243744992036,0.0 -49.1770761,-28.7246084992036,0.0 -49.177123,-28.7246609992036,0.0 -49.1771522,-28.7246926992036,0.0 -49.1771888,-28.7247339992036,0.0 -49.1772586,-28.7248150992036,0.0 -49.177292,-28.7248550992036,0.0 -49.1773442,-28.7249194992036,0.0 -49.1773702,-28.7249464992036,0.0 -49.1774421,-28.7250314992036,0.0 -49.1774854,-28.7250854992036,0.0 -49.1775318,-28.7251442992036,0.0 -49.17758,-28.7252057992036,0.0 -49.1776287,-28.7252681992036,0.0 -49.1776766,-28.7253291992035,0.0 -49.1777229,-28.7253874992035,0.0 -49.1776682,-28.7255417992035,0.0 -49.1775761,-28.7257973992035,0.0 -49.1775738,-28.7259610992035,0.0 -49.1775381,-28.7263972992035,0.0 -49.1775138,-28.7267813992035,0.0 -49.177521,-28.7271756992035,0.0 -49.1775228,-28.7272691992035,0.0 -49.1776133,-28.7275394992035,0.0 -49.1777405,-28.7277103992035,0.0 -49.177822,-28.7278219992035,0.0 -49.1779235,-28.7278818992035,0.0 -49.1779951,-28.7279206992035,0.0 -49.1780351,-28.7279422992035,0.0 -49.1781896,-28.7279653992035,0.0 -49.1784078,-28.7278870992035,0.0 -49.1785686,-28.7277596992035,0.0 -49.1787468,-28.7275851992035,0.0 -49.1789202,-28.7276039992035,0.0 -49.1790886,-28.7276717992035,0.0 -49.1792267,-28.7278295992035,0.0 -49.1793639,-28.7279703992035,0.0 -49.1795166,-28.7279752992035,0.0 -49.1797686,-28.7279833992035,0.0 -49.1799894,-28.7278798992035,0.0 -49.1801407,-28.7277372992035,0.0 -49.1803602,-28.7276220992035,0.0 -49.1805225,-28.7275428992035,0.0 -49.1806268,-28.7274263992035,0.0 -49.180817,-28.7273585992035,0.0 -49.1810712,-28.7274208992035,0.0 -49.181141,-28.7274366992035,0.0 -49.1812142,-28.7274512992035,0.0 -49.181278,-28.7274620992035,0.0 -49.1813651,-28.7274735992035,0.0 -49.1813853,-28.7274772992035,0.0 -49.1814092,-28.7274831992035,0.0 -49.1814581,-28.7274983992035,0.0 -49.1815268,-28.7275228992035,0.0 -49.1816278,-28.7275611992035,0.0 -49.1817537,-28.7276118992035,0.0 -49.1817946,-28.7276259992035,0.0 -49.1818375,-28.7276395992035,0.0 -49.1818885,-28.7276528992035,0.0 -49.1819301,-28.7276620992035,0.0 -49.1819777,-28.7276711992035,0.0 -49.1820295,-28.7276795992035,0.0 -49.1820833,-28.7276862992035,0.0 -49.1821103,-28.7276887992035,0.0 -49.1821638,-28.7276916992035,0.0 -49.1822173,-28.7276928992035,0.0 -49.1823289,-28.7276937992035,0.0 -49.1824186,-28.7276966992035,0.0 -49.1825306,-28.7277023992035,0.0 -49.1826455,-28.7277097992035,0.0 -49.1827124,-28.7277160992035,0.0 -49.1827945,-28.7277260992035,0.0 -49.1828634,-28.7277361992035,0.0 -49.1829608,-28.7277530992035,0.0 -49.1830377,-28.7277679992035,0.0 -49.1831456,-28.7277900992035,0.0 -49.1833415,-28.7278323992035,0.0 -49.1834749,-28.7278611992035,0.0 -49.1836314,-28.7278930992035,0.0 -49.1837798,-28.7279213992035,0.0 -49.1839486,-28.7279520992035,0.0 -49.1840717,-28.7279737992035,0.0 -49.1843244,-28.7280171992035,0.0 -49.1843776,-28.7280275992035,0.0 -49.1844203,-28.7280372992035,0.0 -49.1844542,-28.7280463992035,0.0 -49.1844898,-28.7280580992035,0.0 -49.1845212,-28.7280711992035,0.0 -49.1845466,-28.7280835992035,0.0 -49.1845884,-28.7281068992035,0.0 -49.1846284,-28.7281314992035,0.0 -49.1846738,-28.7281615992035,0.0 -49.1847054,-28.7281839992035,0.0 -49.1847369,-28.7282076992035,0.0 -49.1847671,-28.7282314992035,0.0 -49.1848071,-28.7282647992035,0.0 -49.1848375,-28.7282915992035,0.0 -49.1848596,-28.7283126992035,0.0 -49.184878,-28.7283319992035,0.0 -49.184903,-28.7283600992035,0.0 -49.1849229,-28.7283840992035,0.0 -49.1849439,-28.7284110992035,0.0 -49.184968,-28.7284441992035,0.0 -49.184998,-28.7284879992035,0.0 -49.1850358,-28.7285455992035,0.0 -49.1850793,-28.7286139992035,0.0 -49.1851097,-28.7286632992035,0.0 -49.1852109,-28.7288336992035,0.0 -49.1852458,-28.7288907992035,0.0 -49.185284,-28.7289489992035,0.0 -49.1853095,-28.7289849992035,0.0 -49.1853266,-28.7290080992035,0.0 -49.1853556,-28.7290449992035,0.0 -49.1853791,-28.7290733992035,0.0 -49.1854387,-28.7291430992035,0.0 -49.1855121,-28.7292255992035,0.0 -49.1856741,-28.7294026992035,0.0 -49.185801,-28.7295504992035,0.0 -49.1858435,-28.7295992992035,0.0 -49.1858845,-28.7296461992035,0.0 -49.1859371,-28.7297054992035,0.0 -49.185967,-28.7297378992035,0.0 -49.1859888,-28.7297601992035,0.0 -49.1860731,-28.7298426992035,0.0 -49.1861176,-28.7298849992035,0.0 -49.1861373,-28.7299028992035,0.0 -49.1861764,-28.7299349992035,0.0 -49.1862688,-28.7300058992035,0.0 -49.1865829,-28.7302760992035,0.0 -49.1866495,-28.7303354992035,0.0 -49.1866931,-28.7303770992035,0.0 -49.1867309,-28.7304162992035,0.0 -49.1867715,-28.7304621992035,0.0 -49.1868008,-28.7304985992035,0.0 -49.1868333,-28.7305434992035,0.0 -49.1868786,-28.7306105992035,0.0 -49.1869002,-28.7306451992035,0.0 -49.1869229,-28.7306855992034,0.0 -49.18694,-28.7307188992035,0.0 -49.1869562,-28.7307533992035,0.0 -49.1870209,-28.7309051992035,0.0 -49.187075,-28.7310249992035,0.0 -49.1871171,-28.7311073992035,0.0 -49.1871407,-28.7311480992035,0.0 -49.1871637,-28.7311842992034,0.0 -49.1872144,-28.7312601992035,0.0 -49.187241,-28.7313031992035,0.0 -49.1872696,-28.7313474992034,0.0 -49.1872935,-28.7313888992035,0.0 -49.187301,-28.7314018992034,0.0 -49.1873345,-28.7314658992034,0.0 -49.1873997,-28.7315981992034,0.0 -49.1875001,-28.7317980992034,0.0 -49.1875451,-28.7318914992034,0.0 -49.1876723,-28.7321210992034,0.0 -49.1880184,-28.7328783992034,0.0 -49.1883174,-28.7333789992034,0.0 -49.188598,-28.7337100992034,0.0 -49.188902,-28.7340152992034,0.0 -49.1893649,-28.7343905992034,0.0 -49.1898116,-28.7346224992034,0.0 -49.1902294,-28.7347744992034,0.0 -49.1905117,-28.7348434992034,0.0 -49.1906944,-28.7348606992034,0.0 -49.19113,-28.7348625992034,0.0 -49.1921289,-28.7348512992034,0.0 -49.1924701,-28.7348971992034,0.0 -49.1929166,-28.7349862992034,0.0 -49.1931811,-28.7350663992034,0.0 -49.193254,-28.7351434992034,0.0 -49.1932915,-28.7352493992034,0.0 -49.193355,-28.7354602992034,0.0 -49.1934192,-28.7356388992034,0.0 -49.1934598,-28.7357964992034,0.0 -49.1935912,-28.7360009992034,0.0 -49.1939204,-28.7363465992034,0.0 -49.1941029,-28.7365417992034,0.0 -49.1943062,-28.7367257992034,0.0 -49.1951111,-28.7371881992033,0.0 -49.1966598,-28.7381444992033,0.0 -49.1968273,-28.7382974992033,0.0 -49.1973102,-28.7387383992033,0.0 -49.1975644,-28.7390480992033,0.0 -49.1978941,-28.7396049992033,0.0 -49.1979633,-28.7397589992033,0.0 -49.1981378,-28.7402634992033,0.0 -49.198442,-28.7412244992033,0.0 -49.1987384,-28.7422058992033,0.0 -49.1989061,-28.7427206992033,0.0 -49.1990098,-28.7429241992032,0.0 -49.1991522,-28.7431120992032,0.0 -49.1994844,-28.7433857992032,0.0 -49.1998207,-28.7436420992032,0.0 -49.199993,-28.7438434992032,0.0 -49.2002134,-28.7442717992032,0.0 -49.2003893,-28.7446491992032,0.0 -49.2004093,-28.7448966992032,0.0 -49.2003877,-28.7455786992032,0.0 -49.2003791,-28.7456290992032,0.0 -49.2003839,-28.7457256992032,0.0 -49.2004042,-28.7458033992032,0.0 -49.2004298,-28.7458710992032,0.0 -49.2004766,-28.7459648992032,0.0 -49.2006112,-28.7461627992032,0.0 -49.2007861,-28.7463683992032,0.0 -49.201121,-28.7467128992032,0.0 -49.2015742,-28.7471937992032,0.0 -49.2019412,-28.7474715992032,0.0 -49.2020059,-28.7475053992032,0.0 -49.2021944,-28.7475554992032,0.0 -49.2023173,-28.7475615992032,0.0 -49.202373,-28.7475640992032,0.0 -49.2024313,-28.7475631992032,0.0 -49.2024936,-28.7475527992032,0.0 -49.2025097,-28.7475507992032,0.0 -49.2026979,-28.7475274992032,0.0 -49.2028323,-28.7475264992032,0.0 -49.2030047,-28.7475622992032,0.0 -49.20319,-28.7476280992032,0.0 -49.2032281,-28.7476415992032,0.0 -49.2034533,-28.7478113992032,0.0 -49.2035425,-28.7479079992032,0.0 -49.2035483,-28.7479328992031,0.0 -49.2035592,-28.7480564992032,0.0 -49.2035499,-28.7481485992031,0.0 -49.2035095,-28.7484022992031,0.0 -49.2035357,-28.7487098992031,0.0 -49.2035628,-28.7488475992031,0.0 -49.2036075,-28.7490745992031,0.0 -49.2036495,-28.7492548992031,0.0 -49.2036494,-28.7493207992031,0.0 -49.2036384,-28.7494253992031,0.0 -49.2035784,-28.7496862992031,0.0 -49.2034783,-28.7498630992031,0.0 -49.2033657,-28.7500026992031,0.0 -49.2032881,-28.7501471992031,0.0 -49.203183,-28.7502713992031,0.0 -49.2030376,-28.7504617992031,0.0 -49.2029614,-28.7505904992031,0.0 -49.2028481,-28.7507358992031,0.0 -49.2027538,-28.7508466992031,0.0 -49.2027448,-28.7508559992031,0.0 -49.2026775,-28.7509254992031,0.0 -49.2020595,-28.7513784992031,0.0 -49.2018413,-28.7515195992031,0.0 -49.2014894,-28.7517754992031,0.0 -49.2013636,-28.7518562992031,0.0 -49.2012295,-28.7519206992031,0.0 -49.2010711,-28.7519640992031,0.0 -49.200847,-28.7520143992031,0.0 -49.200699,-28.7520275992031,0.0 -49.2004292,-28.7520294992031,0.0 -49.200232,-28.7520299992031,0.0 -49.2000233,-28.7520530992031,0.0 -49.1998618,-28.7520935992031,0.0 -49.1994084,-28.7521950992031,0.0 -49.1991474,-28.7522920992031,0.0 -49.1986975,-28.7524836992031,0.0 -49.1984805,-28.7525888992031,0.0 -49.198373,-28.7526579992031,0.0 -49.1982189,-28.7527751992031,0.0 -49.1979473,-28.7530210992031,0.0 -49.1979001,-28.7530818992031,0.0 -49.19739,-28.7539370992031,0.0 -49.1972602,-28.754111599203,0.0 -49.1971225,-28.754272999203,0.0 -49.1965221,-28.754937999203,0.0 -49.1960297,-28.755496899203,0.0 -49.1958248,-28.755763099203,0.0 -49.1955564,-28.756118599203,0.0 -49.1954448,-28.756287099203,0.0 -49.1953693,-28.756405799203,0.0 -49.1953293,-28.756522599203,0.0 -49.1953996,-28.756638699203,0.0 -49.1954868,-28.756792599203,0.0 -49.1956839,-28.756861299203,0.0 -49.1960204,-28.756831199203,0.0 -49.196312,-28.756715899203,0.0 -49.1965589,-28.756596299203,0.0 -49.1967848,-28.756516699203,0.0 -49.1969719,-28.756476399203,0.0 -49.1972215,-28.756447999203,0.0 -49.1974467,-28.756397499203,0.0 -49.1976079,-28.756416099203,0.0 -49.197697,-28.756531699203,0.0 -49.197617,-28.756728099203,0.0 -49.1974128,-28.756860699203,0.0 -49.1971668,-28.757018599203,0.0 -49.1970516,-28.757268499203,0.0 -49.1968617,-28.757558999203,0.0 -49.1968064,-28.757730399203,0.0 -49.1967307,-28.757964899203,0.0 -49.1973315,-28.758225699203,0.0 -49.197864,-28.758453199203,0.0 -49.1981243,-28.758570099203,0.0 -49.198259,-28.758634899203,0.0 -49.1983891,-28.758751099203,0.0 -49.198661,-28.759021399203,0.0 -49.1988879,-28.759278399203,0.0 -49.1990801,-28.759456399203,0.0 -49.1991908,-28.759537499203,0.0 -49.1993055,-28.7595772992029,0.0 -49.1996032,-28.759654599203,0.0 -49.2001033,-28.759720899203,0.0 -49.2004626,-28.7597417992029,0.0 -49.2006827,-28.7597328992029,0.0 -49.2008397,-28.7596480992029,0.0 -49.2009004,-28.7595250992029,0.0 -49.2009133,-28.759453099203,0.0 -49.200922,-28.759338299203,0.0 -49.2008826,-28.759194299203,0.0 -49.2008419,-28.759033099203,0.0 -49.2007881,-28.758545299203,0.0 -49.2008044,-28.758376099203,0.0 -49.2008457,-28.758211599203,0.0 -49.2009845,-28.757918399203,0.0 -49.2011202,-28.757747599203,0.0 -49.2014785,-28.757377499203,0.0 -49.201735,-28.757202999203,0.0 -49.2018836,-28.757175999203,0.0 -49.2020442,-28.757170899203,0.0 -49.2021367,-28.757172099203,0.0 -49.2022103,-28.757202099203,0.0 -49.2022961,-28.757233999203,0.0 -49.2024788,-28.757375899203,0.0 -49.2028249,-28.757726999203,0.0 -49.2031502,-28.758082999203,0.0 -49.2035658,-28.758576499203,0.0 -49.20407,-28.759201999203,0.0 -49.2044103,-28.759538699203,0.0 -49.2050586,-28.7601439992029,0.0 -49.205732,-28.7608714992029,0.0 -49.2062153,-28.7615019992029,0.0 -49.2064623,-28.7618603992029,0.0 -49.2065329,-28.7619550992029,0.0 -49.2067985,-28.7623114992029,0.0 -49.2070982,-28.7627290992029,0.0 -49.2072163,-28.7629172992029,0.0 -49.2072478,-28.7630028992029,0.0 -49.2072508,-28.7633319992029,0.0 -49.2072442,-28.7635534992029,0.0 -49.2072433,-28.7637746992029,0.0 -49.207248,-28.7641086992029,0.0 -49.2072825,-28.7643571992029,0.0 -49.2073668,-28.7649194992029,0.0 -49.2074114,-28.7651815992028,0.0 -49.2074058,-28.7653863992028,0.0 -49.207385,-28.7655316992028,0.0 -49.2073405,-28.7657490992028,0.0 -49.2072638,-28.7659331992028,0.0 -49.2071694,-28.7660759992028,0.0 -49.207033,-28.7661766992028,0.0 -49.2068994,-28.7662305992028,0.0 -49.2065128,-28.7663749992028,0.0 -49.2063489,-28.7664123992028,0.0 -49.2059461,-28.7664537992028,0.0 -49.2055191,-28.7664786992028,0.0 -49.2049295,-28.7665409992028,0.0 -49.2045927,-28.7665975992028,0.0 -49.2041135,-28.7667337992028,0.0 -49.203939,-28.7668007992028,0.0 -49.2037588,-28.7669056992028,0.0 -49.2035556,-28.7670809992028,0.0 -49.203427,-28.7672007992028,0.0 -49.2032959,-28.7673747992028,0.0 -49.2032409,-28.7674987992028,0.0 -49.2032072,-28.7676549992028,0.0 -49.2031915,-28.7678154992028,0.0 -49.2031646,-28.7680297992028,0.0 -49.2031246,-28.7681433992028,0.0 -49.2030754,-28.7682159992028,0.0 -49.2027455,-28.7686940992028,0.0 -49.2022703,-28.7694328992028,0.0 -49.2022227,-28.7695339992028,0.0 -49.2021964,-28.7696757992028,0.0 -49.2021872,-28.7698438992028,0.0 -49.2021967,-28.7699787992028,0.0 -49.2022304,-28.7700716992028,0.0 -49.2023318,-28.7702607992028,0.0 -49.2023958,-28.7703454992028,0.0 -49.202491,-28.7704174992028,0.0 -49.2026972,-28.7705152992028,0.0 -49.2028603,-28.7705914992028,0.0 -49.2031778,-28.7707962992028,0.0 -49.203588,-28.7710827992027,0.0 -49.2036751,-28.7711798992027,0.0 -49.2037987,-28.7713254992027,0.0 -49.2039344,-28.7716090992027,0.0 -49.2040117,-28.7718225992027,0.0 -49.2040704,-28.7721485992027,0.0 -49.2040693,-28.7722927992027,0.0 -49.2040493,-28.7724161992027,0.0 -49.2039088,-28.7729061992027,0.0 -49.2038451,-28.7732105992027,0.0 -49.203838,-28.7736253992027,0.0 -49.2038695,-28.7740625992027,0.0 -49.2039066,-28.7743115992027,0.0 -49.2039306,-28.7744724992027,0.0 -49.2041467,-28.7752893992027,0.0 -49.2041668,-28.7753460992027,0.0 -49.2042234,-28.7755061992027,0.0 -49.2043367,-28.7757208992027,0.0 -49.2048028,-28.7763581992027,0.0 -49.2049886,-28.7765781992027,0.0 -49.2072775,-28.7747693992027,0.0 -49.2079307,-28.7742531992027,0.0 -49.2081983,-28.7740043992027,0.0 -49.2083427,-28.7737659992027,0.0 -49.208532,-28.7734822992027,0.0 -49.2086192,-28.7733113992027,0.0 -49.2090393,-28.7718225992027,0.0 -49.2095306,-28.7707908992028,0.0 -49.2103903,-28.7696610992028,0.0 -49.2110289,-28.7692188992028,0.0 -49.2116455,-28.7690819992028,0.0 -49.2121262,-28.7691951992028,0.0 -49.2125516,-28.7691505992028,0.0 -49.2130939,-28.7690776992028,0.0 -49.2133119,-28.7690483992028,0.0 -49.2137177,-28.7690059992028,0.0 -49.2142242,-28.7691560992028,0.0 -49.2151554,-28.7696610992028,0.0 -49.2158134,-28.7702816992028,0.0 -49.2163004,-28.7707859992028,0.0 -49.2167524,-28.7712635992028,0.0 -49.2169196,-28.7714621992027,0.0 -49.2174272,-28.7718307992027,0.0 -49.2179947,-28.7720213992027,0.0 -49.2185645,-28.7721353992027,0.0 -49.2187575,-28.7722855992027,0.0 -49.2188931,-28.7725004992027,0.0 -49.218996,-28.7728402992027,0.0 -49.2191071,-28.7730654992027,0.0 -49.2193571,-28.7732755992027,0.0 -49.2196281,-28.7732975992027,0.0 -49.2201788,-28.7732817992027,0.0 -49.2205718,-28.7733039992027,0.0 -49.2208661,-28.7733109992027,0.0 -49.2212691,-28.7732898992027,0.0 -49.221717,-28.7731270992027,0.0 -49.2220787,-28.7729512992027,0.0 -49.2222694,-28.7728919992027,0.0 -49.2226526,-28.7729220992027,0.0 -49.2231382,-28.7732247992027,0.0 -49.2239039,-28.7734908992027,0.0 -49.2241636,-28.7736339992027,0.0 -49.2244891,-28.7740331992027,0.0 -49.2249067,-28.7746963992027,0.0 -49.225226,-28.7750893992027,0.0 -49.2259138,-28.7751875992027,0.0 -49.2268471,-28.7749910992027,0.0 -49.2271419,-28.7745980992027,0.0 -49.2275103,-28.7742296992027,0.0 -49.2278788,-28.7741559992027,0.0 -49.2280753,-28.7743770992027,0.0 -49.2283946,-28.7751384992027,0.0 -49.2287385,-28.7754577992027,0.0 -49.2290823,-28.7756051992027,0.0 -49.2294999,-28.7755805992027,0.0 -49.2304824,-28.7755805992027,0.0 -49.2310877,-28.7754438992027,0.0 -49.2312438,-28.7754086992027,0.0 -49.2318333,-28.7752366992027,0.0 -49.2324474,-28.7748928992027,0.0 -49.2328158,-28.7745489992027,0.0 -49.2331788,-28.7742767992027,0.0 -49.2332088,-28.7742541992027,0.0 -49.2336018,-28.7740331992027,0.0 -49.2340266,-28.7740103992027,0.0 -49.2341668,-28.7741805992027,0.0 -49.2344124,-28.7745980992027,0.0 -49.2347071,-28.7751875992027,0.0 -49.2350756,-28.7755560992027,0.0 -49.2357879,-28.7758507992027,0.0 -49.2362546,-28.7760472992026,0.0 -49.2368235,-28.7762353992027,0.0 -49.2371568,-28.7764114992027,0.0 -49.2375542,-28.7767464992026,0.0 -49.2379098,-28.7768342992027,0.0 -49.2385781,-28.7767950992026,0.0 -49.2388531,-28.7768251992026,0.0 -49.2393578,-28.7769672992026,0.0 -49.2401201,-28.7772510992026,0.0 -49.2404884,-28.7774822992026,0.0 -49.2409598,-28.7779288992026,0.0 -49.2416274,-28.7783989992026,0.0 -49.2418128,-28.7785664992026,0.0 -49.241824,-28.7785766992026,0.0 -49.2420313,-28.7787800992026,0.0 -49.2421641,-28.7789932992026,0.0 -49.2422347,-28.7794490992026,0.0 -49.2422952,-28.7797478992026,0.0 -49.2423442,-28.7802019992026,0.0 -49.2424483,-28.7806022992026,0.0 -49.2424961,-28.7812061992026,0.0 -49.2425478,-28.7814172992026,0.0 -49.2425038,-28.7817842992026,0.0 -49.24249,-28.7818986992026,0.0 -49.2424187,-28.7821448992025,0.0 -49.2423857,-28.7822590992026,0.0 -49.2423367,-28.7823252992026,0.0 -49.2422494,-28.7824433992025,0.0 -49.242214,-28.7824912992025,0.0 -49.2420006,-28.7827801992025,0.0 -49.2419157,-28.7831291992025,0.0 -49.2420455,-28.7840178992025,0.0 -49.241979,-28.7842213992025,0.0 -49.2418573,-28.7845334992025,0.0 -49.2417645,-28.7847293992025,0.0 -49.2416173,-28.7850909992025,0.0 -49.2416014,-28.7853435992025,0.0 -49.2416847,-28.7855351992025,0.0 -49.241915,-28.7856344992025,0.0 -49.2421066,-28.7858368992025,0.0 -49.2422937,-28.7860318992025,0.0 -49.2427959,-28.7864154992025,0.0 -49.2431496,-28.7867242992025,0.0 -49.2432943,-28.7869045992025,0.0 -49.2434033,-28.7870404992025,0.0 -49.2436128,-28.7873490992025,0.0 -49.2438276,-28.7876778992024,0.0 -49.2441025,-28.7880364992024,0.0 -49.2444543,-28.7882494992025,0.0 -49.2450392,-28.7885492992024,0.0 -49.2451443,-28.7887306992024,0.0 -49.2451105,-28.7893331992024,0.0 -49.245035,-28.7899678992024,0.0 -49.2450302,-28.7902852992024,0.0 -49.2451073,-28.7904614992024,0.0 -49.2452225,-28.7907565992024,0.0 -49.2452088,-28.7911426992024,0.0 -49.2450415,-28.7916599992024,0.0 -49.2450283,-28.7922012992024,0.0 -49.2451631,-28.7926088992024,0.0 -49.2453958,-28.7931830992024,0.0 -49.2454813,-28.7933941992024,0.0 -49.2459321,-28.7940262992023,0.0 -49.246324,-28.7942568992023,0.0 -49.2465946,-28.7945035992023,0.0 -49.2467676,-28.7947704992023,0.0 -49.2470564,-28.7951886992023,0.0 -49.2473536,-28.7955741992023,0.0 -49.2476856,-28.7957346992023,0.0 -49.2479821,-28.7957975992023,0.0 -49.248022,-28.7958060992023,0.0 -49.2486094,-28.7957026992023,0.0 -49.249121,-28.7954435992023,0.0 -49.2499096,-28.7954073992023,0.0 -49.2504239,-28.7954779992023,0.0 -49.2509269,-28.7956386992023,0.0 -49.2511942,-28.7957568992023,0.0 -49.2511865,-28.7960643992023,0.0 -49.2511195,-28.7967259992023,0.0 -49.2509822,-28.7976442992023,0.0 -49.2508457,-28.7984771992023,0.0 -49.2509117,-28.7985399992023,0.0 -49.2513343,-28.7989424992023,0.0 -49.2518851,-28.7997630992022,0.0 -49.2525832,-28.8008030992022,0.0 -49.2529231,-28.8013092992022,0.0 -49.2536407,-28.8024675992022,0.0 -49.2554074,-28.8037699992022,0.0 -49.255615,-28.8038517992022,0.0 -49.2575403,-28.8046099992021,0.0 -49.2580429,-28.8047417992021,0.0 -49.2586961,-28.8049131992022,0.0 -49.2588791,-28.8050961992022,0.0 -49.259428,-28.8053705992021,0.0 -49.2596567,-28.8055535992021,0.0 -49.2599769,-28.8057822992021,0.0 -49.2601599,-28.8056450992021,0.0 -49.2602056,-28.8056450992021,0.0 -49.2607088,-28.8057364992021,0.0 -49.260846,-28.8059194992021,0.0 -49.2610747,-28.8060109992021,0.0 -49.2616236,-28.8060566992021,0.0 -49.2619438,-28.8061481992021,0.0 -49.2621725,-28.8063311992021,0.0 -49.2623555,-28.8065598992021,0.0 -49.2625842,-28.8066055992021,0.0 -49.2625842,-28.8066970992021,0.0 -49.2625384,-28.8069715992021,0.0 -49.2628129,-28.8070172992021,0.0 -49.2631856,-28.8070586992021,0.0 -49.2632246,-28.8070630992021,0.0 -49.263499,-28.8072002992021,0.0 -49.2638192,-28.8072459992021,0.0 -49.2639564,-28.8074289992021,0.0 -49.2642766,-28.8076119992021,0.0 -49.2645968,-28.8078863992021,0.0 -49.2648255,-28.8081608992021,0.0 -49.2651914,-28.8082065992021,0.0 -49.26532,-28.8083094992021,0.0 -49.2654202,-28.8083895992021,0.0 -49.2660148,-28.8086182992021,0.0 -49.2664722,-28.8086639992021,0.0 -49.2667009,-28.8088469992021,0.0 -49.2668381,-28.8092586992021,0.0 -49.2668839,-28.8097160992021,0.0 -49.2670669,-28.8098532992021,0.0 -49.2673413,-28.8100362992021,0.0 -49.2680732,-28.8100819992021,0.0 -49.268805,-28.8101276992021,0.0 -49.2719612,-28.813100999202,0.0 -49.2726473,-28.813969999202,0.0 -49.273242,-28.814884899202,0.0 -49.2731962,-28.815799699202,0.0 -49.2731048,-28.816623099202,0.0 -49.2735693,-28.8168552992019,0.0 -49.2743855,-28.8172633992019,0.0 -49.2745914,-28.8173699992019,0.0 -49.276947,-28.8185898992019,0.0 -49.2771758,-28.8187728992019,0.0 -49.2774045,-28.8188186992019,0.0 -49.2776332,-28.8188643992019,0.0 -49.2777247,-28.8190015992019,0.0 -49.2777704,-28.8193217992019,0.0 -49.2776789,-28.8195047992019,0.0 -49.2778161,-28.8195962992019,0.0 -49.2780906,-28.8199164992019,0.0 -49.2784108,-28.8199621992019,0.0 -49.2784108,-28.8202365992019,0.0 -49.2786852,-28.8202823992019,0.0 -49.2788682,-28.8204195992019,0.0 -49.2790512,-28.8206482992019,0.0 -49.279249,-28.8206940992019,0.0 -49.2795086,-28.8206940992019,0.0 -49.2796001,-28.8206025992019,0.0 -49.279783,-28.8204653992019,0.0 -49.279966,-28.8204653992019,0.0 -49.2801032,-28.8205110992019,0.0 -49.2802862,-28.8206482992019,0.0 -49.280512,-28.8206940992019,0.0 -49.2806064,-28.8207397992019,0.0 -49.2808808,-28.8208312992019,0.0 -49.2808808,-28.8209618992019,0.0 -49.2808808,-28.8212807992019,0.0 -49.2808808,-28.8215631992019,0.0 -49.2810181,-28.8217918992019,0.0 -49.2810638,-28.8222034992018,0.0 -49.2811553,-28.8224321992018,0.0 -49.281201,-28.8227066992018,0.0 -49.2812468,-28.8228438992018,0.0 -49.2814755,-28.8228896992018,0.0 -49.281567,-28.8229353992018,0.0 -49.2817042,-28.8231640992018,0.0 -49.2817499,-28.8234472992018,0.0 -49.2817499,-28.8235757992018,0.0 -49.2817957,-28.8235757992018,0.0 -49.2818414,-28.8234385992018,0.0 -49.2819786,-28.8233927992018,0.0 -49.2822073,-28.8232555992018,0.0 -49.282436,-28.8232555992018,0.0 -49.2826987,-28.8232098992018,0.0 -49.2830789,-28.8232098992018,0.0 -49.2835338,-28.8232555992018,0.0 -49.2838998,-28.8231183992018,0.0 -49.2841285,-28.8230725992018,0.0 -49.2843115,-28.8231183992018,0.0 -49.2844944,-28.8231640992018,0.0 -49.2846774,-28.8232098992018,0.0 -49.2846774,-28.8233012992018,0.0 -49.2845402,-28.8234842992018,0.0 -49.2843572,-28.8234842992018,0.0 -49.2843115,-28.8236917992018,0.0 -49.2843572,-28.8243990992018,0.0 -49.2844944,-28.8244905992018,0.0 -49.2851805,-28.8245363992018,0.0 -49.285272,-28.8246735992018,0.0 -49.285272,-28.8248565992018,0.0 -49.2853635,-28.8248565992018,0.0 -49.2854093,-28.8251309992018,0.0 -49.2855007,-28.8255426992018,0.0 -49.2855465,-28.8258628992018,0.0 -49.2857294,-28.8260457992018,0.0 -49.2857294,-28.8265032992018,0.0 -49.2859124,-28.8266404992018,0.0 -49.2859124,-28.8267319992018,0.0 -49.2860039,-28.8269606992018,0.0 -49.2861869,-28.8271435992018,0.0 -49.2861869,-28.8274180992018,0.0 -49.2862783,-28.8274637992018,0.0 -49.2863241,-28.8276010992018,0.0 -49.2862326,-28.8276010992018,0.0 -49.2860954,-28.8276924992018,0.0 -49.2860954,-28.8280126992017,0.0 -49.2862326,-28.8281499992017,0.0 -49.2864156,-28.8282413992017,0.0 -49.2865528,-28.8283786992017,0.0 -49.2866443,-28.8286530992017,0.0 -49.2868272,-28.8288817992017,0.0 -49.2870102,-28.8289275992017,0.0 -49.2871017,-28.8291562992017,0.0 -49.2872389,-28.8292019992017,0.0 -49.2874676,-28.8292019992017,0.0 -49.2878793,-28.8294306992017,0.0 -49.2879708,-28.8296136992017,0.0 -49.2881538,-28.8297051992017,0.0 -49.2882452,-28.8297508992017,0.0 -49.2884739,-28.8298423992017,0.0 -49.2886112,-28.8302082992017,0.0 -49.2887484,-28.8302082992017,0.0 -49.2887941,-28.8304827992017,0.0 -49.2888856,-28.8305284992017,0.0 -49.2889314,-28.8306199992017,0.0 -49.2890228,-28.8306656992017,0.0 -49.2892248,-28.8308676992017,0.0 -49.2892516,-28.8308944992017,0.0 -49.289343,-28.8310773992017,0.0 -49.2896175,-28.8313060992017,0.0 -49.2900749,-28.8313518992017,0.0 -49.2904265,-28.8314890992017,0.0 -49.2908525,-28.8315347992017,0.0 -49.290944,-28.8317177992017,0.0 -49.2910812,-28.8321294992017,0.0 -49.2912642,-28.8324038992017,0.0 -49.2914929,-28.8325411992017,0.0 -49.2917673,-28.8326325992017,0.0 -49.2919961,-28.8330442992017,0.0 -49.2920418,-28.8333187992016,0.0 -49.2921333,-28.8334101992016,0.0 -49.2922248,-28.8336389992016,0.0 -49.292362,-28.8337761992016,0.0 -49.292545,-28.8338676992016,0.0 -49.2924992,-28.8340000992016,0.0 -49.2924535,-28.8342335992016,0.0 -49.2926364,-28.8343250992016,0.0 -49.2929109,-28.8344165992016,0.0 -49.2931396,-28.8343707992016,0.0 -49.2933226,-28.8344165992016,0.0 -49.2938257,-28.8344622992016,0.0 -49.2939629,-28.8345994992016,0.0 -49.294854,-28.8345994992016,0.0 -49.2951065,-28.8345537992016,0.0 -49.2953809,-28.8345994992016,0.0 -49.2955639,-28.8346909992016,0.0 -49.2957469,-28.8347367992016,0.0 -49.2958228,-28.8347557992016,0.0 -49.2959298,-28.8347824992016,0.0 -49.2960671,-28.8349196992016,0.0 -49.2962043,-28.8348739992016,0.0 -49.296433,-28.8346909992016,0.0 -49.2969362,-28.8346452992016,0.0 -49.2970734,-28.8347367992016,0.0 -49.2973936,-28.8348281992016,0.0 -49.297668,-28.8349196992016,0.0 -49.2977138,-28.8353313992016,0.0 -49.2977595,-28.8356972992016,0.0 -49.2978967,-28.8358345992016,0.0 -49.2980797,-28.8359259992016,0.0 -49.2980797,-28.8360632992016,0.0 -49.2983084,-28.8362461992016,0.0 -49.2984914,-28.8364748992016,0.0 -49.2985371,-28.8367493992016,0.0 -49.2985371,-28.8370237992016,0.0 -49.2983999,-28.8370695992016,0.0 -49.298184,-28.8370875992016,0.0 -49.297851,-28.8371152992016,0.0 -49.2977595,-28.8373439992016,0.0 -49.2975308,-28.8376184992016,0.0 -49.2975765,-28.8379930992016,0.0 -49.2975765,-28.8382874992016,0.0 -49.2975765,-28.8385790992016,0.0 -49.2977595,-28.8387619992016,0.0 -49.2978052,-28.8396363992015,0.0 -49.2977595,-28.8406373992015,0.0 -49.2977318,-28.8411246992015,0.0 -49.2977138,-28.8414426992015,0.0 -49.2978052,-28.8416894992015,0.0 -49.2979425,-28.8420096992015,0.0 -49.2985829,-28.8420553992015,0.0 -49.2987201,-28.8421011992015,0.0 -49.2988116,-28.8421925992015,0.0 -49.2990403,-28.8424670992015,0.0 -49.299086,-28.8424670992015,0.0 -49.2992232,-28.8425585992015,0.0 -49.2993605,-28.8427872992015,0.0 -49.2994062,-28.8429702992015,0.0 -49.2997721,-28.8429702992015,0.0 -49.2997721,-28.8431074992015,0.0 -49.2999551,-28.8433361992015,0.0 -49.3000923,-28.8434733992015,0.0 -49.3000466,-28.8437020992015,0.0 -49.3000466,-28.8442509992015,0.0 -49.2998636,-28.8443881992015,0.0 -49.2998179,-28.8444796992015,0.0 -49.2999094,-28.8447541992015,0.0 -49.3000008,-28.8449828992015,0.0 -49.3000923,-28.8449828992015,0.0 -49.3002296,-28.8451657992014,0.0 -49.300504,-28.8453945992014,0.0 -49.3005497,-28.8455317992014,0.0 -49.3008242,-28.8457604992014,0.0 -49.3009614,-28.8458976992014,0.0 -49.3012359,-28.8460348992014,0.0 -49.3014646,-28.8461721992014,0.0 -49.3016018,-28.8463550992014,0.0 -49.3017848,-28.8463550992014,0.0 -49.3019677,-28.8465380992014,0.0 -49.3020592,-28.8468582992014,0.0 -49.3020592,-28.8470412992014,0.0 -49.3022422,-28.8471326992014,0.0 -49.3024252,-28.8473156992014,0.0 -49.3025624,-28.8475443992014,0.0 -49.3027911,-28.8476358992014,0.0 -49.3032942,-28.8478645992014,0.0 -49.303523,-28.8479560992014,0.0 -49.3036602,-28.8480017992014,0.0 -49.3043463,-28.8483677992014,0.0 -49.3051239,-28.8487793992014,0.0 -49.3053069,-28.8489166992014,0.0 -49.3054441,-28.8490080992014,0.0 -49.3055356,-28.8489623992014,0.0 -49.3059015,-28.8489166992014,0.0 -49.3060845,-28.8487793992014,0.0 -49.3064047,-28.8487336992014,0.0 -49.3065876,-28.8487793992014,0.0 -49.3068621,-28.8490995992014,0.0 -49.3071823,-28.8492825992014,0.0 -49.307228,-28.8494272992014,0.0 -49.3071823,-28.8496484992014,0.0 -49.307411,-28.8497857992014,0.0 -49.3076397,-28.8499686992014,0.0 -49.3077769,-28.8501058992014,0.0 -49.3078684,-28.8501516992014,0.0 -49.3080971,-28.8502431992014,0.0 -49.3080971,-28.8503346992014,0.0 -49.3082343,-28.8503346992014,0.0 -49.3084173,-28.8505175992014,0.0 -49.308646,-28.8507462992014,0.0 -49.308829,-28.8507920992013,0.0 -49.308829,-28.8508835992013,0.0 -49.3091034,-28.8510207992013,0.0 -49.3094403,-28.8511579992013,0.0 -49.3096523,-28.8513866992013,0.0 -49.3099398,-28.8515238992013,0.0 -49.3100647,-28.8516153992013,0.0 -49.3102012,-28.8518440992013,0.0 -49.3104299,-28.8519813992013,0.0 -49.3105214,-28.8521185992013,0.0 -49.3107044,-28.8523014992013,0.0 -49.3109331,-28.8524844992013,0.0 -49.3110703,-28.8525759992013,0.0 -49.3111618,-28.8527131992013,0.0 -49.311482,-28.8529418992013,0.0 -49.3124941,-28.8530771992013,0.0 -49.3149588,-28.8542324992013,0.0 -49.3160095,-28.8544379992013,0.0 -49.3190594,-28.8550345992013,0.0 -49.3168485,-28.8572974992012,0.0 -49.3204065,-28.8589240992012,0.0 -49.3210892,-28.8592710992012,0.0 -49.3265176,-28.8620295992012,0.0 -49.3296186,-28.8649273992011,0.0 -49.3420304,-28.8593928992012,0.0 -49.3514917,-28.8551740992013,0.0 -49.3529215,-28.8280559992017,0.0 -49.353807,-28.811261399202,0.0 -49.3540818,-28.8060496992021,0.0 -49.3543538,-28.8003332992022,0.0 -49.3546349,-28.7955027992023,0.0 -49.3546561,-28.7951593992023,0.0 -49.3549225,-28.7908263992024,0.0 -49.3553004,-28.7854407992025,0.0 -49.3561996,-28.7698706992028,0.0 -49.3562437,-28.7691493992028,0.0 -49.3570883,-28.755330899203,0.0 -49.3354653,-28.754353799203,0.0 -49.3353006,-28.7531034992031,0.0 -49.3348799,-28.7494042992031,0.0 -49.3344319,-28.7454654992032,0.0 -49.3344068,-28.7452336992032,0.0 -49.3334642,-28.7365236992034,0.0 -49.3332379,-28.7346284992034,0.0 -49.3323298,-28.7268527992035,0.0 -49.3317471,-28.7215218992036,0.0 -49.3314068,-28.7185956992037,0.0 -49.331295,-28.7176339992037,0.0 -49.33129,-28.7174539992037,0.0 -49.331325,-28.7169899992037,0.0 -49.3313251,-28.7164464992037,0.0 -49.331318,-28.7160729992037,0.0 -49.331262,-28.7155299992037,0.0 -49.331235,-28.7153039992037,0.0 -49.331193,-28.7148739992037,0.0 -49.331068,-28.7137549992038,0.0 -49.3309327,-28.7131706992038,0.0 -49.3309269,-28.7131458992038,0.0 -49.330869,-28.7128959992038,0.0 -49.330752,-28.7127719992038,0.0 -49.330763,-28.7125449992038,0.0 -49.330825,-28.7122729992038,0.0 -49.330898,-28.7116509992038,0.0 -49.331112,-28.7110389992038,0.0 -49.331507,-28.7104599992038,0.0 -49.331685,-28.7100969992038,0.0 -49.3319787,-28.7086836992038,0.0 -49.3320034,-28.7085650992038,0.0 -49.3320949,-28.7082372992039,0.0 -49.3320924,-28.7081253992039,0.0 -49.3320825,-28.7076806992039,0.0 -49.3320034,-28.7041264992039,0.0 -49.3320018,-28.7040567992039,0.0 -49.332317,-28.700892599204,0.0 -49.3322785,-28.699424599204,0.0 -49.3323631,-28.697881499204,0.0 -49.332404,-28.697136599204,0.0 -49.3322989,-28.6924489992041,0.0 -49.3322658,-28.6921684992041,0.0 -49.3324006,-28.6898867992042,0.0 -49.332466,-28.6872246992042,0.0 -49.3324671,-28.6871799992042,0.0 -49.3326047,-28.6871853992042,0.0 -49.3326046,-28.6871703992042,0.0 -49.3326046,-28.6871621992042,0.0 -49.332613,-28.6847874992043,0.0 -49.3325561,-28.6837247992043,0.0 -49.332553,-28.6836659992043,0.0 -49.3325811,-28.6835814992043,0.0 -49.3326337,-28.6834231992043,0.0 -49.3325639,-28.6791948992044,0.0 -49.3324767,-28.6791875992044,0.0 -49.3324476,-28.6791851992044,0.0 -49.3319158,-28.6791308992044,0.0 -49.3313921,-28.6790711992044,0.0 -49.3304913,-28.6789735992044,0.0 -49.3300065,-28.6789880992044,0.0 -49.3299513,-28.6789897992044,0.0 -49.3293273,-28.6792123992044,0.0 -49.3285744,-28.6796067992044,0.0 -49.3276986,-28.6800600992044,0.0 -49.3266973,-28.6804927992043,0.0 -49.3260666,-28.6805291992043,0.0 -49.3259082,-28.6805382992043,0.0 -49.3255052,-28.6805043992043,0.0 -49.324207,-28.6803819992044,0.0 -49.3236987,-28.6803361992044,0.0 -49.3234653,-28.6802922992044,0.0 -49.3231267,-28.6802009992044,0.0 -49.3227939,-28.6800946992043,0.0 -49.3224888,-28.6799328992044,0.0 -49.3222838,-28.6797982992044,0.0 -49.3222264,-28.6797425992044,0.0 -49.3216444,-28.6791778992044,0.0 -49.3214537,-28.6790194992044,0.0 -49.3213105,-28.6789006992044,0.0 -49.3209447,-28.6787434992044,0.0 -49.320584,-28.6787739992044,0.0 -49.3201989,-28.6788426992044,0.0 -49.3200174,-28.6789665992044,0.0 -49.3193932,-28.6795787992044,0.0 -49.3189704,-28.6798518992044,0.0 -49.318761,-28.6799579992044,0.0 -49.318464,-28.6800299992044,0.0 -49.3179109,-28.6800837992043,0.0 -49.3174612,-28.6800652992044,0.0 -49.316936,-28.6798981992044,0.0 -49.3168871,-28.6798826992044,0.0 -49.3159718,-28.6794726992044,0.0 -49.3156107,-28.6792570992044,0.0 -49.315117,-28.6791013992044,0.0 -49.3150234,-28.6790718992044,0.0 -49.314628,-28.6790700992044,0.0 -49.3138435,-28.6790665992044,0.0 -49.3133882,-28.6789948992044,0.0 -49.3128708,-28.6788223992044,0.0 -49.3126801,-28.6787588992044,0.0 -49.31126,-28.6782910992044,0.0 -49.3108625,-28.6781916992044,0.0 -49.3105271,-28.6782082992044,0.0 -49.3098771,-28.6784773992044,0.0 -49.3094134,-28.6786470992044,0.0 -49.3089289,-28.6786470992044,0.0 -49.3086722,-28.6785849992044,0.0 -49.3081501,-28.6783784992044,0.0 -49.3071751,-28.6774382992044,0.0 -49.3069493,-28.6772624992044,0.0 -49.306684,-28.6771123992044,0.0 -49.3064235,-28.6770207992044,0.0 -49.3060891,-28.6769503992044,0.0 -49.3058204,-28.6769440992044,0.0 -49.3043904,-28.6769107992044,0.0 -49.3040521,-28.6770473992044,0.0 -49.3035809,-28.6772025992044,0.0 -49.3022283,-28.6777236992044,0.0 -49.3010642,-28.6779509992044,0.0 -49.3002548,-28.6780728992044,0.0 -49.2995175,-28.6782170992044,0.0 -49.2983813,-28.6784062992044,0.0</coordinates>
</LinearRing>
</outerBoundaryIs>
</Polygon>
</MultiGeometry>
</Placemark>
</Folder>
</Document></kml>
