<?xml version='1.0' encoding='UTF-8'?>
<kml xmlns:xsd="http://www.w3.org/2001/XMLSchema" xmlns:gx="http://www.google.com/kml/ext/2.2" xmlns:atom="http://www.w3.org/2005/Atom" xmlns="http://www.opengis.net/kml/2.2">
<Document>
<name>irati_4207858_localidades_2022</name>
<visibility>1</visibility>
<Schema name="Povoados" id="kml_schema_ft_Povoados">
<SimpleField type="xsd:string" name="CD_UF">
<displayName>CD_UF</displayName>
</SimpleField>
<SimpleField type="xsd:string" name="NM_UF">
<displayName>NM_UF</displayName>
</SimpleField>
<SimpleField type="xsd:string" name="SIGLA_UF">
<displayName>SIGLA_UF</displayName>
</SimpleField>
<SimpleField type="xsd:string" name="CD_MUN">
<displayName>CD_MUN</displayName>
</SimpleField>
<SimpleField type="xsd:string" name="NM_MUN">
<displayName>NM_MUN</displayName>
</SimpleField>
<SimpleField type="xsd:string" name="CD_RGINT">
<displayName>CD_RGINT</displayName>
</SimpleField>
<SimpleField type="xsd:string" name="NM_RGINT">
<displayName>NM_RGINT</displayName>
</SimpleField>
<SimpleField type="xsd:string" name="CD_RGI">
<displayName>CD_RGI</displayName>
</SimpleField>
<SimpleField type="xsd:string" name="NM_RGI">
<displayName>NM_RGI</displayName>
</SimpleField>
<SimpleField type="xsd:string" name="CT_LOCALIDADE">
<displayName>CT_LOCALIDADE</displayName>
</SimpleField>
<SimpleField type="xsd:string" name="CD_LOCALIDADE">
<displayName>CD_LOCALIDADE</displayName>
</SimpleField>
<SimpleField type="xsd:string" name="NM_LOCALIDADE">
<displayName>NM_LOCALIDADE</displayName>
</SimpleField>
<SimpleField type="xsd:string" name="LAT_LOCALIDADE">
<displayName>LAT_LOCALIDADE</displayName>
</SimpleField>
<SimpleField type="xsd:string" name="LONG_LOCALIDADE">
<displayName>LONG_LOCALIDADE</displayName>
</SimpleField>
</Schema>
<Schema name="01. Cidade" id="kml_schema_ft_01._Cidade">
<SimpleField type="xsd:string" name="CD_UF">
<displayName>CD_UF</displayName>
</SimpleField>
<SimpleField type="xsd:string" name="NM_UF">
<displayName>NM_UF</displayName>
</SimpleField>
<SimpleField type="xsd:string" name="SIGLA_UF">
<displayName>SIGLA_UF</displayName>
</SimpleField>
<SimpleField type="xsd:string" name="CD_MUN">
<displayName>CD_MUN</displayName>
</SimpleField>
<SimpleField type="xsd:string" name="NM_MUN">
<displayName>NM_MUN</displayName>
</SimpleField>
<SimpleField type="xsd:string" name="CD_RGINT">
<displayName>CD_RGINT</displayName>
</SimpleField>
<SimpleField type="xsd:string" name="NM_RGINT">
<displayName>NM_RGINT</displayName>
</SimpleField>
<SimpleField type="xsd:string" name="CD_RGI">
<displayName>CD_RGI</displayName>
</SimpleField>
<SimpleField type="xsd:string" name="NM_RGI">
<displayName>NM_RGI</displayName>
</SimpleField>
<SimpleField type="xsd:string" name="CT_LOCALIDADE">
<displayName>CT_LOCALIDADE</displayName>
</SimpleField>
<SimpleField type="xsd:string" name="SCT_LOCALIDADE">
<displayName>SCT_LOCALIDADE</displayName>
</SimpleField>
<SimpleField type="xsd:string" name="CD_LOCALIDADE">
<displayName>CD_LOCALIDADE</displayName>
</SimpleField>
<SimpleField type="xsd:string" name="NM_LOCALIDADE">
<displayName>NM_LOCALIDADE</displayName>
</SimpleField>
<SimpleField type="xsd:string" name="LAT_LOCALIDADE">
<displayName>LAT_LOCALIDADE</displayName>
</SimpleField>
<SimpleField type="xsd:string" name="LONG_LOCALIDADE">
<displayName>LONG_LOCALIDADE</displayName>
</SimpleField>
</Schema>
<Schema name="Município" id="kml_schema_ft_Município">
<SimpleField type="xsd:string" name="CD_UF">
<displayName>CD_UF</displayName>
</SimpleField>
<SimpleField type="xsd:string" name="NM_UF">
<displayName>NM_UF</displayName>
</SimpleField>
<SimpleField type="xsd:string" name="CD_MUN">
<displayName>CD_MUN</displayName>
</SimpleField>
<SimpleField type="xsd:string" name="NM_MUN">
<displayName>NM_MUN</displayName>
</SimpleField>
<SimpleField type="xsd:string" name="CD_RGINT">
<displayName>CD_RGINT</displayName>
</SimpleField>
<SimpleField type="xsd:string" name="NM_RGINT">
<displayName>NM_RGINT</displayName>
</SimpleField>
<SimpleField type="xsd:string" name="CD_RGI">
<displayName>CD_RGI</displayName>
</SimpleField>
<SimpleField type="xsd:string" name="NM_RGI">
<displayName>NM_RGI</displayName>
</SimpleField>
</Schema>
<Folder id="01. Cidade">
<name>01. Cidade</name>
<Folder id="01.03. Sede Municipal">
<name>01.03. Sede Municipal</name>
<Placemark id="01.03. Sede Municipal">
<name>Irati [4207858]</name>
<visibility>1</visibility>
<snippet> </snippet>
<description>&lt;center&gt;&lt;table&gt;&lt;tr&gt;&lt;th colspan='2' align='center'&gt;&lt;em&gt;Atributos&lt;/em&gt;&lt;/th&gt;&lt;/tr&gt;&lt;tr bgcolor="#E3E3F3"&gt;
&lt;th&gt;CD_UF&lt;/th&gt;
&lt;td&gt;42&lt;/td&gt;
&lt;/tr&gt;&lt;tr bgcolor=""&gt;
&lt;th&gt;NM_UF&lt;/th&gt;
&lt;td&gt;Santa Catarina&lt;/td&gt;
&lt;/tr&gt;&lt;tr bgcolor="#E3E3F3"&gt;
&lt;th&gt;SIGLA_UF&lt;/th&gt;
&lt;td&gt;SC&lt;/td&gt;
&lt;/tr&gt;&lt;tr bgcolor=""&gt;
&lt;th&gt;CD_MUN&lt;/th&gt;
&lt;td&gt;4207858&lt;/td&gt;
&lt;/tr&gt;&lt;tr bgcolor="#E3E3F3"&gt;
&lt;th&gt;NM_MUN&lt;/th&gt;
&lt;td&gt;Irati&lt;/td&gt;
&lt;/tr&gt;&lt;tr bgcolor=""&gt;
&lt;th&gt;CD_RGINT&lt;/th&gt;
&lt;td&gt;4204&lt;/td&gt;
&lt;/tr&gt;&lt;tr bgcolor="#E3E3F3"&gt;
&lt;th&gt;NM_RGINT&lt;/th&gt;
&lt;td&gt;Chapecó&lt;/td&gt;
&lt;/tr&gt;&lt;tr bgcolor=""&gt;
&lt;th&gt;CD_RGI&lt;/th&gt;
&lt;td&gt;420007&lt;/td&gt;
&lt;/tr&gt;&lt;tr bgcolor="#E3E3F3"&gt;
&lt;th&gt;NM_RGI&lt;/th&gt;
&lt;td&gt;Chapecó&lt;/td&gt;
&lt;/tr&gt;&lt;tr bgcolor=""&gt;
&lt;th&gt;CT_LOCALIDADE&lt;/th&gt;
&lt;td&gt;Cidade&lt;/td&gt;
&lt;/tr&gt;&lt;tr bgcolor="#E3E3F3"&gt;
&lt;th&gt;SCT_LOCALIDADE&lt;/th&gt;
&lt;td&gt;Sede Municipal&lt;/td&gt;
&lt;/tr&gt;&lt;tr bgcolor=""&gt;
&lt;th&gt;CD_LOCALIDADE&lt;/th&gt;
&lt;td&gt;4207858&lt;/td&gt;
&lt;/tr&gt;&lt;tr bgcolor="#E3E3F3"&gt;
&lt;th&gt;NM_LOCALIDADE&lt;/th&gt;
&lt;td&gt;Irati&lt;/td&gt;
&lt;/tr&gt;&lt;tr bgcolor=""&gt;
&lt;th&gt;LAT_LOCALIDADE&lt;/th&gt;
&lt;td&gt;-26.6567&lt;/td&gt;
&lt;/tr&gt;&lt;tr bgcolor="#E3E3F3"&gt;
&lt;th&gt;LONG_LOCALIDADE&lt;/th&gt;
&lt;td&gt;-52.8939&lt;/td&gt;
&lt;/tr&gt;&lt;/table&gt;&lt;/center&gt;</description>
<Style>
<IconStyle>
<color>ff00aaff</color>
<scale>1.0</scale>
<Icon>
<href>http://maps.google.com/mapfiles/kml/shapes/placemark_circle.png</href>
</Icon>
</IconStyle>
<LabelStyle>
<scale>1.0</scale>
</LabelStyle>
<LineStyle>
<color>ffffffff</color>
<width>3</width>
<gx:labelVisibility>1</gx:labelVisibility>
</LineStyle>
<PolyStyle>
<color>00ffffff</color>
</PolyStyle>
</Style>
<ExtendedData>
<SchemaData schemaUrl="#kml_schema_ft_01._Cidade">
<SimpleData name="CD_UF">42</SimpleData>
<SimpleData name="NM_UF">Santa Catarina</SimpleData>
<SimpleData name="SIGLA_UF">SC</SimpleData>
<SimpleData name="CD_MUN">4207858</SimpleData>
<SimpleData name="NM_MUN">Irati</SimpleData>
<SimpleData name="CD_RGINT">4204</SimpleData>
<SimpleData name="NM_RGINT">Chapecó</SimpleData>
<SimpleData name="CD_RGI">420007</SimpleData>
<SimpleData name="NM_RGI">Chapecó</SimpleData>
<SimpleData name="CT_LOCALIDADE">Cidade</SimpleData>
<SimpleData name="SCT_LOCALIDADE">Sede Municipal</SimpleData>
<SimpleData name="CD_LOCALIDADE">4207858</SimpleData>
<SimpleData name="NM_LOCALIDADE">Irati</SimpleData>
<SimpleData name="LAT_LOCALIDADE">-26.6567</SimpleData>
<SimpleData name="LONG_LOCALIDADE">-52.8939</SimpleData>
</SchemaData>
</ExtendedData>
<Point>
<extrude>0</extrude>
<coordinates>-52.8939,-26.6566999992421,0.0</coordinates>
</Point>
</Placemark>
</Folder>
</Folder>
<Folder id="06. Povoados">
<name>06. Povoados</name>
<Placemark id="06. Povoados">
<name>Vila Sete de Setembro [420785800001]</name>
<visibility>1</visibility>
<snippet> </snippet>
<description>&lt;center&gt;&lt;table&gt;&lt;tr&gt;&lt;th colspan='2' align='center'&gt;&lt;em&gt;Atributos&lt;/em&gt;&lt;/th&gt;&lt;/tr&gt;&lt;tr bgcolor="#E3E3F3"&gt;
&lt;th&gt;CD_UF&lt;/th&gt;
&lt;td&gt;42&lt;/td&gt;
&lt;/tr&gt;&lt;tr bgcolor=""&gt;
&lt;th&gt;NM_UF&lt;/th&gt;
&lt;td&gt;Santa Catarina&lt;/td&gt;
&lt;/tr&gt;&lt;tr bgcolor="#E3E3F3"&gt;
&lt;th&gt;SIGLA_UF&lt;/th&gt;
&lt;td&gt;SC&lt;/td&gt;
&lt;/tr&gt;&lt;tr bgcolor=""&gt;
&lt;th&gt;CD_MUN&lt;/th&gt;
&lt;td&gt;4207858&lt;/td&gt;
&lt;/tr&gt;&lt;tr bgcolor="#E3E3F3"&gt;
&lt;th&gt;NM_MUN&lt;/th&gt;
&lt;td&gt;Irati&lt;/td&gt;
&lt;/tr&gt;&lt;tr bgcolor=""&gt;
&lt;th&gt;CD_RGINT&lt;/th&gt;
&lt;td&gt;4204&lt;/td&gt;
&lt;/tr&gt;&lt;tr bgcolor="#E3E3F3"&gt;
&lt;th&gt;NM_RGINT&lt;/th&gt;
&lt;td&gt;Chapecó&lt;/td&gt;
&lt;/tr&gt;&lt;tr bgcolor=""&gt;
&lt;th&gt;CD_RGI&lt;/th&gt;
&lt;td&gt;420007&lt;/td&gt;
&lt;/tr&gt;&lt;tr bgcolor="#E3E3F3"&gt;
&lt;th&gt;NM_RGI&lt;/th&gt;
&lt;td&gt;Chapecó&lt;/td&gt;
&lt;/tr&gt;&lt;tr bgcolor=""&gt;
&lt;th&gt;CT_LOCALIDADE&lt;/th&gt;
&lt;td&gt;Povoado&lt;/td&gt;
&lt;/tr&gt;&lt;tr bgcolor="#E3E3F3"&gt;
&lt;th&gt;CD_LOCALIDADE&lt;/th&gt;
&lt;td&gt;420785800001&lt;/td&gt;
&lt;/tr&gt;&lt;tr bgcolor=""&gt;
&lt;th&gt;NM_LOCALIDADE&lt;/th&gt;
&lt;td&gt;Vila Sete de Setembro&lt;/td&gt;
&lt;/tr&gt;&lt;tr bgcolor="#E3E3F3"&gt;
&lt;th&gt;LAT_LOCALIDADE&lt;/th&gt;
&lt;td&gt;-26.6257&lt;/td&gt;
&lt;/tr&gt;&lt;tr bgcolor=""&gt;
&lt;th&gt;LONG_LOCALIDADE&lt;/th&gt;
&lt;td&gt;-52.8572&lt;/td&gt;
&lt;/tr&gt;&lt;/table&gt;&lt;/center&gt;</description>
<Style>
<IconStyle>
<color>ff00ff54</color>
<scale>0.8</scale>
<Icon>
<href>http://maps.google.com/mapfiles/kml/shapes/placemark_circle.png</href>
</Icon>
</IconStyle>
<LabelStyle>
<scale>0.8</scale>
</LabelStyle>
<LineStyle>
<color>72ff54ff</color>
<width>1.0</width>
<gx:labelVisibility>1</gx:labelVisibility>
</LineStyle>
<PolyStyle>
<color>66ff54ff</color>
</PolyStyle>
</Style>
<ExtendedData>
<SchemaData schemaUrl="#kml_schema_ft_Povoados">
<SimpleData name="CD_UF">42</SimpleData>
<SimpleData name="NM_UF">Santa Catarina</SimpleData>
<SimpleData name="SIGLA_UF">SC</SimpleData>
<SimpleData name="CD_MUN">4207858</SimpleData>
<SimpleData name="NM_MUN">Irati</SimpleData>
<SimpleData name="CD_RGINT">4204</SimpleData>
<SimpleData name="NM_RGINT">Chapecó</SimpleData>
<SimpleData name="CD_RGI">420007</SimpleData>
<SimpleData name="NM_RGI">Chapecó</SimpleData>
<SimpleData name="CT_LOCALIDADE">Povoado</SimpleData>
<SimpleData name="CD_LOCALIDADE">420785800001</SimpleData>
<SimpleData name="NM_LOCALIDADE">Vila Sete de Setembro</SimpleData>
<SimpleData name="LAT_LOCALIDADE">-26.6257</SimpleData>
<SimpleData name="LONG_LOCALIDADE">-52.8572</SimpleData>
</SchemaData>
</ExtendedData>
<Point>
<extrude>0</extrude>
<coordinates>-52.8571580194175,-26.6256529215727,0.0</coordinates>
</Point>
</Placemark>
</Folder>
<Folder id="13. Referência">
<name>13. Referência</name>
<Placemark id="13. Referência">
<name>Irati [4207858]</name>
<visibility>1</visibility>
<snippet> </snippet>
<description>&lt;center&gt;&lt;table&gt;&lt;tr&gt;&lt;th colspan='2' align='center'&gt;&lt;em&gt;Attributes&lt;/em&gt;&lt;/th&gt;&lt;/tr&gt;&lt;tr bgcolor="#E3E3F3"&gt;
&lt;th&gt;CD_UF&lt;/th&gt;
&lt;td&gt;42&lt;/td&gt;
&lt;/tr&gt;&lt;tr bgcolor=""&gt;
&lt;th&gt;NM_UF&lt;/th&gt;
&lt;td&gt;Santa Catarina&lt;/td&gt;
&lt;/tr&gt;&lt;tr bgcolor="#E3E3F3"&gt;
&lt;th&gt;CD_MUN&lt;/th&gt;
&lt;td&gt;4207858&lt;/td&gt;
&lt;/tr&gt;&lt;tr bgcolor=""&gt;
&lt;th&gt;NM_MUN&lt;/th&gt;
&lt;td&gt;Irati&lt;/td&gt;
&lt;/tr&gt;&lt;tr bgcolor="#E3E3F3"&gt;
&lt;th&gt;CD_RGINT&lt;/th&gt;
&lt;td&gt;4204&lt;/td&gt;
&lt;/tr&gt;&lt;tr bgcolor=""&gt;
&lt;th&gt;NM_RGINT&lt;/th&gt;
&lt;td&gt;Chapecó&lt;/td&gt;
&lt;/tr&gt;&lt;tr bgcolor="#E3E3F3"&gt;
&lt;th&gt;CD_RGI&lt;/th&gt;
&lt;td&gt;420007&lt;/td&gt;
&lt;/tr&gt;&lt;tr bgcolor=""&gt;
&lt;th&gt;NM_RGI&lt;/th&gt;
&lt;td&gt;Chapecó&lt;/td&gt;
&lt;/tr&gt;&lt;/table&gt;&lt;/center&gt;</description>
<Style>
<IconStyle>
<scale>0.7</scale>
</IconStyle>
<LabelStyle>
<scale>0.7</scale>
</LabelStyle>
<LineStyle>
<color>ffffffff</color>
<width>3</width>
<gx:labelVisibility>1</gx:labelVisibility>
</LineStyle>
<PolyStyle>
<color>00ffffff</color>
</PolyStyle>
</Style>
<ExtendedData>
<SchemaData schemaUrl="#kml_schema_ft_Município">
<SimpleData name="CD_UF">42</SimpleData>
<SimpleData name="NM_UF">Santa Catarina</SimpleData>
<SimpleData name="CD_MUN">4207858</SimpleData>
<SimpleData name="NM_MUN">Irati</SimpleData>
<SimpleData name="CD_RGINT">4204</SimpleData>
<SimpleData name="NM_RGINT">Chapecó</SimpleData>
<SimpleData name="CD_RGI">420007</SimpleData>
<SimpleData name="NM_RGI">Chapecó</SimpleData>
</SchemaData>
</ExtendedData>
<MultiGeometry>
<Polygon>
<extrude>0</extrude>
<tessellate>1</tessellate>
<outerBoundaryIs>
<LinearRing>
<coordinates>-52.9084278,-26.6569979992421,0.0 -52.908451,-26.6569895992421,0.0 -52.9085313,-26.6569690992421,0.0 -52.9085947,-26.6569516992421,0.0 -52.9086699,-26.6569256992421,0.0 -52.9087667,-26.6569037992421,0.0 -52.9088485,-26.6568840992421,0.0 -52.9089079,-26.6568623992421,0.0 -52.9089752,-26.6568306992421,0.0 -52.9090602,-26.6568028992421,0.0 -52.909148,-26.6567810992421,0.0 -52.9092211,-26.6567577992421,0.0 -52.9093011,-26.6567258992421,0.0 -52.9094019,-26.6566999992421,0.0 -52.9094973,-26.6566840992421,0.0 -52.9095906,-26.6566741992421,0.0 -52.9096939,-26.6566582992421,0.0 -52.9097693,-26.6566394992421,0.0 -52.9098361,-26.6566095992421,0.0 -52.9099436,-26.6565657992421,0.0 -52.9100246,-26.6565348992421,0.0 -52.9102743,-26.6564629992421,0.0 -52.9103556,-26.6564437992421,0.0 -52.9104269,-26.6564221992421,0.0 -52.9104933,-26.6563943992421,0.0 -52.9105657,-26.6563620992421,0.0 -52.9106449,-26.6563284992421,0.0 -52.9107308,-26.6562972992421,0.0 -52.9108196,-26.6562674992421,0.0 -52.9109003,-26.6562477992421,0.0 -52.9109788,-26.6562280992421,0.0 -52.9110659,-26.6562097992421,0.0 -52.9112349,-26.6561778992421,0.0 -52.9113096,-26.6561583992421,0.0 -52.9113857,-26.6561311992421,0.0 -52.9114544,-26.6561030992421,0.0 -52.9115247,-26.6560754992421,0.0 -52.9116084,-26.6560438992421,0.0 -52.9117067,-26.6560225992421,0.0 -52.9118012,-26.6560036992421,0.0 -52.9118859,-26.6559827992421,0.0 -52.9119697,-26.6559574992421,0.0 -52.9120629,-26.6559371992421,0.0 -52.912164,-26.6559159992421,0.0 -52.9122657,-26.6558850992421,0.0 -52.9123617,-26.6558566992421,0.0 -52.9124482,-26.6558284992421,0.0 -52.9125275,-26.6557984992421,0.0 -52.9125956,-26.6557714992421,0.0 -52.9126668,-26.6557371992421,0.0 -52.9127442,-26.6557088992421,0.0 -52.9129227,-26.6556401992421,0.0 -52.9129997,-26.6556169992421,0.0 -52.9130763,-26.6555972992421,0.0 -52.9131867,-26.6555738992421,0.0 -52.9132731,-26.6555634992421,0.0 -52.913352,-26.6555588992421,0.0 -52.9134635,-26.6555507992421,0.0 -52.913548,-26.6555526992421,0.0 -52.9136252,-26.6555589992421,0.0 -52.9136898,-26.6555613992421,0.0 -52.913759,-26.6555549992421,0.0 -52.9138398,-26.6555472992421,0.0 -52.9139324,-26.6555478992421,0.0 -52.9140408,-26.6555720992421,0.0 -52.9141276,-26.6555822992421,0.0 -52.914224,-26.6555952992421,0.0 -52.914295,-26.6556049992421,0.0 -52.9144568,-26.6556263992421,0.0 -52.914536,-26.6556418992421,0.0 -52.9146152,-26.6556591992421,0.0 -52.9146945,-26.6556676992421,0.0 -52.9147742,-26.6556668992421,0.0 -52.9148789,-26.6556703992421,0.0 -52.9150086,-26.6556981992421,0.0 -52.9150994,-26.6557138992421,0.0 -52.9152018,-26.6557265992421,0.0 -52.9153137,-26.6557483992421,0.0 -52.915407,-26.6557739992421,0.0 -52.9154885,-26.6557954992421,0.0 -52.9155701,-26.6558044992421,0.0 -52.9156591,-26.6558073992421,0.0 -52.9157517,-26.6558042992421,0.0 -52.9158647,-26.6558100992421,0.0 -52.915947,-26.6558398992421,0.0 -52.9160186,-26.6558610992421,0.0 -52.9160773,-26.6558675992421,0.0 -52.9161586,-26.6558685992421,0.0 -52.9162474,-26.6558748992421,0.0 -52.9163474,-26.6558957992421,0.0 -52.9164326,-26.6559178992421,0.0 -52.9165216,-26.6559381992421,0.0 -52.9165917,-26.6559502992421,0.0 -52.9166598,-26.6559623992421,0.0 -52.9167298,-26.6559706992421,0.0 -52.9168066,-26.6559747992421,0.0 -52.9168925,-26.6559886992421,0.0 -52.9169747,-26.6559985992421,0.0 -52.917073,-26.6560144992421,0.0 -52.9171707,-26.6560254992421,0.0 -52.9172643,-26.6560364992421,0.0 -52.917362,-26.6560487992421,0.0 -52.9174424,-26.6560606992421,0.0 -52.917524,-26.6560807992421,0.0 -52.9176071,-26.6561067992421,0.0 -52.9177203,-26.6561591992421,0.0 -52.9178083,-26.6562291992421,0.0 -52.9178644,-26.6562766992421,0.0 -52.9179461,-26.6563516992421,0.0 -52.9179938,-26.6564146992421,0.0 -52.9180374,-26.6564732992421,0.0 -52.9180819,-26.6565384992421,0.0 -52.9181233,-26.6566038992421,0.0 -52.9181661,-26.6566693992421,0.0 -52.9182012,-26.6567208992421,0.0 -52.9182852,-26.6568299992421,0.0 -52.9183397,-26.6569000992421,0.0 -52.9183836,-26.6569606992421,0.0 -52.9184212,-26.6570278992421,0.0 -52.9184529,-26.6570914992421,0.0 -52.9184842,-26.6571561992421,0.0 -52.9185123,-26.6572331992421,0.0 -52.9185339,-26.6572945992421,0.0 -52.9185567,-26.6573452992421,0.0 -52.9186005,-26.6574174992421,0.0 -52.9186382,-26.6574731992421,0.0 -52.9186781,-26.6575326992421,0.0 -52.9187251,-26.6576105992421,0.0 -52.9187697,-26.6577159992421,0.0 -52.918791,-26.6577862992421,0.0 -52.918813,-26.6578706992421,0.0 -52.9188267,-26.6579494992421,0.0 -52.9188401,-26.6580423992421,0.0 -52.9188523,-26.6581090992421,0.0 -52.9188656,-26.6581771992421,0.0 -52.9188816,-26.6582616992421,0.0 -52.9189015,-26.6583263992421,0.0 -52.9189159,-26.6584005992421,0.0 -52.9189309,-26.6584803992421,0.0 -52.9189496,-26.6585228992421,0.0 -52.9189878,-26.6585802992421,0.0 -52.9190515,-26.6586740992421,0.0 -52.9190992,-26.6587670992421,0.0 -52.9191313,-26.6588593992421,0.0 -52.9191585,-26.6589405992421,0.0 -52.9191864,-26.6590100992421,0.0 -52.9192206,-26.6590710992421,0.0 -52.9192657,-26.6591441992421,0.0 -52.9193028,-26.6592011992421,0.0 -52.9193475,-26.6592799992421,0.0 -52.9193881,-26.6593656992421,0.0 -52.9194288,-26.6594501992421,0.0 -52.9194642,-26.6595130992421,0.0 -52.9194989,-26.6595795992421,0.0 -52.9195438,-26.6596641992421,0.0 -52.9195759,-26.6597242992421,0.0 -52.919606,-26.6597834992421,0.0 -52.919644,-26.659853799242,0.0 -52.9196792,-26.6599179992421,0.0 -52.9197253,-26.660021499242,0.0 -52.9198692,-26.660403199242,0.0 -52.9200572,-26.660736499242,0.0 -52.9202078,-26.660954499242,0.0 -52.9203413,-26.661220599242,0.0 -52.9204615,-26.661490899242,0.0 -52.9206047,-26.661800899242,0.0 -52.9207512,-26.662310799242,0.0 -52.9209551,-26.662787899242,0.0 -52.9210836,-26.663289999242,0.0 -52.9213108,-26.663830799242,0.0 -52.9214905,-26.664196299242,0.0 -52.9217327,-26.664568899242,0.0 -52.9219197,-26.664842299242,0.0 -52.9220898,-26.6648999992419,0.0 -52.9223642,-26.664804299242,0.0 -52.9227611,-26.664582999242,0.0 -52.9230151,-26.664339599242,0.0 -52.9233181,-26.664091599242,0.0 -52.9239159,-26.663639599242,0.0 -52.9242447,-26.663343199242,0.0 -52.9245343,-26.663095399242,0.0 -52.9250093,-26.662756999242,0.0 -52.9250874,-26.662696999242,0.0 -52.9254224,-26.662439499242,0.0 -52.9256027,-26.662313099242,0.0 -52.9257617,-26.662234899242,0.0 -52.9260481,-26.662063099242,0.0 -52.9263832,-26.661878599242,0.0 -52.9266389,-26.661727199242,0.0 -52.9268311,-26.661512599242,0.0 -52.9269893,-26.661390499242,0.0 -52.927297,-26.661162399242,0.0 -52.9276006,-26.660954299242,0.0 -52.9279868,-26.660629099242,0.0 -52.9284531,-26.660302899242,0.0 -52.9286905,-26.660127699242,0.0 -52.9289612,-26.6598160992421,0.0 -52.9292116,-26.6596167992421,0.0 -52.9292767,-26.6595198992421,0.0 -52.9292834,-26.6593877992421,0.0 -52.9292708,-26.6591680992421,0.0 -52.9291744,-26.6589933992421,0.0 -52.9291721,-26.6589919992421,0.0 -52.9289944,-26.6588798992421,0.0 -52.9287163,-26.6587516992421,0.0 -52.9282807,-26.6585176992421,0.0 -52.927984,-26.6583456992421,0.0 -52.9278358,-26.6582637992421,0.0 -52.9273417,-26.6579984992421,0.0 -52.9271549,-26.6578797992421,0.0 -52.9271391,-26.6578698992421,0.0 -52.9270444,-26.6578087992421,0.0 -52.9269552,-26.6577563992421,0.0 -52.9266619,-26.6576161992421,0.0 -52.9265747,-26.6575761992421,0.0 -52.9264825,-26.6575274992421,0.0 -52.9263871,-26.6574712992421,0.0 -52.9262887,-26.6574048992421,0.0 -52.9262025,-26.6573296992421,0.0 -52.9261364,-26.6572588992421,0.0 -52.9260736,-26.6571965992421,0.0 -52.926008,-26.6571416992421,0.0 -52.9259494,-26.6570931992421,0.0 -52.925825,-26.6570183992421,0.0 -52.9257494,-26.6569798992421,0.0 -52.9256748,-26.6569372992421,0.0 -52.9256142,-26.6568947992421,0.0 -52.9255635,-26.6568683992421,0.0 -52.9254945,-26.6568461992421,0.0 -52.9253536,-26.6567732992421,0.0 -52.9252802,-26.6567248992421,0.0 -52.9252138,-26.6566826992421,0.0 -52.9251393,-26.6566352992421,0.0 -52.9250651,-26.6565868992421,0.0 -52.9249969,-26.6565411992421,0.0 -52.9249271,-26.6564894992421,0.0 -52.9248587,-26.6564355992421,0.0 -52.924747,-26.6563382992421,0.0 -52.9246703,-26.6562624992421,0.0 -52.9246,-26.6561865992421,0.0 -52.9245207,-26.6561066992421,0.0 -52.9244718,-26.6560587992421,0.0 -52.9243102,-26.6558976992421,0.0 -52.9242609,-26.6558570992421,0.0 -52.9241546,-26.6557728992421,0.0 -52.9240847,-26.6557186992421,0.0 -52.9240055,-26.6556586992421,0.0 -52.9239241,-26.6555967992421,0.0 -52.9238454,-26.6555385992421,0.0 -52.9237085,-26.6554351992421,0.0 -52.9236516,-26.6553881992421,0.0 -52.9235746,-26.6553223992421,0.0 -52.923512,-26.6552658992421,0.0 -52.9232383,-26.6550070992421,0.0 -52.923164,-26.6549252992421,0.0 -52.9230902,-26.6548414992421,0.0 -52.9229806,-26.6547067992422,0.0 -52.9229158,-26.6546196992422,0.0 -52.9228547,-26.6545308992422,0.0 -52.9227977,-26.6544386992422,0.0 -52.9227666,-26.6543491992422,0.0 -52.9226851,-26.6540912992422,0.0 -52.9226633,-26.6540033992422,0.0 -52.9226502,-26.6539142992422,0.0 -52.9226459,-26.6538192992422,0.0 -52.9226468,-26.6537287992422,0.0 -52.9226505,-26.6536438992422,0.0 -52.9226568,-26.6535499992422,0.0 -52.9226616,-26.6534405992422,0.0 -52.9226718,-26.6533593992422,0.0 -52.9227039,-26.6531252992422,0.0 -52.9227207,-26.6530503992422,0.0 -52.9227462,-26.6529774992422,0.0 -52.9227983,-26.6528501992422,0.0 -52.9228293,-26.6527856992422,0.0 -52.9228613,-26.6527186992422,0.0 -52.9228911,-26.6526466992422,0.0 -52.9229232,-26.6525655992422,0.0 -52.922962,-26.6524746992422,0.0 -52.9229953,-26.6523933992422,0.0 -52.9231497,-26.6520638992422,0.0 -52.9231792,-26.6519872992422,0.0 -52.9232104,-26.6519081992422,0.0 -52.9232485,-26.6518331992422,0.0 -52.9232845,-26.6517699992422,0.0 -52.9233165,-26.6517078992422,0.0 -52.9233477,-26.6516295992422,0.0 -52.9233838,-26.6515415992422,0.0 -52.9234277,-26.6514528992422,0.0 -52.923457,-26.6513936992422,0.0 -52.9235826,-26.6511521992422,0.0 -52.9236063,-26.6510959992422,0.0 -52.9236292,-26.6510308992422,0.0 -52.9236753,-26.6509352992422,0.0 -52.9237317,-26.6508610992422,0.0 -52.9237824,-26.6507933992422,0.0 -52.9238131,-26.6507421992422,0.0 -52.9238587,-26.6506614992422,0.0 -52.9238991,-26.6506006992422,0.0 -52.9239453,-26.6505307992422,0.0 -52.9239992,-26.6504552992422,0.0 -52.9240355,-26.6504071992422,0.0 -52.9240827,-26.6502971992422,0.0 -52.9241358,-26.6501754992422,0.0 -52.9241807,-26.6500995992422,0.0 -52.9242327,-26.6500323992422,0.0 -52.9242808,-26.6499775992423,0.0 -52.9243393,-26.6499188992422,0.0 -52.9243926,-26.6498702992422,0.0 -52.9244708,-26.6498040992422,0.0 -52.9245263,-26.6497559992423,0.0 -52.9245722,-26.6497128992423,0.0 -52.9246311,-26.6496545992423,0.0 -52.924704,-26.6496016992423,0.0 -52.924771,-26.6495606992423,0.0 -52.9248393,-26.6495126992423,0.0 -52.9249295,-26.6494548992423,0.0 -52.9250702,-26.6494335992423,0.0 -52.925172,-26.6494502992423,0.0 -52.9252542,-26.6494791992423,0.0 -52.9253254,-26.6494971992423,0.0 -52.9254173,-26.6495072992423,0.0 -52.925516,-26.6495162992423,0.0 -52.9255944,-26.6495318992422,0.0 -52.9256899,-26.6495486992423,0.0 -52.9257791,-26.6495518992423,0.0 -52.9258563,-26.6495635992423,0.0 -52.9259974,-26.6495997992423,0.0 -52.9262691,-26.6496793992422,0.0 -52.9264452,-26.6497309992422,0.0 -52.9265461,-26.6497790992422,0.0 -52.9267258,-26.6498980992422,0.0 -52.9268367,-26.6499393992422,0.0 -52.9270156,-26.6500066992422,0.0 -52.9273124,-26.6500925992422,0.0 -52.9275136,-26.6501483992422,0.0 -52.927807,-26.6501803992422,0.0 -52.9280157,-26.6502360992422,0.0 -52.9282899,-26.6503132992422,0.0 -52.9284937,-26.6503712992422,0.0 -52.9288331,-26.6504588992422,0.0 -52.9292084,-26.6505977992422,0.0 -52.929573,-26.6506917992422,0.0 -52.929864,-26.6507305992422,0.0 -52.9300375,-26.6507754992422,0.0 -52.9302954,-26.6507786992422,0.0 -52.9305116,-26.6508319992422,0.0 -52.9306973,-26.6508609992422,0.0 -52.9308525,-26.6508565992422,0.0 -52.9309905,-26.6508771992422,0.0 -52.9311765,-26.6509241992422,0.0 -52.9313451,-26.6509713992422,0.0 -52.9316408,-26.6509943992422,0.0 -52.9320192,-26.6510161992422,0.0 -52.9323272,-26.6510187992422,0.0 -52.932772,-26.6509744992422,0.0 -52.933214,-26.6509099992422,0.0 -52.9334233,-26.6508486992422,0.0 -52.9336303,-26.6508053992422,0.0 -52.9337696,-26.6507471992422,0.0 -52.9339233,-26.6506618992422,0.0 -52.9340973,-26.6505897992422,0.0 -52.9343605,-26.6504602992422,0.0 -52.9345616,-26.6503584992422,0.0 -52.9347205,-26.6502798992422,0.0 -52.9348414,-26.6501769992422,0.0 -52.9349324,-26.6500812992422,0.0 -52.9351305,-26.6499503992422,0.0 -52.9353292,-26.6497114992423,0.0 -52.9354516,-26.6495455992423,0.0 -52.9355555,-26.6494721992423,0.0 -52.9356116,-26.6493881992422,0.0 -52.9356437,-26.6493025992423,0.0 -52.9356955,-26.6491643992423,0.0 -52.9357167,-26.6490853992423,0.0 -52.9357343,-26.6489456992423,0.0 -52.9357353,-26.6488235992423,0.0 -52.9357208,-26.6487164992423,0.0 -52.9356816,-26.6486270992423,0.0 -52.9356549,-26.6485608992423,0.0 -52.9356229,-26.6484977992423,0.0 -52.9355947,-26.6484344992423,0.0 -52.9355457,-26.6483494992423,0.0 -52.9354936,-26.6482873992423,0.0 -52.9354509,-26.6482368992423,0.0 -52.9354016,-26.6481752992423,0.0 -52.9353929,-26.6481650992423,0.0 -52.9353698,-26.6481412992423,0.0 -52.9353231,-26.6480924992423,0.0 -52.9352737,-26.6480443992423,0.0 -52.9352654,-26.6480359992423,0.0 -52.9351171,-26.6478203992423,0.0 -52.9350173,-26.6476956992423,0.0 -52.9347877,-26.6474378992423,0.0 -52.934724,-26.6473690992423,0.0 -52.9346643,-26.6472461992423,0.0 -52.9345173,-26.6469916992423,0.0 -52.934401,-26.6467875992423,0.0 -52.9343393,-26.6466791992423,0.0 -52.9342739,-26.6465613992423,0.0 -52.9342339,-26.6464792992423,0.0 -52.934152,-26.6463328992423,0.0 -52.9341164,-26.6462629992423,0.0 -52.9340908,-26.6462048992423,0.0 -52.9340624,-26.6461431992423,0.0 -52.9340296,-26.6460681992423,0.0 -52.9339842,-26.6459866992423,0.0 -52.9339432,-26.6459086992423,0.0 -52.9339037,-26.6458426992423,0.0 -52.9338499,-26.6457411992423,0.0 -52.9338167,-26.6456740992423,0.0 -52.9338002,-26.6456348992423,0.0 -52.9337376,-26.6454366992423,0.0 -52.9336055,-26.6451685992423,0.0 -52.9333304,-26.6447381992424,0.0 -52.9331889,-26.6445128992424,0.0 -52.9331034,-26.6443430992424,0.0 -52.9330511,-26.6442110992424,0.0 -52.9329982,-26.6440385992424,0.0 -52.9329739,-26.6439376992424,0.0 -52.932977,-26.6438229992424,0.0 -52.9329914,-26.6436382992424,0.0 -52.9330364,-26.6434824992424,0.0 -52.9331913,-26.6431676992424,0.0 -52.93326,-26.6429372992424,0.0 -52.9332979,-26.6428134992424,0.0 -52.9333478,-26.6426504992424,0.0 -52.9333948,-26.6424698992424,0.0 -52.9334252,-26.6423434992424,0.0 -52.933448,-26.6422104992424,0.0 -52.9334813,-26.6421087992424,0.0 -52.9335897,-26.6420037992424,0.0 -52.9337171,-26.6418423992424,0.0 -52.9339741,-26.6414969992424,0.0 -52.9342889,-26.6411642992424,0.0 -52.9346358,-26.6408063992424,0.0 -52.934953,-26.6404646992424,0.0 -52.9352704,-26.6401386992424,0.0 -52.9354087,-26.6400287992424,0.0 -52.9355024,-26.6399420992424,0.0 -52.9355954,-26.6398192992424,0.0 -52.9356767,-26.6397394992424,0.0 -52.9359617,-26.6395690992424,0.0 -52.9361753,-26.6393254992424,0.0 -52.936279,-26.6392385992425,0.0 -52.9363706,-26.6391811992425,0.0 -52.9365715,-26.6390704992425,0.0 -52.9367227,-26.6389828992425,0.0 -52.9367861,-26.6388807992425,0.0 -52.9368391,-26.6387608992425,0.0 -52.9368549,-26.6386571992425,0.0 -52.9368655,-26.6385422992425,0.0 -52.9368628,-26.6383826992425,0.0 -52.93682,-26.6382167992425,0.0 -52.9367466,-26.6380220992425,0.0 -52.9366387,-26.6378615992425,0.0 -52.9363918,-26.6374644992425,0.0 -52.9361784,-26.6371344992425,0.0 -52.9359804,-26.6368200992425,0.0 -52.9358239,-26.6365949992425,0.0 -52.9357013,-26.6364459992425,0.0 -52.9356165,-26.6363165992425,0.0 -52.9353625,-26.6359488992425,0.0 -52.9352926,-26.6358148992425,0.0 -52.9351898,-26.6356520992425,0.0 -52.9350138,-26.6353102992425,0.0 -52.9348436,-26.6350156992425,0.0 -52.9346573,-26.6348022992425,0.0 -52.9345039,-26.6346109992425,0.0 -52.9344222,-26.6345130992425,0.0 -52.9342244,-26.6343627992426,0.0 -52.9340767,-26.6342118992426,0.0 -52.9339202,-26.6339890992426,0.0 -52.9337918,-26.6337905992426,0.0 -52.9337323,-26.6336766992426,0.0 -52.9337076,-26.6335510992426,0.0 -52.9336811,-26.6333151992426,0.0 -52.9336725,-26.6331015992426,0.0 -52.9336951,-26.6329550992426,0.0 -52.9337477,-26.6326619992426,0.0 -52.9338168,-26.6323033992426,0.0 -52.9338813,-26.6318233992426,0.0 -52.9339647,-26.6314285992426,0.0 -52.9340443,-26.6310990992426,0.0 -52.9341819,-26.6306517992426,0.0 -52.9342808,-26.6304299992426,0.0 -52.9344034,-26.6301313992426,0.0 -52.93447,-26.6299212992426,0.0 -52.9344951,-26.6298150992426,0.0 -52.9345447,-26.6296053992426,0.0 -52.9346123,-26.6294559992427,0.0 -52.934703,-26.6291915992427,0.0 -52.9347447,-26.6289975992427,0.0 -52.9347541,-26.6288084992427,0.0 -52.9347471,-26.6286586992427,0.0 -52.9347423,-26.6285566992427,0.0 -52.9346935,-26.6283323992427,0.0 -52.9346087,-26.6280568992427,0.0 -52.9345638,-26.6277672992427,0.0 -52.9345269,-26.6276575992427,0.0 -52.9344267,-26.6275014992427,0.0 -52.934374,-26.6273801992427,0.0 -52.9343671,-26.6273059992427,0.0 -52.9343729,-26.6270916992427,0.0 -52.9343626,-26.6269281992427,0.0 -52.9343222,-26.6266469992427,0.0 -52.934325,-26.6264765992427,0.0 -52.9343303,-26.6263465992427,0.0 -52.9343679,-26.6262397992427,0.0 -52.9343818,-26.6261703992427,0.0 -52.9343781,-26.6260658992427,0.0 -52.9343537,-26.6258401992427,0.0 -52.9343598,-26.6256443992427,0.0 -52.934401,-26.6255290992427,0.0 -52.9344483,-26.6254389992427,0.0 -52.9346315,-26.6252812992427,0.0 -52.934698,-26.6252179992427,0.0 -52.93486,-26.6251415992427,0.0 -52.935028,-26.6250388992427,0.0 -52.9350873,-26.6249910992427,0.0 -52.9351496,-26.6249085992427,0.0 -52.9351784,-26.6248690992427,0.0 -52.9351938,-26.6248360992427,0.0 -52.9352025,-26.6247731992427,0.0 -52.9352046,-26.6247154992427,0.0 -52.9352117,-26.6246455992427,0.0 -52.9352232,-26.6244583992428,0.0 -52.9352335,-26.6243551992427,0.0 -52.9352548,-26.6242573992428,0.0 -52.9353324,-26.6238216992428,0.0 -52.9353268,-26.6237748992428,0.0 -52.9353076,-26.6237164992428,0.0 -52.9352956,-26.6236389992428,0.0 -52.9352863,-26.6235368992428,0.0 -52.9352895,-26.6234549992428,0.0 -52.9352821,-26.6233746992428,0.0 -52.9352847,-26.6232580992428,0.0 -52.9353195,-26.6231402992428,0.0 -52.935305,-26.6230006992428,0.0 -52.9352829,-26.6228783992428,0.0 -52.9352571,-26.6227692992428,0.0 -52.9351978,-26.6225916992428,0.0 -52.9351735,-26.6224993992428,0.0 -52.9351706,-26.6224108992428,0.0 -52.9351919,-26.6223204992428,0.0 -52.9352749,-26.6222399992428,0.0 -52.9354148,-26.6221262992428,0.0 -52.9356307,-26.6219689992428,0.0 -52.9357286,-26.6218990992428,0.0 -52.9358469,-26.6218506992428,0.0 -52.9360071,-26.6218207992428,0.0 -52.9361891,-26.6218120992428,0.0 -52.9363334,-26.6218148992428,0.0 -52.936459,-26.6218035992428,0.0 -52.936656,-26.6217937992428,0.0 -52.9367859,-26.6218098992428,0.0 -52.9368786,-26.6218881992428,0.0 -52.9369459,-26.6219597992428,0.0 -52.9370142,-26.6220747992428,0.0 -52.9370922,-26.6222245992428,0.0 -52.9372062,-26.6223862992428,0.0 -52.9372703,-26.6224659992428,0.0 -52.9373536,-26.6225781992428,0.0 -52.9374367,-26.6226768992428,0.0 -52.9375,-26.6227406992428,0.0 -52.9375643,-26.6228256992428,0.0 -52.9377031,-26.6229743992428,0.0 -52.937963,-26.6233093992428,0.0 -52.9380866,-26.6235940992428,0.0 -52.9382915,-26.6239159992428,0.0 -52.938442,-26.6241060992428,0.0 -52.9385134,-26.6243058992427,0.0 -52.9385528,-26.6244352992427,0.0 -52.938683,-26.6246145992427,0.0 -52.9387661,-26.6247334992427,0.0 -52.9390031,-26.6248797992427,0.0 -52.9392462,-26.6250003992427,0.0 -52.9393881,-26.6251225992427,0.0 -52.9394918,-26.6252098992427,0.0 -52.9396127,-26.6252683992427,0.0 -52.9397699,-26.6253898992427,0.0 -52.9398994,-26.6255464992427,0.0 -52.9399757,-26.6256816992427,0.0 -52.9400193,-26.6257571992427,0.0 -52.9401439,-26.6258251992427,0.0 -52.940431,-26.6259194992427,0.0 -52.9406822,-26.6259730992427,0.0 -52.9408436,-26.6259296992427,0.0 -52.9410002,-26.6258039992427,0.0 -52.9411134,-26.6256217992427,0.0 -52.9412687,-26.6254232992427,0.0 -52.941379,-26.6252727992427,0.0 -52.9414711,-26.6249246992427,0.0 -52.9415997,-26.6247507992427,0.0 -52.9417233,-26.6245287992427,0.0 -52.9418276,-26.6242788992427,0.0 -52.9419189,-26.6241864992428,0.0 -52.9420545,-26.6239290992428,0.0 -52.9421421,-26.6237745992428,0.0 -52.9422002,-26.6236777992428,0.0 -52.9422465,-26.6236290992428,0.0 -52.942334,-26.6235007992428,0.0 -52.9423913,-26.6233545992428,0.0 -52.9424418,-26.6231804992428,0.0 -52.9424678,-26.6230473992428,0.0 -52.9425433,-26.6228599992428,0.0 -52.9426519,-26.6226791992428,0.0 -52.9427891,-26.6224984992428,0.0 -52.9429367,-26.6223015992428,0.0 -52.9431309,-26.6221591992428,0.0 -52.9433105,-26.6219734992428,0.0 -52.9434633,-26.6218047992428,0.0 -52.9436447,-26.6215580992428,0.0 -52.9438209,-26.6213342992428,0.0 -52.9438825,-26.6212599992428,0.0 -52.9439791,-26.6211103992428,0.0 -52.944077,-26.6209480992428,0.0 -52.9441698,-26.6207665992428,0.0 -52.9442567,-26.6206058992428,0.0 -52.9444469,-26.6204168992428,0.0 -52.9445493,-26.6202323992428,0.0 -52.9445884,-26.6201244992428,0.0 -52.9446217,-26.6199560992428,0.0 -52.9446322,-26.6197459992428,0.0 -52.944629,-26.6196485992428,0.0 -52.9445784,-26.6194487992428,0.0 -52.9444784,-26.6192291992429,0.0 -52.9444125,-26.6190535992429,0.0 -52.9443107,-26.6188911992429,0.0 -52.9442326,-26.6187273992429,0.0 -52.9441122,-26.6184918992429,0.0 -52.9440072,-26.6183429992429,0.0 -52.9439002,-26.6181523992429,0.0 -52.9437743,-26.6178674992429,0.0 -52.9436357,-26.6176334992429,0.0 -52.9436202,-26.6176071992429,0.0 -52.9435014,-26.6173687992429,0.0 -52.9433793,-26.6172165992429,0.0 -52.9432234,-26.6170425992429,0.0 -52.9431205,-26.6169098992429,0.0 -52.9429122,-26.6166782992429,0.0 -52.9427187,-26.6164808992429,0.0 -52.9425426,-26.6162955992429,0.0 -52.9423991,-26.6161732992429,0.0 -52.9422199,-26.6160237992429,0.0 -52.9421138,-26.6158868992429,0.0 -52.9419821,-26.6157191992429,0.0 -52.9418455,-26.6156363992429,0.0 -52.9417304,-26.6155509992429,0.0 -52.9416419,-26.6154321992429,0.0 -52.941554,-26.6152569992429,0.0 -52.941476,-26.6151287992429,0.0 -52.9413678,-26.6149607992429,0.0 -52.941284,-26.6148405992429,0.0 -52.9412109,-26.6147249992429,0.0 -52.9411169,-26.6145540992429,0.0 -52.9410249,-26.6144183992429,0.0 -52.9408959,-26.614236899243,0.0 -52.9407693,-26.614070199243,0.0 -52.9407399,-26.614031499243,0.0 -52.9407074,-26.613980699243,0.0 -52.9406026,-26.613817299243,0.0 -52.9404974,-26.613653899243,0.0 -52.9403637,-26.613466499243,0.0 -52.940189,-26.613265599243,0.0 -52.9400072,-26.613042499243,0.0 -52.9398263,-26.612850099243,0.0 -52.9396451,-26.612640799243,0.0 -52.9395335,-26.612481799243,0.0 -52.9393696,-26.612276499243,0.0 -52.9392197,-26.612058299243,0.0 -52.9391064,-26.611896499243,0.0 -52.9390181,-26.611784699243,0.0 -52.938927,-26.611701299243,0.0 -52.9388778,-26.611670899243,0.0 -52.9388191,-26.611640599243,0.0 -52.9387607,-26.611630099243,0.0 -52.938726,-26.611619299243,0.0 -52.9386929,-26.611616899243,0.0 -52.9386489,-26.611617499243,0.0 -52.9386032,-26.611609699243,0.0 -52.9385604,-26.611590499243,0.0 -52.9385317,-26.611568299243,0.0 -52.9385094,-26.611548799243,0.0 -52.9384838,-26.611525199243,0.0 -52.938439,-26.611477799243,0.0 -52.9383579,-26.611378299243,0.0 -52.9382849,-26.611334099243,0.0 -52.9382074,-26.611311199243,0.0 -52.9381193,-26.611308099243,0.0 -52.9380269,-26.611324899243,0.0 -52.9379512,-26.611346299243,0.0 -52.9378641,-26.611370899243,0.0 -52.9376736,-26.611446899243,0.0 -52.9374999,-26.611539799243,0.0 -52.9373514,-26.611626999243,0.0 -52.937144,-26.611723699243,0.0 -52.9368948,-26.611796899243,0.0 -52.9366314,-26.611885699243,0.0 -52.9364424,-26.611989299243,0.0 -52.9363559,-26.612045099243,0.0 -52.9362716,-26.612094199243,0.0 -52.9361765,-26.612150599243,0.0 -52.9360347,-26.612171699243,0.0 -52.9358905,-26.612125599243,0.0 -52.9355738,-26.612084099243,0.0 -52.9350195,-26.611999199243,0.0 -52.9347024,-26.611931499243,0.0 -52.9342621,-26.611771599243,0.0 -52.9339527,-26.611583699243,0.0 -52.9337203,-26.611360299243,0.0 -52.9335041,-26.611225699243,0.0 -52.933411,-26.611036999243,0.0 -52.933268,-26.610771799243,0.0 -52.9332548,-26.610568899243,0.0 -52.9332702,-26.610516099243,0.0 -52.9333123,-26.610371699243,0.0 -52.9334481,-26.610212699243,0.0 -52.933545,-26.610047699243,0.0 -52.93371,-26.609737999243,0.0 -52.9338242,-26.609521599243,0.0 -52.9339665,-26.609320399243,0.0 -52.9341637,-26.6090935992431,0.0 -52.9343409,-26.608874499243,0.0 -52.9345013,-26.6087259992431,0.0 -52.9346956,-26.6085271992431,0.0 -52.9348317,-26.6083758992431,0.0 -52.9350464,-26.6081518992431,0.0 -52.9353189,-26.6078648992431,0.0 -52.935578,-26.6075823992431,0.0 -52.9357035,-26.6074156992431,0.0 -52.9358569,-26.6072578992431,0.0 -52.9359905,-26.6069602992431,0.0 -52.9360906,-26.6066784992431,0.0 -52.9361594,-26.6064846992431,0.0 -52.9362616,-26.6061755992431,0.0 -52.9362852,-26.6060724992431,0.0 -52.9362881,-26.6060596992431,0.0 -52.9363359,-26.6058507992431,0.0 -52.9363143,-26.6055988992431,0.0 -52.9363545,-26.6055173992431,0.0 -52.936363,-26.6054019992431,0.0 -52.9362639,-26.6052819992431,0.0 -52.9358432,-26.6050685992431,0.0 -52.9356239,-26.6050566992431,0.0 -52.9354123,-26.6050893992431,0.0 -52.9353619,-26.6051436992431,0.0 -52.9350486,-26.6052748992431,0.0 -52.9348406,-26.6053454992431,0.0 -52.9347021,-26.6054349992431,0.0 -52.9346381,-26.6054640992431,0.0 -52.9345772,-26.6054902992431,0.0 -52.9345209,-26.6055080992431,0.0 -52.9344456,-26.6055189992431,0.0 -52.9343859,-26.6055253992431,0.0 -52.9343246,-26.6055290992431,0.0 -52.9342589,-26.6055482992431,0.0 -52.9342073,-26.6055701992431,0.0 -52.9341528,-26.6055991992431,0.0 -52.9340982,-26.6056432992431,0.0 -52.9338132,-26.6058255992431,0.0 -52.9337309,-26.6058781992431,0.0 -52.933186,-26.6062103992431,0.0 -52.9329129,-26.6063376992431,0.0 -52.9326994,-26.6063922992431,0.0 -52.932396,-26.6064250992431,0.0 -52.9321247,-26.6064690992431,0.0 -52.9319091,-26.6065013992431,0.0 -52.9313571,-26.6066007992431,0.0 -52.9308107,-26.6066484992431,0.0 -52.9302318,-26.6066735992431,0.0 -52.9297726,-26.6065791992431,0.0 -52.9293433,-26.6064973992431,0.0 -52.9287951,-26.6064415992431,0.0 -52.9283133,-26.6063360992431,0.0 -52.9279832,-26.6059266992431,0.0 -52.9278617,-26.6055534992431,0.0 -52.9278213,-26.6050550992431,0.0 -52.9277837,-26.6047222992431,0.0 -52.9277481,-26.6045071992431,0.0 -52.9277631,-26.6042540992431,0.0 -52.9277824,-26.6040710992432,0.0 -52.9277255,-26.6037326992432,0.0 -52.9275679,-26.6034962992432,0.0 -52.9272638,-26.6032991992432,0.0 -52.9270643,-26.6032386992432,0.0 -52.9268534,-26.6031774992432,0.0 -52.9266695,-26.6030879992432,0.0 -52.9264557,-26.6029385992432,0.0 -52.9261607,-26.6027097992432,0.0 -52.9258156,-26.6023848992432,0.0 -52.9256041,-26.6021721992432,0.0 -52.9254178,-26.6019419992432,0.0 -52.9251602,-26.6016551992432,0.0 -52.9249248,-26.6013689992432,0.0 -52.9247668,-26.6011066992432,0.0 -52.9246661,-26.6008292992432,0.0 -52.9246007,-26.6005410992432,0.0 -52.9245512,-26.6002600992432,0.0 -52.9244793,-26.5999822992432,0.0 -52.9244126,-26.5996296992432,0.0 -52.9244821,-26.5993622992432,0.0 -52.9246194,-26.5991534992432,0.0 -52.9248748,-26.5988715992433,0.0 -52.9251726,-26.5986666992433,0.0 -52.9255437,-26.5984730992433,0.0 -52.9258793,-26.5983414992433,0.0 -52.9262362,-26.5982826992433,0.0 -52.9269241,-26.5982036992433,0.0 -52.9273916,-26.5983121992433,0.0 -52.9285921,-26.5984507992433,0.0 -52.9294905,-26.5984017992433,0.0 -52.9306615,-26.5982751992433,0.0 -52.9310485,-26.5982206992433,0.0 -52.931416,-26.5980845992433,0.0 -52.931704,-26.5978387992433,0.0 -52.9318599,-26.5976070992433,0.0 -52.9318797,-26.5974365992433,0.0 -52.9317706,-26.5971961992433,0.0 -52.9315351,-26.5970312992433,0.0 -52.9313593,-26.5968942992433,0.0 -52.9310442,-26.5966156992433,0.0 -52.9309877,-26.5965645992433,0.0 -52.9307986,-26.5963935992433,0.0 -52.9305105,-26.5960899992433,0.0 -52.930341,-26.5959002992433,0.0 -52.9302233,-26.5957961992433,0.0 -52.9300112,-26.5955938992433,0.0 -52.9298301,-26.5954377992433,0.0 -52.9296912,-26.5953147992433,0.0 -52.9294086,-26.5950009992433,0.0 -52.9291617,-26.5946980992433,0.0 -52.928967,-26.5944840992433,0.0 -52.9287602,-26.5942949992433,0.0 -52.9285984,-26.5940571992433,0.0 -52.9284988,-26.5938801992433,0.0 -52.9283266,-26.5936323992434,0.0 -52.9281934,-26.5934307992434,0.0 -52.9280578,-26.5932369992434,0.0 -52.9279191,-26.5930057992434,0.0 -52.9278637,-26.5927390992434,0.0 -52.9278596,-26.5924433992434,0.0 -52.9278596,-26.5922776992434,0.0 -52.9278781,-26.5920045992434,0.0 -52.9279199,-26.5917334992434,0.0 -52.9279126,-26.5914514992434,0.0 -52.9279135,-26.5913181992434,0.0 -52.927925,-26.5911869992434,0.0 -52.927932,-26.5911067992434,0.0 -52.9278871,-26.5908369992434,0.0 -52.9279556,-26.5905458992434,0.0 -52.9281566,-26.5895839992434,0.0 -52.9282496,-26.5892166992434,0.0 -52.9284908,-26.5887120992434,0.0 -52.9287396,-26.5884202992435,0.0 -52.929004,-26.5882055992435,0.0 -52.929266,-26.5880601992435,0.0 -52.9297231,-26.5879517992435,0.0 -52.930019,-26.5878620992435,0.0 -52.9302512,-26.5877979992435,0.0 -52.9305764,-26.5877045992435,0.0 -52.9308977,-26.5875979992435,0.0 -52.931536,-26.5873452992435,0.0 -52.9317078,-26.5872967992435,0.0 -52.9319378,-26.5872210992435,0.0 -52.9321023,-26.5871792992435,0.0 -52.9322371,-26.5870707992435,0.0 -52.9325875,-26.5867296992435,0.0 -52.9326743,-26.5866526992435,0.0 -52.9327969,-26.5865223992435,0.0 -52.9328982,-26.5864286992435,0.0 -52.9329299,-26.5863523992435,0.0 -52.9330719,-26.5862811992435,0.0 -52.9331527,-26.5862800992435,0.0 -52.9335506,-26.5862638992435,0.0 -52.9338799,-26.5861967992435,0.0 -52.9340996,-26.5861574992435,0.0 -52.9342282,-26.5861656992435,0.0 -52.9343427,-26.5862069992435,0.0 -52.9344354,-26.5862584992435,0.0 -52.9345344,-26.5862538992435,0.0 -52.9346691,-26.5861860992435,0.0 -52.9348405,-26.5861144992435,0.0 -52.9351276,-26.5859390992435,0.0 -52.935247,-26.5858318992435,0.0 -52.9353549,-26.5856985992435,0.0 -52.9356112,-26.5854124992435,0.0 -52.9357332,-26.5852458992435,0.0 -52.9358219,-26.5850599992435,0.0 -52.9358816,-26.5849008992435,0.0 -52.9359493,-26.5847812992435,0.0 -52.9360165,-26.5846286992435,0.0 -52.9360288,-26.5844833992435,0.0 -52.9361199,-26.5840298992435,0.0 -52.936156,-26.5838561992436,0.0 -52.9361471,-26.5837366992435,0.0 -52.9361545,-26.5836335992435,0.0 -52.9361577,-26.5835509992435,0.0 -52.9362046,-26.5833335992435,0.0 -52.9363094,-26.5831996992436,0.0 -52.9363727,-26.5831179992436,0.0 -52.9363986,-26.5830377992436,0.0 -52.9364195,-26.5829603992436,0.0 -52.9364496,-26.5828896992436,0.0 -52.9365274,-26.5827139992436,0.0 -52.9366132,-26.5825394992436,0.0 -52.9367014,-26.5823911992436,0.0 -52.9367395,-26.5822126992436,0.0 -52.9366848,-26.5820724992436,0.0 -52.9365132,-26.5818665992436,0.0 -52.9362999,-26.5816967992436,0.0 -52.9360686,-26.5815018992436,0.0 -52.935774,-26.5813211992436,0.0 -52.9355291,-26.5812069992436,0.0 -52.9352288,-26.5811304992436,0.0 -52.9349071,-26.5811147992436,0.0 -52.934638,-26.5811150992436,0.0 -52.9343467,-26.5811290992436,0.0 -52.9340035,-26.5811706992436,0.0 -52.9337443,-26.5812125992436,0.0 -52.9330369,-26.5813371992436,0.0 -52.9324634,-26.5814886992436,0.0 -52.9322161,-26.5815812992436,0.0 -52.9320204,-26.5816545992436,0.0 -52.9317772,-26.5817824992436,0.0 -52.9313958,-26.5819457992436,0.0 -52.9310941,-26.5820839992436,0.0 -52.9308346,-26.5821928992436,0.0 -52.9305579,-26.5822349992436,0.0 -52.9301804,-26.5823071992436,0.0 -52.9296652,-26.5824435992436,0.0 -52.9291817,-26.5825554992436,0.0 -52.9288632,-26.5825201992436,0.0 -52.9283642,-26.5825584992436,0.0 -52.9274509,-26.5828756992436,0.0 -52.9269823,-26.5829251992436,0.0 -52.9267426,-26.5829427992436,0.0 -52.9266626,-26.5829438992436,0.0 -52.9265713,-26.5829067992436,0.0 -52.9264629,-26.5828027992436,0.0 -52.926294,-26.5825942992436,0.0 -52.9261,-26.5821560992436,0.0 -52.9259678,-26.5818102992436,0.0 -52.9258917,-26.5816184992436,0.0 -52.9258026,-26.5814025992436,0.0 -52.9257784,-26.5813338992436,0.0 -52.9257455,-26.5812401992436,0.0 -52.9257353,-26.5810964992436,0.0 -52.9257355,-26.5810407992436,0.0 -52.9256653,-26.5809752992436,0.0 -52.9256011,-26.5809464992436,0.0 -52.9255699,-26.5809430992436,0.0 -52.9254704,-26.5809719992436,0.0 -52.9253879,-26.5809807992436,0.0 -52.925274,-26.5809803992436,0.0 -52.9251439,-26.5809507992436,0.0 -52.9249949,-26.5809009992436,0.0 -52.9249019,-26.5808577992436,0.0 -52.9247807,-26.5808082992436,0.0 -52.9246973,-26.5807575992436,0.0 -52.9246456,-26.5806917992436,0.0 -52.9246159,-26.5806360992436,0.0 -52.9245424,-26.5805846992436,0.0 -52.9244577,-26.5805461992436,0.0 -52.924381,-26.5805132992436,0.0 -52.9242975,-26.5805035992436,0.0 -52.9242143,-26.5805091992436,0.0 -52.9241178,-26.5805334992436,0.0 -52.9240365,-26.5805536992436,0.0 -52.9239586,-26.5805764992436,0.0 -52.9239003,-26.5805829992436,0.0 -52.9238461,-26.5805805992436,0.0 -52.9237689,-26.5805604992436,0.0 -52.9236769,-26.5805105992436,0.0 -52.9236154,-26.5804505992436,0.0 -52.9235757,-26.5803887992436,0.0 -52.9235227,-26.5803325992436,0.0 -52.9234373,-26.5802908992436,0.0 -52.9233251,-26.5802680992436,0.0 -52.9232629,-26.5802619992436,0.0 -52.9231732,-26.5802651992436,0.0 -52.9230824,-26.5802855992436,0.0 -52.9230004,-26.5803224992436,0.0 -52.9229495,-26.5803461992436,0.0 -52.922879,-26.5804005992436,0.0 -52.9227645,-26.5804935992436,0.0 -52.9226903,-26.5805459992436,0.0 -52.9225955,-26.5806253992436,0.0 -52.922484,-26.5807272992436,0.0 -52.9224016,-26.5808049992436,0.0 -52.9223126,-26.5808899992436,0.0 -52.9222178,-26.5809686992436,0.0 -52.9221705,-26.5810066992436,0.0 -52.9220606,-26.5810797992436,0.0 -52.9219189,-26.5811628992436,0.0 -52.9218132,-26.5812302992436,0.0 -52.9217349,-26.5812828992436,0.0 -52.9216216,-26.5813650992436,0.0 -52.9214791,-26.5814059992436,0.0 -52.9213814,-26.5814258992436,0.0 -52.9213202,-26.5814242992436,0.0 -52.9212988,-26.5814237992436,0.0 -52.9211725,-26.5814094992436,0.0 -52.9210826,-26.5813985992436,0.0 -52.9209623,-26.5814039992436,0.0 -52.9208792,-26.5814153992436,0.0 -52.9207797,-26.5814304992436,0.0 -52.9206829,-26.5814413992436,0.0 -52.9205934,-26.5814441992436,0.0 -52.9204913,-26.5814327992436,0.0 -52.9204316,-26.5814193992436,0.0 -52.920347,-26.5813889992436,0.0 -52.9202674,-26.5813648992436,0.0 -52.9201955,-26.5813324992436,0.0 -52.9201113,-26.5813012992436,0.0 -52.920045,-26.5812733992436,0.0 -52.9200158,-26.5812589992436,0.0 -52.9199512,-26.5812485992436,0.0 -52.9198839,-26.5812410992436,0.0 -52.9197881,-26.5812363992436,0.0 -52.9197107,-26.5812353992436,0.0 -52.9196098,-26.5812343992436,0.0 -52.9194879,-26.5812340992436,0.0 -52.9194095,-26.5812322992436,0.0 -52.9193484,-26.5812366992436,0.0 -52.9192384,-26.5812609992436,0.0 -52.919174,-26.5812690992436,0.0 -52.9191082,-26.5812735992436,0.0 -52.9189953,-26.5812806992436,0.0 -52.9189453,-26.5812906992436,0.0 -52.918856,-26.5813226992436,0.0 -52.9187858,-26.5813567992436,0.0 -52.9187383,-26.5813933992436,0.0 -52.9187045,-26.5814285992436,0.0 -52.91868,-26.5814780992436,0.0 -52.9186659,-26.5815142992436,0.0 -52.9186656,-26.5815531992436,0.0 -52.9186717,-26.5816002992436,0.0 -52.9186905,-26.5816605992436,0.0 -52.9187103,-26.5817266992436,0.0 -52.9187446,-26.5818039992436,0.0 -52.9187695,-26.5818853992436,0.0 -52.9187866,-26.5819455992436,0.0 -52.9187954,-26.5819937992436,0.0 -52.9187963,-26.5820420992436,0.0 -52.9187876,-26.5820820992436,0.0 -52.918764,-26.5821173992436,0.0 -52.9187345,-26.5821633992436,0.0 -52.918704,-26.5822034992436,0.0 -52.918636,-26.5822651992436,0.0 -52.9185857,-26.5822991992436,0.0 -52.9185261,-26.5823279992436,0.0 -52.9184755,-26.5823382992436,0.0 -52.9184329,-26.5823463992436,0.0 -52.9183866,-26.5823689992436,0.0 -52.9183479,-26.5823966992436,0.0 -52.9183263,-26.5824144992436,0.0 -52.9182812,-26.5824874992436,0.0 -52.9182537,-26.5825445992436,0.0 -52.9182358,-26.5825974992436,0.0 -52.9182215,-26.5826760992436,0.0 -52.9181924,-26.5827466992436,0.0 -52.9181717,-26.5827897992436,0.0 -52.918145,-26.5828432992436,0.0 -52.9181103,-26.5828975992436,0.0 -52.9180625,-26.5829705992436,0.0 -52.9180242,-26.5830268992436,0.0 -52.9180067,-26.5830722992436,0.0 -52.9179951,-26.5831248992436,0.0 -52.9179825,-26.5831700992436,0.0 -52.9179618,-26.5832082992436,0.0 -52.9179286,-26.5832435992436,0.0 -52.9178867,-26.5832704992436,0.0 -52.9178386,-26.5832954992436,0.0 -52.9177941,-26.5833180992436,0.0 -52.9177615,-26.5833362992436,0.0 -52.9177477,-26.5833502992436,0.0 -52.9177331,-26.5833718992436,0.0 -52.9177003,-26.5834098992436,0.0 -52.9176797,-26.5834237992436,0.0 -52.9176498,-26.5834394992435,0.0 -52.9176154,-26.5834546992436,0.0 -52.9175211,-26.5834572992436,0.0 -52.9174685,-26.5834576992435,0.0 -52.9174496,-26.5834590992436,0.0 -52.9174083,-26.5834818992435,0.0 -52.917362,-26.5835097992436,0.0 -52.9173316,-26.5835294992436,0.0 -52.9172985,-26.5835447992436,0.0 -52.917249,-26.5835647992436,0.0 -52.9171458,-26.5835933992436,0.0 -52.9171144,-26.5836064992436,0.0 -52.9170131,-26.5836461992435,0.0 -52.916978,-26.5836810992436,0.0 -52.9169385,-26.5837372992435,0.0 -52.9169217,-26.5837797992435,0.0 -52.9168936,-26.5838309992435,0.0 -52.9168419,-26.5838906992435,0.0 -52.9168034,-26.5839184992435,0.0 -52.9167266,-26.5839563992435,0.0 -52.9166555,-26.5839736992435,0.0 -52.9165749,-26.5839868992435,0.0 -52.9164986,-26.5839935992435,0.0 -52.9164152,-26.5839946992435,0.0 -52.9163256,-26.5839934992435,0.0 -52.9162479,-26.5839757992435,0.0 -52.9161817,-26.5839258992435,0.0 -52.9161461,-26.5838678992435,0.0 -52.9161194,-26.5836813992435,0.0 -52.916096,-26.5836088992435,0.0 -52.9160205,-26.5834897992436,0.0 -52.9159994,-26.5834386992436,0.0 -52.9159822,-26.5833741992436,0.0 -52.9159735,-26.5833363992436,0.0 -52.9159525,-26.5832742992436,0.0 -52.9159396,-26.5832139992436,0.0 -52.9159283,-26.5831445992436,0.0 -52.9159262,-26.5830930992436,0.0 -52.91593,-26.5830325992436,0.0 -52.9159309,-26.5829977992436,0.0 -52.9159302,-26.5829545992436,0.0 -52.9159246,-26.5829185992436,0.0 -52.9159144,-26.5828873992436,0.0 -52.9158957,-26.5828408992436,0.0 -52.9158674,-26.5827972992436,0.0 -52.9158393,-26.5827659992436,0.0 -52.9158021,-26.5827266992436,0.0 -52.9157517,-26.5826736992436,0.0 -52.9157295,-26.5826359992436,0.0 -52.9157149,-26.5825958992436,0.0 -52.9157095,-26.5825707992436,0.0 -52.9157192,-26.5825366992436,0.0 -52.9157253,-26.5825043992436,0.0 -52.9157363,-26.5824649992436,0.0 -52.915755,-26.5824127992436,0.0 -52.9157718,-26.5823654992436,0.0 -52.9157755,-26.5823258992436,0.0 -52.91577,-26.5822945992436,0.0 -52.9157432,-26.5822651992436,0.0 -52.9157229,-26.5822459992436,0.0 -52.9156882,-26.5822341992436,0.0 -52.9156395,-26.5822246992436,0.0 -52.915605,-26.5822236992436,0.0 -52.9155551,-26.5822278992436,0.0 -52.9155005,-26.5822369992436,0.0 -52.9154439,-26.5822469992436,0.0 -52.9153835,-26.5822589992436,0.0 -52.9153252,-26.5822698992436,0.0 -52.9152386,-26.5822879992436,0.0 -52.9152004,-26.5822969992436,0.0 -52.9151234,-26.5823194992436,0.0 -52.9150413,-26.5823432992436,0.0 -52.9148827,-26.5823919992436,0.0 -52.914781,-26.5824137992436,0.0 -52.9147088,-26.5824248992436,0.0 -52.9146314,-26.5824273992436,0.0 -52.9145652,-26.5824282992436,0.0 -52.9144663,-26.5824319992436,0.0 -52.9143849,-26.5824342992436,0.0 -52.9142674,-26.5824394992436,0.0 -52.9141955,-26.5824412992436,0.0 -52.9141527,-26.5824432992436,0.0 -52.9141322,-26.5824442992436,0.0 -52.9140301,-26.5824554992436,0.0 -52.9139696,-26.5824613992436,0.0 -52.9138719,-26.5824772992436,0.0 -52.9138175,-26.5824827992436,0.0 -52.9137492,-26.5824912992436,0.0 -52.9136392,-26.5825072992436,0.0 -52.9135668,-26.5825169992436,0.0 -52.9134599,-26.5825347992436,0.0 -52.9133662,-26.5825471992436,0.0 -52.913291,-26.5825579992436,0.0 -52.9132033,-26.5825752992436,0.0 -52.9131191,-26.5825929992436,0.0 -52.9130546,-26.5826099992436,0.0 -52.9129638,-26.5826397992436,0.0 -52.9128589,-26.5826696992436,0.0 -52.9127724,-26.5826970992436,0.0 -52.9126933,-26.5827332992436,0.0 -52.9126526,-26.5827571992436,0.0 -52.9125879,-26.5827815992436,0.0 -52.9125055,-26.5827955992436,0.0 -52.9124305,-26.5828054992436,0.0 -52.9123657,-26.5828027992436,0.0 -52.9123015,-26.5827949992436,0.0 -52.9122239,-26.5827805992436,0.0 -52.9121645,-26.5827660992436,0.0 -52.9121194,-26.5827443992436,0.0 -52.9120707,-26.5827204992436,0.0 -52.9120302,-26.5826890992436,0.0 -52.9119977,-26.5826643992436,0.0 -52.9119553,-26.5826418992436,0.0 -52.9119072,-26.5826209992436,0.0 -52.9118641,-26.5826008992436,0.0 -52.911806,-26.5825748992436,0.0 -52.911742,-26.5825455992436,0.0 -52.9116672,-26.5825242992436,0.0 -52.9116274,-26.5825190992436,0.0 -52.9115767,-26.5825187992436,0.0 -52.9115318,-26.5825231992436,0.0 -52.9115065,-26.5825289992436,0.0 -52.9114426,-26.5825440992436,0.0 -52.911383,-26.5825610992436,0.0 -52.9113304,-26.5825838992436,0.0 -52.9112642,-26.5826152992436,0.0 -52.9112269,-26.5826381992436,0.0 -52.9111855,-26.5826688992436,0.0 -52.9111575,-26.5826924992436,0.0 -52.9111113,-26.5827252992436,0.0 -52.9110657,-26.5827671992436,0.0 -52.9110004,-26.5828206992436,0.0 -52.9109398,-26.5828688992436,0.0 -52.9108768,-26.5829179992436,0.0 -52.9108127,-26.5829590992436,0.0 -52.9107583,-26.5829849992436,0.0 -52.9107048,-26.5830077992436,0.0 -52.9106356,-26.5830397992436,0.0 -52.9105614,-26.5830682992436,0.0 -52.9104952,-26.5830895992436,0.0 -52.9104291,-26.5830985992436,0.0 -52.9103747,-26.5831030992436,0.0 -52.9102986,-26.5831016992436,0.0 -52.9102373,-26.5830987992436,0.0 -52.9101486,-26.5830901992436,0.0 -52.91007,-26.5830857992436,0.0 -52.9099987,-26.5830799992436,0.0 -52.9099156,-26.5830725992436,0.0 -52.9098546,-26.5830655992436,0.0 -52.909785,-26.5830542992436,0.0 -52.9097185,-26.5830429992436,0.0 -52.9096422,-26.5830307992436,0.0 -52.9095865,-26.5830253992436,0.0 -52.9095182,-26.5830225992436,0.0 -52.9094337,-26.5830162992436,0.0 -52.9093965,-26.5830120992436,0.0 -52.9093318,-26.5830070992436,0.0 -52.9092655,-26.5829958992436,0.0 -52.9091952,-26.5829750992436,0.0 -52.909134,-26.5829617992436,0.0 -52.9090572,-26.5829338992436,0.0 -52.9089861,-26.5828990992436,0.0 -52.9089181,-26.5828839992436,0.0 -52.9088484,-26.5828839992436,0.0 -52.9087688,-26.5828815992436,0.0 -52.9086923,-26.5828734992436,0.0 -52.9086399,-26.5828606992436,0.0 -52.9085464,-26.5828362992436,0.0 -52.9084793,-26.5828129992436,0.0 -52.9083993,-26.5827766992436,0.0 -52.9083061,-26.5827343992436,0.0 -52.9082207,-26.5826889992436,0.0 -52.9081539,-26.5826611992436,0.0 -52.9080918,-26.5826417992436,0.0 -52.9080162,-26.5826198992436,0.0 -52.9079642,-26.5826039992436,0.0 -52.9079056,-26.5825775992436,0.0 -52.9078625,-26.5825543992436,0.0 -52.9078181,-26.5825191992436,0.0 -52.9077784,-26.5824920992436,0.0 -52.9077299,-26.5824628992436,0.0 -52.9076811,-26.5824416992436,0.0 -52.907673,-26.5824381992436,0.0 -52.9076065,-26.5824072992436,0.0 -52.9075484,-26.5823732992436,0.0 -52.9075179,-26.5823498992436,0.0 -52.9074916,-26.5823183992436,0.0 -52.9074499,-26.5822664992436,0.0 -52.907417,-26.5822243992436,0.0 -52.9073867,-26.5821835992436,0.0 -52.907352,-26.5821371992436,0.0 -52.9073256,-26.5821025992436,0.0 -52.9072919,-26.5820719992436,0.0 -52.9072632,-26.5820440992436,0.0 -52.9072233,-26.5820159992436,0.0 -52.9071822,-26.5819798992436,0.0 -52.9071351,-26.5819400992436,0.0 -52.907097,-26.5819086992436,0.0 -52.907063,-26.5818823992436,0.0 -52.9070193,-26.5818471992436,0.0 -52.9069839,-26.5818189992436,0.0 -52.9069419,-26.5817855992436,0.0 -52.9069045,-26.5817534992436,0.0 -52.9068703,-26.5817248992436,0.0 -52.9068339,-26.5816965992436,0.0 -52.9067905,-26.5816626992436,0.0 -52.906763,-26.5816413992436,0.0 -52.9067308,-26.5816143992436,0.0 -52.9066906,-26.5815827992436,0.0 -52.9066311,-26.5815350992436,0.0 -52.9065867,-26.5815080992436,0.0 -52.9065314,-26.5814831992436,0.0 -52.9064539,-26.5814567992436,0.0 -52.9064032,-26.5814452992436,0.0 -52.9063642,-26.5814430992436,0.0 -52.9063198,-26.5814455992436,0.0 -52.906241,-26.5814652992436,0.0 -52.9061728,-26.5814927992436,0.0 -52.9061212,-26.5815127992436,0.0 -52.9060233,-26.5815451992436,0.0 -52.9059529,-26.5815715992436,0.0 -52.9058324,-26.5816085992436,0.0 -52.9057552,-26.5816350992436,0.0 -52.905685,-26.5816613992436,0.0 -52.9055752,-26.5816932992436,0.0 -52.9054727,-26.5817250992436,0.0 -52.9054007,-26.5817414992436,0.0 -52.9052613,-26.5817717992436,0.0 -52.9051433,-26.5817918992436,0.0 -52.9050592,-26.5818052992436,0.0 -52.904992,-26.5818119992436,0.0 -52.9048997,-26.5818201992436,0.0 -52.9048137,-26.5818216992436,0.0 -52.9047304,-26.5818231992436,0.0 -52.9045932,-26.5818280992436,0.0 -52.9045034,-26.5818338992436,0.0 -52.9044048,-26.5818379992436,0.0 -52.9043194,-26.5818475992436,0.0 -52.904234,-26.5818590992436,0.0 -52.9041672,-26.5818737992436,0.0 -52.9040916,-26.5818896992436,0.0 -52.9040251,-26.5819069992436,0.0 -52.9039751,-26.5819158992436,0.0 -52.9039098,-26.5819216992436,0.0 -52.903859,-26.5819180992436,0.0 -52.9038095,-26.5819104992436,0.0 -52.9037672,-26.5819033992436,0.0 -52.9037138,-26.5818936992436,0.0 -52.9036601,-26.5818775992436,0.0 -52.9036071,-26.5818648992436,0.0 -52.9035667,-26.5818573992436,0.0 -52.903524,-26.5818478992436,0.0 -52.9034754,-26.5818365992436,0.0 -52.9034491,-26.5818304992436,0.0 -52.9034022,-26.5818185992436,0.0 -52.9033595,-26.5818099992436,0.0 -52.9033069,-26.5818035992436,0.0 -52.9032599,-26.5818026992436,0.0 -52.9032309,-26.5818046992436,0.0 -52.9031889,-26.5818122992436,0.0 -52.903159,-26.5818206992436,0.0 -52.9031224,-26.5818367992436,0.0 -52.9030958,-26.5818502992436,0.0 -52.9030722,-26.5818708992436,0.0 -52.9030489,-26.5818946992436,0.0 -52.9030241,-26.5819315992436,0.0 -52.9029947,-26.5819807992436,0.0 -52.9029544,-26.5820474992436,0.0 -52.9029429,-26.5820682992436,0.0 -52.9029333,-26.5820963992436,0.0 -52.9029242,-26.5821327992436,0.0 -52.9029223,-26.5821480992436,0.0 -52.9029215,-26.5821789992436,0.0 -52.9029219,-26.5822068992436,0.0 -52.9029315,-26.5822585992436,0.0 -52.9029354,-26.5822830992436,0.0 -52.9029418,-26.5823126992436,0.0 -52.9029459,-26.5823341992436,0.0 -52.9029521,-26.5823692992436,0.0 -52.9029519,-26.5823926992436,0.0 -52.9029476,-26.5824587992436,0.0 -52.9029294,-26.5825104992436,0.0 -52.9028677,-26.5825691992436,0.0 -52.9028291,-26.5825957992436,0.0 -52.9027784,-26.5826062992436,0.0 -52.9027386,-26.5826124992436,0.0 -52.9026747,-26.5825945992436,0.0 -52.9026161,-26.5825651992436,0.0 -52.9025489,-26.5825106992436,0.0 -52.9025063,-26.5824493992436,0.0 -52.9025032,-26.5824450992436,0.0 -52.9024672,-26.5823894992436,0.0 -52.9024277,-26.5823280992436,0.0 -52.902382,-26.5822599992436,0.0 -52.902332,-26.5821917992436,0.0 -52.9022762,-26.5821280992436,0.0 -52.9022187,-26.5820828992436,0.0 -52.90215,-26.5820411992436,0.0 -52.9020756,-26.5819969992436,0.0 -52.9020073,-26.5819562992436,0.0 -52.901935,-26.5819133992436,0.0 -52.9018667,-26.5818687992436,0.0 -52.9018066,-26.5818277992436,0.0 -52.9017142,-26.5817550992436,0.0 -52.901657,-26.5817050992436,0.0 -52.9015937,-26.5816416992436,0.0 -52.9015394,-26.5815786992436,0.0 -52.9014851,-26.5815137992436,0.0 -52.9014355,-26.5814381992436,0.0 -52.9013988,-26.5813689992436,0.0 -52.9013678,-26.5813049992436,0.0 -52.9013491,-26.5812625992436,0.0 -52.901311,-26.5812740992436,0.0 -52.9012505,-26.5813104992436,0.0 -52.9011962,-26.5813568992436,0.0 -52.9011486,-26.5814060992436,0.0 -52.9011042,-26.5814588992436,0.0 -52.9010602,-26.5815152992436,0.0 -52.9010119,-26.5815793992436,0.0 -52.9009544,-26.5816556992436,0.0 -52.9009043,-26.5817110992436,0.0 -52.900856,-26.5817712992436,0.0 -52.9008048,-26.5818294992436,0.0 -52.9007508,-26.5818761992436,0.0 -52.9006918,-26.5819164992436,0.0 -52.9006095,-26.5819564992436,0.0 -52.9005193,-26.5819879992436,0.0 -52.900428,-26.5820153992436,0.0 -52.90036,-26.5820379992436,0.0 -52.9002945,-26.5820724992436,0.0 -52.9002301,-26.5821072992436,0.0 -52.9001672,-26.5821394992436,0.0 -52.9000734,-26.5821845992436,0.0 -52.8999839,-26.5822154992436,0.0 -52.8998909,-26.5822522992436,0.0 -52.8997982,-26.5822828992436,0.0 -52.8997177,-26.5823173992436,0.0 -52.8996429,-26.5823472992436,0.0 -52.8995745,-26.5823759992436,0.0 -52.8994994,-26.5824171992436,0.0 -52.8994414,-26.5824764992436,0.0 -52.8993978,-26.5825273992436,0.0 -52.8993545,-26.5825830992436,0.0 -52.8993087,-26.5826441992436,0.0 -52.8992583,-26.5827095992436,0.0 -52.8991878,-26.5827742992436,0.0 -52.8991248,-26.5828161992436,0.0 -52.8990612,-26.5828721992436,0.0 -52.8989928,-26.5829253992436,0.0 -52.8989345,-26.5829642992436,0.0 -52.8988583,-26.5829981992436,0.0 -52.8987863,-26.5830164992436,0.0 -52.8987062,-26.5830409992436,0.0 -52.8986335,-26.5830658992436,0.0 -52.8985491,-26.5830819992436,0.0 -52.8984392,-26.5831041992436,0.0 -52.898359,-26.5831222992436,0.0 -52.8982896,-26.5831332992436,0.0 -52.8982183,-26.5831567992436,0.0 -52.8981153,-26.5832089992436,0.0 -52.8980523,-26.5832559992436,0.0 -52.897989,-26.5833058992436,0.0 -52.8979536,-26.5833364992436,0.0 -52.8979332,-26.5833541992436,0.0 -52.8978852,-26.5834147992436,0.0 -52.8978165,-26.5834604992436,0.0 -52.8977392,-26.5834991992436,0.0 -52.8976841,-26.5835525992436,0.0 -52.8976344,-26.5836140992435,0.0 -52.8975887,-26.5837099992436,0.0 -52.8975654,-26.5837856992435,0.0 -52.8975461,-26.5838609992436,0.0 -52.8975254,-26.5839337992435,0.0 -52.8975311,-26.5839902992435,0.0 -52.8975266,-26.5840113992435,0.0 -52.8975273,-26.5840321992435,0.0 -52.8975266,-26.5840467992435,0.0 -52.8975273,-26.5840662992435,0.0 -52.8975287,-26.5840763992436,0.0 -52.8975245,-26.5841128992435,0.0 -52.8975147,-26.5841419992435,0.0 -52.8975049,-26.5841595992435,0.0 -52.8974937,-26.5841784992435,0.0 -52.8974783,-26.5841974992435,0.0 -52.8974446,-26.5842276992435,0.0 -52.8973927,-26.5842642992435,0.0 -52.8973794,-26.5842724992435,0.0 -52.8973521,-26.5842882992435,0.0 -52.8973226,-26.5843021992435,0.0 -52.8972574,-26.5843393992435,0.0 -52.8972448,-26.5843481992435,0.0 -52.8972371,-26.5843563992435,0.0 -52.8972273,-26.5843626992435,0.0 -52.8972189,-26.5843702992435,0.0 -52.897195,-26.5843891992435,0.0 -52.8971719,-26.5844061992435,0.0 -52.8971565,-26.5844200992435,0.0 -52.8971179,-26.5844585992435,0.0 -52.8971081,-26.5844711992435,0.0 -52.8970927,-26.5844938992435,0.0 -52.8970857,-26.5845077992435,0.0 -52.8970724,-26.5845398992435,0.0 -52.8970598,-26.5845802992435,0.0 -52.897057,-26.5845978992435,0.0 -52.8970437,-26.5846439992435,0.0 -52.8970366,-26.5846603992435,0.0 -52.8970233,-26.5847000992435,0.0 -52.8970191,-26.5847088992435,0.0 -52.8970142,-26.5847258992435,0.0 -52.8970079,-26.5847416992435,0.0 -52.8969967,-26.5847618992435,0.0 -52.896989,-26.5847738992435,0.0 -52.8969729,-26.5847946992435,0.0 -52.8969519,-26.5848135992435,0.0 -52.8969413,-26.5848217992435,0.0 -52.8969056,-26.5848438992435,0.0 -52.8968902,-26.5848514992435,0.0 -52.8968621,-26.5848627992435,0.0 -52.8968221,-26.5848734992435,0.0 -52.8968102,-26.5848791992435,0.0 -52.8967976,-26.5848829992435,0.0 -52.8967738,-26.5848917992435,0.0 -52.8967625,-26.5848968992435,0.0 -52.8967506,-26.5849000992435,0.0 -52.8967233,-26.5849107992435,0.0 -52.8966959,-26.5849252992435,0.0 -52.8966637,-26.5849454992435,0.0 -52.8966553,-26.5849529992435,0.0 -52.8966469,-26.5849580992435,0.0 -52.8966342,-26.5849693992435,0.0 -52.8965929,-26.5850129992435,0.0 -52.8965662,-26.5850494992435,0.0 -52.8965578,-26.5850595992435,0.0 -52.8965445,-26.5850803992435,0.0 -52.8965354,-26.5850885992435,0.0 -52.8965291,-26.5850967992435,0.0 -52.8964716,-26.5851510992435,0.0 -52.8964646,-26.5851611992435,0.0 -52.8964317,-26.5852008992435,0.0 -52.8964029,-26.5852317992435,0.0 -52.8963552,-26.5852746992435,0.0 -52.89633,-26.5853011992435,0.0 -52.896323,-26.5853099992435,0.0 -52.8963181,-26.5853181992435,0.0 -52.8962915,-26.5853522992435,0.0 -52.8962606,-26.5854026992435,0.0 -52.8962487,-26.5854158992435,0.0 -52.8962375,-26.5854259992435,0.0 -52.896227,-26.5854304992435,0.0 -52.8961933,-26.5854405992435,0.0 -52.8961099,-26.5854487992435,0.0 -52.8960972,-26.5854487992435,0.0 -52.8960811,-26.5854468992435,0.0 -52.8960664,-26.5854462992435,0.0 -52.8960173,-26.5854411992435,0.0 -52.8959942,-26.5854430992435,0.0 -52.8959836,-26.5854424992435,0.0 -52.8959184,-26.5854469992435,0.0 -52.8958827,-26.5854525992435,0.0 -52.8958518,-26.5854601992435,0.0 -52.8958399,-26.5854620992435,0.0 -52.8958301,-26.5854671992435,0.0 -52.8958196,-26.5854702992435,0.0 -52.8958111,-26.5854765992435,0.0 -52.8957992,-26.5854822992435,0.0 -52.8957803,-26.5854942992435,0.0 -52.8957642,-26.5855062992435,0.0 -52.8957396,-26.5855282992435,0.0 -52.8957312,-26.5855371992435,0.0 -52.8957249,-26.5855478992435,0.0 -52.8957046,-26.5855774992435,0.0 -52.8956618,-26.5856487992435,0.0 -52.8956548,-26.5856575992435,0.0 -52.8956485,-26.5856682992435,0.0 -52.895631,-26.5856891992435,0.0 -52.8956198,-26.5857004992435,0.0 -52.8956015,-26.5857218992435,0.0 -52.89557,-26.5857666992435,0.0 -52.8955644,-26.5857767992435,0.0 -52.8955581,-26.5857849992435,0.0 -52.8955511,-26.5857925992435,0.0 -52.8955427,-26.5858000992435,0.0 -52.8955378,-26.5858082992435,0.0 -52.8955111,-26.5858322992435,0.0 -52.8954908,-26.5858530992435,0.0 -52.8954761,-26.5858713992435,0.0 -52.8954656,-26.5858896992435,0.0 -52.8954628,-26.5858997992435,0.0 -52.8954494,-26.5859281992435,0.0 -52.8954389,-26.5859564992435,0.0 -52.8954333,-26.5859842992435,0.0 -52.8954326,-26.5860075992435,0.0 -52.8954362,-26.5860409992435,0.0 -52.8954397,-26.5860504992435,0.0 -52.8954684,-26.5860901992435,0.0 -52.8954748,-26.5860970992435,0.0 -52.895486,-26.5861248992435,0.0 -52.8954867,-26.5861330992435,0.0 -52.8954818,-26.5861475992435,0.0 -52.8954713,-26.5861670992435,0.0 -52.8954566,-26.5861878992435,0.0 -52.8954453,-26.5861992992435,0.0 -52.8954243,-26.5862181992435,0.0 -52.8954061,-26.5862370992435,0.0 -52.8953942,-26.5862465992435,0.0 -52.8953829,-26.5862578992435,0.0 -52.8953738,-26.5862685992435,0.0 -52.8953626,-26.5862786992435,0.0 -52.8953556,-26.5862875992435,0.0 -52.8953465,-26.5862957992435,0.0 -52.8953332,-26.5863127992435,0.0 -52.89531,-26.5863373992435,0.0 -52.8952876,-26.5863701992435,0.0 -52.8952799,-26.5863833992435,0.0 -52.8952624,-26.5864054992435,0.0 -52.8952322,-26.5864338992435,0.0 -52.8952259,-26.5864420992435,0.0 -52.8952175,-26.5864495992435,0.0 -52.8952105,-26.5864596992435,0.0 -52.8951951,-26.5864760992435,0.0 -52.8951888,-26.5864855992435,0.0 -52.8951706,-26.5865044992435,0.0 -52.8951271,-26.5865435992435,0.0 -52.8951124,-26.5865555992435,0.0 -52.895104,-26.5865618992435,0.0 -52.8950955,-26.5865669992435,0.0 -52.895078,-26.5865801992435,0.0 -52.8950598,-26.5865889992435,0.0 -52.8950289,-26.5866003992435,0.0 -52.8949932,-26.5866098992435,0.0 -52.894949,-26.5866142992435,0.0 -52.8949364,-26.5866129992435,0.0 -52.8949251,-26.5866142992435,0.0 -52.894895,-26.5866148992435,0.0 -52.8948599,-26.5866212992435,0.0 -52.8948123,-26.5866338992435,0.0 -52.8948003,-26.5866382992435,0.0 -52.8947828,-26.5866464992435,0.0 -52.8947688,-26.5866565992435,0.0 -52.894733,-26.5866786992435,0.0 -52.8947253,-26.5866842992435,0.0 -52.8947113,-26.5866969992435,0.0 -52.8947015,-26.5867069992435,0.0 -52.894684,-26.5867278992435,0.0 -52.8946748,-26.5867360992435,0.0 -52.8946468,-26.5867675992435,0.0 -52.8946405,-26.5867770992435,0.0 -52.8946335,-26.5867845992435,0.0 -52.8946068,-26.5868072992435,0.0 -52.8945704,-26.5868350992435,0.0 -52.8945458,-26.5868520992435,0.0 -52.8945143,-26.5868753992435,0.0 -52.8944961,-26.5868867992435,0.0 -52.8944862,-26.5868943992435,0.0 -52.8944533,-26.5869138992435,0.0 -52.8944386,-26.5869258992435,0.0 -52.8944302,-26.5869309992435,0.0 -52.8944217,-26.5869384992435,0.0 -52.8944028,-26.5869517992435,0.0 -52.8943937,-26.5869599992435,0.0 -52.8943474,-26.5869952992435,0.0 -52.8943306,-26.5870053992435,0.0 -52.8943229,-26.5870122992435,0.0 -52.8943019,-26.5870248992435,0.0 -52.8942927,-26.5870318992435,0.0 -52.8942619,-26.5870520992435,0.0 -52.8942282,-26.5870709992435,0.0 -52.8941834,-26.5870949992435,0.0 -52.8941665,-26.5871024992435,0.0 -52.894053,-26.5871693992435,0.0 -52.8940403,-26.5871807992435,0.0 -52.8940249,-26.5871920992435,0.0 -52.8939828,-26.5872298992435,0.0 -52.893966,-26.5872500992435,0.0 -52.8939254,-26.5872917992435,0.0 -52.8939148,-26.5873011992435,0.0 -52.8939029,-26.5873144992435,0.0 -52.8938756,-26.5873390992435,0.0 -52.8938202,-26.5873837992435,0.0 -52.893802,-26.5873964992435,0.0 -52.8937859,-26.5874096992435,0.0 -52.8937424,-26.5874411992435,0.0 -52.8937122,-26.5874594992435,0.0 -52.8936835,-26.5874790992435,0.0 -52.8936681,-26.5874878992435,0.0 -52.8936526,-26.5874992992435,0.0 -52.8936351,-26.5875086992435,0.0 -52.893619,-26.5875194992435,0.0 -52.8935797,-26.5875358992435,0.0 -52.8935426,-26.5875465992435,0.0 -52.8935075,-26.5875528992435,0.0 -52.8934872,-26.5875572992435,0.0 -52.893443,-26.5875642992435,0.0 -52.8933939,-26.5875705992435,0.0 -52.8933434,-26.5875819992435,0.0 -52.8933203,-26.5875888992435,0.0 -52.8933034,-26.5875951992435,0.0 -52.8932761,-26.5876071992435,0.0 -52.8932642,-26.5876166992435,0.0 -52.8932516,-26.5876279992435,0.0 -52.8932375,-26.5876430992435,0.0 -52.8932109,-26.5876771992435,0.0 -52.893185,-26.5877131992435,0.0 -52.8931604,-26.5877402992435,0.0 -52.8931099,-26.5877931992435,0.0 -52.89307,-26.5878392992435,0.0 -52.8930448,-26.5878669992435,0.0 -52.8930307,-26.5878808992435,0.0 -52.8930174,-26.5878966992435,0.0 -52.8930027,-26.5879111992435,0.0 -52.8929711,-26.5879382992435,0.0 -52.8929375,-26.5879634992435,0.0 -52.8929186,-26.5879767992435,0.0 -52.8928982,-26.5879887992435,0.0 -52.8928765,-26.5879994992435,0.0 -52.8928576,-26.5880101992435,0.0 -52.8928162,-26.5880259992435,0.0 -52.8927482,-26.5880454992435,0.0 -52.8927019,-26.5880543992435,0.0 -52.892678,-26.5880581992435,0.0 -52.8926283,-26.5880688992435,0.0 -52.892603,-26.5880751992435,0.0 -52.8925378,-26.5880960992435,0.0 -52.8925048,-26.5881105992435,0.0 -52.8924719,-26.5881300992435,0.0 -52.8924565,-26.5881401992435,0.0 -52.8924207,-26.5881748992435,0.0 -52.8924088,-26.5881893992435,0.0 -52.8923941,-26.5882051992435,0.0 -52.892366,-26.5882404992435,0.0 -52.8923471,-26.5882725992435,0.0 -52.8923352,-26.5883034992435,0.0 -52.8923317,-26.5883167992435,0.0 -52.8923233,-26.5883381992435,0.0 -52.8923009,-26.5884024992435,0.0 -52.8922939,-26.5884264992435,0.0 -52.8922722,-26.5884888992435,0.0 -52.8922637,-26.5885090992435,0.0 -52.8922539,-26.5885279992434,0.0 -52.8922343,-26.5885607992435,0.0 -52.8921972,-26.5886017992435,0.0 -52.8921831,-26.5886143992435,0.0 -52.8921726,-26.5886263992435,0.0 -52.8921523,-26.5886458992435,0.0 -52.8921327,-26.5886686992435,0.0 -52.8921242,-26.5886799992434,0.0 -52.8921081,-26.5887045992434,0.0 -52.8920976,-26.5887430992434,0.0 -52.8920969,-26.5887688992435,0.0 -52.8921004,-26.5887934992434,0.0 -52.8921012,-26.5888268992434,0.0 -52.8920969,-26.5888457992435,0.0 -52.8920135,-26.5889813992434,0.0 -52.8919974,-26.5889971992434,0.0 -52.8919673,-26.5890330992434,0.0 -52.8919497,-26.5890513992434,0.0 -52.8919336,-26.5890709992434,0.0 -52.8919161,-26.5890891992434,0.0 -52.8919007,-26.5891081992434,0.0 -52.8918684,-26.5891396992434,0.0 -52.8918334,-26.5891686992434,0.0 -52.891818,-26.5891825992434,0.0 -52.8918004,-26.5891945992434,0.0 -52.8917303,-26.5892525992434,0.0 -52.8917107,-26.5892676992434,0.0 -52.8916925,-26.5892840992434,0.0 -52.8916539,-26.5893149992434,0.0 -52.8916357,-26.5893313992434,0.0 -52.8915999,-26.5893597992434,0.0 -52.8915852,-26.5893742992434,0.0 -52.8915698,-26.5893856992434,0.0 -52.8915116,-26.5894329992434,0.0 -52.8914983,-26.5894423992434,0.0 -52.8914828,-26.5894512992434,0.0 -52.8914646,-26.5894613992434,0.0 -52.8914471,-26.5894695992434,0.0 -52.8914281,-26.5894764992434,0.0 -52.8913734,-26.5894991992434,0.0 -52.8913187,-26.5895181992434,0.0 -52.8912984,-26.5895237992434,0.0 -52.8912598,-26.5895307992434,0.0 -52.891222,-26.5895345992434,0.0 -52.8911567,-26.5895364992434,0.0 -52.8911084,-26.5895395992434,0.0 -52.8910214,-26.5895434992434,0.0 -52.8909779,-26.5895434992434,0.0 -52.8908324,-26.5895403992434,0.0 -52.8907015,-26.5895536992434,0.0 -52.8905011,-26.5895963992434,0.0 -52.8904819,-26.5895986992434,0.0 -52.8904387,-26.5896001992434,0.0 -52.8904046,-26.5895984992434,0.0 -52.8903857,-26.5895967992434,0.0 -52.8903669,-26.5895962992434,0.0 -52.8903362,-26.5895914992434,0.0 -52.8903083,-26.5895853992434,0.0 -52.8902817,-26.5895804992434,0.0 -52.8902454,-26.5895694992434,0.0 -52.8902342,-26.5895644992434,0.0 -52.8902231,-26.5895620992434,0.0 -52.8902007,-26.5895534992434,0.0 -52.8901909,-26.5895484992434,0.0 -52.890179,-26.5895441992434,0.0 -52.8901545,-26.5895336992434,0.0 -52.8901419,-26.5895274992434,0.0 -52.8901286,-26.5895194992434,0.0 -52.8901153,-26.5895126992434,0.0 -52.8901048,-26.5895045992434,0.0 -52.8900831,-26.5894927992434,0.0 -52.8900431,-26.5894636992434,0.0 -52.8900354,-26.5894555992434,0.0 -52.8900059,-26.5894293992434,0.0 -52.8899947,-26.5894169992434,0.0 -52.8899807,-26.5894044992434,0.0 -52.889968,-26.5893920992434,0.0 -52.8899553,-26.5893770992434,0.0 -52.8899413,-26.5893621992434,0.0 -52.8898999,-26.5893241992434,0.0 -52.8898627,-26.5892949992434,0.0 -52.8898508,-26.5892881992434,0.0 -52.8898382,-26.5892782992434,0.0 -52.8897997,-26.5892565992434,0.0 -52.8897703,-26.5892429992434,0.0 -52.8897172,-26.5892207992434,0.0 -52.8897004,-26.5892158992434,0.0 -52.8896655,-26.5892072992434,0.0 -52.8896494,-26.5892042992434,0.0 -52.8896348,-26.5892024992434,0.0 -52.8896054,-26.5891963992434,0.0 -52.8895259,-26.5891893992434,0.0 -52.8895127,-26.5891863992434,0.0 -52.8894945,-26.5891839992434,0.0 -52.8894477,-26.5891685992434,0.0 -52.8893541,-26.5891453992434,0.0 -52.8892549,-26.5891159992434,0.0 -52.8892214,-26.5891048992434,0.0 -52.8891822,-26.5890863992434,0.0 -52.8891541,-26.5890652992435,0.0 -52.8891436,-26.5890558992434,0.0 -52.8891338,-26.5890446992434,0.0 -52.8891225,-26.5890334992434,0.0 -52.8891028,-26.5890072992434,0.0 -52.8890873,-26.5889823992434,0.0 -52.8890774,-26.5889685992434,0.0 -52.8890689,-26.5889523992434,0.0 -52.8890513,-26.5889217992434,0.0 -52.8890081,-26.5888387992435,0.0 -52.888989,-26.5887993992434,0.0 -52.8889636,-26.5887594992434,0.0 -52.8889544,-26.5887425992434,0.0 -52.8889128,-26.5886846992434,0.0 -52.8888713,-26.5886366992435,0.0 -52.8888383,-26.5885998992435,0.0 -52.8888045,-26.5885662992435,0.0 -52.8887891,-26.5885525992435,0.0 -52.8887561,-26.5885258992435,0.0 -52.8887232,-26.5885053992435,0.0 -52.8886973,-26.5884924992435,0.0 -52.8886903,-26.5884874992434,0.0 -52.8886791,-26.5884824992435,0.0 -52.8886735,-26.5884787992435,0.0 -52.8886609,-26.5884750992435,0.0 -52.8885735,-26.5884399992435,0.0 -52.8885505,-26.5884319992435,0.0 -52.8885274,-26.5884251992435,0.0 -52.8885058,-26.5884171992435,0.0 -52.8884583,-26.5884049992435,0.0 -52.8883724,-26.5883873992435,0.0 -52.8883424,-26.5883819992435,0.0 -52.8883138,-26.5883776992434,0.0 -52.8882838,-26.5883747992435,0.0 -52.8882538,-26.5883693992435,0.0 -52.88817,-26.5883560992435,0.0 -52.8881219,-26.5883494992435,0.0 -52.8880835,-26.5883403992435,0.0 -52.8880632,-26.5883335992435,0.0 -52.8880248,-26.5883181992435,0.0 -52.8880073,-26.5883088992435,0.0 -52.8879737,-26.5882940992435,0.0 -52.887959,-26.5882847992435,0.0 -52.887945,-26.5882772992435,0.0 -52.8879331,-26.5882679992435,0.0 -52.8879218,-26.5882605992435,0.0 -52.8878945,-26.5882387992435,0.0 -52.8878784,-26.5882269992435,0.0 -52.8878461,-26.5882008992435,0.0 -52.8878195,-26.5881810992435,0.0 -52.8878075,-26.5881691992435,0.0 -52.8877935,-26.5881592992435,0.0 -52.8877795,-26.5881467992435,0.0 -52.8877634,-26.5881374992435,0.0 -52.887736,-26.5881182992435,0.0 -52.8877234,-26.5881108992435,0.0 -52.8877087,-26.5880990992435,0.0 -52.8876898,-26.5880872992435,0.0 -52.8876667,-26.5880704992435,0.0 -52.887661,-26.5880654992435,0.0 -52.887647,-26.5880568992435,0.0 -52.8876323,-26.5880449992435,0.0 -52.8876141,-26.5880325992435,0.0 -52.887598,-26.5880195992435,0.0 -52.8875818,-26.5880089992435,0.0 -52.8875531,-26.5879847992435,0.0 -52.8875222,-26.5879623992435,0.0 -52.8875026,-26.5879499992435,0.0 -52.8874662,-26.5879251992435,0.0 -52.8874123,-26.5878947992435,0.0 -52.8873808,-26.5878793992435,0.0 -52.8873647,-26.5878725992435,0.0 -52.8873486,-26.5878644992435,0.0 -52.8873158,-26.5878515992435,0.0 -52.8872773,-26.5878411992435,0.0 -52.8872564,-26.5878362992435,0.0 -52.887188,-26.5878291992435,0.0 -52.8871643,-26.5878293992435,0.0 -52.8871399,-26.5878276992435,0.0 -52.8871142,-26.5878296992435,0.0 -52.8870619,-26.5878306992435,0.0 -52.8870117,-26.5878334992435,0.0 -52.886963,-26.5878387992435,0.0 -52.8869393,-26.5878426992435,0.0 -52.8869163,-26.5878434992435,0.0 -52.8868926,-26.5878460992435,0.0 -52.8868717,-26.5878462992435,0.0 -52.8868487,-26.5878444992435,0.0 -52.8868285,-26.5878414992435,0.0 -52.8868096,-26.5878359992435,0.0 -52.8867956,-26.5878297992435,0.0 -52.8867823,-26.5878217992435,0.0 -52.8867536,-26.5878024992435,0.0 -52.8867073,-26.5877614992435,0.0 -52.8866939,-26.5877508992435,0.0 -52.8866652,-26.5877303992435,0.0 -52.8866484,-26.5877204992435,0.0 -52.8866078,-26.5876994992435,0.0 -52.8865652,-26.5876840992435,0.0 -52.8865261,-26.5876742992435,0.0 -52.8864821,-26.5876676992435,0.0 -52.8864668,-26.5876665992435,0.0 -52.8864319,-26.5876617992435,0.0 -52.8864151,-26.5876605992435,0.0 -52.8863398,-26.5876585992435,0.0 -52.8863203,-26.5876599992435,0.0 -52.8862883,-26.5876651992435,0.0 -52.8862577,-26.5876678992435,0.0 -52.8862159,-26.5876731992435,0.0 -52.8861044,-26.5876788992435,0.0 -52.8860264,-26.5876793992435,0.0 -52.8859811,-26.5876814992435,0.0 -52.8859574,-26.5876803992435,0.0 -52.88591,-26.5876819992435,0.0 -52.8858674,-26.5876803992435,0.0 -52.8858117,-26.5876856992435,0.0 -52.8857366,-26.5877011992435,0.0 -52.8856997,-26.5877095992435,0.0 -52.8856844,-26.5877109992435,0.0 -52.8856676,-26.5877110992435,0.0 -52.8856537,-26.5877098992435,0.0 -52.8856384,-26.5877099992435,0.0 -52.8856258,-26.5877087992435,0.0 -52.8855965,-26.5876989992435,0.0 -52.8854278,-26.5878341992435,0.0 -52.8852365,-26.5879513992435,0.0 -52.8851387,-26.5879609992435,0.0 -52.8848453,-26.5879494992435,0.0 -52.8843385,-26.5879204992435,0.0 -52.883529,-26.5878307992435,0.0 -52.8830801,-26.5877619992435,0.0 -52.8826492,-26.5876047992435,0.0 -52.8824028,-26.5875315992435,0.0 -52.8819499,-26.5875735992435,0.0 -52.8813998,-26.5876962992435,0.0 -52.881278,-26.5877504992435,0.0 -52.8812611,-26.5879538992435,0.0 -52.8812066,-26.5882632992435,0.0 -52.8811976,-26.5885742992435,0.0 -52.8812915,-26.5888479992434,0.0 -52.8813588,-26.5889902992434,0.0 -52.8814227,-26.5891251992434,0.0 -52.8814519,-26.5892759992434,0.0 -52.8814941,-26.5894064992434,0.0 -52.8815041,-26.5894966992434,0.0 -52.8815016,-26.5895711992434,0.0 -52.8814344,-26.5896847992434,0.0 -52.8813545,-26.5897729992434,0.0 -52.8811491,-26.5899222992434,0.0 -52.8809535,-26.5900370992434,0.0 -52.8808569,-26.5900868992434,0.0 -52.8806821,-26.5901826992434,0.0 -52.8804823,-26.5902741992434,0.0 -52.8803616,-26.5903491992434,0.0 -52.8800827,-26.5906050992434,0.0 -52.8797831,-26.5908880992434,0.0 -52.8795542,-26.5911669992434,0.0 -52.8793731,-26.5913584992434,0.0 -52.8791414,-26.5914885992434,0.0 -52.879036,-26.5915456992434,0.0 -52.878882,-26.5916122992434,0.0 -52.8786489,-26.5916872992434,0.0 -52.8784907,-26.5917246992434,0.0 -52.8783326,-26.5917642992434,0.0 -52.8782702,-26.5917933992434,0.0 -52.8782181,-26.5918328992434,0.0 -52.8781869,-26.5918745992434,0.0 -52.8781703,-26.5919535992434,0.0 -52.8781474,-26.5920617992434,0.0 -52.8781132,-26.5921498992434,0.0 -52.8779399,-26.5926504992434,0.0 -52.8778186,-26.5929077992434,0.0 -52.8777312,-26.5934342992434,0.0 -52.8776761,-26.5935918992434,0.0 -52.8776162,-26.5936641992434,0.0 -52.8775023,-26.5937463992434,0.0 -52.8773784,-26.5938025992434,0.0 -52.8772796,-26.5938473992434,0.0 -52.8771693,-26.5939513992434,0.0 -52.8771211,-26.5940556992433,0.0 -52.8771079,-26.5941449992433,0.0 -52.8771006,-26.5942687992433,0.0 -52.877135,-26.5944424992433,0.0 -52.8771613,-26.5946044992433,0.0 -52.8772603,-26.5948463992433,0.0 -52.8772883,-26.5950504992433,0.0 -52.8676371,-26.5945672992433,0.0 -52.8577183,-26.5940707992433,0.0 -52.8543523,-26.5938736992433,0.0 -52.8529495,-26.5937915992433,0.0 -52.8395952,-26.5930096992434,0.0 -52.8395956,-26.5931931992434,0.0 -52.8396225,-26.6058575992431,0.0 -52.8403525,-26.6060329992431,0.0 -52.8415446,-26.6064286992431,0.0 -52.8427117,-26.6071424992431,0.0 -52.8436598,-26.6077698992431,0.0 -52.8443767,-26.6083032992431,0.0 -52.8448516,-26.6087737992431,0.0 -52.8453966,-26.6089907992431,0.0 -52.8460288,-26.609157799243,0.0 -52.8464519,-26.609357999243,0.0 -52.8467038,-26.609587499243,0.0 -52.847295,-26.610048899243,0.0 -52.8478463,-26.610186899243,0.0 -52.8485654,-26.610327699243,0.0 -52.8494586,-26.610695799243,0.0 -52.8509779,-26.611528999243,0.0 -52.8515887,-26.612132499243,0.0 -52.8517842,-26.613093499243,0.0 -52.8516134,-26.613995099243,0.0 -52.8512963,-26.6150302992429,0.0 -52.8510819,-26.6155911992429,0.0 -52.8505943,-26.6167901992429,0.0 -52.8499159,-26.6176174992429,0.0 -52.8488043,-26.6181679992429,0.0 -52.8482756,-26.6183807992429,0.0 -52.8472367,-26.6186541992429,0.0 -52.8462096,-26.6190315992429,0.0 -52.8450125,-26.6194596992428,0.0 -52.8438048,-26.6197682992428,0.0 -52.8428427,-26.6198482992428,0.0 -52.8421532,-26.6199142992428,0.0 -52.841913,-26.6201551992428,0.0 -52.8415544,-26.6205489992428,0.0 -52.8410811,-26.6206220992428,0.0 -52.8393569,-26.6207304992428,0.0 -52.838477,-26.6210564992428,0.0 -52.8379053,-26.6215356992428,0.0 -52.8369596,-26.6228923992428,0.0 -52.8363822,-26.6241416992428,0.0 -52.8362234,-26.6252110992427,0.0 -52.8358808,-26.6263378992427,0.0 -52.8355877,-26.6271153992427,0.0 -52.8349058,-26.6282288992427,0.0 -52.8342702,-26.6292896992427,0.0 -52.8334653,-26.6308016992426,0.0 -52.8469366,-26.6307416992426,0.0 -52.847515,-26.6317030992426,0.0 -52.8481848,-26.6327072992426,0.0 -52.848495,-26.6334074992426,0.0 -52.8486252,-26.6337759992426,0.0 -52.8487536,-26.6340764992426,0.0 -52.8487789,-26.6341757992426,0.0 -52.8488291,-26.6343732992426,0.0 -52.8488369,-26.6344040992426,0.0 -52.848817,-26.6348205992425,0.0 -52.8481494,-26.6354886992425,0.0 -52.8477849,-26.6360006992425,0.0 -52.8470903,-26.6369383992425,0.0 -52.8465515,-26.6375080992425,0.0 -52.8462405,-26.6379938992425,0.0 -52.8461116,-26.6383251992425,0.0 -52.8459409,-26.6388077992425,0.0 -52.8459831,-26.6393697992425,0.0 -52.8461491,-26.6398853992424,0.0 -52.8463416,-26.6403530992424,0.0 -52.8465783,-26.6407258992424,0.0 -52.8469297,-26.6411472992424,0.0 -52.8475516,-26.6416830992424,0.0 -52.8480987,-26.6423070992424,0.0 -52.8482907,-26.6428475992424,0.0 -52.8483613,-26.6435213992424,0.0 -52.8484487,-26.6441594992424,0.0 -52.848604,-26.6444267992424,0.0 -52.8488574,-26.6445673992423,0.0 -52.8493501,-26.6448693992423,0.0 -52.8499238,-26.6450475992423,0.0 -52.8503454,-26.6452678992423,0.0 -52.8507195,-26.6453961992423,0.0 -52.8511982,-26.6455339992423,0.0 -52.8515904,-26.6456654992423,0.0 -52.851775,-26.6458523992423,0.0 -52.8519889,-26.6465548992423,0.0 -52.8523106,-26.6472311992423,0.0 -52.852681,-26.6479577992423,0.0 -52.8531517,-26.6489914992423,0.0 -52.8533579,-26.6494475992423,0.0 -52.853622,-26.6500490992422,0.0 -52.8538582,-26.6507838992422,0.0 -52.8539822,-26.6517448992422,0.0 -52.8541572,-26.6525306992422,0.0 -52.8546175,-26.6541570992422,0.0 -52.8546597,-26.6549035992422,0.0 -52.8544699,-26.6556306992421,0.0 -52.8540287,-26.6566263992421,0.0 -52.8534993,-26.6575057992421,0.0 -52.8526018,-26.6581439992421,0.0 -52.8512546,-26.6591234992421,0.0 -52.8507961,-26.6597075992421,0.0 -52.8503526,-26.660194499242,0.0 -52.8497007,-26.660965199242,0.0 -52.8491807,-26.661686699242,0.0 -52.8484431,-26.662395599242,0.0 -52.8475577,-26.663209499242,0.0 -52.8467533,-26.664082599242,0.0 -52.8458016,-26.664995299242,0.0 -52.8450494,-26.6657107992419,0.0 -52.8447562,-26.6663363992419,0.0 -52.8445134,-26.6669768992419,0.0 -52.8445504,-26.6675760992419,0.0 -52.8447632,-26.6685289992419,0.0 -52.8448568,-26.6694744992419,0.0 -52.8520506,-26.6699886992419,0.0 -52.8546305,-26.6701730992419,0.0 -52.8655462,-26.6709533992418,0.0 -52.8792136,-26.6716915992418,0.0 -52.8885427,-26.6721954992418,0.0 -52.8993766,-26.6726192992418,0.0 -52.9079718,-26.6731297992418,0.0 -52.9151614,-26.6732894992418,0.0 -52.91983,-26.6725321992418,0.0 -52.9198497,-26.6721595992418,0.0 -52.9198229,-26.6717968992418,0.0 -52.9198063,-26.6714247992418,0.0 -52.9197674,-26.6709598992418,0.0 -52.9197042,-26.6705883992418,0.0 -52.9195642,-26.6699619992419,0.0 -52.9194552,-26.6696376992419,0.0 -52.9191636,-26.6688549992419,0.0 -52.9190179,-26.6685087992419,0.0 -52.9188969,-26.6681775992419,0.0 -52.9188561,-26.6680658992419,0.0 -52.9187001,-26.6676255992419,0.0 -52.9185027,-26.6671464992419,0.0 -52.918406,-26.6669435992419,0.0 -52.9182091,-26.6666695992419,0.0 -52.9181408,-26.6665353992419,0.0 -52.9179864,-26.6663855992419,0.0 -52.9179216,-26.6663065992419,0.0 -52.9177489,-26.6660960992419,0.0 -52.9175606,-26.6658234992419,0.0 -52.9174301,-26.6656425992419,0.0 -52.9172583,-26.6654775992419,0.0 -52.9170476,-26.6653285992419,0.0 -52.9168061,-26.665241599242,0.0 -52.9165183,-26.6651728992419,0.0 -52.9162136,-26.665115299242,0.0 -52.9159829,-26.6650941992419,0.0 -52.9156324,-26.6650835992419,0.0 -52.9153632,-26.6650981992419,0.0 -52.914909,-26.6651879992419,0.0 -52.9146058,-26.6652228992419,0.0 -52.9139481,-26.6652977992419,0.0 -52.9135022,-26.6652949992419,0.0 -52.9130873,-26.6653907992419,0.0 -52.9125499,-26.6656334992419,0.0 -52.9122144,-26.6657876992419,0.0 -52.9115777,-26.6660955992419,0.0 -52.9115497,-26.6661140992419,0.0 -52.9111682,-26.6663652992419,0.0 -52.9109719,-26.6664955992419,0.0 -52.9108582,-26.6665784992419,0.0 -52.9107642,-26.6666699992419,0.0 -52.9106243,-26.6668389992419,0.0 -52.9105124,-26.6669465992419,0.0 -52.9103472,-26.6671313992419,0.0 -52.9102481,-26.6672171992419,0.0 -52.9101484,-26.6672655992419,0.0 -52.9099958,-26.6672872992419,0.0 -52.9098672,-26.6673105992419,0.0 -52.9097777,-26.6673176992419,0.0 -52.9096728,-26.6673190992419,0.0 -52.909436,-26.6672692992419,0.0 -52.9092228,-26.6671955992419,0.0 -52.9089806,-26.6670908992419,0.0 -52.9088693,-26.6669705992419,0.0 -52.908775,-26.6668147992419,0.0 -52.9087691,-26.6668067992419,0.0 -52.9086681,-26.6666700992419,0.0 -52.9084982,-26.6663704992419,0.0 -52.9084113,-26.6662276992419,0.0 -52.9082255,-26.6660342992419,0.0 -52.9081266,-26.6658841992419,0.0 -52.9080369,-26.6657608992419,0.0 -52.9079918,-26.6656971992419,0.0 -52.9079482,-26.6656320992419,0.0 -52.9079057,-26.6655670992419,0.0 -52.9078703,-26.6655040992419,0.0 -52.9078372,-26.6654443992419,0.0 -52.9077783,-26.6653359992419,0.0 -52.907717,-26.6652366992419,0.0 -52.9076475,-26.6651458992419,0.0 -52.9075808,-26.665049999242,0.0 -52.9075124,-26.6649431992419,0.0 -52.9074779,-26.664882299242,0.0 -52.9074165,-26.664770499242,0.0 -52.9073432,-26.664623499242,0.0 -52.907304,-26.664549599242,0.0 -52.9072386,-26.664392799242,0.0 -52.9072142,-26.664318199242,0.0 -52.9071918,-26.664254399242,0.0 -52.9071666,-26.664189399242,0.0 -52.9071463,-26.664126899242,0.0 -52.9071232,-26.664067099242,0.0 -52.9070782,-26.663945799242,0.0 -52.9070545,-26.663883499242,0.0 -52.9070313,-26.663815699242,0.0 -52.9070088,-26.663748399242,0.0 -52.9069893,-26.663682299242,0.0 -52.906971,-26.663618399242,0.0 -52.906952,-26.663550899242,0.0 -52.9069327,-26.663425299242,0.0 -52.906915,-26.663301899242,0.0 -52.9068911,-26.663119199242,0.0 -52.9068804,-26.663033399242,0.0 -52.9068728,-26.662953599242,0.0 -52.9068512,-26.662745299242,0.0 -52.906851,-26.662742699242,0.0 -52.9068447,-26.662653499242,0.0 -52.9068423,-26.662570199242,0.0 -52.9068315,-26.662462699242,0.0 -52.9068161,-26.662371099242,0.0 -52.9068006,-26.662280999242,0.0 -52.9067914,-26.662206399242,0.0 -52.9067831,-26.662096799242,0.0 -52.906782,-26.661994799242,0.0 -52.9067819,-26.661916199242,0.0 -52.9067798,-26.661842499242,0.0 -52.9067718,-26.661765099242,0.0 -52.9067635,-26.661685199242,0.0 -52.9067569,-26.661599199242,0.0 -52.9067594,-26.661513799242,0.0 -52.9067661,-26.661426999242,0.0 -52.9067783,-26.661308199242,0.0 -52.9068144,-26.661213899242,0.0 -52.9068389,-26.661144499242,0.0 -52.9068685,-26.661061899242,0.0 -52.9068909,-26.660980499242,0.0 -52.9069205,-26.660902999242,0.0 -52.9069344,-26.660850399242,0.0 -52.9069445,-26.660774899242,0.0 -52.906991,-26.660522399242,0.0 -52.9069966,-26.660439499242,0.0 -52.9070009,-26.660355999242,0.0 -52.9070076,-26.660274499242,0.0 -52.9070095,-26.660206999242,0.0 -52.907015,-26.660140399242,0.0 -52.9070144,-26.6598561992421,0.0 -52.907008,-26.6597662992421,0.0 -52.9069946,-26.6596639992421,0.0 -52.9069847,-26.6595511992421,0.0 -52.9069759,-26.6594400992421,0.0 -52.9069757,-26.6593349992421,0.0 -52.9069701,-26.6592257992421,0.0 -52.9069623,-26.6591326992421,0.0 -52.906957,-26.6589595992421,0.0 -52.9069547,-26.6588864992421,0.0 -52.9069608,-26.6588081992421,0.0 -52.9069789,-26.6587314992421,0.0 -52.9070152,-26.6586350992421,0.0 -52.9070481,-26.6585569992421,0.0 -52.9070654,-26.6584917992421,0.0 -52.9070766,-26.6584133992421,0.0 -52.9070869,-26.6583211992421,0.0 -52.9070908,-26.6582364992421,0.0 -52.907096,-26.6581438992421,0.0 -52.9071437,-26.6579079992421,0.0 -52.9071806,-26.6578147992421,0.0 -52.9072238,-26.6577206992421,0.0 -52.907274,-26.6576370992421,0.0 -52.9073134,-26.6575735992421,0.0 -52.9073675,-26.6575075992421,0.0 -52.9074432,-26.6574296992421,0.0 -52.9075435,-26.6573868992421,0.0 -52.9076293,-26.6573520992421,0.0 -52.9077044,-26.6573246992421,0.0 -52.9077623,-26.6572962992421,0.0 -52.9079488,-26.6572051992421,0.0 -52.9080262,-26.6571765992421,0.0 -52.908096,-26.6571566992421,0.0 -52.9081402,-26.6571367992421,0.0 -52.9082001,-26.6570961992421,0.0 -52.9082884,-26.6570564992421,0.0 -52.9083697,-26.6570192992421,0.0 -52.9084278,-26.6569979992421,0.0</coordinates>
</LinearRing>
</outerBoundaryIs>
</Polygon>
</MultiGeometry>
</Placemark>
</Folder>
</Document></kml>
