<?xml version='1.0' encoding='UTF-8'?>
<kml xmlns:xsd="http://www.w3.org/2001/XMLSchema" xmlns:gx="http://www.google.com/kml/ext/2.2" xmlns:atom="http://www.w3.org/2005/Atom" xmlns="http://www.opengis.net/kml/2.2">
<Document>
<name>jardinopolis_4208955_localidades_2022</name>
<visibility>1</visibility>
<Schema name="01. Cidade" id="kml_schema_ft_01._Cidade">
<SimpleField type="xsd:string" name="CD_UF">
<displayName>CD_UF</displayName>
</SimpleField>
<SimpleField type="xsd:string" name="NM_UF">
<displayName>NM_UF</displayName>
</SimpleField>
<SimpleField type="xsd:string" name="SIGLA_UF">
<displayName>SIGLA_UF</displayName>
</SimpleField>
<SimpleField type="xsd:string" name="CD_MUN">
<displayName>CD_MUN</displayName>
</SimpleField>
<SimpleField type="xsd:string" name="NM_MUN">
<displayName>NM_MUN</displayName>
</SimpleField>
<SimpleField type="xsd:string" name="CD_RGINT">
<displayName>CD_RGINT</displayName>
</SimpleField>
<SimpleField type="xsd:string" name="NM_RGINT">
<displayName>NM_RGINT</displayName>
</SimpleField>
<SimpleField type="xsd:string" name="CD_RGI">
<displayName>CD_RGI</displayName>
</SimpleField>
<SimpleField type="xsd:string" name="NM_RGI">
<displayName>NM_RGI</displayName>
</SimpleField>
<SimpleField type="xsd:string" name="CT_LOCALIDADE">
<displayName>CT_LOCALIDADE</displayName>
</SimpleField>
<SimpleField type="xsd:string" name="SCT_LOCALIDADE">
<displayName>SCT_LOCALIDADE</displayName>
</SimpleField>
<SimpleField type="xsd:string" name="CD_LOCALIDADE">
<displayName>CD_LOCALIDADE</displayName>
</SimpleField>
<SimpleField type="xsd:string" name="NM_LOCALIDADE">
<displayName>NM_LOCALIDADE</displayName>
</SimpleField>
<SimpleField type="xsd:string" name="LAT_LOCALIDADE">
<displayName>LAT_LOCALIDADE</displayName>
</SimpleField>
<SimpleField type="xsd:string" name="LONG_LOCALIDADE">
<displayName>LONG_LOCALIDADE</displayName>
</SimpleField>
</Schema>
<Schema name="Município" id="kml_schema_ft_Município">
<SimpleField type="xsd:string" name="CD_UF">
<displayName>CD_UF</displayName>
</SimpleField>
<SimpleField type="xsd:string" name="NM_UF">
<displayName>NM_UF</displayName>
</SimpleField>
<SimpleField type="xsd:string" name="CD_MUN">
<displayName>CD_MUN</displayName>
</SimpleField>
<SimpleField type="xsd:string" name="NM_MUN">
<displayName>NM_MUN</displayName>
</SimpleField>
<SimpleField type="xsd:string" name="CD_RGINT">
<displayName>CD_RGINT</displayName>
</SimpleField>
<SimpleField type="xsd:string" name="NM_RGINT">
<displayName>NM_RGINT</displayName>
</SimpleField>
<SimpleField type="xsd:string" name="CD_RGI">
<displayName>CD_RGI</displayName>
</SimpleField>
<SimpleField type="xsd:string" name="NM_RGI">
<displayName>NM_RGI</displayName>
</SimpleField>
</Schema>
<Folder id="01. Cidade">
<name>01. Cidade</name>
<Folder id="01.03. Sede Municipal">
<name>01.03. Sede Municipal</name>
<Placemark id="01.03. Sede Municipal">
<name>Jardinópolis [4208955]</name>
<visibility>1</visibility>
<snippet> </snippet>
<description>&lt;center&gt;&lt;table&gt;&lt;tr&gt;&lt;th colspan='2' align='center'&gt;&lt;em&gt;Atributos&lt;/em&gt;&lt;/th&gt;&lt;/tr&gt;&lt;tr bgcolor="#E3E3F3"&gt;
&lt;th&gt;CD_UF&lt;/th&gt;
&lt;td&gt;42&lt;/td&gt;
&lt;/tr&gt;&lt;tr bgcolor=""&gt;
&lt;th&gt;NM_UF&lt;/th&gt;
&lt;td&gt;Santa Catarina&lt;/td&gt;
&lt;/tr&gt;&lt;tr bgcolor="#E3E3F3"&gt;
&lt;th&gt;SIGLA_UF&lt;/th&gt;
&lt;td&gt;SC&lt;/td&gt;
&lt;/tr&gt;&lt;tr bgcolor=""&gt;
&lt;th&gt;CD_MUN&lt;/th&gt;
&lt;td&gt;4208955&lt;/td&gt;
&lt;/tr&gt;&lt;tr bgcolor="#E3E3F3"&gt;
&lt;th&gt;NM_MUN&lt;/th&gt;
&lt;td&gt;Jardinópolis&lt;/td&gt;
&lt;/tr&gt;&lt;tr bgcolor=""&gt;
&lt;th&gt;CD_RGINT&lt;/th&gt;
&lt;td&gt;4204&lt;/td&gt;
&lt;/tr&gt;&lt;tr bgcolor="#E3E3F3"&gt;
&lt;th&gt;NM_RGINT&lt;/th&gt;
&lt;td&gt;Chapecó&lt;/td&gt;
&lt;/tr&gt;&lt;tr bgcolor=""&gt;
&lt;th&gt;CD_RGI&lt;/th&gt;
&lt;td&gt;420007&lt;/td&gt;
&lt;/tr&gt;&lt;tr bgcolor="#E3E3F3"&gt;
&lt;th&gt;NM_RGI&lt;/th&gt;
&lt;td&gt;Chapecó&lt;/td&gt;
&lt;/tr&gt;&lt;tr bgcolor=""&gt;
&lt;th&gt;CT_LOCALIDADE&lt;/th&gt;
&lt;td&gt;Cidade&lt;/td&gt;
&lt;/tr&gt;&lt;tr bgcolor="#E3E3F3"&gt;
&lt;th&gt;SCT_LOCALIDADE&lt;/th&gt;
&lt;td&gt;Sede Municipal&lt;/td&gt;
&lt;/tr&gt;&lt;tr bgcolor=""&gt;
&lt;th&gt;CD_LOCALIDADE&lt;/th&gt;
&lt;td&gt;4208955&lt;/td&gt;
&lt;/tr&gt;&lt;tr bgcolor="#E3E3F3"&gt;
&lt;th&gt;NM_LOCALIDADE&lt;/th&gt;
&lt;td&gt;Jardinópolis&lt;/td&gt;
&lt;/tr&gt;&lt;tr bgcolor=""&gt;
&lt;th&gt;LAT_LOCALIDADE&lt;/th&gt;
&lt;td&gt;-26.7214&lt;/td&gt;
&lt;/tr&gt;&lt;tr bgcolor="#E3E3F3"&gt;
&lt;th&gt;LONG_LOCALIDADE&lt;/th&gt;
&lt;td&gt;-52.8604&lt;/td&gt;
&lt;/tr&gt;&lt;/table&gt;&lt;/center&gt;</description>
<Style>
<IconStyle>
<color>ff00aaff</color>
<scale>1.0</scale>
<Icon>
<href>http://maps.google.com/mapfiles/kml/shapes/placemark_circle.png</href>
</Icon>
</IconStyle>
<LabelStyle>
<scale>1.0</scale>
</LabelStyle>
<LineStyle>
<color>ffffffff</color>
<width>3</width>
<gx:labelVisibility>1</gx:labelVisibility>
</LineStyle>
<PolyStyle>
<color>00ffffff</color>
</PolyStyle>
</Style>
<ExtendedData>
<SchemaData schemaUrl="#kml_schema_ft_01._Cidade">
<SimpleData name="CD_UF">42</SimpleData>
<SimpleData name="NM_UF">Santa Catarina</SimpleData>
<SimpleData name="SIGLA_UF">SC</SimpleData>
<SimpleData name="CD_MUN">4208955</SimpleData>
<SimpleData name="NM_MUN">Jardinópolis</SimpleData>
<SimpleData name="CD_RGINT">4204</SimpleData>
<SimpleData name="NM_RGINT">Chapecó</SimpleData>
<SimpleData name="CD_RGI">420007</SimpleData>
<SimpleData name="NM_RGI">Chapecó</SimpleData>
<SimpleData name="CT_LOCALIDADE">Cidade</SimpleData>
<SimpleData name="SCT_LOCALIDADE">Sede Municipal</SimpleData>
<SimpleData name="CD_LOCALIDADE">4208955</SimpleData>
<SimpleData name="NM_LOCALIDADE">Jardinópolis</SimpleData>
<SimpleData name="LAT_LOCALIDADE">-26.7214</SimpleData>
<SimpleData name="LONG_LOCALIDADE">-52.8604</SimpleData>
</SchemaData>
</ExtendedData>
<Point>
<extrude>0</extrude>
<coordinates>-52.8604,-26.7213999992408,0.0</coordinates>
</Point>
</Placemark>
</Folder>
</Folder>
<Folder id="13. Referência">
<name>13. Referência</name>
<Placemark id="13. Referência">
<name>Jardinópolis [4208955]</name>
<visibility>1</visibility>
<snippet> </snippet>
<description>&lt;center&gt;&lt;table&gt;&lt;tr&gt;&lt;th colspan='2' align='center'&gt;&lt;em&gt;Attributes&lt;/em&gt;&lt;/th&gt;&lt;/tr&gt;&lt;tr bgcolor="#E3E3F3"&gt;
&lt;th&gt;CD_UF&lt;/th&gt;
&lt;td&gt;42&lt;/td&gt;
&lt;/tr&gt;&lt;tr bgcolor=""&gt;
&lt;th&gt;NM_UF&lt;/th&gt;
&lt;td&gt;Santa Catarina&lt;/td&gt;
&lt;/tr&gt;&lt;tr bgcolor="#E3E3F3"&gt;
&lt;th&gt;CD_MUN&lt;/th&gt;
&lt;td&gt;4208955&lt;/td&gt;
&lt;/tr&gt;&lt;tr bgcolor=""&gt;
&lt;th&gt;NM_MUN&lt;/th&gt;
&lt;td&gt;Jardinópolis&lt;/td&gt;
&lt;/tr&gt;&lt;tr bgcolor="#E3E3F3"&gt;
&lt;th&gt;CD_RGINT&lt;/th&gt;
&lt;td&gt;4204&lt;/td&gt;
&lt;/tr&gt;&lt;tr bgcolor=""&gt;
&lt;th&gt;NM_RGINT&lt;/th&gt;
&lt;td&gt;Chapecó&lt;/td&gt;
&lt;/tr&gt;&lt;tr bgcolor="#E3E3F3"&gt;
&lt;th&gt;CD_RGI&lt;/th&gt;
&lt;td&gt;420007&lt;/td&gt;
&lt;/tr&gt;&lt;tr bgcolor=""&gt;
&lt;th&gt;NM_RGI&lt;/th&gt;
&lt;td&gt;Chapecó&lt;/td&gt;
&lt;/tr&gt;&lt;/table&gt;&lt;/center&gt;</description>
<Style>
<IconStyle>
<scale>0.7</scale>
</IconStyle>
<LabelStyle>
<scale>0.7</scale>
</LabelStyle>
<LineStyle>
<color>ffffffff</color>
<width>3</width>
<gx:labelVisibility>1</gx:labelVisibility>
</LineStyle>
<PolyStyle>
<color>00ffffff</color>
</PolyStyle>
</Style>
<ExtendedData>
<SchemaData schemaUrl="#kml_schema_ft_Município">
<SimpleData name="CD_UF">42</SimpleData>
<SimpleData name="NM_UF">Santa Catarina</SimpleData>
<SimpleData name="CD_MUN">4208955</SimpleData>
<SimpleData name="NM_MUN">Jardinópolis</SimpleData>
<SimpleData name="CD_RGINT">4204</SimpleData>
<SimpleData name="NM_RGINT">Chapecó</SimpleData>
<SimpleData name="CD_RGI">420007</SimpleData>
<SimpleData name="NM_RGI">Chapecó</SimpleData>
</SchemaData>
</ExtendedData>
<MultiGeometry>
<Polygon>
<extrude>0</extrude>
<tessellate>1</tessellate>
<outerBoundaryIs>
<LinearRing>
<coordinates>-52.8520506,-26.6699886992419,0.0 -52.8448568,-26.6694744992419,0.0 -52.8451209,-26.6695497992419,0.0 -52.8457754,-26.6697365992419,0.0 -52.8463471,-26.6698996992419,0.0 -52.8466472,-26.6700262992419,0.0 -52.8466931,-26.6700839992419,0.0 -52.8468027,-26.6702219992418,0.0 -52.8468864,-26.6705307992418,0.0 -52.8469898,-26.6707997992418,0.0 -52.8472588,-26.6713996992418,0.0 -52.8474217,-26.6719187992418,0.0 -52.8474771,-26.6720953992418,0.0 -52.8475024,-26.6722582992418,0.0 -52.8474967,-26.6726823992418,0.0 -52.847419,-26.6732012992418,0.0 -52.8473851,-26.6733601992418,0.0 -52.8473365,-26.6734444992418,0.0 -52.847222,-26.6735883992418,0.0 -52.8470948,-26.6736803992418,0.0 -52.8470039,-26.6737821992418,0.0 -52.8468554,-26.6739960992418,0.0 -52.8466071,-26.6742753992418,0.0 -52.8462968,-26.6745236992418,0.0 -52.8462121,-26.6746434992418,0.0 -52.8461416,-26.6748442992418,0.0 -52.8461173,-26.6750088992418,0.0 -52.8461002,-26.6751235992418,0.0 -52.8460071,-26.6754235992417,0.0 -52.845852,-26.6756614992417,0.0 -52.8456788,-26.6757498992417,0.0 -52.8454899,-26.6757855992417,0.0 -52.8451877,-26.6757397992417,0.0 -52.8451486,-26.6757338992417,0.0 -52.8447969,-26.6756748992417,0.0 -52.8445623,-26.6757202992417,0.0 -52.8443211,-26.6758269992417,0.0 -52.8438969,-26.6761269992417,0.0 -52.8436694,-26.6764476992417,0.0 -52.8434211,-26.6769337992417,0.0 -52.8432763,-26.6773475992417,0.0 -52.842966,-26.6777613992417,0.0 -52.8426867,-26.6783923992417,0.0 -52.842635,-26.6786198992417,0.0 -52.842635,-26.6790750992417,0.0 -52.8426453,-26.6795405992417,0.0 -52.8428315,-26.6799853992417,0.0 -52.8430073,-26.6807094992416,0.0 -52.8432349,-26.6812680992416,0.0 -52.8433013,-26.6813542992416,0.0 -52.8435452,-26.6816714992416,0.0 -52.843628,-26.6820231992416,0.0 -52.8436073,-26.6822455992416,0.0 -52.8435866,-26.6824679992416,0.0 -52.8435142,-26.6827575992416,0.0 -52.8435763,-26.6829437992416,0.0 -52.8436797,-26.6831402992416,0.0 -52.8437625,-26.6835333992416,0.0 -52.8437211,-26.6839264992416,0.0 -52.8435958,-26.6841144992416,0.0 -52.8434108,-26.6842781992416,0.0 -52.8429246,-26.6845574992416,0.0 -52.8426867,-26.6846608992416,0.0 -52.8421902,-26.6849608992416,0.0 -52.841704,-26.6854263992416,0.0 -52.8413419,-26.6858918992415,0.0 -52.8411794,-26.6862912992415,0.0 -52.8409282,-26.6868331992415,0.0 -52.840742,-26.6873710992415,0.0 -52.8407159,-26.6876452992415,0.0 -52.8407373,-26.6878255992415,0.0 -52.8406552,-26.6882402992415,0.0 -52.8405604,-26.6884387992415,0.0 -52.8403305,-26.6888802992415,0.0 -52.8400312,-26.6892630992415,0.0 -52.8395834,-26.6895640992415,0.0 -52.8392524,-26.6896881992415,0.0 -52.8386007,-26.6898329992415,0.0 -52.8381456,-26.6900295992415,0.0 -52.8378166,-26.6900821992415,0.0 -52.8376284,-26.6901122992415,0.0 -52.8373741,-26.6902227992415,0.0 -52.8372436,-26.6903310992415,0.0 -52.8372029,-26.6904293992414,0.0 -52.8371892,-26.6906376992414,0.0 -52.8371462,-26.6909027992414,0.0 -52.8370174,-26.6911209992414,0.0 -52.8367868,-26.6913669992414,0.0 -52.836578,-26.6916775992414,0.0 -52.8365298,-26.6919592992414,0.0 -52.8365422,-26.6921500992414,0.0 -52.8366457,-26.6926258992414,0.0 -52.8367153,-26.6930438992414,0.0 -52.836656,-26.6932568992414,0.0 -52.8366263,-26.6935522992414,0.0 -52.8365216,-26.6937844992414,0.0 -52.8364513,-26.6938939992414,0.0 -52.8363086,-26.6940292992414,0.0 -52.8362052,-26.6942174992414,0.0 -52.8361739,-26.6943970992414,0.0 -52.8361937,-26.6946022992414,0.0 -52.8361849,-26.6947958992414,0.0 -52.8361492,-26.6949015992414,0.0 -52.8359603,-26.6952209992414,0.0 -52.8358078,-26.6953981992413,0.0 -52.8353527,-26.6958739992413,0.0 -52.8348044,-26.6962153992413,0.0 -52.8344941,-26.6965359992413,0.0 -52.8341941,-26.6968049992413,0.0 -52.8339914,-26.6972379992413,0.0 -52.8338704,-26.6974469992413,0.0 -52.8336916,-26.6976373992413,0.0 -52.8334702,-26.6977634992413,0.0 -52.8331936,-26.6979042992413,0.0 -52.8330341,-26.6979558992413,0.0 -52.8329042,-26.6979907992413,0.0 -52.8327793,-26.6980251992413,0.0 -52.8326383,-26.6980576992413,0.0 -52.8325111,-26.6980828992413,0.0 -52.8323874,-26.6980943992413,0.0 -52.8321194,-26.6980853992413,0.0 -52.8317496,-26.6981290992413,0.0 -52.8312714,-26.6982428992413,0.0 -52.8306484,-26.6984788992413,0.0 -52.8297225,-26.6987950992413,0.0 -52.8296465,-26.6988178992413,0.0 -52.8286703,-26.6991116992413,0.0 -52.8280187,-26.6993702992413,0.0 -52.8272946,-26.6996081992413,0.0 -52.8267981,-26.6999288992413,0.0 -52.8264567,-26.7002805992413,0.0 -52.8263064,-26.7004347992413,0.0 -52.8260533,-26.7006943992413,0.0 -52.8258774,-26.7010253992412,0.0 -52.8255878,-26.7016873992412,0.0 -52.825505,-26.7027838992412,0.0 -52.8255464,-26.7033010992412,0.0 -52.8256705,-26.7039630992412,0.0 -52.8258464,-26.7051836992412,0.0 -52.8260016,-26.7061043992411,0.0 -52.8259488,-26.7066926992411,0.0 -52.8259413,-26.7067885992411,0.0 -52.8259001,-26.7073145992411,0.0 -52.8258567,-26.7077593992411,0.0 -52.8255774,-26.7082559992411,0.0 -52.8252154,-26.7088662992411,0.0 -52.8250085,-26.7092592992411,0.0 -52.8246878,-26.7100557992411,0.0 -52.8244189,-26.710790299241,0.0 -52.8241396,-26.711617799241,0.0 -52.8238603,-26.712300499241,0.0 -52.8236224,-26.713179799241,0.0 -52.8235603,-26.713438399241,0.0 -52.8234155,-26.713769399241,0.0 -52.8229604,-26.714162499241,0.0 -52.822619,-26.714309599241,0.0 -52.8223087,-26.714389999241,0.0 -52.8219119,-26.714212499241,0.0 -52.8216416,-26.714150799241,0.0 -52.821357,-26.714193499241,0.0 -52.8210777,-26.714296899241,0.0 -52.8207881,-26.714627999241,0.0 -52.8205108,-26.714959599241,0.0 -52.8198364,-26.715331399241,0.0 -52.8193399,-26.715600299241,0.0 -52.8190296,-26.715745099241,0.0 -52.8189739,-26.715802599241,0.0 -52.8187553,-26.716028099241,0.0 -52.8186605,-26.7162472992409,0.0 -52.8186212,-26.7165118992409,0.0 -52.8187127,-26.7168750992409,0.0 -52.8189055,-26.7172035992409,0.0 -52.8190425,-26.7175747992409,0.0 -52.819129,-26.7179306992409,0.0 -52.8191744,-26.7184655992409,0.0 -52.8192498,-26.7191793992409,0.0 -52.8193363,-26.7195262992409,0.0 -52.8193813,-26.7197068992409,0.0 -52.8194847,-26.7201930992409,0.0 -52.8196502,-26.7207723992409,0.0 -52.8198007,-26.7214390992408,0.0 -52.8200256,-26.7218961992408,0.0 -52.8205765,-26.7223429992408,0.0 -52.8212623,-26.7225658992408,0.0 -52.8216555,-26.7227165992408,0.0 -52.821957,-26.7229756992408,0.0 -52.8219903,-26.7233024992408,0.0 -52.821966,-26.7236576992408,0.0 -52.8218225,-26.7240514992408,0.0 -52.8215018,-26.7243720992408,0.0 -52.8209226,-26.7246100992408,0.0 -52.8204985,-26.7249099992408,0.0 -52.8199295,-26.7257271992408,0.0 -52.8195882,-26.7265754992407,0.0 -52.819433,-26.7272891992407,0.0 -52.819433,-26.7279098992407,0.0 -52.8195571,-26.7286132992407,0.0 -52.8198778,-26.7293786992407,0.0 -52.8203226,-26.7304544992407,0.0 -52.8205812,-26.7312509992407,0.0 -52.8205295,-26.7319026992406,0.0 -52.8203536,-26.7324508992406,0.0 -52.8198882,-26.7328956992406,0.0 -52.8193606,-26.7331336992406,0.0 -52.8189572,-26.7331853992406,0.0 -52.8184099,-26.7332563992406,0.0 -52.8181988,-26.7333079992406,0.0 -52.8179877,-26.7333596992406,0.0 -52.8177122,-26.7334794992406,0.0 -52.8174508,-26.7336854992406,0.0 -52.8172101,-26.7339673992406,0.0 -52.8176502,-26.7342188992406,0.0 -52.8178868,-26.7343660992406,0.0 -52.8180529,-26.7346758992406,0.0 -52.8180704,-26.7347335992406,0.0 -52.8180873,-26.7347897992406,0.0 -52.8181059,-26.7348466992406,0.0 -52.8181245,-26.7349038992406,0.0 -52.8181395,-26.7349620992406,0.0 -52.818164,-26.7350253992406,0.0 -52.8181867,-26.7350882992406,0.0 -52.8182176,-26.7351658992406,0.0 -52.8182337,-26.7352280992406,0.0 -52.8182509,-26.7352925992406,0.0 -52.8182691,-26.7353663992406,0.0 -52.8182885,-26.7354335992406,0.0 -52.818307,-26.7355011992406,0.0 -52.8183256,-26.7355686992406,0.0 -52.8183422,-26.7356373992406,0.0 -52.8183633,-26.7357114992406,0.0 -52.8183831,-26.7357745992406,0.0 -52.8183908,-26.7358421992406,0.0 -52.8183982,-26.7359069992406,0.0 -52.818413,-26.7359814992406,0.0 -52.8184282,-26.7360435992406,0.0 -52.8184527,-26.7361034992406,0.0 -52.8184885,-26.7361668992406,0.0 -52.8185253,-26.7362172992406,0.0 -52.8185628,-26.7362624992406,0.0 -52.8186085,-26.7363180992405,0.0 -52.8186543,-26.7363714992406,0.0 -52.8186951,-26.7364247992406,0.0 -52.8187283,-26.7364829992406,0.0 -52.8187479,-26.7365500992406,0.0 -52.8187646,-26.7366258992405,0.0 -52.8187867,-26.7366942992406,0.0 -52.8188074,-26.7367603992405,0.0 -52.81883,-26.7368249992405,0.0 -52.8188613,-26.7368896992405,0.0 -52.8188908,-26.7369526992405,0.0 -52.8189218,-26.7370068992405,0.0 -52.8189578,-26.7370669992405,0.0 -52.818993,-26.7371304992405,0.0 -52.8190289,-26.7371926992405,0.0 -52.8190625,-26.7372457992405,0.0 -52.8190996,-26.7372985992405,0.0 -52.8191437,-26.7373604992405,0.0 -52.8191837,-26.7374190992405,0.0 -52.8192223,-26.7374786992405,0.0 -52.8192553,-26.7375358992405,0.0 -52.8192712,-26.7375750992405,0.0 -52.8192815,-26.7376004992405,0.0 -52.8193032,-26.7376498992405,0.0 -52.8193357,-26.7377197992405,0.0 -52.8193656,-26.7377861992405,0.0 -52.8193979,-26.7378504992405,0.0 -52.8194375,-26.7379148992405,0.0 -52.8194868,-26.7379838992405,0.0 -52.819531,-26.7380479992405,0.0 -52.8195721,-26.7381081992405,0.0 -52.8196164,-26.7381638992405,0.0 -52.8196443,-26.7381991992405,0.0 -52.8196669,-26.7382363992405,0.0 -52.8196859,-26.7382768992405,0.0 -52.8197042,-26.7383294992405,0.0 -52.8197448,-26.7383997992405,0.0 -52.8197995,-26.7384534992405,0.0 -52.8198239,-26.7384709992405,0.0 -52.8198643,-26.7384983992405,0.0 -52.8199039,-26.7385283992405,0.0 -52.8199321,-26.7385614992405,0.0 -52.8199731,-26.7386294992405,0.0 -52.820011,-26.7387040992405,0.0 -52.8200404,-26.7387633992405,0.0 -52.8200742,-26.7388374992405,0.0 -52.820096,-26.7388985992405,0.0 -52.8201165,-26.7389655992405,0.0 -52.8201398,-26.7390303992405,0.0 -52.8201941,-26.7391064992405,0.0 -52.8202957,-26.7391511992405,0.0 -52.8203568,-26.7391906992405,0.0 -52.8204102,-26.7392366992405,0.0 -52.8204695,-26.7392877992405,0.0 -52.8204861,-26.7392982992405,0.0 -52.8205623,-26.7393364992405,0.0 -52.8206462,-26.7393596992405,0.0 -52.8207173,-26.7393720992405,0.0 -52.8208104,-26.7393943992405,0.0 -52.8209002,-26.7394147992405,0.0 -52.8209815,-26.7394424992405,0.0 -52.8210642,-26.7394670992405,0.0 -52.8211376,-26.7394818992405,0.0 -52.8212322,-26.7394905992405,0.0 -52.8213175,-26.7394973992405,0.0 -52.8213995,-26.7394937992405,0.0 -52.8214809,-26.7394807992405,0.0 -52.8215583,-26.7394695992405,0.0 -52.8216332,-26.7394632992405,0.0 -52.8216941,-26.7394539992405,0.0 -52.8217399,-26.7394363992405,0.0 -52.8218102,-26.7393982992405,0.0 -52.821875,-26.7393519992405,0.0 -52.8219304,-26.7393003992405,0.0 -52.8219808,-26.7392513992405,0.0 -52.8220416,-26.7391983992405,0.0 -52.8221106,-26.7391604992405,0.0 -52.8221795,-26.7391311992405,0.0 -52.8222467,-26.7391103992405,0.0 -52.8223149,-26.7390810992405,0.0 -52.8223906,-26.7390474992405,0.0 -52.8224628,-26.7390173992405,0.0 -52.8225372,-26.7389840992405,0.0 -52.8226054,-26.7389579992405,0.0 -52.8226821,-26.7389373992405,0.0 -52.8227066,-26.7389362992405,0.0 -52.8227882,-26.7389390992405,0.0 -52.8228725,-26.7389576992405,0.0 -52.8229513,-26.7389819992405,0.0 -52.8230304,-26.7390119992405,0.0 -52.8231037,-26.7390485992405,0.0 -52.8231923,-26.7390765992405,0.0 -52.823191,-26.7391087992405,0.0 -52.8232038,-26.7391518992405,0.0 -52.8232183,-26.7391941992405,0.0 -52.8232313,-26.7392660992405,0.0 -52.8232338,-26.7393350992405,0.0 -52.8232172,-26.7394041992405,0.0 -52.8231877,-26.7394824992405,0.0 -52.8231621,-26.7395441992405,0.0 -52.8231364,-26.7396088992405,0.0 -52.8231158,-26.7396711992405,0.0 -52.823089,-26.7397359992405,0.0 -52.8230757,-26.7397812992405,0.0 -52.823064,-26.7398487992405,0.0 -52.8230637,-26.7398942992405,0.0 -52.823069,-26.7399362992405,0.0 -52.8230835,-26.7399709992405,0.0 -52.8231072,-26.7400011992405,0.0 -52.8231474,-26.7400428992405,0.0 -52.8231571,-26.7400958992405,0.0 -52.8231488,-26.7401670992405,0.0 -52.8231543,-26.7402555992405,0.0 -52.8231609,-26.7403270992405,0.0 -52.8231765,-26.7404005992405,0.0 -52.8231989,-26.7405001992405,0.0 -52.8232176,-26.7406090992405,0.0 -52.8232293,-26.7406722992405,0.0 -52.8232472,-26.7407376992405,0.0 -52.8232651,-26.7408008992405,0.0 -52.8233003,-26.7409334992405,0.0 -52.8233099,-26.7409181992405,0.0 -52.8233565,-26.7408602992405,0.0 -52.8234349,-26.7408038992405,0.0 -52.823501,-26.7407767992405,0.0 -52.8235706,-26.7407521992405,0.0 -52.8236603,-26.7407218992405,0.0 -52.8237269,-26.7406981992405,0.0 -52.8238027,-26.7406604992405,0.0 -52.8238775,-26.7406189992405,0.0 -52.8239158,-26.7405881992405,0.0 -52.8239426,-26.7405502992405,0.0 -52.8239627,-26.7405065992405,0.0 -52.823999,-26.7404342992405,0.0 -52.8240351,-26.7403767992405,0.0 -52.8240801,-26.7402806992405,0.0 -52.8241431,-26.7403078992405,0.0 -52.8242149,-26.7403557992405,0.0 -52.8242845,-26.7404072992405,0.0 -52.8243496,-26.7404530992405,0.0 -52.824404,-26.7405076992405,0.0 -52.8244381,-26.7405719992405,0.0 -52.8244476,-26.7406357992405,0.0 -52.8244294,-26.7406715992405,0.0 -52.8244032,-26.7407025992405,0.0 -52.8243996,-26.7407461992405,0.0 -52.8244246,-26.7407679992405,0.0 -52.8244537,-26.7407758992405,0.0 -52.8244755,-26.7407626992405,0.0 -52.8245085,-26.7407278992405,0.0 -52.8245277,-26.7407136992405,0.0 -52.8245547,-26.7407149992405,0.0 -52.8245708,-26.7407352992405,0.0 -52.8245843,-26.7407577992405,0.0 -52.8246115,-26.7407810992405,0.0 -52.8246415,-26.7407971992405,0.0 -52.8247119,-26.7408335992405,0.0 -52.8247855,-26.7408704992405,0.0 -52.8248556,-26.7408962992405,0.0 -52.8248918,-26.7409041992405,0.0 -52.8248964,-26.7409223992405,0.0 -52.8248931,-26.7409520992405,0.0 -52.8249152,-26.7409808992405,0.0 -52.8249406,-26.7409939992405,0.0 -52.824997,-26.7410097992405,0.0 -52.8250804,-26.7410063992405,0.0 -52.8251249,-26.7410032992405,0.0 -52.8251464,-26.7410163992405,0.0 -52.8251562,-26.7410323992405,0.0 -52.8251709,-26.7410432992405,0.0 -52.825214,-26.7410288992405,0.0 -52.8252646,-26.7410082992405,0.0 -52.8253186,-26.7409835992405,0.0 -52.8253675,-26.7409593992405,0.0 -52.825431,-26.7409210992405,0.0 -52.8254483,-26.7409095992405,0.0 -52.825516,-26.7408748992405,0.0 -52.8255366,-26.7408508992405,0.0 -52.8255523,-26.7408150992405,0.0 -52.825567,-26.7407792992405,0.0 -52.8255858,-26.7407487992405,0.0 -52.8256169,-26.7407209992405,0.0 -52.8256713,-26.7406929992405,0.0 -52.8257256,-26.7406803992405,0.0 -52.8257848,-26.7406777992405,0.0 -52.825845,-26.7406841992405,0.0 -52.8259051,-26.7407033992405,0.0 -52.8259582,-26.7407290992405,0.0 -52.8259947,-26.7407501992405,0.0 -52.826057,-26.7407876992405,0.0 -52.8261163,-26.7408394992405,0.0 -52.8261605,-26.7408886992405,0.0 -52.8262039,-26.7409410992405,0.0 -52.8262707,-26.7409922992405,0.0 -52.8263482,-26.7410325992405,0.0 -52.8264367,-26.7410583992405,0.0 -52.8265162,-26.7410703992405,0.0 -52.826604,-26.7410585992405,0.0 -52.8266579,-26.7410385992405,0.0 -52.8267258,-26.7410199992405,0.0 -52.8268128,-26.7410149992405,0.0 -52.8268917,-26.7410234992405,0.0 -52.8269407,-26.7410442992405,0.0 -52.8269698,-26.7410681992405,0.0 -52.8270201,-26.7411309992405,0.0 -52.82706,-26.7411907992405,0.0 -52.8270897,-26.7412305992405,0.0 -52.8271542,-26.7412624992405,0.0 -52.8272188,-26.7412832992405,0.0 -52.8272652,-26.7412990992405,0.0 -52.8273087,-26.7413235992405,0.0 -52.8273778,-26.7413743992405,0.0 -52.8274454,-26.7414086992405,0.0 -52.8275201,-26.7414380992405,0.0 -52.8275687,-26.7414437992405,0.0 -52.8276143,-26.7414389992405,0.0 -52.827661,-26.7414170992405,0.0 -52.8277027,-26.7413974992405,0.0 -52.8277091,-26.7413958992405,0.0 -52.8277469,-26.7413858992405,0.0 -52.8278176,-26.7414055992405,0.0 -52.8278937,-26.7414228992405,0.0 -52.8279371,-26.7414301992405,0.0 -52.827995,-26.7414404992405,0.0 -52.8280689,-26.7414427992405,0.0 -52.8281562,-26.7414398992405,0.0 -52.8282352,-26.7414356992405,0.0 -52.8283277,-26.7414378992405,0.0 -52.8284066,-26.7414357992405,0.0 -52.8284991,-26.7414346992405,0.0 -52.8285703,-26.7414381992405,0.0 -52.8286636,-26.7414366992405,0.0 -52.8287356,-26.7414313992405,0.0 -52.828807,-26.7414351992405,0.0 -52.8288785,-26.7414405992404,0.0 -52.8289274,-26.7414638992405,0.0 -52.8289619,-26.7414940992405,0.0 -52.8289955,-26.7415360992405,0.0 -52.8290175,-26.7415678992405,0.0 -52.8290576,-26.7416373992405,0.0 -52.8290999,-26.7417167992405,0.0 -52.8291401,-26.7417753992405,0.0 -52.8291871,-26.7418504992404,0.0 -52.8292329,-26.7419104992405,0.0 -52.8292732,-26.7419705992404,0.0 -52.8293378,-26.7420556992404,0.0 -52.8293864,-26.7421148992404,0.0 -52.829459,-26.7421825992404,0.0 -52.8295306,-26.7422356992404,0.0 -52.8295939,-26.7422734992404,0.0 -52.8296611,-26.7422982992404,0.0 -52.8297318,-26.7423173992404,0.0 -52.8298079,-26.7423393992404,0.0 -52.8299061,-26.7423612992404,0.0 -52.8299757,-26.7423763992404,0.0 -52.8300543,-26.7423904992404,0.0 -52.8301396,-26.7424044992404,0.0 -52.8302115,-26.7424314992404,0.0 -52.830282,-26.7424764992404,0.0 -52.8303461,-26.7425381992404,0.0 -52.8304052,-26.7425962992404,0.0 -52.8304644,-26.7426454992404,0.0 -52.8305414,-26.7426903992404,0.0 -52.8306257,-26.7427230992404,0.0 -52.8307079,-26.7427360992404,0.0 -52.8307858,-26.7427414992404,0.0 -52.8308655,-26.7427411992404,0.0 -52.8309589,-26.7427296992404,0.0 -52.8310492,-26.7427241992404,0.0 -52.831137,-26.7427284992404,0.0 -52.8312243,-26.7427371992404,0.0 -52.831305,-26.7427527992404,0.0 -52.8313759,-26.7427745992404,0.0 -52.8314466,-26.7427969992404,0.0 -52.8315357,-26.7428237992404,0.0 -52.8316166,-26.7428425992404,0.0 -52.8316889,-26.7428599992404,0.0 -52.8317618,-26.7428725992404,0.0 -52.8318462,-26.7428873992404,0.0 -52.8319264,-26.7428983992404,0.0 -52.8320059,-26.7429048992404,0.0 -52.8320927,-26.7429120992404,0.0 -52.8342383,-26.7430930992404,0.0 -52.8362662,-26.7430825992404,0.0 -52.8378394,-26.7429869992404,0.0 -52.8382417,-26.7429394992404,0.0 -52.8389449,-26.7428432992404,0.0 -52.8393902,-26.7428003992404,0.0 -52.8399963,-26.7427235992404,0.0 -52.8406325,-26.7427011992404,0.0 -52.8412153,-26.7427349992404,0.0 -52.8419138,-26.7426767992404,0.0 -52.8424087,-26.7426199992404,0.0 -52.8430494,-26.7426389992404,0.0 -52.8433805,-26.7426326992404,0.0 -52.8436752,-26.7424604992404,0.0 -52.8437382,-26.7420161992404,0.0 -52.8439221,-26.7414423992405,0.0 -52.8440597,-26.7410018992405,0.0 -52.8441464,-26.7405348992405,0.0 -52.8442914,-26.7401093992405,0.0 -52.8445295,-26.7397775992405,0.0 -52.8447993,-26.7397082992405,0.0 -52.8450406,-26.7397537992405,0.0 -52.8453657,-26.7398575992405,0.0 -52.8454274,-26.7398999992405,0.0 -52.8454876,-26.7399368992405,0.0 -52.8455431,-26.7399819992405,0.0 -52.8456025,-26.7400338992405,0.0 -52.8456534,-26.7400900992405,0.0 -52.8457047,-26.7401443992405,0.0 -52.8457604,-26.7402013992405,0.0 -52.8458222,-26.7402488992405,0.0 -52.8458842,-26.7402860992405,0.0 -52.8459478,-26.7403238992405,0.0 -52.8460163,-26.7403673992405,0.0 -52.8460782,-26.7404197992405,0.0 -52.8461439,-26.7404775992405,0.0 -52.846219,-26.7405373992405,0.0 -52.8462701,-26.7405849992405,0.0 -52.8463323,-26.7406362992405,0.0 -52.8463959,-26.7406841992405,0.0 -52.8464832,-26.7407352992405,0.0 -52.8465725,-26.7407787992405,0.0 -52.8468363,-26.7408582992405,0.0 -52.8469081,-26.7408814992405,0.0 -52.846973,-26.7409032992405,0.0 -52.8470483,-26.7409303992405,0.0 -52.847136,-26.7409500992405,0.0 -52.8472324,-26.7409796992405,0.0 -52.8472988,-26.7410047992405,0.0 -52.847362,-26.7410264992405,0.0 -52.8474476,-26.7410717992405,0.0 -52.8475274,-26.7411122992405,0.0 -52.8476072,-26.7411671992405,0.0 -52.8476764,-26.7412203992405,0.0 -52.8477332,-26.7412640992405,0.0 -52.8477958,-26.7413186992405,0.0 -52.8478693,-26.7413751992405,0.0 -52.8479279,-26.7414179992405,0.0 -52.8479905,-26.7414520992405,0.0 -52.8480529,-26.7414893992404,0.0 -52.8481157,-26.7415194992404,0.0 -52.8481834,-26.7415455992405,0.0 -52.8482488,-26.7415698992405,0.0 -52.8483153,-26.7415887992405,0.0 -52.8483868,-26.7416081992405,0.0 -52.8484676,-26.7416272992404,0.0 -52.848533,-26.7416480992405,0.0 -52.8485977,-26.7416709992405,0.0 -52.8486686,-26.7417024992404,0.0 -52.8487367,-26.7417427992405,0.0 -52.8488059,-26.7417948992404,0.0 -52.848861,-26.7418409992404,0.0 -52.8489071,-26.7418915992404,0.0 -52.8489259,-26.7419493992404,0.0 -52.848923,-26.7420119992404,0.0 -52.8489196,-26.7420832992405,0.0 -52.8489147,-26.7421505992404,0.0 -52.8489086,-26.7422316992404,0.0 -52.8489074,-26.7423187992404,0.0 -52.8489111,-26.7423918992404,0.0 -52.8489213,-26.7424449992404,0.0 -52.8489406,-26.7425245992404,0.0 -52.84897,-26.7425991992404,0.0 -52.8489962,-26.7426452992404,0.0 -52.8490355,-26.7427155992404,0.0 -52.8490746,-26.7427707992404,0.0 -52.8491081,-26.7428226992404,0.0 -52.8491523,-26.7428768992404,0.0 -52.8491969,-26.7429329992404,0.0 -52.8492568,-26.7429997992404,0.0 -52.8493131,-26.7430659992404,0.0 -52.8493592,-26.7431111992404,0.0 -52.8494121,-26.7431622992404,0.0 -52.8494703,-26.7432189992404,0.0 -52.849543,-26.7432887992404,0.0 -52.8496343,-26.7433650992404,0.0 -52.8497394,-26.7434447992404,0.0 -52.8497932,-26.7434816992404,0.0 -52.8498412,-26.7435145992404,0.0 -52.8498892,-26.7435475992404,0.0 -52.8499605,-26.7436108992404,0.0 -52.8500218,-26.7436702992404,0.0 -52.8500925,-26.7437457992404,0.0 -52.8501719,-26.7438298992404,0.0 -52.8502521,-26.7439109992404,0.0 -52.8503474,-26.7440013992404,0.0 -52.8504042,-26.7440488992404,0.0 -52.8504549,-26.7440942992404,0.0 -52.8505195,-26.7441549992404,0.0 -52.8506012,-26.7442218992404,0.0 -52.8506647,-26.7442713992404,0.0 -52.8507243,-26.7443234992404,0.0 -52.8507885,-26.7443746992404,0.0 -52.8508465,-26.7444098992404,0.0 -52.850883,-26.7444315992404,0.0 -52.8509196,-26.7444532992404,0.0 -52.8509779,-26.7444871992404,0.0 -52.8510392,-26.7445225992404,0.0 -52.8511063,-26.7445555992404,0.0 -52.8511707,-26.7445892992404,0.0 -52.8512359,-26.7446194992404,0.0 -52.8512983,-26.7446478992404,0.0 -52.8513648,-26.7446829992404,0.0 -52.8514279,-26.7447129992404,0.0 -52.8514975,-26.7447479992404,0.0 -52.8515705,-26.7447780992404,0.0 -52.8516558,-26.7447946992404,0.0 -52.8517314,-26.7448050992404,0.0 -52.8518163,-26.7448042992404,0.0 -52.8518926,-26.7448013992404,0.0 -52.8519863,-26.7448050992404,0.0 -52.8520809,-26.7448029992404,0.0 -52.8521809,-26.7448168992404,0.0 -52.8522797,-26.7448302992404,0.0 -52.8523749,-26.7448607992404,0.0 -52.8524657,-26.7448848992404,0.0 -52.8525539,-26.7449108992404,0.0 -52.8526344,-26.7449191992404,0.0 -52.8527218,-26.7448986992404,0.0 -52.852789,-26.7448793992404,0.0 -52.8528277,-26.7448599992404,0.0 -52.8528956,-26.7448477992404,0.0 -52.8529704,-26.7448312992404,0.0 -52.8530272,-26.7448227992404,0.0 -52.853113,-26.7448371992404,0.0 -52.853188,-26.7448571992404,0.0 -52.8532393,-26.7448609992404,0.0 -52.8533112,-26.7448360992404,0.0 -52.8533784,-26.7447912992404,0.0 -52.8534394,-26.7447521992404,0.0 -52.8535141,-26.7447291992404,0.0 -52.8535852,-26.7447095992404,0.0 -52.8536578,-26.7447023992404,0.0 -52.8537549,-26.7446923992404,0.0 -52.8538258,-26.7446934992404,0.0 -52.8539241,-26.7446839992404,0.0 -52.8540278,-26.7446860992404,0.0 -52.8541052,-26.7446905992404,0.0 -52.854189,-26.7446973992404,0.0 -52.8542757,-26.7446991992404,0.0 -52.8543505,-26.7447110992404,0.0 -52.8544333,-26.7447259992404,0.0 -52.8545194,-26.7447417992404,0.0 -52.8545963,-26.7447654992404,0.0 -52.8546703,-26.7447952992404,0.0 -52.8547365,-26.7448167992404,0.0 -52.8548112,-26.7448381992404,0.0 -52.8549007,-26.7448568992404,0.0 -52.8549815,-26.7448620992404,0.0 -52.8550542,-26.7448630992404,0.0 -52.8551397,-26.7448505992404,0.0 -52.8552073,-26.7448352992404,0.0 -52.8553589,-26.7448232992404,0.0 -52.8554334,-26.7447863992404,0.0 -52.8555043,-26.7447626992404,0.0 -52.8555793,-26.7447428992404,0.0 -52.8556451,-26.7447379992404,0.0 -52.8557439,-26.7447301992404,0.0 -52.8557867,-26.7447377992404,0.0 -52.855865,-26.7447408992404,0.0 -52.855899,-26.7447404992404,0.0 -52.8559939,-26.7447588992404,0.0 -52.8560872,-26.7447867992404,0.0 -52.8561556,-26.7448115992404,0.0 -52.8562185,-26.7448375992404,0.0 -52.8562998,-26.7448788992404,0.0 -52.8563843,-26.7449245992404,0.0 -52.8564687,-26.7449743992404,0.0 -52.8565365,-26.7450137992404,0.0 -52.8566186,-26.7450606992404,0.0 -52.8566867,-26.7451008992404,0.0 -52.8567579,-26.7451393992404,0.0 -52.8568224,-26.7451801992404,0.0 -52.8568888,-26.7452259992404,0.0 -52.8569564,-26.7452689992404,0.0 -52.8570288,-26.7453182992404,0.0 -52.8570928,-26.7453678992404,0.0 -52.8571726,-26.7454175992404,0.0 -52.8572429,-26.7454590992404,0.0 -52.8573269,-26.7455086992404,0.0 -52.8573911,-26.7455519992404,0.0 -52.8574667,-26.7455975992404,0.0 -52.857522,-26.7456358992404,0.0 -52.8575851,-26.7456739992404,0.0 -52.857676,-26.7457261992404,0.0 -52.8577497,-26.7457673992404,0.0 -52.8578183,-26.7458042992404,0.0 -52.857878,-26.7458383992404,0.0 -52.8579428,-26.7458794992404,0.0 -52.8580228,-26.7459390992404,0.0 -52.8580781,-26.7459822992404,0.0 -52.8581394,-26.7460284992404,0.0 -52.8582195,-26.7460832992404,0.0 -52.8582877,-26.7461370992404,0.0 -52.858347,-26.7461810992404,0.0 -52.8584104,-26.7462160992404,0.0 -52.8584827,-26.7462625992404,0.0 -52.8585378,-26.7463055992404,0.0 -52.8585965,-26.7463501992404,0.0 -52.8586645,-26.7463955992404,0.0 -52.8587419,-26.7464518992404,0.0 -52.8588166,-26.7464988992404,0.0 -52.8588949,-26.7465397992404,0.0 -52.858959,-26.7465769992404,0.0 -52.8590217,-26.7466346992404,0.0 -52.8590802,-26.7467048992403,0.0 -52.8591241,-26.7467712992403,0.0 -52.8591653,-26.7468351992403,0.0 -52.8592009,-26.7469008992403,0.0 -52.859233,-26.7469575992403,0.0 -52.8592507,-26.7470217992404,0.0 -52.8616571,-26.7454473992404,0.0 -52.8694734,-26.7393313992405,0.0 -52.8701185,-26.7394285992405,0.0 -52.8708803,-26.7398588992405,0.0 -52.8715587,-26.7399479992405,0.0 -52.8722771,-26.7400569992405,0.0 -52.8730367,-26.7401553992405,0.0 -52.8738142,-26.7402113992405,0.0 -52.8747035,-26.7405386992405,0.0 -52.8749387,-26.7412430992405,0.0 -52.8750044,-26.7418552992404,0.0 -52.8751875,-26.7422715992404,0.0 -52.8754092,-26.7426508992404,0.0 -52.8757143,-26.7430199992404,0.0 -52.8760257,-26.7435099992404,0.0 -52.8762394,-26.7440793992404,0.0 -52.8761135,-26.7447423992404,0.0 -52.8758536,-26.7453046992404,0.0 -52.8757251,-26.7465988992403,0.0 -52.875701,-26.7474569992403,0.0 -52.8758114,-26.7478408992403,0.0 -52.8759519,-26.7482313992403,0.0 -52.8763048,-26.7487194992403,0.0 -52.8765995,-26.7491710992403,0.0 -52.876745,-26.7498108992403,0.0 -52.8769202,-26.7503015992403,0.0 -52.8770456,-26.7506695992403,0.0 -52.8773549,-26.7510837992403,0.0 -52.8776094,-26.7514754992403,0.0 -52.8778098,-26.7518585992402,0.0 -52.8780468,-26.7522273992402,0.0 -52.8782184,-26.7526201992402,0.0 -52.8783729,-26.7530300992402,0.0 -52.8785184,-26.7534076992402,0.0 -52.8785903,-26.7538271992402,0.0 -52.8788869,-26.7542482992402,0.0 -52.8790429,-26.7544077992402,0.0 -52.8792842,-26.7544757992402,0.0 -52.8796397,-26.7544921992402,0.0 -52.8801227,-26.7544946992402,0.0 -52.8806781,-26.7544530992402,0.0 -52.8809347,-26.7544731992402,0.0 -52.8813857,-26.7544814992402,0.0 -52.8817253,-26.7543973992402,0.0 -52.8820635,-26.7542302992402,0.0 -52.8826288,-26.7540459992402,0.0 -52.883118,-26.7541208992402,0.0 -52.8837581,-26.7543400992402,0.0 -52.8842483,-26.7547175992402,0.0 -52.8843395,-26.7550983992402,0.0 -52.8844733,-26.7557199992402,0.0 -52.8849331,-26.7563388992402,0.0 -52.8853375,-26.7570161992402,0.0 -52.8856187,-26.7571981992402,0.0 -52.8858564,-26.7576565992401,0.0 -52.8860316,-26.7581042992401,0.0 -52.8862425,-26.7585245992401,0.0 -52.8863831,-26.7589585992401,0.0 -52.8864145,-26.7590775992401,0.0 -52.8865022,-26.7594020992401,0.0 -52.886607,-26.7599630992401,0.0 -52.8866273,-26.7599717992401,0.0 -52.8866312,-26.7599751992401,0.0 -52.8866724,-26.7600055992401,0.0 -52.8866987,-26.7600493992401,0.0 -52.8867276,-26.7601443992401,0.0 -52.8867572,-26.7602303992401,0.0 -52.8867794,-26.7602769992401,0.0 -52.8868113,-26.7603199992401,0.0 -52.8868525,-26.7603506992401,0.0 -52.8868639,-26.7603560992401,0.0 -52.8869131,-26.7603795992401,0.0 -52.8869802,-26.7604080992401,0.0 -52.8870916,-26.7604223992401,0.0 -52.8871964,-26.7604386992401,0.0 -52.8872607,-26.7604587992401,0.0 -52.8873274,-26.7605048992401,0.0 -52.8874278,-26.7605939992401,0.0 -52.8876333,-26.7607666992401,0.0 -52.8877795,-26.7609190992401,0.0 -52.887865,-26.7610342992401,0.0 -52.8879753,-26.7612288992401,0.0 -52.8880469,-26.7613268992401,0.0 -52.8881003,-26.7613851992401,0.0 -52.8882398,-26.7614997992401,0.0 -52.8882466,-26.7615048992401,0.0 -52.8883694,-26.7615970992401,0.0 -52.8884867,-26.7617067992401,0.0 -52.8885933,-26.7618181992401,0.0 -52.8886637,-26.7618971992401,0.0 -52.8886991,-26.7619244992401,0.0 -52.888791,-26.76198069924,0.0 -52.8888721,-26.7620127992401,0.0 -52.888981,-26.76204799924,0.0 -52.8891001,-26.76208159924,0.0 -52.8891859,-26.7621186992401,0.0 -52.8892427,-26.76215619924,0.0 -52.8893719,-26.7622692992401,0.0 -52.8895008,-26.76236689924,0.0 -52.8896585,-26.76247989924,0.0 -52.8897481,-26.76253979924,0.0 -52.8898232,-26.76257759924,0.0 -52.8899396,-26.76262339924,0.0 -52.8900505,-26.76265509924,0.0 -52.890109,-26.76267079924,0.0 -52.8901939,-26.76269359924,0.0 -52.8902933,-26.76273409924,0.0 -52.8903892,-26.76279189924,0.0 -52.8904931,-26.76286359924,0.0 -52.8905522,-26.76292009924,0.0 -52.8906998,-26.76306789924,0.0 -52.8907647,-26.76314039924,0.0 -52.8908061,-26.76318149924,0.0 -52.8908434,-26.76320709924,0.0 -52.8909097,-26.76323929924,0.0 -52.891005,-26.76327109924,0.0 -52.8911501,-26.76329969924,0.0 -52.8912312,-26.76331689924,0.0 -52.8913188,-26.76334889924,0.0 -52.8914435,-26.76340509924,0.0 -52.8915335,-26.76345779924,0.0 -52.8915747,-26.76349199924,0.0 -52.8916025,-26.76352809924,0.0 -52.8916507,-26.76361779924,0.0 -52.8916881,-26.76365379924,0.0 -52.8917411,-26.76369299924,0.0 -52.8917511,-26.76370849924,0.0 -52.8917535,-26.76373279924,0.0 -52.8917522,-26.76376409924,0.0 -52.8917189,-26.76383909924,0.0 -52.8916888,-26.76388279924,0.0 -52.8915922,-26.76397949924,0.0 -52.891564,-26.76402319924,0.0 -52.8915626,-26.76404929924,0.0 -52.8915751,-26.76409429924,0.0 -52.8916648,-26.76423019924,0.0 -52.8917122,-26.76428749924,0.0 -52.8917436,-26.76431149924,0.0 -52.8917942,-26.76432989924,0.0 -52.891967,-26.76436589924,0.0 -52.8920059,-26.76437929924,0.0 -52.892045,-26.76440129924,0.0 -52.8920707,-26.76443219924,0.0 -52.8920865,-26.76445109924,0.0 -52.892108,-26.76446119924,0.0 -52.8921662,-26.76447259924,0.0 -52.8921818,-26.76447939924,0.0 -52.8921956,-26.76449479924,0.0 -52.8922076,-26.76451719924,0.0 -52.8922064,-26.76455539924,0.0 -52.8922172,-26.76461249924,0.0 -52.892244,-26.76469719924,0.0 -52.8922578,-26.76470739924,0.0 -52.8922829,-26.76471129924,0.0 -52.8923119,-26.76470749924,0.0 -52.8923464,-26.76469829924,0.0 -52.8923655,-26.76468589924,0.0 -52.8923843,-26.76465869924,0.0 -52.8923957,-26.76464639924,0.0 -52.8924261,-26.76462339924,0.0 -52.8924435,-26.76461969924,0.0 -52.8924648,-26.76462639924,0.0 -52.8925353,-26.76467059924,0.0 -52.8925903,-26.76471669924,0.0 -52.892612,-26.76473899924,0.0 -52.8926372,-26.76474739924,0.0 -52.8926799,-26.76475719924,0.0 -52.8926897,-26.76476399924,0.0 -52.8926997,-26.76477949924,0.0 -52.8926981,-26.76479689924,0.0 -52.8926816,-26.76484049924,0.0 -52.8926572,-26.76487899924,0.0 -52.8926345,-26.76490179924,0.0 -52.8926117,-26.76491679924,0.0 -52.8925965,-26.76492919924,0.0 -52.8925871,-26.76494319924,0.0 -52.8925778,-26.76496239924,0.0 -52.8925761,-26.76497279924,0.0 -52.8925744,-26.76498499924,0.0 -52.8925785,-26.76499879924,0.0 -52.8925885,-26.76501429924,0.0 -52.8926022,-26.76502279924,0.0 -52.8926235,-26.76502599924,0.0 -52.892664,-26.76502029924,0.0 -52.8926966,-26.76500769924,0.0 -52.8927273,-26.76499249924,0.0 -52.8927502,-26.76497829924,0.0 -52.8927847,-26.76496389924,0.0 -52.8928059,-26.76496369924,0.0 -52.8928273,-26.76496859924,0.0 -52.892839,-26.76497889924,0.0 -52.8928528,-26.76499249924,0.0 -52.8928551,-26.76500809924,0.0 -52.8928516,-26.76502729924,0.0 -52.8928366,-26.76504829924,0.0 -52.8927971,-26.76509829924,0.0 -52.892742,-26.76514589924,0.0 -52.8927118,-26.76517669924,0.0 -52.8927064,-26.76519579924,0.0 -52.892705,-26.76522359924,0.0 -52.8927112,-26.76524439924,0.0 -52.8927232,-26.76526329924,0.0 -52.8927408,-26.76527349924,0.0 -52.8927991,-26.76529179924,0.0 -52.8928653,-26.76531699924,0.0 -52.8929006,-26.76534259924,0.0 -52.8929106,-26.76535979924,0.0 -52.892915,-26.76538399924,0.0 -52.8929134,-26.76540319924,0.0 -52.8929002,-26.76541899924,0.0 -52.8928907,-26.76542949924,0.0 -52.8928874,-26.76545729924,0.0 -52.8928924,-26.76551109924,0.0 -52.8928985,-26.76552659924,0.0 -52.8929141,-26.76553509924,0.0 -52.8929335,-26.76553829924,0.0 -52.8929663,-26.76553609924,0.0 -52.893001,-26.76553219924,0.0 -52.8930221,-26.76552499924,0.0 -52.8930528,-26.76551589924,0.0 -52.8930777,-26.76550339924,0.0 -52.8930913,-26.76550489924,0.0 -52.8931029,-26.76550999924,0.0 -52.893107,-26.76551859924,0.0 -52.8931074,-26.76553939924,0.0 -52.8931116,-26.76555669924,0.0 -52.8931196,-26.76557219924,0.0 -52.8931295,-26.76558079924,0.0 -52.8931585,-26.76558559924,0.0 -52.8931818,-26.76559049924,0.0 -52.8931897,-26.76559909924,0.0 -52.8931842,-26.76561479924,0.0 -52.8931654,-26.76563929924,0.0 -52.8931523,-26.76565859924,0.0 -52.8931488,-26.76568119924,0.0 -52.893151,-26.76569509924,0.0 -52.8931611,-26.76571749924,0.0 -52.8931751,-26.76574159924,0.0 -52.8932007,-26.76576209924,0.0 -52.8932298,-26.76576859924,0.0 -52.8932588,-26.76577339924,0.0 -52.8932897,-26.76577299924,0.0 -52.893334,-26.76576549924,0.0 -52.8933531,-26.76575649924,0.0 -52.8933778,-26.76573529924,0.0 -52.8933932,-26.76572049924,0.0 -52.8934296,-26.76570259924,0.0 -52.8934428,-26.76569029924,0.0 -52.8934578,-26.76566749924,0.0 -52.8934746,-26.76563429924,0.0 -52.8934876,-26.76561159924,0.0 -52.8935068,-26.76560259924,0.0 -52.8935298,-26.76559709924,0.0 -52.893555,-26.76560019924,0.0 -52.8935899,-26.76560839924,0.0 -52.8936251,-26.76562879924,0.0 -52.8936547,-26.76566139924,0.0 -52.8936805,-26.76569919924,0.0 -52.8937104,-26.76574559924,0.0 -52.8937328,-26.76578629924,0.0 -52.8937431,-26.76582079924,0.0 -52.8937552,-26.76584499924,0.0 -52.8937729,-26.76586039924,0.0 -52.893808,-26.76588069924,0.0 -52.8938489,-26.76589749924,0.0 -52.8939093,-26.76590459924,0.0 -52.893975,-26.76590719924,0.0 -52.8940368,-26.76590809924,0.0 -52.8940758,-26.76591199924,0.0 -52.894107,-26.76592059924,0.0 -52.8941227,-26.76592919924,0.0 -52.8941424,-26.76595179924,0.0 -52.8941663,-26.76599879924,0.0 -52.8942298,-26.76610139924,0.0 -52.8942556,-26.76614659924,0.0 -52.8942778,-26.76617209924,0.0 -52.8943073,-26.76619279924,0.0 -52.8943485,-26.76620999924,0.0 -52.8944073,-26.76623239924,0.0 -52.8944686,-26.76625239924,0.0 -52.8945118,-26.76627309924,0.0 -52.8945432,-26.76629209924,0.0 -52.894565,-26.76631989924,0.0 -52.894575,-26.76634599924,0.0 -52.8945854,-26.76641749924,0.0 -52.8945977,-26.76647679924,0.0 -52.8946163,-26.76652679924,0.0 -52.894642,-26.76655279924,0.0 -52.8947205,-26.76659599924,0.0 -52.8947664,-26.76662829924,0.0 -52.894794,-26.76665429924,0.0 -52.8948138,-26.76668739924,0.0 -52.8948219,-26.76671699924,0.0 -52.8948289,-26.76676889924,0.0 -52.8948392,-26.76682289924,0.0 -52.89485,-26.76686079924,0.0 -52.8948522,-26.76689229924,0.0 -52.8948487,-26.76693249924,0.0 -52.8948628,-26.76697429924,0.0 -52.8948887,-26.76702649924,0.0 -52.8949007,-26.76706309924,0.0 -52.8949253,-26.76711149924,0.0 -52.8949334,-26.7671410992399,0.0 -52.8949514,-26.7671811992399,0.0 -52.8949692,-26.76720899924,0.0 -52.8949971,-26.7672306992399,0.0 -52.8950027,-26.7672349992399,0.0 -52.8950321,-26.76724699924,0.0 -52.8950523,-26.7672464992399,0.0 -52.8950778,-26.76725159924,0.0 -52.8950935,-26.76726369924,0.0 -52.8951192,-26.7672862992399,0.0 -52.8951369,-26.76730359924,0.0 -52.8951429,-26.7673192992399,0.0 -52.8951431,-26.7673349992399,0.0 -52.8951433,-26.76735949924,0.0 -52.8951357,-26.76738399924,0.0 -52.8951185,-26.7674172992399,0.0 -52.8951012,-26.7674540992399,0.0 -52.8951014,-26.7674698992399,0.0 -52.8951095,-26.76749599924,0.0 -52.8951233,-26.7675185992399,0.0 -52.8951728,-26.7675776992399,0.0 -52.8952011,-26.7676033992399,0.0 -52.8952325,-26.7676188992399,0.0 -52.8952658,-26.76762389924,0.0 -52.8952834,-26.7676237992399,0.0 -52.8953086,-26.7676131992399,0.0 -52.8953417,-26.76759549924,0.0 -52.8953709,-26.7675847992399,0.0 -52.8953866,-26.7675881992399,0.0 -52.8954199,-26.7676001992399,0.0 -52.8954435,-26.7676209992399,0.0 -52.8954812,-26.7676783992399,0.0 -52.8954894,-26.7677167992399,0.0 -52.8954935,-26.7677411992399,0.0 -52.8954939,-26.7677830992399,0.0 -52.8954813,-26.7678880992399,0.0 -52.8954722,-26.7679614992399,0.0 -52.8954578,-26.7680085992399,0.0 -52.8954404,-26.7680243992399,0.0 -52.8954053,-26.7680403992399,0.0 -52.895386,-26.7680597992399,0.0 -52.895383,-26.7680752992399,0.0 -52.895389,-26.7680892992399,0.0 -52.8954087,-26.7681065992399,0.0 -52.8954774,-26.7681357992399,0.0 -52.8955488,-26.7681595992399,0.0 -52.8956142,-26.7681763992399,0.0 -52.8956281,-26.7681920992399,0.0 -52.8956342,-26.7682216992399,0.0 -52.8956061,-26.7683425992399,0.0 -52.8955782,-26.7684125992399,0.0 -52.8955668,-26.7684476992399,0.0 -52.8955671,-26.7684721992399,0.0 -52.895579,-26.7684965992399,0.0 -52.895589,-26.7685209992399,0.0 -52.8956087,-26.7685382992399,0.0 -52.8956519,-26.7685554992399,0.0 -52.8957549,-26.7685983992399,0.0 -52.8957883,-26.7686190992399,0.0 -52.895861,-26.7686605992399,0.0 -52.8959593,-26.7687104992399,0.0 -52.8960387,-26.7687465992399,0.0 -52.8961849,-26.7688083992399,0.0 -52.8964065,-26.7688801992399,0.0 -52.8965536,-26.7689349992399,0.0 -52.896587,-26.7689504992399,0.0 -52.8966027,-26.7689643992399,0.0 -52.8966148,-26.7689974992399,0.0 -52.8966125,-26.7690272992399,0.0 -52.8966078,-26.7690867992399,0.0 -52.896603,-26.7691969992399,0.0 -52.8966075,-26.7692581992399,0.0 -52.8966215,-26.7692912992399,0.0 -52.8966493,-26.7693330992399,0.0 -52.8966828,-26.7693624992399,0.0 -52.896726,-26.7693918992399,0.0 -52.8967888,-26.7694175992399,0.0 -52.8969702,-26.7694791992399,0.0 -52.8970164,-26.7694981992399,0.0 -52.8970459,-26.7695206992399,0.0 -52.8970657,-26.7695449992399,0.0 -52.8970995,-26.7696094992399,0.0 -52.897182,-26.7697056992399,0.0 -52.8972141,-26.7697431992399,0.0 -52.8972184,-26.7697487992399,0.0 -52.8972786,-26.7698267992399,0.0 -52.8973142,-26.7698754992399,0.0 -52.8973382,-26.7699312992399,0.0 -52.897364,-26.7699677992399,0.0 -52.8974027,-26.7700148992399,0.0 -52.8974657,-26.7700598992399,0.0 -52.8975344,-26.7700995992399,0.0 -52.8975954,-26.7701427992399,0.0 -52.8976485,-26.7701842992399,0.0 -52.8976814,-26.7702227992399,0.0 -52.8977093,-26.7702767992399,0.0 -52.8977294,-26.7703342992399,0.0 -52.8977553,-26.7703918992399,0.0 -52.8977882,-26.7704285992399,0.0 -52.8978433,-26.7704735992399,0.0 -52.8979712,-26.7705686992399,0.0 -52.8980812,-26.7706342992399,0.0 -52.8981521,-26.7706930992399,0.0 -52.8982014,-26.7707486992399,0.0 -52.8982388,-26.7707762992399,0.0 -52.8982975,-26.7707967992399,0.0 -52.8983517,-26.7708071992399,0.0 -52.8984,-26.7708070992399,0.0 -52.8984911,-26.7707926992399,0.0 -52.8985612,-26.7707674992399,0.0 -52.8986449,-26.7707439992399,0.0 -52.8987166,-26.7707332992399,0.0 -52.8987786,-26.7707347992399,0.0 -52.8988349,-26.7707399992399,0.0 -52.8989523,-26.7707686992399,0.0 -52.8989594,-26.7707712992399,0.0 -52.899075,-26.7708138992399,0.0 -52.8991555,-26.7708516992399,0.0 -52.8992047,-26.7708896992399,0.0 -52.8992539,-26.7709347992399,0.0 -52.899315,-26.7709937992399,0.0 -52.8993702,-26.7710492992399,0.0 -52.8994354,-26.7711187992399,0.0 -52.8994924,-26.7711584992399,0.0 -52.8995395,-26.7711860992399,0.0 -52.8996022,-26.7712134992399,0.0 -52.8997294,-26.7712473992399,0.0 -52.8998811,-26.7712811992399,0.0 -52.8999926,-26.7713156992399,0.0 -52.9001336,-26.7713726992399,0.0 -52.9002864,-26.7714511992399,0.0 -52.9003866,-26.7715115992399,0.0 -52.9004475,-26.7715571992399,0.0 -52.9005382,-26.7716514992399,0.0 -52.9006723,-26.7717805992399,0.0 -52.9007868,-26.7719034992399,0.0 -52.9008856,-26.7720152992399,0.0 -52.9010544,-26.7722339992399,0.0 -52.9011958,-26.7724332992399,0.0 -52.9012436,-26.7725092992398,0.0 -52.9012776,-26.7725509992398,0.0 -52.9013092,-26.7725717992399,0.0 -52.9013603,-26.7725835992398,0.0 -52.9014958,-26.7725934992398,0.0 -52.901557,-26.7726050992398,0.0 -52.901624,-26.7726307992398,0.0 -52.9017173,-26.7726797992398,0.0 -52.9017689,-26.7727223992398,0.0 -52.9017902,-26.7727596992398,0.0 -52.9017929,-26.7727644992398,0.0 -52.901807,-26.7728013992398,0.0 -52.9018254,-26.7728805992398,0.0 -52.9018287,-26.7729483992398,0.0 -52.9018142,-26.7730500992398,0.0 -52.9018015,-26.7731560992398,0.0 -52.9018066,-26.7732743992398,0.0 -52.9018175,-26.7733907992398,0.0 -52.9018423,-26.7735122992398,0.0 -52.9018647,-26.7735914992398,0.0 -52.9019068,-26.7736792992398,0.0 -52.9019626,-26.7737580992398,0.0 -52.9020409,-26.7738557992398,0.0 -52.9020809,-26.7739259992398,0.0 -52.9021212,-26.7740190992398,0.0 -52.9021329,-26.7740544992398,0.0 -52.9021434,-26.7740859992398,0.0 -52.9021782,-26.7742268992398,0.0 -52.902235,-26.7744045992398,0.0 -52.9022575,-26.7744961992398,0.0 -52.9022686,-26.7746267992398,0.0 -52.9022727,-26.7748456992398,0.0 -52.9022621,-26.7749659992398,0.0 -52.9022686,-26.7750223992398,0.0 -52.902281,-26.7750840992398,0.0 -52.902311,-26.7751437992398,0.0 -52.9023529,-26.7752050992398,0.0 -52.9024124,-26.7752607992398,0.0 -52.9025112,-26.7753196992398,0.0 -52.90263,-26.7753960992398,0.0 -52.902682,-26.7754415992398,0.0 -52.90277,-26.7755273992398,0.0 -52.9028743,-26.7756555992398,0.0 -52.9029544,-26.7757326992398,0.0 -52.9030907,-26.7758370992398,0.0 -52.9031627,-26.7759053992398,0.0 -52.9032617,-26.7760262992398,0.0 -52.9033345,-26.7761293992398,0.0 -52.903377,-26.7761896992398,0.0 -52.9034341,-26.7762774992398,0.0 -52.9034621,-26.7763001992398,0.0 -52.9035437,-26.7763382992398,0.0 -52.9036691,-26.7763987992398,0.0 -52.9037243,-26.7764373992398,0.0 -52.9037438,-26.7764509992398,0.0 -52.9037857,-26.7764823992398,0.0 -52.9038758,-26.7765770992398,0.0 -52.9039542,-26.7766789992398,0.0 -52.9040405,-26.7767861992398,0.0 -52.9041237,-26.7768986992398,0.0 -52.9041862,-26.7769990992398,0.0 -52.9042316,-26.7770872992398,0.0 -52.9042582,-26.7771685992398,0.0 -52.9042768,-26.7772428992398,0.0 -52.9042842,-26.7773089992398,0.0 -52.9042895,-26.7774278992397,0.0 -52.9042885,-26.7775237992398,0.0 -52.9043016,-26.7776389992397,0.0 -52.9043155,-26.7778740992397,0.0 -52.9043344,-26.7779715992397,0.0 -52.9043577,-26.7780915992397,0.0 -52.9043665,-26.7781456992398,0.0 -52.9044417,-26.7781597992397,0.0 -52.904521,-26.7781657992397,0.0 -52.9046084,-26.7781877992397,0.0 -52.9046958,-26.7782078992397,0.0 -52.9047615,-26.7782407992397,0.0 -52.9048211,-26.7782630992397,0.0 -52.9048897,-26.7782855992397,0.0 -52.9049572,-26.7782971992397,0.0 -52.9050621,-26.7782939992397,0.0 -52.9051412,-26.7782840992397,0.0 -52.9052163,-26.7782705992397,0.0 -52.9053281,-26.7782552992397,0.0 -52.9054053,-26.7782471992397,0.0 -52.9054845,-26.7782460992397,0.0 -52.9055621,-26.7782529992397,0.0 -52.9056579,-26.7782734992397,0.0 -52.9056872,-26.7782796992397,0.0 -52.9058025,-26.7783207992397,0.0 -52.9059177,-26.7783529992397,0.0 -52.9060428,-26.7783850992397,0.0 -52.9061441,-26.7784139992397,0.0 -52.9062217,-26.7784430992397,0.0 -52.9063349,-26.7784717992397,0.0 -52.9064082,-26.7784778992397,0.0 -52.9064853,-26.7784750992397,0.0 -52.9065565,-26.7784669992397,0.0 -52.9066388,-26.7784485992397,0.0 -52.906739,-26.7784280992397,0.0 -52.9068749,-26.7784195992397,0.0 -52.906972,-26.7784236992397,0.0 -52.907077,-26.7784275992397,0.0 -52.9071878,-26.7784260992397,0.0 -52.9073027,-26.7784315992397,0.0 -52.907378,-26.7784430992397,0.0 -52.9074731,-26.7784541992397,0.0 -52.9075326,-26.7784604992397,0.0 -52.9076219,-26.7784805992397,0.0 -52.9077171,-26.7785041992397,0.0 -52.9078639,-26.7785412992397,0.0 -52.9079612,-26.7785772992397,0.0 -52.9080109,-26.7785925992397,0.0 -52.9080844,-26.7786253992397,0.0 -52.9081281,-26.7786371992397,0.0 -52.9082151,-26.7786412992397,0.0 -52.9082803,-26.7786368992397,0.0 -52.9083692,-26.7786214992397,0.0 -52.9084322,-26.7785992992397,0.0 -52.9085206,-26.7785518992397,0.0 -52.9085796,-26.7785173992397,0.0 -52.9086483,-26.7784791992397,0.0 -52.9087073,-26.7784499992397,0.0 -52.9087762,-26.7784259992397,0.0 -52.9088531,-26.7784071992397,0.0 -52.9089063,-26.7783921992397,0.0 -52.9089812,-26.7783752992397,0.0 -52.9090482,-26.7783618992397,0.0 -52.9091542,-26.7783538992397,0.0 -52.909218,-26.7783489992397,0.0 -52.9092872,-26.7783533992397,0.0 -52.9093645,-26.7783753992397,0.0 -52.9094161,-26.7783977992397,0.0 -52.909448,-26.7784203992397,0.0 -52.909502,-26.7784769992397,0.0 -52.9095283,-26.7785262992397,0.0 -52.9095547,-26.7785951992397,0.0 -52.9096033,-26.7786992992397,0.0 -52.9096442,-26.7788128992397,0.0 -52.909657,-26.7788949992397,0.0 -52.9096646,-26.7790404992397,0.0 -52.9096606,-26.7791780992397,0.0 -52.9096576,-26.7792486992397,0.0 -52.9096638,-26.7792734992397,0.0 -52.90968,-26.7793017992397,0.0 -52.9097179,-26.7793214992397,0.0 -52.9097596,-26.7793268992397,0.0 -52.9098273,-26.7793443992397,0.0 -52.9098672,-26.7793704992397,0.0 -52.909919,-26.7794035992397,0.0 -52.9099751,-26.7794426992397,0.0 -52.9100668,-26.7795000992397,0.0 -52.9101531,-26.7795643992397,0.0 -52.9102489,-26.7796235992397,0.0 -52.9103129,-26.7796761992397,0.0 -52.9103788,-26.7797232992397,0.0 -52.9104385,-26.7797527992397,0.0 -52.9105222,-26.7797906992397,0.0 -52.9106354,-26.7798247992397,0.0 -52.9107386,-26.7798410992397,0.0 -52.9109037,-26.7798733992397,0.0 -52.9110251,-26.7798955992397,0.0 -52.9111198,-26.7798973992397,0.0 -52.9112001,-26.7798944992397,0.0 -52.9112595,-26.7798978992397,0.0 -52.9113173,-26.7799120992397,0.0 -52.9113514,-26.7799287992397,0.0 -52.9114066,-26.7799894992397,0.0 -52.9114462,-26.7800576992397,0.0 -52.9114725,-26.7801635992397,0.0 -52.9114896,-26.7802736992397,0.0 -52.9114927,-26.7804465992397,0.0 -52.9114999,-26.7805568992397,0.0 -52.9114925,-26.7806409992397,0.0 -52.9114939,-26.7807102992397,0.0 -52.9114919,-26.7807745992397,0.0 -52.9114806,-26.7808605992397,0.0 -52.911452,-26.7809361992397,0.0 -52.9114321,-26.7810205992397,0.0 -52.9114182,-26.7810852992397,0.0 -52.9113986,-26.7811589992397,0.0 -52.9113931,-26.7812412992397,0.0 -52.9114067,-26.7813193992397,0.0 -52.9114306,-26.7813935992397,0.0 -52.9114723,-26.7814618992397,0.0 -52.9115285,-26.7815565992397,0.0 -52.9115766,-26.7816407992397,0.0 -52.9116689,-26.7817764992397,0.0 -52.9116801,-26.7817929992397,0.0 -52.9117332,-26.7819145992397,0.0 -52.9117809,-26.7820558992397,0.0 -52.9118339,-26.7821721992397,0.0 -52.9119161,-26.7823427992397,0.0 -52.9119591,-26.7824557992397,0.0 -52.9119847,-26.7825192992397,0.0 -52.9120287,-26.7825983992397,0.0 -52.9120705,-26.7826720992397,0.0 -52.9121198,-26.7827312992396,0.0 -52.9121625,-26.7827693992396,0.0 -52.9122383,-26.7828091992396,0.0 -52.9123769,-26.7828657992396,0.0 -52.9124888,-26.7828910992396,0.0 -52.9126164,-26.7829123992396,0.0 -52.9127656,-26.7829223992396,0.0 -52.912847,-26.7829235992397,0.0 -52.9129487,-26.7829348992396,0.0 -52.9130268,-26.7829593992396,0.0 -52.9130811,-26.7829810992397,0.0 -52.9131349,-26.7829923992396,0.0 -52.9132371,-26.7830215992396,0.0 -52.9133527,-26.7830289992396,0.0 -52.9134838,-26.7830251992396,0.0 -52.9135652,-26.7830191992396,0.0 -52.9136567,-26.7830200992396,0.0 -52.9137835,-26.7830003992396,0.0 -52.9139,-26.7829718992396,0.0 -52.9139755,-26.7829641992396,0.0 -52.9141656,-26.7829350992396,0.0 -52.9142691,-26.7829192992396,0.0 -52.9145571,-26.7828799992396,0.0 -52.914679,-26.7828650992396,0.0 -52.9148229,-26.7828387992396,0.0 -52.9149323,-26.7828118992397,0.0 -52.9150116,-26.7828018992397,0.0 -52.9150931,-26.7828062992396,0.0 -52.9151972,-26.7828347992396,0.0 -52.9153388,-26.7828969992396,0.0 -52.9154412,-26.7829663992396,0.0 -52.9155728,-26.7830723992396,0.0 -52.9156967,-26.7831779992396,0.0 -52.915788,-26.7832455992396,0.0 -52.9158813,-26.7832874992396,0.0 -52.9161276,-26.7833805992396,0.0 -52.9162552,-26.7834153992396,0.0 -52.9164137,-26.7834496992396,0.0 -52.9166308,-26.7834790992396,0.0 -52.91678,-26.7834759992396,0.0 -52.9168685,-26.7834559992396,0.0 -52.9169842,-26.7834432992396,0.0 -52.9171129,-26.7834415992396,0.0 -52.9171952,-26.7834216992396,0.0 -52.9173348,-26.7833577992396,0.0 -52.9174427,-26.7832961992396,0.0 -52.9175157,-26.7832365992396,0.0 -52.9175706,-26.7831263992396,0.0 -52.9176097,-26.7830244992396,0.0 -52.9176557,-26.7829455992396,0.0 -52.9177351,-26.7828608992396,0.0 -52.9176094,-26.7828625992396,0.0 -52.9175067,-26.7828031992396,0.0 -52.9173379,-26.7825664992397,0.0 -52.9172248,-26.7821769992397,0.0 -52.9171606,-26.7818415992397,0.0 -52.9171759,-26.7815937992397,0.0 -52.9171911,-26.7813458992397,0.0 -52.917403,-26.7808497992397,0.0 -52.9177787,-26.7804233992397,0.0 -52.9183553,-26.7800332992397,0.0 -52.9189231,-26.7796432992397,0.0 -52.9194132,-26.7792933992397,0.0 -52.9201726,-26.7789085992397,0.0 -52.9210365,-26.7784486992397,0.0 -52.9218483,-26.7780787992397,0.0 -52.9224266,-26.7777978992398,0.0 -52.922823,-26.7775662992398,0.0 -52.9231852,-26.7773662992398,0.0 -52.9233449,-26.7772938992397,0.0 -52.9235047,-26.7772214992398,0.0 -52.9239714,-26.7770279992398,0.0 -52.9243424,-26.7767146992398,0.0 -52.9248557,-26.7761927992398,0.0 -52.925273,-26.7756075992398,0.0 -52.925475,-26.7751991992398,0.0 -52.9255827,-26.7748778992398,0.0 -52.9256307,-26.7746274992398,0.0 -52.9256067,-26.7742377992398,0.0 -52.9254047,-26.7736963992398,0.0 -52.9250737,-26.7733604992398,0.0 -52.9249489,-26.7731082992398,0.0 -52.9247144,-26.7727819992398,0.0 -52.9244699,-26.7726102992398,0.0 -52.9235227,-26.7721801992399,0.0 -52.9225342,-26.7717992992399,0.0 -52.921922,-26.7716656992399,0.0 -52.9212278,-26.7715886992399,0.0 -52.9202555,-26.7714559992399,0.0 -52.9192158,-26.7713777992399,0.0 -52.918674,-26.7714067992399,0.0 -52.9183616,-26.7714595992399,0.0 -52.9178084,-26.7716405992399,0.0 -52.9172745,-26.7717774992399,0.0 -52.9169177,-26.7718794992399,0.0 -52.9165609,-26.7719815992399,0.0 -52.9157494,-26.7722531992399,0.0 -52.9150659,-26.7724568992398,0.0 -52.9146213,-26.7725331992399,0.0 -52.9142421,-26.7725544992398,0.0 -52.9138619,-26.7725217992398,0.0 -52.9135279,-26.7723642992398,0.0 -52.9131913,-26.7721340992399,0.0 -52.9131044,-26.7719840992399,0.0 -52.913101,-26.7717787992399,0.0 -52.9132271,-26.7713989992399,0.0 -52.9135753,-26.7709327992399,0.0 -52.9138855,-26.7706331992399,0.0 -52.9142334,-26.7702972992399,0.0 -52.9152428,-26.7693468992399,0.0 -52.9158403,-26.7686224992399,0.0 -52.9162582,-26.7680333992399,0.0 -52.9166331,-26.7673556992399,0.0 -52.9168917,-26.76696859924,0.0 -52.9171699,-26.76666779924,0.0 -52.9177764,-26.76618959924,0.0 -52.9193182,-26.76530119924,0.0 -52.9207204,-26.76448799924,0.0 -52.9213957,-26.76404259924,0.0 -52.9218656,-26.76367969924,0.0 -52.922601,-26.76298909924,0.0 -52.9231894,-26.76244399924,0.0 -52.9233248,-26.76225309924,0.0 -52.9234756,-26.7619052992401,0.0 -52.9235302,-26.7615676992401,0.0 -52.9235535,-26.7611621992401,0.0 -52.9235016,-26.7609413992401,0.0 -52.9233649,-26.7606947992401,0.0 -52.9231868,-26.7604972992401,0.0 -52.9229199,-26.7603874992401,0.0 -52.922772,-26.7603705992401,0.0 -52.9226241,-26.7603536992401,0.0 -52.9222092,-26.7604024992401,0.0 -52.9213825,-26.7606783992401,0.0 -52.9202609,-26.7611208992401,0.0 -52.919689,-26.7613947992401,0.0 -52.9192319,-26.7615659992401,0.0 -52.9188655,-26.7616994992401,0.0 -52.9186327,-26.7617960992401,0.0 -52.9184992,-26.7618555992401,0.0 -52.9184148,-26.7618790992401,0.0 -52.918279,-26.7618900992401,0.0 -52.9178905,-26.7618782992401,0.0 -52.9175253,-26.7618601992401,0.0 -52.9170764,-26.7618662992401,0.0 -52.9162143,-26.7618161992401,0.0 -52.9152541,-26.7616520992401,0.0 -52.9144347,-26.7614156992401,0.0 -52.9137189,-26.7611946992401,0.0 -52.9131188,-26.7608311992401,0.0 -52.9126465,-26.7604995992401,0.0 -52.9120894,-26.7601993992401,0.0 -52.9115778,-26.7600184992401,0.0 -52.9108176,-26.7597220992401,0.0 -52.9104389,-26.7595497992401,0.0 -52.9100917,-26.7593910992401,0.0 -52.9091814,-26.7589747992401,0.0 -52.9084813,-26.7586139992401,0.0 -52.9080937,-26.7583762992401,0.0 -52.9077176,-26.7580701992401,0.0 -52.9074131,-26.7577074992401,0.0 -52.9072732,-26.7574201992401,0.0 -52.9072221,-26.7571455992401,0.0 -52.9072786,-26.7566317992402,0.0 -52.9075322,-26.7556537992402,0.0 -52.907768,-26.7546263992402,0.0 -52.9079379,-26.7538854992402,0.0 -52.9082067,-26.7530307992402,0.0 -52.908623,-26.7521178992402,0.0 -52.9090994,-26.7511798992403,0.0 -52.909331,-26.7507897992403,0.0 -52.9096822,-26.7504380992403,0.0 -52.9100724,-26.7501859992403,0.0 -52.9104197,-26.7500033992403,0.0 -52.9104876,-26.7499678992403,0.0 -52.9105644,-26.7499403992403,0.0 -52.910635,-26.7499364992403,0.0 -52.9106907,-26.7499282992403,0.0 -52.9108477,-26.7498851992403,0.0 -52.9108989,-26.7498644992403,0.0 -52.9110321,-26.7498125992403,0.0 -52.911035,-26.7498113992403,0.0 -52.9110481,-26.7498062992403,0.0 -52.9111108,-26.7497818992403,0.0 -52.9111848,-26.7497647992403,0.0 -52.9114428,-26.7497055992403,0.0 -52.911748,-26.7496216992403,0.0 -52.9119336,-26.7495552992403,0.0 -52.9126619,-26.7492581992403,0.0 -52.9129443,-26.7492011992403,0.0 -52.9129586,-26.7491983992403,0.0 -52.9132201,-26.7491548992403,0.0 -52.9135567,-26.7490865992403,0.0 -52.9137598,-26.7490079992403,0.0 -52.9139537,-26.7489135992403,0.0 -52.914197,-26.7488424992403,0.0 -52.9143865,-26.7487481992403,0.0 -52.9145536,-26.7486421992403,0.0 -52.914725,-26.7485321992403,0.0 -52.914904,-26.7483382992403,0.0 -52.9151257,-26.7480479992403,0.0 -52.9152499,-26.7477669992403,0.0 -52.9153516,-26.7474703992403,0.0 -52.9153173,-26.7472833992403,0.0 -52.9151902,-26.7471214992403,0.0 -52.9149286,-26.7468896992403,0.0 -52.9148194,-26.7468198992404,0.0 -52.9142009,-26.7464246992404,0.0 -52.9135149,-26.7460628992404,0.0 -52.9131111,-26.7458329992404,0.0 -52.9127876,-26.7456178992404,0.0 -52.9124205,-26.7454592992404,0.0 -52.9121898,-26.7452638992404,0.0 -52.912096,-26.7451843992404,0.0 -52.91174,-26.7448939992404,0.0 -52.9114603,-26.7446383992404,0.0 -52.9111387,-26.7442756992404,0.0 -52.9109706,-26.7440584992404,0.0 -52.9108645,-26.7438244992404,0.0 -52.9107498,-26.7436105992404,0.0 -52.9105689,-26.7434215992404,0.0 -52.9103924,-26.7432284992404,0.0 -52.910242,-26.7431324992404,0.0 -52.9101903,-26.7430994992404,0.0 -52.9099429,-26.7429232992404,0.0 -52.9095331,-26.7425976992404,0.0 -52.9093226,-26.7425007992404,0.0 -52.9091608,-26.7423872992404,0.0 -52.9088901,-26.7421435992404,0.0 -52.90841,-26.7418666992404,0.0 -52.9081851,-26.7417061992404,0.0 -52.9077331,-26.7415167992405,0.0 -52.907305,-26.7414267992405,0.0 -52.9071627,-26.7414166992405,0.0 -52.9069267,-26.7413879992405,0.0 -52.9063568,-26.7413197992405,0.0 -52.9058665,-26.7412306992405,0.0 -52.9054783,-26.7411361992405,0.0 -52.9049932,-26.7410907992405,0.0 -52.9046738,-26.7411045992405,0.0 -52.9042654,-26.7411997992405,0.0 -52.903794,-26.7412577992405,0.0 -52.9033005,-26.7413451992405,0.0 -52.9032354,-26.7413635992405,0.0 -52.9031587,-26.7413852992405,0.0 -52.9029224,-26.7414557992405,0.0 -52.9027555,-26.7414916992405,0.0 -52.9026166,-26.7415518992404,0.0 -52.9024329,-26.7416283992405,0.0 -52.9022193,-26.7417120992405,0.0 -52.9021119,-26.7417179992404,0.0 -52.9019592,-26.7417050992405,0.0 -52.9019144,-26.7417144992404,0.0 -52.9018574,-26.7417263992404,0.0 -52.9016808,-26.7417965992404,0.0 -52.9013932,-26.7418722992405,0.0 -52.9008315,-26.7420313992404,0.0 -52.900184,-26.7421078992404,0.0 -52.8998466,-26.7421283992404,0.0 -52.8992868,-26.7421318992404,0.0 -52.8989488,-26.7421164992404,0.0 -52.8986463,-26.7420965992404,0.0 -52.8984285,-26.7420954992404,0.0 -52.8981574,-26.7420911992404,0.0 -52.8978412,-26.7420474992404,0.0 -52.8975996,-26.7419469992404,0.0 -52.8973711,-26.7418383992404,0.0 -52.8972136,-26.7417167992405,0.0 -52.8971542,-26.7416177992405,0.0 -52.8970848,-26.7414551992405,0.0 -52.8970592,-26.7412480992405,0.0 -52.8971306,-26.7409997992405,0.0 -52.8972125,-26.7408469992405,0.0 -52.8972808,-26.7406825992405,0.0 -52.8973416,-26.7405942992405,0.0 -52.897411,-26.7404932992405,0.0 -52.8976252,-26.7402829992405,0.0 -52.8977307,-26.7402096992405,0.0 -52.897823,-26.7401486992405,0.0 -52.8980122,-26.7400343992405,0.0 -52.8981526,-26.7399287992405,0.0 -52.8983251,-26.7398785992405,0.0 -52.8985455,-26.7397718992405,0.0 -52.89895,-26.7395111992405,0.0 -52.8993187,-26.7392388992405,0.0 -52.8996396,-26.7390310992405,0.0 -52.8998293,-26.7389447992405,0.0 -52.8999173,-26.7388957992405,0.0 -52.8999653,-26.7388392992405,0.0 -52.9001254,-26.7386389992405,0.0 -52.900296,-26.7384522992405,0.0 -52.9008668,-26.7380970992405,0.0 -52.9009267,-26.7380473992405,0.0 -52.9015447,-26.7375346992405,0.0 -52.9018409,-26.7372966992405,0.0 -52.90233,-26.7367793992405,0.0 -52.902515,-26.7365002992405,0.0 -52.9027138,-26.7361075992406,0.0 -52.9028727,-26.7356868992406,0.0 -52.9029983,-26.7351674992406,0.0 -52.9031302,-26.7345485992406,0.0 -52.9031482,-26.7337326992406,0.0 -52.9032425,-26.7332278992406,0.0 -52.9032048,-26.7328594992406,0.0 -52.9030534,-26.7323082992406,0.0 -52.9028872,-26.7318140992406,0.0 -52.902739,-26.7314542992407,0.0 -52.9026876,-26.7312137992407,0.0 -52.902719,-26.7307239992407,0.0 -52.9029928,-26.7300890992407,0.0 -52.9033527,-26.7293474992407,0.0 -52.9036136,-26.7290087992407,0.0 -52.9040315,-26.7287558992407,0.0 -52.9043188,-26.7286641992407,0.0 -52.904545,-26.7286411992407,0.0 -52.9047316,-26.7286386992407,0.0 -52.9049538,-26.7286396992407,0.0 -52.9051051,-26.7286536992407,0.0 -52.9053273,-26.7286546992407,0.0 -52.9055453,-26.7286756992407,0.0 -52.9058002,-26.7287719992407,0.0 -52.9060832,-26.7289596992407,0.0 -52.9067139,-26.7294778992407,0.0 -52.9068359,-26.7296226992407,0.0 -52.9068635,-26.7296553992407,0.0 -52.906986,-26.7298053992407,0.0 -52.9070357,-26.7298545992407,0.0 -52.9070854,-26.7299037992407,0.0 -52.9072207,-26.7300255992407,0.0 -52.9072988,-26.7301801992407,0.0 -52.9073596,-26.7303628992407,0.0 -52.907447,-26.7305411992407,0.0 -52.9076067,-26.7307903992407,0.0 -52.9077372,-26.7309700992407,0.0 -52.9079023,-26.7311973992407,0.0 -52.9081649,-26.7314890992406,0.0 -52.9083406,-26.7316383992406,0.0 -52.9085425,-26.7317513992406,0.0 -52.9087526,-26.7318282992406,0.0 -52.9090998,-26.7318634992406,0.0 -52.9093445,-26.7318867992406,0.0 -52.9096648,-26.7319090992406,0.0 -52.9098901,-26.7318764992406,0.0 -52.9100046,-26.7317992992406,0.0 -52.9102548,-26.7316446992406,0.0 -52.9103885,-26.7314536992406,0.0 -52.9103844,-26.7312078992407,0.0 -52.9103803,-26.7309620992407,0.0 -52.9103435,-26.7306504992407,0.0 -52.9102713,-26.7301123992407,0.0 -52.9101578,-26.7296220992407,0.0 -52.9099355,-26.7289252992407,0.0 -52.9098421,-26.7284856992407,0.0 -52.9097412,-26.7280105992407,0.0 -52.9095755,-26.7275493992407,0.0 -52.9095496,-26.7272565992407,0.0 -52.9095474,-26.7272031992407,0.0 -52.9095316,-26.7268123992407,0.0 -52.9095442,-26.7263014992408,0.0 -52.909685,-26.7259023992408,0.0 -52.9097982,-26.7255738992408,0.0 -52.9098356,-26.7254652992408,0.0 -52.909978,-26.7251607992408,0.0 -52.9100768,-26.7247716992408,0.0 -52.9102914,-26.7243810992408,0.0 -52.9104523,-26.7239249992408,0.0 -52.9108715,-26.7231721992408,0.0 -52.9112494,-26.7224672992408,0.0 -52.9115638,-26.7217442992408,0.0 -52.91186,-26.7211917992409,0.0 -52.9119282,-26.7208598992409,0.0 -52.9121159,-26.7201196992409,0.0 -52.9123486,-26.7195491992409,0.0 -52.9126549,-26.7189775992409,0.0 -52.9130344,-26.7183671992409,0.0 -52.9133434,-26.7179563992409,0.0 -52.9133928,-26.7177618992409,0.0 -52.9134422,-26.7175672992409,0.0 -52.9132002,-26.7171484992409,0.0 -52.9131494,-26.7170605992409,0.0 -52.9127534,-26.7166781992409,0.0 -52.9123825,-26.7165412992409,0.0 -52.9115369,-26.716354099241,0.0 -52.9110946,-26.7163505992409,0.0 -52.9110688,-26.7163593992409,0.0 -52.9105187,-26.7165474992409,0.0 -52.9089041,-26.7169758992409,0.0 -52.9078149,-26.7173404992409,0.0 -52.906844,-26.7178452992409,0.0 -52.9052874,-26.7187149992409,0.0 -52.9041562,-26.7192434992409,0.0 -52.9034947,-26.7195366992409,0.0 -52.9033787,-26.7196004992409,0.0 -52.9031546,-26.7197237992409,0.0 -52.9026504,-26.7200626992409,0.0 -52.9023805,-26.7202607992409,0.0 -52.9021096,-26.7203990992409,0.0 -52.9018588,-26.7205982992409,0.0 -52.9017234,-26.7206825992409,0.0 -52.901578,-26.7207315992409,0.0 -52.9014171,-26.7207505992409,0.0 -52.901196,-26.7207518992409,0.0 -52.9010439,-26.7207370992409,0.0 -52.9009224,-26.7207029992409,0.0 -52.9007969,-26.7206354992409,0.0 -52.900541,-26.7205697992409,0.0 -52.90028,-26.7205466992409,0.0 -52.9000665,-26.7205335992409,0.0 -52.8998889,-26.7205412992409,0.0 -52.8993759,-26.7205611992409,0.0 -52.898194,-26.7204161992409,0.0 -52.897569,-26.7201975992409,0.0 -52.8969326,-26.7199223992409,0.0 -52.8964109,-26.7195794992409,0.0 -52.8957482,-26.7189924992409,0.0 -52.8955964,-26.7189036992409,0.0 -52.8951633,-26.7186503992409,0.0 -52.8950799,-26.7186010992409,0.0 -52.8948671,-26.7184752992409,0.0 -52.894692,-26.7183716992409,0.0 -52.8945253,-26.7182730992409,0.0 -52.8943207,-26.7181520992409,0.0 -52.8940601,-26.7179978992409,0.0 -52.8940175,-26.7179727992409,0.0 -52.8935897,-26.7177080992409,0.0 -52.8935631,-26.7176915992409,0.0 -52.8931616,-26.7173946992409,0.0 -52.8927022,-26.7172152992409,0.0 -52.8924994,-26.7171659992409,0.0 -52.8922004,-26.7170932992409,0.0 -52.8918702,-26.7170737992409,0.0 -52.8915136,-26.7170695992409,0.0 -52.8909837,-26.7170676992409,0.0 -52.8904707,-26.7170714992409,0.0 -52.8900285,-26.7171312992409,0.0 -52.8896355,-26.7171424992409,0.0 -52.8890123,-26.7171357992409,0.0 -52.8887156,-26.7171307992409,0.0 -52.8884709,-26.7170412992409,0.0 -52.8880558,-26.7169240992409,0.0 -52.8877976,-26.7168227992409,0.0 -52.8874855,-26.7166893992409,0.0 -52.8872,-26.7165494992409,0.0 -52.8869273,-26.7163795992409,0.0 -52.8867484,-26.7162412992409,0.0 -52.8864862,-26.7161011992409,0.0 -52.8864056,-26.716063399241,0.0 -52.8863119,-26.716037699241,0.0 -52.8861712,-26.7159946992409,0.0 -52.8860861,-26.7158850992409,0.0 -52.8860433,-26.715715099241,0.0 -52.8860402,-26.715523599241,0.0 -52.8860408,-26.715358999241,0.0 -52.886095,-26.715208699241,0.0 -52.8862196,-26.715087299241,0.0 -52.8863637,-26.714935799241,0.0 -52.8866033,-26.714714199241,0.0 -52.8868851,-26.714429199241,0.0 -52.8871163,-26.714303399241,0.0 -52.887334,-26.714171799241,0.0 -52.8879113,-26.713816999241,0.0 -52.8885387,-26.713473599241,0.0 -52.8887917,-26.713260699241,0.0 -52.8888896,-26.713133699241,0.0 -52.8890743,-26.713020599241,0.0 -52.8892034,-26.712970999241,0.0 -52.8893656,-26.712902999241,0.0 -52.8895925,-26.712726399241,0.0 -52.8899028,-26.712545699241,0.0 -52.8903119,-26.712303899241,0.0 -52.8907029,-26.712169999241,0.0 -52.8914209,-26.712070699241,0.0 -52.8918006,-26.712059599241,0.0 -52.8921407,-26.712072999241,0.0 -52.8924556,-26.712105999241,0.0 -52.8926185,-26.712093799241,0.0 -52.892747,-26.712044899241,0.0 -52.8927911,-26.711988799241,0.0 -52.8928631,-26.711925599241,0.0 -52.8929544,-26.711892399241,0.0 -52.8931075,-26.711858299241,0.0 -52.8933118,-26.711860699241,0.0 -52.8934435,-26.711890899241,0.0 -52.8935857,-26.711986599241,0.0 -52.8938735,-26.712161199241,0.0 -52.8939317,-26.712205299241,0.0 -52.8940306,-26.712293699241,0.0 -52.8941223,-26.712397999241,0.0 -52.8941907,-26.712538499241,0.0 -52.8942595,-26.712669199241,0.0 -52.8943334,-26.712839799241,0.0 -52.8944103,-26.712926499241,0.0 -52.8944975,-26.712959299241,0.0 -52.8945847,-26.712991999241,0.0 -52.89487,-26.713052099241,0.0 -52.8952316,-26.713154999241,0.0 -52.8954946,-26.713211299241,0.0 -52.8958816,-26.713241999241,0.0 -52.8960464,-26.713263799241,0.0 -52.8963265,-26.713235699241,0.0 -52.8963376,-26.713234599241,0.0 -52.8966446,-26.713171999241,0.0 -52.8970509,-26.713028199241,0.0 -52.8972987,-26.712966399241,0.0 -52.8975809,-26.712840299241,0.0 -52.8978623,-26.712660999241,0.0 -52.898132,-26.712497799241,0.0 -52.8983071,-26.712341199241,0.0 -52.898447,-26.712200999241,0.0 -52.8986379,-26.711927099241,0.0 -52.89874,-26.711654399241,0.0 -52.8987849,-26.711504899241,0.0 -52.8988532,-26.711339099241,0.0 -52.8989349,-26.711263499241,0.0 -52.8990268,-26.711091999241,0.0 -52.8993579,-26.7103428992411,0.0 -52.8995703,-26.7099303992411,0.0 -52.8997903,-26.7096295992411,0.0 -52.8999941,-26.7094139992411,0.0 -52.9003766,-26.7092652992411,0.0 -52.9006407,-26.7091180992411,0.0 -52.9011174,-26.7089308992411,0.0 -52.9015469,-26.7087548992411,0.0 -52.9018001,-26.7086663992411,0.0 -52.9021889,-26.7085387992411,0.0 -52.9023276,-26.7085076992411,0.0 -52.9024662,-26.7084765992411,0.0 -52.902744,-26.7084408992411,0.0 -52.9030479,-26.7083366992411,0.0 -52.9032904,-26.7082089992411,0.0 -52.9035242,-26.7080103992411,0.0 -52.9036698,-26.7078827992411,0.0 -52.9037592,-26.7077731992411,0.0 -52.9037764,-26.7077521992411,0.0 -52.9037868,-26.7076922992411,0.0 -52.9037977,-26.7076296992411,0.0 -52.9037837,-26.7074867992411,0.0 -52.9037831,-26.7073725992411,0.0 -52.9037821,-26.7071586992411,0.0 -52.9037699,-26.7068935992411,0.0 -52.9037216,-26.7065590992411,0.0 -52.9037261,-26.7063600992411,0.0 -52.9037395,-26.7062341992411,0.0 -52.9037166,-26.7060250992411,0.0 -52.9037157,-26.7059690992412,0.0 -52.903715,-26.7059290992411,0.0 -52.9037143,-26.7058889992411,0.0 -52.9036888,-26.7057531992412,0.0 -52.9036718,-26.7056695992412,0.0 -52.9036354,-26.7055828992412,0.0 -52.9035558,-26.7054686992412,0.0 -52.903426,-26.7053761992412,0.0 -52.903289,-26.7053186992412,0.0 -52.9030743,-26.7052657992412,0.0 -52.9028176,-26.7052516992412,0.0 -52.9024143,-26.7053059992412,0.0 -52.9021625,-26.7053582992412,0.0 -52.90195,-26.7054308992412,0.0 -52.9018612,-26.7054704992412,0.0 -52.9018193,-26.7055164992412,0.0 -52.9018047,-26.7055759992412,0.0 -52.9017831,-26.7056774992412,0.0 -52.9017216,-26.7057201992411,0.0 -52.9015559,-26.7058096992411,0.0 -52.9008527,-26.7060564992411,0.0 -52.9003806,-26.7061849992411,0.0 -52.8998921,-26.7062578992411,0.0 -52.8997986,-26.7062552992411,0.0 -52.89955,-26.7062484992411,0.0 -52.8994481,-26.7061974992411,0.0 -52.8993771,-26.7061390992412,0.0 -52.8992593,-26.7060673992411,0.0 -52.8991063,-26.7059786992411,0.0 -52.8988121,-26.7058149992412,0.0 -52.898588,-26.7056609992412,0.0 -52.8984625,-26.7055962992412,0.0 -52.898353,-26.7055523992412,0.0 -52.8981852,-26.7055127992412,0.0 -52.8980795,-26.7054652992412,0.0 -52.8979657,-26.7054004992412,0.0 -52.8977611,-26.7052495992412,0.0 -52.8973311,-26.7049499992412,0.0 -52.8972106,-26.7048659992412,0.0 -52.8968455,-26.7046474992412,0.0 -52.8964584,-26.7045060992412,0.0 -52.8960685,-26.7044309992412,0.0 -52.8956521,-26.7043981992412,0.0 -52.8953999,-26.7044259992412,0.0 -52.8950096,-26.7045602992412,0.0 -52.8947475,-26.7046894992412,0.0 -52.8938864,-26.7050290992412,0.0 -52.8933423,-26.7052667992412,0.0 -52.8931139,-26.7053221992412,0.0 -52.8924107,-26.7055723992412,0.0 -52.891804,-26.7057864992411,0.0 -52.8915804,-26.7058976992412,0.0 -52.8914762,-26.7059408992411,0.0 -52.8913766,-26.7060294992411,0.0 -52.8913586,-26.7061169992412,0.0 -52.8913246,-26.7061767992411,0.0 -52.8911855,-26.7062205992411,0.0 -52.8906792,-26.7063983992411,0.0 -52.8903858,-26.7065174992411,0.0 -52.8901999,-26.7065582992411,0.0 -52.8894305,-26.7066973992411,0.0 -52.8888582,-26.7067669992411,0.0 -52.8884084,-26.7067295992411,0.0 -52.8881296,-26.7067038992411,0.0 -52.8880555,-26.7066969992411,0.0 -52.8876879,-26.7066150992411,0.0 -52.8874307,-26.7065191992411,0.0 -52.8871167,-26.7063309992411,0.0 -52.8869354,-26.7062340992411,0.0 -52.8867124,-26.7061191992411,0.0 -52.8865381,-26.7060221992412,0.0 -52.8861757,-26.7058345992412,0.0 -52.8860696,-26.7056870992412,0.0 -52.886032,-26.7055013992412,0.0 -52.8860622,-26.7052403992412,0.0 -52.8861288,-26.7051232992412,0.0 -52.8861831,-26.7050277992412,0.0 -52.8864692,-26.7047757992412,0.0 -52.8867358,-26.7046046992412,0.0 -52.8872783,-26.7043988992412,0.0 -52.8878479,-26.7041678992412,0.0 -52.8881166,-26.7041208992412,0.0 -52.8886047,-26.7039653992412,0.0 -52.8888376,-26.7038443992412,0.0 -52.8892021,-26.7037402992412,0.0 -52.889442,-26.7036253992412,0.0 -52.8902628,-26.7031241992412,0.0 -52.890577,-26.7029027992412,0.0 -52.8907059,-26.7027583992412,0.0 -52.8912017,-26.7022366992412,0.0 -52.8916439,-26.7018211992412,0.0 -52.8917862,-26.7017031992412,0.0 -52.8922369,-26.7013292992412,0.0 -52.8926105,-26.7009394992413,0.0 -52.8931273,-26.7004361992413,0.0 -52.8936655,-26.6999759992413,0.0 -52.8942869,-26.6995332992413,0.0 -52.8945176,-26.6992819992413,0.0 -52.895077,-26.6988462992413,0.0 -52.8953087,-26.6986508992413,0.0 -52.8954364,-26.6984381992413,0.0 -52.8956535,-26.6981994992413,0.0 -52.8960499,-26.6979334992413,0.0 -52.8965919,-26.6977028992413,0.0 -52.8972038,-26.6975208992413,0.0 -52.8978644,-26.6973631992413,0.0 -52.8982155,-26.6972839992413,0.0 -52.8986974,-26.6971844992413,0.0 -52.8992486,-26.6970901992413,0.0 -52.8999342,-26.6970693992413,0.0 -52.8999806,-26.6970679992413,0.0 -52.9003337,-26.6971128992413,0.0 -52.9004317,-26.6971922992413,0.0 -52.9006476,-26.6972948992413,0.0 -52.900966,-26.6973278992413,0.0 -52.9011873,-26.6973434992413,0.0 -52.9014437,-26.6973896992413,0.0 -52.9017269,-26.6973858992413,0.0 -52.9024317,-26.6973888992413,0.0 -52.9034406,-26.6974001992413,0.0 -52.903973,-26.6974240992413,0.0 -52.9045544,-26.6974844992413,0.0 -52.9047816,-26.6974380992413,0.0 -52.9051798,-26.6972837992413,0.0 -52.9054875,-26.6970934992413,0.0 -52.9057191,-26.6968979992413,0.0 -52.9060123,-26.6966643992413,0.0 -52.906488,-26.6961863992413,0.0 -52.9066374,-26.6960292992413,0.0 -52.9066774,-26.6958957992413,0.0 -52.9067029,-26.6958111992413,0.0 -52.9067948,-26.6955244992414,0.0 -52.9069087,-26.6953119992414,0.0 -52.9069193,-26.6951194992414,0.0 -52.9069428,-26.6948708992414,0.0 -52.9068939,-26.6944247992414,0.0 -52.9067023,-26.6941170992414,0.0 -52.9064428,-26.6938846992414,0.0 -52.9060593,-26.6936726992414,0.0 -52.9057471,-26.6935961992414,0.0 -52.9057124,-26.6935931992414,0.0 -52.905498,-26.6935746992414,0.0 -52.9052642,-26.6936398992414,0.0 -52.9047951,-26.6936833992414,0.0 -52.9041732,-26.6936731992414,0.0 -52.903928,-26.6936738992414,0.0 -52.9029711,-26.6936768992414,0.0 -52.9024383,-26.6936281992414,0.0 -52.901871,-26.6935798992414,0.0 -52.9015312,-26.6935037992414,0.0 -52.9013502,-26.6934192992414,0.0 -52.901091,-26.6932055992414,0.0 -52.9006063,-26.6927218992414,0.0 -52.9004649,-26.6924423992414,0.0 -52.9003848,-26.6922841992414,0.0 -52.9002231,-26.6916968992414,0.0 -52.9002248,-26.6913802992414,0.0 -52.9002798,-26.6909513992414,0.0 -52.9003938,-26.6903292992415,0.0 -52.9005107,-26.6898746992415,0.0 -52.9008121,-26.6888901992415,0.0 -52.9009899,-26.6883602992415,0.0 -52.901078,-26.6878440992415,0.0 -52.9011564,-26.6875699992415,0.0 -52.9010774,-26.6869752992415,0.0 -52.9011136,-26.6866582992415,0.0 -52.9010723,-26.6862492992415,0.0 -52.9009625,-26.6860474992415,0.0 -52.9009012,-26.6859350992415,0.0 -52.9006896,-26.6856710992415,0.0 -52.9002,-26.6853052992415,0.0 -52.8998071,-26.6850140992416,0.0 -52.8995915,-26.6848541992416,0.0 -52.8992426,-26.6846478992416,0.0 -52.8988884,-26.6846355992416,0.0 -52.898008,-26.6846612992416,0.0 -52.8975008,-26.6846959992416,0.0 -52.8970617,-26.6847762992416,0.0 -52.8965144,-26.6848860992416,0.0 -52.8962873,-26.6849402992416,0.0 -52.8961125,-26.6850263992416,0.0 -52.8960105,-26.6851207992416,0.0 -52.8958187,-26.6851140992416,0.0 -52.8955903,-26.6850891992416,0.0 -52.8951208,-26.6848953992416,0.0 -52.8948529,-26.6846754992416,0.0 -52.8946421,-26.6844595992416,0.0 -52.8943873,-26.6840905992416,0.0 -52.894181,-26.6835255992416,0.0 -52.8940754,-26.6830894992416,0.0 -52.8940886,-26.6829496992416,0.0 -52.8941022,-26.6828330992416,0.0 -52.8940754,-26.6827775992416,0.0 -52.894009,-26.6825224992416,0.0 -52.8940258,-26.6822849992416,0.0 -52.8940749,-26.6821213992416,0.0 -52.8941124,-26.6820647992416,0.0 -52.8941962,-26.6819382992416,0.0 -52.8943698,-26.6817823992416,0.0 -52.8946683,-26.6816619992416,0.0 -52.8952671,-26.6815283992416,0.0 -52.8953404,-26.6815215992416,0.0 -52.8959138,-26.6814684992416,0.0 -52.8966031,-26.6814825992416,0.0 -52.8973975,-26.6815836992416,0.0 -52.8982762,-26.6817720992416,0.0 -52.8989856,-26.6820604992416,0.0 -52.8997669,-26.6823106992416,0.0 -52.9003601,-26.6824655992416,0.0 -52.9005979,-26.6824344992416,0.0 -52.9007211,-26.6823629992416,0.0 -52.9008967,-26.6823280992416,0.0 -52.9015685,-26.6822621992416,0.0 -52.9016105,-26.6822579992416,0.0 -52.9024002,-26.6820752992416,0.0 -52.902802,-26.6819395992416,0.0 -52.9030799,-26.6818240992416,0.0 -52.9032797,-26.6816864992416,0.0 -52.9039931,-26.6812812992416,0.0 -52.9041765,-26.6810926992416,0.0 -52.9044332,-26.6809542992416,0.0 -52.9045764,-26.6808405992416,0.0 -52.9052157,-26.6803824992417,0.0 -52.9055031,-26.6801765992417,0.0 -52.9059696,-26.6798724992417,0.0 -52.9065556,-26.6795992992417,0.0 -52.906813,-26.6794980992417,0.0 -52.9070403,-26.6794577992417,0.0 -52.9072677,-26.6794267992417,0.0 -52.907546,-26.6793346992417,0.0 -52.9078351,-26.6792748992417,0.0 -52.9081045,-26.6792759992417,0.0 -52.9083181,-26.6793428992417,0.0 -52.9084692,-26.6793966992417,0.0 -52.908626,-26.6794324992417,0.0 -52.9086616,-26.6794406992417,0.0 -52.9090747,-26.6796678992417,0.0 -52.9095872,-26.6799494992417,0.0 -52.9102618,-26.6803267992417,0.0 -52.9106736,-26.6804794992417,0.0 -52.9109698,-26.6805312992416,0.0 -52.911509,-26.6805519992416,0.0 -52.911675,-26.6805683992417,0.0 -52.9121842,-26.6806545992416,0.0 -52.9125885,-26.6806630992416,0.0 -52.9128016,-26.6807020992416,0.0 -52.9130671,-26.6807822992416,0.0 -52.9135368,-26.6809854992416,0.0 -52.9139375,-26.6810917992416,0.0 -52.9142141,-26.6812089992416,0.0 -52.9147833,-26.6814805992416,0.0 -52.915163,-26.6815685992416,0.0 -52.9156977,-26.6816311992416,0.0 -52.9160775,-26.6817237992416,0.0 -52.9165599,-26.6817591992416,0.0 -52.9168752,-26.6817129992416,0.0 -52.9173175,-26.6815208992416,0.0 -52.9175058,-26.6813135992416,0.0 -52.9176985,-26.6810642992416,0.0 -52.917733,-26.6809613992416,0.0 -52.9177676,-26.6808585992416,0.0 -52.9177787,-26.6805977992416,0.0 -52.9177169,-26.6804188992416,0.0 -52.9176699,-26.6802827992416,0.0 -52.9175124,-26.6798519992417,0.0 -52.9173555,-26.6794538992417,0.0 -52.9173191,-26.6791378992417,0.0 -52.91734,-26.6788350992417,0.0 -52.9174297,-26.6786243992417,0.0 -52.9175708,-26.6784635992417,0.0 -52.917628,-26.6783983992417,0.0 -52.9179468,-26.6776353992417,0.0 -52.9181385,-26.6767112992417,0.0 -52.9181132,-26.6764369992417,0.0 -52.9180886,-26.6762045992417,0.0 -52.918138,-26.6760596992417,0.0 -52.9182041,-26.6759310992417,0.0 -52.9184491,-26.6754550992417,0.0 -52.9187098,-26.6749348992418,0.0 -52.9188973,-26.6746856992418,0.0 -52.919073,-26.6743482992418,0.0 -52.91921,-26.6740379992418,0.0 -52.9192177,-26.6740204992418,0.0 -52.9193259,-26.6736745992418,0.0 -52.9193947,-26.6734548992418,0.0 -52.9196118,-26.6731122992418,0.0 -52.9197719,-26.6727749992418,0.0 -52.91983,-26.6725321992418,0.0 -52.9151614,-26.6732894992418,0.0 -52.9079718,-26.6731297992418,0.0 -52.8993766,-26.6726192992418,0.0 -52.8885427,-26.6721954992418,0.0 -52.8792136,-26.6716915992418,0.0 -52.8655462,-26.6709533992418,0.0 -52.8546305,-26.6701730992419,0.0 -52.8520506,-26.6699886992419,0.0</coordinates>
</LinearRing>
</outerBoundaryIs>
</Polygon>
</MultiGeometry>
</Placemark>
</Folder>
</Document></kml>
