<?xml version='1.0' encoding='UTF-8'?>
<kml xmlns:xsd="http://www.w3.org/2001/XMLSchema" xmlns:gx="http://www.google.com/kml/ext/2.2" xmlns:atom="http://www.w3.org/2005/Atom" xmlns="http://www.opengis.net/kml/2.2">
<Document>
<name>laurentino_4209508_localidades_2022</name>
<visibility>1</visibility>
<Schema name="01. Cidade" id="kml_schema_ft_01._Cidade">
<SimpleField type="xsd:string" name="CD_UF">
<displayName>CD_UF</displayName>
</SimpleField>
<SimpleField type="xsd:string" name="NM_UF">
<displayName>NM_UF</displayName>
</SimpleField>
<SimpleField type="xsd:string" name="SIGLA_UF">
<displayName>SIGLA_UF</displayName>
</SimpleField>
<SimpleField type="xsd:string" name="CD_MUN">
<displayName>CD_MUN</displayName>
</SimpleField>
<SimpleField type="xsd:string" name="NM_MUN">
<displayName>NM_MUN</displayName>
</SimpleField>
<SimpleField type="xsd:string" name="CD_RGINT">
<displayName>CD_RGINT</displayName>
</SimpleField>
<SimpleField type="xsd:string" name="NM_RGINT">
<displayName>NM_RGINT</displayName>
</SimpleField>
<SimpleField type="xsd:string" name="CD_RGI">
<displayName>CD_RGI</displayName>
</SimpleField>
<SimpleField type="xsd:string" name="NM_RGI">
<displayName>NM_RGI</displayName>
</SimpleField>
<SimpleField type="xsd:string" name="CT_LOCALIDADE">
<displayName>CT_LOCALIDADE</displayName>
</SimpleField>
<SimpleField type="xsd:string" name="SCT_LOCALIDADE">
<displayName>SCT_LOCALIDADE</displayName>
</SimpleField>
<SimpleField type="xsd:string" name="CD_LOCALIDADE">
<displayName>CD_LOCALIDADE</displayName>
</SimpleField>
<SimpleField type="xsd:string" name="NM_LOCALIDADE">
<displayName>NM_LOCALIDADE</displayName>
</SimpleField>
<SimpleField type="xsd:string" name="LAT_LOCALIDADE">
<displayName>LAT_LOCALIDADE</displayName>
</SimpleField>
<SimpleField type="xsd:string" name="LONG_LOCALIDADE">
<displayName>LONG_LOCALIDADE</displayName>
</SimpleField>
</Schema>
<Schema name="Município" id="kml_schema_ft_Município">
<SimpleField type="xsd:string" name="CD_UF">
<displayName>CD_UF</displayName>
</SimpleField>
<SimpleField type="xsd:string" name="NM_UF">
<displayName>NM_UF</displayName>
</SimpleField>
<SimpleField type="xsd:string" name="CD_MUN">
<displayName>CD_MUN</displayName>
</SimpleField>
<SimpleField type="xsd:string" name="NM_MUN">
<displayName>NM_MUN</displayName>
</SimpleField>
<SimpleField type="xsd:string" name="CD_RGINT">
<displayName>CD_RGINT</displayName>
</SimpleField>
<SimpleField type="xsd:string" name="NM_RGINT">
<displayName>NM_RGINT</displayName>
</SimpleField>
<SimpleField type="xsd:string" name="CD_RGI">
<displayName>CD_RGI</displayName>
</SimpleField>
<SimpleField type="xsd:string" name="NM_RGI">
<displayName>NM_RGI</displayName>
</SimpleField>
</Schema>
<Folder id="01. Cidade">
<name>01. Cidade</name>
<Folder id="01.03. Sede Municipal">
<name>01.03. Sede Municipal</name>
<Placemark id="01.03. Sede Municipal">
<name>Laurentino [4209508]</name>
<visibility>1</visibility>
<snippet> </snippet>
<description>&lt;center&gt;&lt;table&gt;&lt;tr&gt;&lt;th colspan='2' align='center'&gt;&lt;em&gt;Atributos&lt;/em&gt;&lt;/th&gt;&lt;/tr&gt;&lt;tr bgcolor="#E3E3F3"&gt;
&lt;th&gt;CD_UF&lt;/th&gt;
&lt;td&gt;42&lt;/td&gt;
&lt;/tr&gt;&lt;tr bgcolor=""&gt;
&lt;th&gt;NM_UF&lt;/th&gt;
&lt;td&gt;Santa Catarina&lt;/td&gt;
&lt;/tr&gt;&lt;tr bgcolor="#E3E3F3"&gt;
&lt;th&gt;SIGLA_UF&lt;/th&gt;
&lt;td&gt;SC&lt;/td&gt;
&lt;/tr&gt;&lt;tr bgcolor=""&gt;
&lt;th&gt;CD_MUN&lt;/th&gt;
&lt;td&gt;4209508&lt;/td&gt;
&lt;/tr&gt;&lt;tr bgcolor="#E3E3F3"&gt;
&lt;th&gt;NM_MUN&lt;/th&gt;
&lt;td&gt;Laurentino&lt;/td&gt;
&lt;/tr&gt;&lt;tr bgcolor=""&gt;
&lt;th&gt;CD_RGINT&lt;/th&gt;
&lt;td&gt;4207&lt;/td&gt;
&lt;/tr&gt;&lt;tr bgcolor="#E3E3F3"&gt;
&lt;th&gt;NM_RGINT&lt;/th&gt;
&lt;td&gt;Blumenau&lt;/td&gt;
&lt;/tr&gt;&lt;tr bgcolor=""&gt;
&lt;th&gt;CD_RGI&lt;/th&gt;
&lt;td&gt;420022&lt;/td&gt;
&lt;/tr&gt;&lt;tr bgcolor="#E3E3F3"&gt;
&lt;th&gt;NM_RGI&lt;/th&gt;
&lt;td&gt;Rio do Sul&lt;/td&gt;
&lt;/tr&gt;&lt;tr bgcolor=""&gt;
&lt;th&gt;CT_LOCALIDADE&lt;/th&gt;
&lt;td&gt;Cidade&lt;/td&gt;
&lt;/tr&gt;&lt;tr bgcolor="#E3E3F3"&gt;
&lt;th&gt;SCT_LOCALIDADE&lt;/th&gt;
&lt;td&gt;Sede Municipal&lt;/td&gt;
&lt;/tr&gt;&lt;tr bgcolor=""&gt;
&lt;th&gt;CD_LOCALIDADE&lt;/th&gt;
&lt;td&gt;4209508&lt;/td&gt;
&lt;/tr&gt;&lt;tr bgcolor="#E3E3F3"&gt;
&lt;th&gt;NM_LOCALIDADE&lt;/th&gt;
&lt;td&gt;Laurentino&lt;/td&gt;
&lt;/tr&gt;&lt;tr bgcolor=""&gt;
&lt;th&gt;LAT_LOCALIDADE&lt;/th&gt;
&lt;td&gt;-27.2181&lt;/td&gt;
&lt;/tr&gt;&lt;tr bgcolor="#E3E3F3"&gt;
&lt;th&gt;LONG_LOCALIDADE&lt;/th&gt;
&lt;td&gt;-49.7333&lt;/td&gt;
&lt;/tr&gt;&lt;/table&gt;&lt;/center&gt;</description>
<Style>
<IconStyle>
<color>ff00aaff</color>
<scale>1.0</scale>
<Icon>
<href>http://maps.google.com/mapfiles/kml/shapes/placemark_circle.png</href>
</Icon>
</IconStyle>
<LabelStyle>
<scale>1.0</scale>
</LabelStyle>
<LineStyle>
<color>ffffffff</color>
<width>3</width>
<gx:labelVisibility>1</gx:labelVisibility>
</LineStyle>
<PolyStyle>
<color>00ffffff</color>
</PolyStyle>
</Style>
<ExtendedData>
<SchemaData schemaUrl="#kml_schema_ft_01._Cidade">
<SimpleData name="CD_UF">42</SimpleData>
<SimpleData name="NM_UF">Santa Catarina</SimpleData>
<SimpleData name="SIGLA_UF">SC</SimpleData>
<SimpleData name="CD_MUN">4209508</SimpleData>
<SimpleData name="NM_MUN">Laurentino</SimpleData>
<SimpleData name="CD_RGINT">4207</SimpleData>
<SimpleData name="NM_RGINT">Blumenau</SimpleData>
<SimpleData name="CD_RGI">420022</SimpleData>
<SimpleData name="NM_RGI">Rio do Sul</SimpleData>
<SimpleData name="CT_LOCALIDADE">Cidade</SimpleData>
<SimpleData name="SCT_LOCALIDADE">Sede Municipal</SimpleData>
<SimpleData name="CD_LOCALIDADE">4209508</SimpleData>
<SimpleData name="NM_LOCALIDADE">Laurentino</SimpleData>
<SimpleData name="LAT_LOCALIDADE">-27.2181</SimpleData>
<SimpleData name="LONG_LOCALIDADE">-49.7333</SimpleData>
</SchemaData>
</ExtendedData>
<Point>
<extrude>0</extrude>
<coordinates>-49.7333,-27.2180999992312,0.0</coordinates>
</Point>
</Placemark>
</Folder>
</Folder>
<Folder id="13. Referência">
<name>13. Referência</name>
<Placemark id="13. Referência">
<name>Laurentino [4209508]</name>
<visibility>1</visibility>
<snippet> </snippet>
<description>&lt;center&gt;&lt;table&gt;&lt;tr&gt;&lt;th colspan='2' align='center'&gt;&lt;em&gt;Attributes&lt;/em&gt;&lt;/th&gt;&lt;/tr&gt;&lt;tr bgcolor="#E3E3F3"&gt;
&lt;th&gt;CD_UF&lt;/th&gt;
&lt;td&gt;42&lt;/td&gt;
&lt;/tr&gt;&lt;tr bgcolor=""&gt;
&lt;th&gt;NM_UF&lt;/th&gt;
&lt;td&gt;Santa Catarina&lt;/td&gt;
&lt;/tr&gt;&lt;tr bgcolor="#E3E3F3"&gt;
&lt;th&gt;CD_MUN&lt;/th&gt;
&lt;td&gt;4209508&lt;/td&gt;
&lt;/tr&gt;&lt;tr bgcolor=""&gt;
&lt;th&gt;NM_MUN&lt;/th&gt;
&lt;td&gt;Laurentino&lt;/td&gt;
&lt;/tr&gt;&lt;tr bgcolor="#E3E3F3"&gt;
&lt;th&gt;CD_RGINT&lt;/th&gt;
&lt;td&gt;4207&lt;/td&gt;
&lt;/tr&gt;&lt;tr bgcolor=""&gt;
&lt;th&gt;NM_RGINT&lt;/th&gt;
&lt;td&gt;Blumenau&lt;/td&gt;
&lt;/tr&gt;&lt;tr bgcolor="#E3E3F3"&gt;
&lt;th&gt;CD_RGI&lt;/th&gt;
&lt;td&gt;420022&lt;/td&gt;
&lt;/tr&gt;&lt;tr bgcolor=""&gt;
&lt;th&gt;NM_RGI&lt;/th&gt;
&lt;td&gt;Rio do Sul&lt;/td&gt;
&lt;/tr&gt;&lt;/table&gt;&lt;/center&gt;</description>
<Style>
<IconStyle>
<scale>0.7</scale>
</IconStyle>
<LabelStyle>
<scale>0.7</scale>
</LabelStyle>
<LineStyle>
<color>ffffffff</color>
<width>3</width>
<gx:labelVisibility>1</gx:labelVisibility>
</LineStyle>
<PolyStyle>
<color>00ffffff</color>
</PolyStyle>
</Style>
<ExtendedData>
<SchemaData schemaUrl="#kml_schema_ft_Município">
<SimpleData name="CD_UF">42</SimpleData>
<SimpleData name="NM_UF">Santa Catarina</SimpleData>
<SimpleData name="CD_MUN">4209508</SimpleData>
<SimpleData name="NM_MUN">Laurentino</SimpleData>
<SimpleData name="CD_RGINT">4207</SimpleData>
<SimpleData name="NM_RGINT">Blumenau</SimpleData>
<SimpleData name="CD_RGI">420022</SimpleData>
<SimpleData name="NM_RGI">Rio do Sul</SimpleData>
</SchemaData>
</ExtendedData>
<MultiGeometry>
<Polygon>
<extrude>0</extrude>
<tessellate>1</tessellate>
<outerBoundaryIs>
<LinearRing>
<coordinates>-49.7267045,-27.1448585992327,0.0 -49.7265714,-27.1448327992326,0.0 -49.7264382,-27.1448070992326,0.0 -49.7259171,-27.1448459992327,0.0 -49.7253766,-27.1449937992326,0.0 -49.725011,-27.1450714992326,0.0 -49.7247388,-27.1450948992326,0.0 -49.7243032,-27.1450248992326,0.0 -49.7239455,-27.1448381992326,0.0 -49.723611,-27.1446670992327,0.0 -49.723471,-27.1446203992327,0.0 -49.7232844,-27.1445892992327,0.0 -49.7230277,-27.1446048992327,0.0 -49.722701,-27.1446903992327,0.0 -49.7221177,-27.1447837992327,0.0 -49.7212,-27.1447603992327,0.0 -49.7207247,-27.1447049992327,0.0 -49.7203755,-27.1447214992326,0.0 -49.7200255,-27.1447525992327,0.0 -49.7199356,-27.1447564992327,0.0 -49.7197139,-27.1447428992327,0.0 -49.7195662,-27.1447195992326,0.0 -49.7193818,-27.1446600992326,0.0 -49.7192589,-27.1446203992327,0.0 -49.7191748,-27.1445753992327,0.0 -49.7190917,-27.1445309992327,0.0 -49.7189187,-27.1444803992327,0.0 -49.7187787,-27.1444609992327,0.0 -49.718629,-27.1444609992327,0.0 -49.7182135,-27.1444484992327,0.0 -49.7179871,-27.1443964992327,0.0 -49.7178276,-27.1442904992327,0.0 -49.7173548,-27.1438979992327,0.0 -49.7175749,-27.1444428992327,0.0 -49.7176479,-27.1447586992326,0.0 -49.7175286,-27.1454062992326,0.0 -49.7174025,-27.1461226992326,0.0 -49.7171098,-27.1469559992326,0.0 -49.7167118,-27.1474741992326,0.0 -49.716304,-27.1479748992326,0.0 -49.7155703,-27.1483987992326,0.0 -49.7150447,-27.1488883992326,0.0 -49.7148117,-27.1493370992326,0.0 -49.7147732,-27.1495978992326,0.0 -49.7147346,-27.1498587992326,0.0 -49.7147775,-27.1504912992325,0.0 -49.7146891,-27.1506666992325,0.0 -49.7145603,-27.1507275992325,0.0 -49.7143748,-27.1507561992325,0.0 -49.7142737,-27.1507315992325,0.0 -49.7141308,-27.1506854992325,0.0 -49.7137797,-27.1504998992325,0.0 -49.7133316,-27.1503296992326,0.0 -49.7131055,-27.1503055992325,0.0 -49.7125231,-27.1503425992325,0.0 -49.7118593,-27.1504685992325,0.0 -49.7112705,-27.1506636992325,0.0 -49.710881,-27.1508436992325,0.0 -49.7104652,-27.1510259992325,0.0 -49.7102577,-27.1511533992325,0.0 -49.7102102,-27.1512672992325,0.0 -49.710226,-27.1514076992325,0.0 -49.7102941,-27.1515273992325,0.0 -49.7104286,-27.1517012992325,0.0 -49.7107857,-27.1521709992325,0.0 -49.7109393,-27.1525692992325,0.0 -49.7109335,-27.1529635992325,0.0 -49.7104344,-27.1538698992325,0.0 -49.7102157,-27.1542083992325,0.0 -49.7097975,-27.1544962992325,0.0 -49.709296,-27.1546779992325,0.0 -49.7089704,-27.1550392992324,0.0 -49.7083331,-27.1556454992324,0.0 -49.7081902,-27.1557253992324,0.0 -49.708098,-27.1558212992324,0.0 -49.7079938,-27.1560664992324,0.0 -49.7079499,-27.1569164992324,0.0 -49.7079371,-27.1574912992324,0.0 -49.7079755,-27.1581746992324,0.0 -49.7079295,-27.1583171992324,0.0 -49.7078497,-27.1584746992324,0.0 -49.7077739,-27.1585660992324,0.0 -49.7075172,-27.1587760992324,0.0 -49.707101,-27.1589970992324,0.0 -49.7065337,-27.1592385992324,0.0 -49.706155,-27.1595811992324,0.0 -49.7057944,-27.1599237992324,0.0 -49.7056506,-27.1601721992324,0.0 -49.7055728,-27.1605610992323,0.0 -49.7055239,-27.1609155992323,0.0 -49.7056502,-27.1614023992323,0.0 -49.7058645,-27.1617004992323,0.0 -49.7060589,-27.1618404992323,0.0 -49.7061523,-27.1619415992323,0.0 -49.7062272,-27.1620875992323,0.0 -49.7062177,-27.1624897992323,0.0 -49.7061286,-27.1632066992323,0.0 -49.7059206,-27.1638006992323,0.0 -49.7054718,-27.1643252992323,0.0 -49.7046832,-27.1649185992323,0.0 -49.7045814,-27.1651575992323,0.0 -49.7045427,-27.1653616992323,0.0 -49.7044946,-27.1657367992323,0.0 -49.7045457,-27.1659538992322,0.0 -49.7049098,-27.1663306992322,0.0 -49.705506,-27.1666755992322,0.0 -49.7057258,-27.1668258992322,0.0 -49.7058273,-27.1671089992322,0.0 -49.7058295,-27.1675889992322,0.0 -49.7058972,-27.1682417992322,0.0 -49.7060083,-27.1690259992322,0.0 -49.7061105,-27.1708078992321,0.0 -49.7058777,-27.1712704992321,0.0 -49.7058983,-27.1718328992321,0.0 -49.7057778,-27.1728890992321,0.0 -49.7058095,-27.1731602992321,0.0 -49.7059637,-27.1734719992321,0.0 -49.7059577,-27.1737059992321,0.0 -49.7057943,-27.1738567992321,0.0 -49.7056698,-27.1739055992321,0.0 -49.7051027,-27.1739034992321,0.0 -49.7047876,-27.1739970992321,0.0 -49.704566,-27.1740718992321,0.0 -49.7039011,-27.1745295992321,0.0 -49.703102,-27.1752281992321,0.0 -49.7026871,-27.1758279992321,0.0 -49.7025609,-27.1762446992321,0.0 -49.7022498,-27.176866899232,0.0 -49.7021021,-27.177333599232,0.0 -49.7019873,-27.177483299232,0.0 -49.7019679,-27.177553299232,0.0 -49.7019018,-27.177703999232,0.0 -49.7018766,-27.177971899232,0.0 -49.7019446,-27.178201799232,0.0 -49.702034,-27.178400099232,0.0 -49.7021148,-27.178640499232,0.0 -49.7022027,-27.178856499232,0.0 -49.7022906,-27.179072599232,0.0 -49.7024711,-27.179519099232,0.0 -49.7025186,-27.179834399232,0.0 -49.7024508,-27.180183899232,0.0 -49.7022017,-27.180662899232,0.0 -49.7020037,-27.181180199232,0.0 -49.7021725,-27.1821571992319,0.0 -49.7022484,-27.1822524992319,0.0 -49.7024895,-27.1825946992319,0.0 -49.7027969,-27.1828859992319,0.0 -49.7030184,-27.1830768992319,0.0 -49.7033295,-27.1831935992319,0.0 -49.7036717,-27.1833879992319,0.0 -49.7037728,-27.1835201992319,0.0 -49.7038039,-27.1836193992319,0.0 -49.7038039,-27.1838565992319,0.0 -49.703835,-27.1840898992319,0.0 -49.703905,-27.1842989992319,0.0 -49.703942,-27.1843844992319,0.0 -49.7039847,-27.1844641992319,0.0 -49.704047,-27.1845555992319,0.0 -49.704152,-27.1846722992319,0.0 -49.7043477,-27.1848781992319,0.0 -49.7054322,-27.1857561992319,0.0 -49.7049844,-27.1859439992319,0.0 -49.7042104,-27.1861929992319,0.0 -49.7040462,-27.1862192992319,0.0 -49.7037468,-27.1861941992319,0.0 -49.703467,-27.1861550992319,0.0 -49.7030571,-27.1861823992319,0.0 -49.7026686,-27.1862422992319,0.0 -49.702332,-27.1864019992319,0.0 -49.702016,-27.1865900992319,0.0 -49.7016647,-27.1869413992318,0.0 -49.7014731,-27.1872543992318,0.0 -49.701352,-27.1873458992318,0.0 -49.7011946,-27.1873205992318,0.0 -49.7008895,-27.1873044992318,0.0 -49.7007523,-27.1873049992318,0.0 -49.7006057,-27.1873052992318,0.0 -49.7003985,-27.1872915992318,0.0 -49.7003385,-27.1872898992318,0.0 -49.700303,-27.1872948992318,0.0 -49.7001769,-27.1874171992318,0.0 -49.6999692,-27.1875606992318,0.0 -49.6997981,-27.1877002992318,0.0 -49.699681,-27.1878220992318,0.0 -49.6996248,-27.1878797992318,0.0 -49.6995087,-27.1879727992318,0.0 -49.6994579,-27.1879739992318,0.0 -49.6992404,-27.1879839992318,0.0 -49.6989431,-27.1879767992318,0.0 -49.6986753,-27.1879695992318,0.0 -49.6989354,-27.1884910992318,0.0 -49.6990907,-27.1889844992318,0.0 -49.6991488,-27.1895354992318,0.0 -49.6990899,-27.1899182992318,0.0 -49.6990576,-27.1904518992318,0.0 -49.6989219,-27.1905808992318,0.0 -49.6987632,-27.1902850992318,0.0 -49.6986873,-27.1899663992318,0.0 -49.6985381,-27.1896326992318,0.0 -49.6980913,-27.1895068992318,0.0 -49.697492,-27.1896026992318,0.0 -49.6969541,-27.1898211992318,0.0 -49.6965777,-27.1900357992318,0.0 -49.6963179,-27.1902581992318,0.0 -49.6962303,-27.1904292992318,0.0 -49.6959506,-27.1902401992318,0.0 -49.6955942,-27.1901708992318,0.0 -49.6950176,-27.1903624992318,0.0 -49.6948294,-27.1906798992318,0.0 -49.6946383,-27.1905025992318,0.0 -49.6943259,-27.1904372992318,0.0 -49.6938542,-27.1906135992318,0.0 -49.6933966,-27.1908631992318,0.0 -49.6931161,-27.1910930992318,0.0 -49.6925061,-27.1914874992318,0.0 -49.6920383,-27.1920047992317,0.0 -49.691768,-27.1923403992317,0.0 -49.6915761,-27.1925629992317,0.0 -49.6913825,-27.1926950992317,0.0 -49.6911446,-27.1930130992317,0.0 -49.6908428,-27.1934398992317,0.0 -49.6907269,-27.1937723992317,0.0 -49.6907458,-27.1941350992317,0.0 -49.690615,-27.1943680992317,0.0 -49.6901651,-27.1943896992317,0.0 -49.6899965,-27.1944922992317,0.0 -49.6898066,-27.1947925992317,0.0 -49.6896513,-27.1952155992317,0.0 -49.689315,-27.1956414992317,0.0 -49.6889662,-27.1958665992317,0.0 -49.6885173,-27.1960232992317,0.0 -49.6879546,-27.1962536992317,0.0 -49.6875846,-27.1965399992317,0.0 -49.6871797,-27.1967258992317,0.0 -49.6868795,-27.1970271992316,0.0 -49.6865383,-27.1973581992316,0.0 -49.68603,-27.1977438992316,0.0 -49.6856589,-27.1980586992316,0.0 -49.6853079,-27.1982780992316,0.0 -49.6850282,-27.1984853992316,0.0 -49.6847979,-27.1986777992316,0.0 -49.6848779,-27.1988663992316,0.0 -49.6852242,-27.1989925992316,0.0 -49.6857411,-27.1991124992316,0.0 -49.6864667,-27.1992856992316,0.0 -49.6866487,-27.1991921992316,0.0 -49.6868345,-27.1990797992316,0.0 -49.6871768,-27.1989440992316,0.0 -49.6875001,-27.1989900992316,0.0 -49.6873342,-27.1993554992316,0.0 -49.6873458,-27.1997755992316,0.0 -49.6874682,-27.2000021992316,0.0 -49.688014,-27.2003586992316,0.0 -49.68866,-27.2005294992316,0.0 -49.6891801,-27.2007750992316,0.0 -49.6898013,-27.2008978992316,0.0 -49.6904803,-27.2010784992316,0.0 -49.6909643,-27.2011795992316,0.0 -49.6911449,-27.2011000992316,0.0 -49.6912954,-27.2010891992316,0.0 -49.6915132,-27.2012156992316,0.0 -49.6917372,-27.2013818992316,0.0 -49.6922356,-27.2015696992316,0.0 -49.6928134,-27.2016201992316,0.0 -49.6936586,-27.2015262992316,0.0 -49.6941498,-27.2013312992316,0.0 -49.6945326,-27.2011867992316,0.0 -49.6946626,-27.2010278992316,0.0 -49.6948071,-27.2008833992316,0.0 -49.6951683,-27.2009195992316,0.0 -49.6954427,-27.2007967992316,0.0 -49.6956133,-27.2006690992316,0.0 -49.6956337,-27.2007597992316,0.0 -49.6960567,-27.2010061992316,0.0 -49.6965118,-27.2011506992316,0.0 -49.6969163,-27.2012156992316,0.0 -49.6971614,-27.2014630992316,0.0 -49.6971113,-27.2016418992316,0.0 -49.6966707,-27.2017285992316,0.0 -49.6964323,-27.2019163992316,0.0 -49.6962156,-27.2024075992315,0.0 -49.6961506,-27.2030792992315,0.0 -49.6962084,-27.2036210992315,0.0 -49.6964179,-27.2040038992315,0.0 -49.6967502,-27.2042566992315,0.0 -49.6970247,-27.2044011992315,0.0 -49.6970824,-27.2046539992315,0.0 -49.6972414,-27.2050151992315,0.0 -49.6975375,-27.2052535992315,0.0 -49.697812,-27.2053401992315,0.0 -49.6980648,-27.2054196992315,0.0 -49.6981082,-27.2057591992315,0.0 -49.6984115,-27.2061130992315,0.0 -49.6989099,-27.2063297992315,0.0 -49.6992567,-27.2064164992315,0.0 -49.6993795,-27.2064020992315,0.0 -49.6993,-27.2065103992315,0.0 -49.6991989,-27.2067704992315,0.0 -49.6993145,-27.2071821992315,0.0 -49.6991718,-27.2074409992314,0.0 -49.6989966,-27.2072905992315,0.0 -49.6987294,-27.2069510992315,0.0 -49.6984188,-27.2068787992315,0.0 -49.698231,-27.2070087992315,0.0 -49.6980865,-27.2072977992315,0.0 -49.6980143,-27.2075360992315,0.0 -49.6978409,-27.2074277992315,0.0 -49.6977542,-27.2069654992315,0.0 -49.6976675,-27.2065103992315,0.0 -49.6974725,-27.2061853992315,0.0 -49.6971691,-27.2059758992315,0.0 -49.696808,-27.2057735992315,0.0 -49.6965479,-27.2057085992315,0.0 -49.6964107,-27.2055207992315,0.0 -49.696129,-27.2053907992315,0.0 -49.6959339,-27.2055063992315,0.0 -49.6958617,-27.2058024992315,0.0 -49.6958256,-27.2061130992315,0.0 -49.6957255,-27.2063497992315,0.0 -49.6957921,-27.2066183992315,0.0 -49.6957286,-27.2068617992315,0.0 -49.6955439,-27.2064092992315,0.0 -49.695385,-27.2058458992315,0.0 -49.6951755,-27.2056002992315,0.0 -49.6947349,-27.2054918992315,0.0 -49.6942509,-27.2054702992315,0.0 -49.6938897,-27.2053907992315,0.0 -49.693543,-27.2053763992315,0.0 -49.6933119,-27.2054557992315,0.0 -49.6931385,-27.2056580992315,0.0 -49.6929507,-27.2060119992315,0.0 -49.6927846,-27.2062864992315,0.0 -49.6927123,-27.2065320992315,0.0 -49.692734,-27.2067126992315,0.0 -49.6928857,-27.2069076992315,0.0 -49.6931024,-27.2070593992315,0.0 -49.6931879,-27.2072692992315,0.0 -49.6929907,-27.2071507992315,0.0 -49.6925751,-27.2070593992315,0.0 -49.6923584,-27.2070521992315,0.0 -49.6922067,-27.2071965992315,0.0 -49.6920911,-27.2074421992314,0.0 -49.6920261,-27.2076372992314,0.0 -49.6918383,-27.2078900992314,0.0 -49.6915855,-27.2081356992314,0.0 -49.6912749,-27.2084679992314,0.0 -49.6909209,-27.2088435992314,0.0 -49.6907692,-27.2090457992314,0.0 -49.6903202,-27.2098458992314,0.0 -49.6903888,-27.2099072992314,0.0 -49.6904094,-27.2099358992314,0.0 -49.6904198,-27.2099799992314,0.0 -49.6904434,-27.2100333992314,0.0 -49.6904648,-27.2100632992314,0.0 -49.6904859,-27.2100878992314,0.0 -49.6905176,-27.2101157992314,0.0 -49.6905617,-27.2101462992314,0.0 -49.690587,-27.2101670992314,0.0 -49.6906239,-27.2101971992314,0.0 -49.6906762,-27.2102554992314,0.0 -49.6907386,-27.2103510992314,0.0 -49.6907898,-27.2104106992314,0.0 -49.690838,-27.2104591992314,0.0 -49.6908738,-27.2104932992314,0.0 -49.6909074,-27.2105175992314,0.0 -49.6909409,-27.2105411992314,0.0 -49.6909658,-27.2105616992314,0.0 -49.6909967,-27.2105940992314,0.0 -49.691044,-27.2106739992314,0.0 -49.6911033,-27.2107810992314,0.0 -49.6911386,-27.2108311992314,0.0 -49.6911696,-27.2109031992314,0.0 -49.6911925,-27.2109557992314,0.0 -49.6912361,-27.2110143992314,0.0 -49.6912542,-27.2110320992314,0.0 -49.6912787,-27.2110522992314,0.0 -49.6913036,-27.2110700992314,0.0 -49.6913507,-27.2111035992314,0.0 -49.6913669,-27.2111137992314,0.0 -49.6913836,-27.2111241992314,0.0 -49.6914198,-27.2111443992314,0.0 -49.6915022,-27.2111855992314,0.0 -49.691535,-27.2112013992314,0.0 -49.6915667,-27.2112232992314,0.0 -49.6915931,-27.2112454992314,0.0 -49.6916443,-27.2113010992314,0.0 -49.6916918,-27.2113457992314,0.0 -49.6917605,-27.2113963992314,0.0 -49.6918065,-27.2114217992314,0.0 -49.6919157,-27.2114689992314,0.0 -49.6920499,-27.2115203992314,0.0 -49.6921822,-27.2115652992314,0.0 -49.6923599,-27.2116949992314,0.0 -49.6923951,-27.2116995992314,0.0 -49.6924842,-27.2116966992314,0.0 -49.6925439,-27.2117001992314,0.0 -49.6932294,-27.2118261992314,0.0 -49.6934229,-27.2119730992314,0.0 -49.6936082,-27.2122731992314,0.0 -49.6937423,-27.2127011992314,0.0 -49.6939722,-27.2130843992313,0.0 -49.6941957,-27.2133781992313,0.0 -49.6943618,-27.2137038992313,0.0 -49.6948126,-27.2143420992313,0.0 -49.6951439,-27.2148627992313,0.0 -49.6952308,-27.2149428992313,0.0 -49.6952634,-27.2149863992313,0.0 -49.6952955,-27.2150180992313,0.0 -49.6953303,-27.2150424992313,0.0 -49.6953758,-27.2150655992313,0.0 -49.6954126,-27.2150766992313,0.0 -49.6954644,-27.2150828992313,0.0 -49.695694,-27.2150687992313,0.0 -49.6958632,-27.2150024992313,0.0 -49.6959117,-27.2149827992313,0.0 -49.6959736,-27.2149765992313,0.0 -49.6960691,-27.2150046992313,0.0 -49.6962023,-27.2150840992313,0.0 -49.6964949,-27.2152529992313,0.0 -49.6966578,-27.2153965992313,0.0 -49.6966735,-27.2154223992313,0.0 -49.6966911,-27.2154433992313,0.0 -49.6967015,-27.2154524992313,0.0 -49.6967438,-27.2154736992313,0.0 -49.6968438,-27.2154747992313,0.0 -49.6969165,-27.2154762992313,0.0 -49.6969747,-27.2154848992313,0.0 -49.697014,-27.2154943992313,0.0 -49.6970702,-27.2155099992313,0.0 -49.6971203,-27.2155298992313,0.0 -49.6973001,-27.2156560992313,0.0 -49.6974337,-27.2156897992313,0.0 -49.6975596,-27.2157266992313,0.0 -49.6975642,-27.2157475992313,0.0 -49.6975866,-27.2158257992313,0.0 -49.6976257,-27.2158910992313,0.0 -49.6977263,-27.2159853992313,0.0 -49.6979032,-27.2161031992313,0.0 -49.6982497,-27.2163281992313,0.0 -49.6983618,-27.2164009992313,0.0 -49.6986422,-27.2165677992313,0.0 -49.6988505,-27.2166758992313,0.0 -49.6990168,-27.2167641992313,0.0 -49.6991417,-27.2168076992313,0.0 -49.6992895,-27.2168689992313,0.0 -49.6994208,-27.2169895992313,0.0 -49.6992139,-27.2175390992313,0.0 -49.6991289,-27.2179118992313,0.0 -49.6990455,-27.2184212992312,0.0 -49.6989566,-27.2189133992312,0.0 -49.6988613,-27.2195023992312,0.0 -49.6987834,-27.2199787992312,0.0 -49.6986101,-27.2204464992312,0.0 -49.6985062,-27.2208102992312,0.0 -49.6985149,-27.2209401992312,0.0 -49.6986275,-27.2210267992312,0.0 -49.698766,-27.2211999992312,0.0 -49.6988353,-27.2214598992312,0.0 -49.6987747,-27.2220574992312,0.0 -49.6986534,-27.2224905992312,0.0 -49.6984494,-27.2227712992312,0.0 -49.6982165,-27.2231106992312,0.0 -49.6980724,-27.2234240992311,0.0 -49.697898,-27.2237319992311,0.0 -49.6977706,-27.2240676992311,0.0 -49.697654,-27.2243611992311,0.0 -49.6976035,-27.2246597992311,0.0 -49.6975846,-27.2250367992311,0.0 -49.6975688,-27.2256173992311,0.0 -49.6976247,-27.2259844992311,0.0 -49.6976988,-27.2263943992311,0.0 -49.6976506,-27.2268179992311,0.0 -49.6976,-27.2272558992311,0.0 -49.6976415,-27.2276223992311,0.0 -49.6977145,-27.2280945992311,0.0 -49.6977647,-27.2285071992311,0.0 -49.6977093,-27.228869799231,0.0 -49.6976097,-27.228973799231,0.0 -49.6975101,-27.229120999231,0.0 -49.6971723,-27.229190299231,0.0 -49.6967003,-27.229164299231,0.0 -49.6960377,-27.229021399231,0.0 -49.6953874,-27.228884399231,0.0 -49.6948579,-27.228869499231,0.0 -49.694327,-27.229012699231,0.0 -49.6938506,-27.229125299231,0.0 -49.6933956,-27.229197699231,0.0 -49.6928741,-27.229350899231,0.0 -49.6924564,-27.229561299231,0.0 -49.6919764,-27.229830499231,0.0 -49.6916435,-27.230048399231,0.0 -49.6913469,-27.230188099231,0.0 -49.6911304,-27.231069499231,0.0 -49.6909913,-27.232087399231,0.0 -49.6907602,-27.233067399231,0.0 -49.6905539,-27.233539099231,0.0 -49.6902657,-27.2339308992309,0.0 -49.6900669,-27.2342838992309,0.0 -49.6898625,-27.2346230992309,0.0 -49.6896055,-27.2348509992309,0.0 -49.6892,-27.2351266992309,0.0 -49.6890303,-27.2352308992309,0.0 -49.6889333,-27.2353216992309,0.0 -49.688908,-27.2353859992309,0.0 -49.6889214,-27.2354569992309,0.0 -49.6889457,-27.2355307992309,0.0 -49.6890011,-27.2356202992309,0.0 -49.6892111,-27.2357524992309,0.0 -49.6893044,-27.2358419992309,0.0 -49.6893705,-27.2359896992309,0.0 -49.6894561,-27.2361063992309,0.0 -49.6895475,-27.2362035992309,0.0 -49.6897322,-27.2363892992309,0.0 -49.6898605,-27.2365545992309,0.0 -49.68995,-27.2367198992309,0.0 -49.6899986,-27.2368948992309,0.0 -49.6900191,-27.2370525992309,0.0 -49.6898819,-27.2374081992309,0.0 -49.6896408,-27.2376025992309,0.0 -49.6892286,-27.2377581992309,0.0 -49.6890638,-27.2378391992309,0.0 -49.6888989,-27.2379200992309,0.0 -49.6884729,-27.2384143992309,0.0 -49.6882557,-27.2390658992308,0.0 -49.6881468,-27.2393879992308,0.0 -49.6881228,-27.2396443992308,0.0 -49.6882135,-27.2398650992308,0.0 -49.6884119,-27.2401607992308,0.0 -49.688823,-27.2405470992308,0.0 -49.6892301,-27.2408690992308,0.0 -49.6896372,-27.2411911992308,0.0 -49.689954,-27.2413756992308,0.0 -49.6901173,-27.2414707992308,0.0 -49.6902552,-27.2415754992308,0.0 -49.6904536,-27.2417349992308,0.0 -49.6906752,-27.2418827992308,0.0 -49.6908424,-27.2420577992308,0.0 -49.6910019,-27.2422015992308,0.0 -49.6910797,-27.2423065992308,0.0 -49.6911108,-27.2424388992308,0.0 -49.6910913,-27.2425671992308,0.0 -49.6910369,-27.2427771992308,0.0 -49.6909913,-27.2430093992308,0.0 -49.6909513,-27.2431232992308,0.0 -49.6908207,-27.2434881992308,0.0 -49.6906184,-27.2436963992308,0.0 -49.6904144,-27.2439064992308,0.0 -49.6902892,-27.2441166992307,0.0 -49.6902907,-27.2441990992307,0.0 -49.6902911,-27.2442213992307,0.0 -49.6903165,-27.2443942992307,0.0 -49.6903734,-27.2444606992307,0.0 -49.6904302,-27.2445271992307,0.0 -49.6905195,-27.2446268992307,0.0 -49.6906969,-27.2447707992307,0.0 -49.6908427,-27.2448908992307,0.0 -49.6911747,-27.2447317992307,0.0 -49.6915,-27.2446352992307,0.0 -49.691913,-27.2445781992307,0.0 -49.6921667,-27.2445263992308,0.0 -49.6924397,-27.2445398992307,0.0 -49.6926574,-27.2445506992308,0.0 -49.6931544,-27.2446845992307,0.0 -49.6936339,-27.2448205992307,0.0 -49.6937933,-27.2449107992307,0.0 -49.6939757,-27.2450138992307,0.0 -49.6941224,-27.2451002992307,0.0 -49.694278,-27.2451799992307,0.0 -49.6943885,-27.2452826992307,0.0 -49.6944841,-27.2454366992307,0.0 -49.6948339,-27.2459414992307,0.0 -49.6950013,-27.2461054992307,0.0 -49.695118,-27.2461599992307,0.0 -49.6953254,-27.2461963992307,0.0 -49.6954057,-27.2462104992307,0.0 -49.6955283,-27.2462192992307,0.0 -49.6958316,-27.2462785992307,0.0 -49.6960046,-27.2462629992307,0.0 -49.6962302,-27.2462513992307,0.0 -49.697094,-27.2463135992307,0.0 -49.6974984,-27.2463524992307,0.0 -49.6977317,-27.2463913992307,0.0 -49.697967,-27.2464825992307,0.0 -49.6986673,-27.2470113992307,0.0 -49.698926,-27.2471589992307,0.0 -49.699303,-27.2473523992307,0.0 -49.699785,-27.2478050992307,0.0 -49.7004072,-27.2483517992307,0.0 -49.7012906,-27.2488556992307,0.0 -49.7023102,-27.2492011992307,0.0 -49.7027794,-27.2494607992307,0.0 -49.7033024,-27.2496131992306,0.0 -49.7040387,-27.2497817992306,0.0 -49.7045975,-27.2498795992306,0.0 -49.704788,-27.2499068992306,0.0 -49.7049708,-27.2499068992306,0.0 -49.7051341,-27.2498834992306,0.0 -49.7053325,-27.2498251992306,0.0 -49.7055774,-27.2497395992307,0.0 -49.7057913,-27.2496968992306,0.0 -49.7060091,-27.2496579992306,0.0 -49.7064414,-27.2496188992307,0.0 -49.706854,-27.2496423992306,0.0 -49.7070711,-27.2496281992306,0.0 -49.7073012,-27.2495995992307,0.0 -49.7075886,-27.2495738992307,0.0 -49.707862,-27.2495855992306,0.0 -49.7087265,-27.2498478992306,0.0 -49.7093571,-27.2500604992306,0.0 -49.7099097,-27.2502414992306,0.0 -49.7102926,-27.2504695992306,0.0 -49.7106251,-27.2507506992306,0.0 -49.7108663,-27.2508673992306,0.0 -49.7110451,-27.2510695992306,0.0 -49.7113951,-27.2513962992306,0.0 -49.7117296,-27.2516062992306,0.0 -49.7121107,-27.2517306992306,0.0 -49.7126629,-27.2518240992306,0.0 -49.7130051,-27.2518551992306,0.0 -49.7133104,-27.2519017992306,0.0 -49.7134776,-27.2519678992306,0.0 -49.7136448,-27.2520806992306,0.0 -49.7137537,-27.2522284992306,0.0 -49.7139248,-27.2524812992306,0.0 -49.7140843,-27.2526639992306,0.0 -49.7143409,-27.2528000992306,0.0 -49.7146559,-27.2529245992306,0.0 -49.7149592,-27.2530023992306,0.0 -49.715247,-27.2530528992306,0.0 -49.7155231,-27.2530956992306,0.0 -49.7157646,-27.2531478992306,0.0 -49.7161714,-27.2531529992306,0.0 -49.7164443,-27.2532238992306,0.0 -49.7166826,-27.2533947992306,0.0 -49.716967,-27.2535627992306,0.0 -49.7176217,-27.2537992992306,0.0 -49.7179362,-27.2539359992306,0.0 -49.7181735,-27.2541461992306,0.0 -49.7187094,-27.2546817992305,0.0 -49.719303,-27.2551521992305,0.0 -49.7196907,-27.2554233992305,0.0 -49.7201269,-27.2556136992305,0.0 -49.7207135,-27.2558025992305,0.0 -49.7216953,-27.2559147992305,0.0 -49.7221567,-27.2560325992305,0.0 -49.7233422,-27.2564281992305,0.0 -49.7243935,-27.2566161992305,0.0 -49.7249731,-27.2568171992305,0.0 -49.7254844,-27.2571071992305,0.0 -49.7257819,-27.2573049992305,0.0 -49.726125,-27.2575580992305,0.0 -49.7263486,-27.2576941992305,0.0 -49.726658,-27.2578859992305,0.0 -49.7268736,-27.2580325992305,0.0 -49.7270331,-27.2581025992305,0.0 -49.7271536,-27.2581589992305,0.0 -49.7272754,-27.2582352992305,0.0 -49.7274232,-27.2583324992305,0.0 -49.7275146,-27.2584277992305,0.0 -49.7275787,-27.2585191992305,0.0 -49.7276565,-27.2586629992305,0.0 -49.7276993,-27.2587271992305,0.0 -49.7281878,-27.2591597992305,0.0 -49.7284406,-27.2593270992305,0.0 -49.728775,-27.2594942992305,0.0 -49.7291065,-27.2595428992305,0.0 -49.7292552,-27.2595525992305,0.0 -49.7293865,-27.2595856992305,0.0 -49.7295188,-27.2596517992305,0.0 -49.7296199,-27.2597800992305,0.0 -49.7297054,-27.2599239992304,0.0 -49.7298798,-27.2601081992305,0.0 -49.7300399,-27.2602894992304,0.0 -49.7302926,-27.2604761992304,0.0 -49.7309387,-27.2610558992304,0.0 -49.7313708,-27.2613647992304,0.0 -49.731923,-27.2617341992304,0.0 -49.7323012,-27.2619733992304,0.0 -49.7326162,-27.2621250992304,0.0 -49.7328262,-27.2621950992304,0.0 -49.7329759,-27.2622027992304,0.0 -49.7332163,-27.2621869992304,0.0 -49.7333425,-27.2621655992304,0.0 -49.7335155,-27.2621736992304,0.0 -49.7338955,-27.2623078992304,0.0 -49.7341649,-27.2624030992304,0.0 -49.734406,-27.2624497992304,0.0 -49.734511,-27.2624886992304,0.0 -49.7346122,-27.2625391992304,0.0 -49.7347133,-27.2626247992304,0.0 -49.7348066,-27.2627219992304,0.0 -49.7348868,-27.2627720992304,0.0 -49.7349116,-27.2627880992304,0.0 -49.7349393,-27.2628002992304,0.0 -49.7349621,-27.2628075992304,0.0 -49.7349869,-27.2628079992304,0.0 -49.7350146,-27.2628026992304,0.0 -49.735077,-27.2627802992304,0.0 -49.7352267,-27.2627219992304,0.0 -49.7353337,-27.2626713992304,0.0 -49.7353964,-27.2626344992304,0.0 -49.735515,-27.2625605992304,0.0 -49.7356122,-27.2625216992304,0.0 -49.7357425,-27.2624866992304,0.0 -49.7358766,-27.2624730992304,0.0 -49.7360419,-27.2624672992304,0.0 -49.7362402,-27.2624555992304,0.0 -49.7363593,-27.2624818992304,0.0 -49.7364565,-27.2625207992304,0.0 -49.7365829,-27.2625945992304,0.0 -49.7366821,-27.2626743992304,0.0 -49.736789,-27.2627287992304,0.0 -49.7369077,-27.2627657992304,0.0 -49.737071,-27.2628104992304,0.0 -49.7371857,-27.2628143992304,0.0 -49.7373942,-27.2627520992304,0.0 -49.7374954,-27.2626976992304,0.0 -49.7378765,-27.2624409992304,0.0 -49.7382731,-27.2620521992304,0.0 -49.7384617,-27.2618615992304,0.0 -49.7386638,-27.2616418992304,0.0 -49.7390469,-27.2614044992304,0.0 -49.739232,-27.2612192992304,0.0 -49.7392599,-27.2611858992304,0.0 -49.7393056,-27.2611178992304,0.0 -49.7393435,-27.2610254992304,0.0 -49.7393834,-27.2609369992304,0.0 -49.7394845,-27.2607921992304,0.0 -49.7396148,-27.2606015992304,0.0 -49.7396634,-27.2605101992304,0.0 -49.7397411,-27.2603546992305,0.0 -49.7398014,-27.2602515992304,0.0 -49.7398131,-27.2601874992304,0.0 -49.7398131,-27.2601038992304,0.0 -49.7398014,-27.2600201992304,0.0 -49.739747,-27.2598831992305,0.0 -49.7397003,-27.2597120992305,0.0 -49.7396795,-27.2595742992305,0.0 -49.7398014,-27.2593153992305,0.0 -49.7399181,-27.2592142992305,0.0 -49.740158,-27.2591359992305,0.0 -49.7405495,-27.2589737992305,0.0 -49.7411189,-27.2588285992305,0.0 -49.7414039,-27.2586851992305,0.0 -49.7418645,-27.2584644992305,0.0 -49.7423132,-27.2581523992305,0.0 -49.742663,-27.2578773992305,0.0 -49.7427792,-27.2578183992305,0.0 -49.7429369,-27.2577822992305,0.0 -49.7430979,-27.2577539992305,0.0 -49.743238,-27.2576834992305,0.0 -49.7434079,-27.2576493992305,0.0 -49.7435033,-27.2575828992305,0.0 -49.7436008,-27.2574677992305,0.0 -49.7436853,-27.2572678992305,0.0 -49.743808,-27.2568307992305,0.0 -49.7437821,-27.2563995992305,0.0 -49.7437515,-27.2560828992305,0.0 -49.7437774,-27.2559531992305,0.0 -49.7438154,-27.2558553992305,0.0 -49.7439124,-27.2557657992305,0.0 -49.7442056,-27.2556551992305,0.0 -49.7443828,-27.2555834992305,0.0 -49.7447714,-27.2555073992305,0.0 -49.7451698,-27.2555253992305,0.0 -49.7455881,-27.2554644992305,0.0 -49.7457495,-27.2553553992305,0.0 -49.7463906,-27.2548227992305,0.0 -49.7474144,-27.2533685992306,0.0 -49.7481979,-27.2523729992306,0.0 -49.7484159,-27.2521256992306,0.0 -49.7485997,-27.2519190992306,0.0 -49.7491014,-27.2517108992306,0.0 -49.7495864,-27.2516164992306,0.0 -49.7500555,-27.2514223992306,0.0 -49.7504484,-27.2511811992306,0.0 -49.7507314,-27.2509658992306,0.0 -49.7510224,-27.2506689992306,0.0 -49.7513092,-27.2502742992306,0.0 -49.751788,-27.2499588992306,0.0 -49.7520777,-27.2498021992306,0.0 -49.7523932,-27.2496945992306,0.0 -49.752586,-27.2496581992306,0.0 -49.7528543,-27.2496360992306,0.0 -49.7531086,-27.2496827992306,0.0 -49.7532743,-27.2497010992306,0.0 -49.7535387,-27.2496901992306,0.0 -49.7538142,-27.2495893992306,0.0 -49.7540469,-27.2494136992306,0.0 -49.7542114,-27.2491695992307,0.0 -49.7542736,-27.2486159992307,0.0 -49.7541851,-27.2483103992307,0.0 -49.7537638,-27.2474941992307,0.0 -49.7534502,-27.2469508992307,0.0 -49.7533919,-27.2468652992307,0.0 -49.753318,-27.2467680992307,0.0 -49.7532893,-27.2467101992307,0.0 -49.753274,-27.2466510992307,0.0 -49.7532879,-27.2465760992307,0.0 -49.7533102,-27.2465113992307,0.0 -49.7534381,-27.2462705992307,0.0 -49.7536113,-27.2459817992307,0.0 -49.7538819,-27.2455279992307,0.0 -49.7540566,-27.2453789992307,0.0 -49.7542173,-27.2452956992307,0.0 -49.7544479,-27.2452206992307,0.0 -49.7553125,-27.2449931992307,0.0 -49.7564918,-27.2447995992307,0.0 -49.7570174,-27.2448066992307,0.0 -49.7584516,-27.2447804992307,0.0 -49.7591495,-27.2446333992307,0.0 -49.7594619,-27.2446005992307,0.0 -49.7597321,-27.2446121992307,0.0 -49.75996,-27.2446435992307,0.0 -49.7601324,-27.2447084992307,0.0 -49.7604039,-27.2448430992307,0.0 -49.7605884,-27.2448936992307,0.0 -49.7607879,-27.2449274992307,0.0 -49.7609913,-27.2448891992307,0.0 -49.7611112,-27.2448707992307,0.0 -49.7611754,-27.2448707992307,0.0 -49.7612551,-27.2448746992307,0.0 -49.7613582,-27.2448941992307,0.0 -49.7614826,-27.2449135992307,0.0 -49.761609,-27.2449602992307,0.0 -49.7617432,-27.2450185992307,0.0 -49.7618287,-27.2450788992307,0.0 -49.7618851,-27.2451624992307,0.0 -49.7619679,-27.2453434992307,0.0 -49.7624887,-27.2464745992307,0.0 -49.7626194,-27.2466839992307,0.0 -49.7627516,-27.2468550992307,0.0 -49.7629032,-27.2469833992307,0.0 -49.7630977,-27.2471000992307,0.0 -49.7632182,-27.2471506992307,0.0 -49.7634127,-27.2472089992307,0.0 -49.7635449,-27.2472167992307,0.0 -49.7636499,-27.2472128992307,0.0 -49.763756,-27.2472077992307,0.0 -49.7642467,-27.2472133992307,0.0 -49.7646588,-27.2471924992307,0.0 -49.7648105,-27.2471963992307,0.0 -49.7649466,-27.2472079992307,0.0 -49.7650982,-27.2472313992307,0.0 -49.7652927,-27.2473246992307,0.0 -49.7654093,-27.2473829992307,0.0 -49.765596,-27.2474957992307,0.0 -49.7658216,-27.2475929992307,0.0 -49.7660588,-27.2476668992307,0.0 -49.7662649,-27.2476707992307,0.0 -49.7665565,-27.2476046992307,0.0 -49.7668366,-27.2475911992307,0.0 -49.7671102,-27.2476073992307,0.0 -49.7674649,-27.2476855992307,0.0 -49.7676764,-27.2477704992307,0.0 -49.7680099,-27.2479265992307,0.0 -49.768263,-27.2480629992307,0.0 -49.7683318,-27.2480822992307,0.0 -49.768429,-27.2480907992307,0.0 -49.768517,-27.2480887992307,0.0 -49.7686539,-27.2480937992307,0.0 -49.7687568,-27.2480914992307,0.0 -49.7688355,-27.2480893992307,0.0 -49.7689251,-27.2480877992307,0.0 -49.7689965,-27.2480778992307,0.0 -49.7691381,-27.2480298992307,0.0 -49.7693007,-27.2479760992307,0.0 -49.7694137,-27.2479102992307,0.0 -49.7695136,-27.2478642992307,0.0 -49.7696137,-27.2478321992307,0.0 -49.7701428,-27.2477426992307,0.0 -49.7702167,-27.2477310992307,0.0 -49.7704422,-27.2477115992307,0.0 -49.7706843,-27.2477135992307,0.0 -49.7709089,-27.2477232992307,0.0 -49.7709694,-27.2477232992307,0.0 -49.7710316,-27.2477174992307,0.0 -49.7711143,-27.2477115992307,0.0 -49.7711668,-27.2476969992307,0.0 -49.7712192,-27.2476746992307,0.0 -49.7712562,-27.2476425992307,0.0 -49.7712951,-27.2476094992307,0.0 -49.7713223,-27.2475754992307,0.0 -49.7713495,-27.2475472992307,0.0 -49.7713777,-27.2475278992307,0.0 -49.7714234,-27.2474957992307,0.0 -49.7714623,-27.2474801992307,0.0 -49.771655,-27.2474014992307,0.0 -49.7718961,-27.2472886992307,0.0 -49.7721217,-27.2472186992307,0.0 -49.7723239,-27.2471758992307,0.0 -49.7724834,-27.2471603992307,0.0 -49.7726282,-27.2471564992307,0.0 -49.7727721,-27.2471836992307,0.0 -49.7729354,-27.2472497992307,0.0 -49.7729831,-27.2473061992307,0.0 -49.7731231,-27.2474539992307,0.0 -49.7732708,-27.2476289992307,0.0 -49.7734731,-27.2478700992307,0.0 -49.7737103,-27.2481228992307,0.0 -49.7738853,-27.2483250992307,0.0 -49.7739942,-27.2485389992307,0.0 -49.7740846,-27.2488091992307,0.0 -49.7741684,-27.2493390992307,0.0 -49.7743119,-27.2497438992306,0.0 -49.7744065,-27.2499512992306,0.0 -49.7744496,-27.2501762992306,0.0 -49.7744976,-27.2503837992306,0.0 -49.7745176,-27.2505397992306,0.0 -49.7746853,-27.2508169992306,0.0 -49.7749115,-27.2510011992306,0.0 -49.7751722,-27.2511566992306,0.0 -49.7755843,-27.2512678992306,0.0 -49.7760465,-27.2512353992306,0.0 -49.7764475,-27.2511273992306,0.0 -49.7770463,-27.2511969992306,0.0 -49.7774572,-27.2513545992306,0.0 -49.7776643,-27.2514474992306,0.0 -49.7778734,-27.2515973992306,0.0 -49.7783326,-27.2520409992306,0.0 -49.7783663,-27.2518865992306,0.0 -49.7784069,-27.2517802992306,0.0 -49.7784913,-27.2516755992306,0.0 -49.7785903,-27.2516038992306,0.0 -49.778658,-27.2514999992306,0.0 -49.7786864,-27.2513814992306,0.0 -49.7788027,-27.2512116992306,0.0 -49.7789187,-27.2511360992306,0.0 -49.7792847,-27.2510096992306,0.0 -49.7795791,-27.2508728992306,0.0 -49.7800786,-27.2504559992306,0.0 -49.7804482,-27.2500938992306,0.0 -49.7807138,-27.2497994992306,0.0 -49.7808337,-27.2497181992306,0.0 -49.780995,-27.2496670992306,0.0 -49.7811456,-27.2496277992307,0.0 -49.7813029,-27.2496416992307,0.0 -49.7814652,-27.2496613992307,0.0 -49.7815401,-27.2496963992306,0.0 -49.7815893,-27.2497590992306,0.0 -49.7816164,-27.2498900992306,0.0 -49.7816418,-27.2499925992306,0.0 -49.781644,-27.2500718992306,0.0 -49.7816613,-27.2501312992306,0.0 -49.7817201,-27.2501824992306,0.0 -49.7818397,-27.2502452992306,0.0 -49.7819676,-27.2503089992306,0.0 -49.7824547,-27.2506538992306,0.0 -49.7826671,-27.2507283992306,0.0 -49.782793,-27.2507388992306,0.0 -49.7829091,-27.2507112992306,0.0 -49.7830429,-27.2506484992306,0.0 -49.7832854,-27.2504189992306,0.0 -49.7835784,-27.2501118992306,0.0 -49.7838806,-27.2499076992306,0.0 -49.7842052,-27.2497619992306,0.0 -49.784517,-27.2496418992306,0.0 -49.7848765,-27.2495635992307,0.0 -49.785158,-27.2494831992307,0.0 -49.7854629,-27.2493865992307,0.0 -49.7856527,-27.2492631992307,0.0 -49.7858045,-27.2491191992307,0.0 -49.7859045,-27.2489158992307,0.0 -49.7860072,-27.2486168992307,0.0 -49.7860256,-27.2484636992307,0.0 -49.7861307,-27.2483586992307,0.0 -49.7862513,-27.2482790992307,0.0 -49.7863167,-27.2482317992307,0.0 -49.7863882,-27.2481986992307,0.0 -49.7865185,-27.2481733992307,0.0 -49.786646,-27.2481769992307,0.0 -49.7876213,-27.2485999992307,0.0 -49.7881747,-27.2488637992307,0.0 -49.7886566,-27.2492910992307,0.0 -49.789203,-27.2500925992306,0.0 -49.7898819,-27.2511476992306,0.0 -49.7906905,-27.2520810992306,0.0 -49.7911085,-27.2524839992306,0.0 -49.7913905,-27.2528144992306,0.0 -49.7915907,-27.2529494992306,0.0 -49.7918259,-27.2530714992306,0.0 -49.7920155,-27.2532556992306,0.0 -49.7921091,-27.2533901992306,0.0 -49.7921835,-27.2535106992306,0.0 -49.7922644,-27.2536084992306,0.0 -49.7923179,-27.2537003992306,0.0 -49.7923522,-27.2537691992306,0.0 -49.7923934,-27.2538207992306,0.0 -49.7925758,-27.2538908992306,0.0 -49.7926386,-27.2537749992306,0.0 -49.7927672,-27.2536383992306,0.0 -49.7930867,-27.2534816992306,0.0 -49.7931375,-27.2534747992306,0.0 -49.7931756,-27.2534712992306,0.0 -49.7932733,-27.2534731992306,0.0 -49.8022644,-27.2482877992307,0.0 -49.7988038,-27.2469184992307,0.0 -49.7987735,-27.2464066992307,0.0 -49.7987323,-27.2460726992307,0.0 -49.7986761,-27.2459270992307,0.0 -49.7986174,-27.2456989992307,0.0 -49.7985594,-27.2454651992307,0.0 -49.7985214,-27.2451649992307,0.0 -49.7985563,-27.2449037992307,0.0 -49.7987291,-27.2447812992307,0.0 -49.7988022,-27.2447294992307,0.0 -49.7988854,-27.2446617992307,0.0 -49.7989449,-27.2446022992307,0.0 -49.7990165,-27.2445076992307,0.0 -49.7990768,-27.2444328992307,0.0 -49.7991296,-27.2443700992307,0.0 -49.7991922,-27.2443267992307,0.0 -49.7991972,-27.2443235992307,0.0 -49.7992842,-27.2442687992307,0.0 -49.7993886,-27.2442088992307,0.0 -49.7999493,-27.2439872992308,0.0 -49.8003954,-27.2436709992308,0.0 -49.8004214,-27.2436524992308,0.0 -49.8007232,-27.2433824992308,0.0 -49.8010034,-27.2431206992308,0.0 -49.8011544,-27.2429890992308,0.0 -49.8012121,-27.2429160992308,0.0 -49.8012647,-27.2428346992308,0.0 -49.8012913,-27.2427445992308,0.0 -49.8013018,-27.2424459992308,0.0 -49.801316,-27.2423186992308,0.0 -49.80135,-27.2422140992308,0.0 -49.8013822,-27.2421428992308,0.0 -49.8014487,-27.2420614992308,0.0 -49.8015272,-27.2419985992308,0.0 -49.8016061,-27.2419467992308,0.0 -49.8017147,-27.2418942992308,0.0 -49.8018616,-27.2418425992308,0.0 -49.8019872,-27.2418118992308,0.0 -49.8021908,-27.2417904992308,0.0 -49.8023102,-27.2417762992308,0.0 -49.8024344,-27.2417636992308,0.0 -49.8025555,-27.2417134992308,0.0 -49.8025675,-27.2417028992308,0.0 -49.8026534,-27.2416268992308,0.0 -49.8027133,-27.2415498992308,0.0 -49.8027412,-27.2414625992308,0.0 -49.8028161,-27.2408883992308,0.0 -49.8029729,-27.2403784992308,0.0 -49.803153,-27.2401122992308,0.0 -49.803268,-27.2399183992308,0.0 -49.8032908,-27.2398445992308,0.0 -49.8033098,-27.2397830992308,0.0 -49.8033282,-27.2396363992308,0.0 -49.8033402,-27.2395293992308,0.0 -49.8033419,-27.2392814992308,0.0 -49.8032917,-27.2387073992309,0.0 -49.8030869,-27.2386685992309,0.0 -49.8030228,-27.2386558992309,0.0 -49.8029268,-27.2386687992309,0.0 -49.8027963,-27.2387353992309,0.0 -49.8027112,-27.2387981992309,0.0 -49.8026095,-27.2388895992309,0.0 -49.8024596,-27.2390216992308,0.0 -49.802268,-27.2391632992309,0.0 -49.8021193,-27.2393122992308,0.0 -49.8018989,-27.2395390992308,0.0 -49.8017173,-27.2396859992308,0.0 -49.8015632,-27.2397826992308,0.0 -49.8014194,-27.2398470992308,0.0 -49.8013043,-27.2398821992308,0.0 -49.8010654,-27.2399095992308,0.0 -49.8008076,-27.2399093992308,0.0 -49.8006263,-27.2398885992308,0.0 -49.8004001,-27.2398347992308,0.0 -49.8001431,-27.2397417992308,0.0 -49.800076,-27.2396979992308,0.0 -49.7999786,-27.2396156992308,0.0 -49.7999364,-27.2395316992308,0.0 -49.7998281,-27.2390680992308,0.0 -49.7997692,-27.2387848992309,0.0 -49.7997052,-27.2386418992309,0.0 -49.799679,-27.2385813992309,0.0 -49.7996054,-27.2385017992309,0.0 -49.7995445,-27.2384659992309,0.0 -49.7994613,-27.2384086992309,0.0 -49.7993802,-27.2383701992309,0.0 -49.7992508,-27.2383324992309,0.0 -49.7990604,-27.2383729992309,0.0 -49.7989162,-27.2383757992309,0.0 -49.7986787,-27.2383785992309,0.0 -49.7984888,-27.2383846992309,0.0 -49.7982875,-27.2383621992309,0.0 -49.7981161,-27.2384373992309,0.0 -49.7979923,-27.2385587992309,0.0 -49.7977618,-27.2387959992309,0.0 -49.7975642,-27.2391553992308,0.0 -49.7973092,-27.2396520992308,0.0 -49.7972231,-27.2397084992308,0.0 -49.7971006,-27.2397455992308,0.0 -49.7969657,-27.2397406992308,0.0 -49.7968243,-27.2397009992308,0.0 -49.7967313,-27.2396714992308,0.0 -49.7965958,-27.2396659992308,0.0 -49.7964758,-27.2396659992308,0.0 -49.796255,-27.2396107992308,0.0 -49.7961347,-27.2395429992308,0.0 -49.7960131,-27.2395072992308,0.0 -49.7959146,-27.2395354992308,0.0 -49.7957765,-27.2395967992308,0.0 -49.7956762,-27.2396253992308,0.0 -49.795392,-27.2396477992308,0.0 -49.7950791,-27.2397371992308,0.0 -49.7948427,-27.2398584992308,0.0 -49.7946448,-27.2400021992308,0.0 -49.793881,-27.2406121992308,0.0 -49.7913715,-27.2399957992308,0.0 -49.7887656,-27.2413561992308,0.0 -49.7885454,-27.2412220992308,0.0 -49.7884815,-27.2411639992308,0.0 -49.7884389,-27.2410911992308,0.0 -49.7884113,-27.2408741992308,0.0 -49.7883802,-27.2407263992308,0.0 -49.7883636,-27.2406427992308,0.0 -49.7883053,-27.2405338992308,0.0 -49.7882314,-27.2404638992308,0.0 -49.7881653,-27.2404172992308,0.0 -49.7880797,-27.2403705992308,0.0 -49.7879475,-27.2403161992308,0.0 -49.787868,-27.2402970992308,0.0 -49.7877686,-27.2402733992308,0.0 -49.7876753,-27.2402227992308,0.0 -49.7875975,-27.2401761992308,0.0 -49.7874964,-27.2400555992308,0.0 -49.7874225,-27.2399622992308,0.0 -49.7873776,-27.2398560992308,0.0 -49.7873409,-27.2397327992308,0.0 -49.7873181,-27.2396475992308,0.0 -49.7872599,-27.2394758992308,0.0 -49.7872125,-27.2393361992308,0.0 -49.7871386,-27.2391805992308,0.0 -49.7869675,-27.2389433992309,0.0 -49.7867459,-27.2386555992309,0.0 -49.7862735,-27.2381635992309,0.0 -49.7858188,-27.2377998992309,0.0 -49.7855697,-27.2375953992309,0.0 -49.7853403,-27.2374359992309,0.0 -49.7850409,-27.2372726992309,0.0 -49.7847881,-27.2371287992309,0.0 -49.7846286,-27.2370587992309,0.0 -49.7844537,-27.2369965992309,0.0 -49.7842864,-27.2369498992309,0.0 -49.784057,-27.2369187992309,0.0 -49.7838703,-27.2368954992309,0.0 -49.7836876,-27.2368915992309,0.0 -49.783404,-27.2368940992309,0.0 -49.7832559,-27.2368954992309,0.0 -49.7832236,-27.2368910992309,0.0 -49.783174,-27.2368754992309,0.0 -49.7831098,-27.2368443992309,0.0 -49.7830602,-27.2368083992309,0.0 -49.7830136,-27.2367675992309,0.0 -49.7829747,-27.2367189992309,0.0 -49.7828971,-27.2366231992309,0.0 -49.7828435,-27.2363663992309,0.0 -49.7826876,-27.2355694992309,0.0 -49.7825404,-27.2349804992309,0.0 -49.7824618,-27.2347763992309,0.0 -49.7822622,-27.2344985992309,0.0 -49.7818821,-27.2341576992309,0.0 -49.7816637,-27.2339302992309,0.0 -49.7815356,-27.233629299231,0.0 -49.781423,-27.233152999231,0.0 -49.7813893,-27.232867999231,0.0 -49.7812931,-27.232520699231,0.0 -49.7810246,-27.232096199231,0.0 -49.7805655,-27.231585199231,0.0 -49.7798986,-27.231013599231,0.0 -49.7793269,-27.230545799231,0.0 -49.7789632,-27.230225399231,0.0 -49.7784153,-27.229736099231,0.0 -49.7783414,-27.229662199231,0.0 -49.7782481,-27.229553399231,0.0 -49.7781275,-27.229421099231,0.0 -49.7779836,-27.229277199231,0.0 -49.7778164,-27.229148899231,0.0 -49.77768,-27.229011499231,0.0 -49.7775675,-27.228915599231,0.0 -49.7775092,-27.228779499231,0.0 -49.7774703,-27.228658899231,0.0 -49.7774426,-27.228551399231,0.0 -49.7773536,-27.2282058992311,0.0 -49.7773128,-27.2274805992311,0.0 -49.7772895,-27.2273366992311,0.0 -49.7772895,-27.2272005992311,0.0 -49.7772972,-27.2270294992311,0.0 -49.7773284,-27.2267805992311,0.0 -49.7773867,-27.2263644992311,0.0 -49.7774528,-27.2258861992311,0.0 -49.7774396,-27.2255291992311,0.0 -49.7774295,-27.2252561992311,0.0 -49.7773672,-27.2250383992311,0.0 -49.7772817,-27.2248672992311,0.0 -49.7771495,-27.2246339992311,0.0 -49.7768539,-27.2243850992311,0.0 -49.7766079,-27.2241770992311,0.0 -49.7763474,-27.2239981992311,0.0 -49.7761568,-27.2238892992311,0.0 -49.7758418,-27.2237414992311,0.0 -49.7755813,-27.2236559992311,0.0 -49.775313,-27.2235897992311,0.0 -49.774803,-27.2235073992312,0.0 -49.7746878,-27.2234886992311,0.0 -49.7745051,-27.2234692992311,0.0 -49.7743262,-27.2234770992312,0.0 -49.7741745,-27.2234770992312,0.0 -49.7740462,-27.2234886992311,0.0 -49.7738829,-27.2235120992311,0.0 -49.7738285,-27.2235401992311,0.0 -49.7736573,-27.2236286992311,0.0 -49.7734512,-27.2236792992311,0.0 -49.7732441,-27.2237142992311,0.0 -49.7730263,-27.2237220992311,0.0 -49.772793,-27.2237025992311,0.0 -49.7724819,-27.2236481992311,0.0 -49.7721864,-27.2235703992311,0.0 -49.7718364,-27.2234809992311,0.0 -49.7716497,-27.2234420992311,0.0 -49.7714708,-27.2233992992312,0.0 -49.7713385,-27.2233611992311,0.0 -49.7711869,-27.2233175992311,0.0 -49.7709808,-27.2232864992312,0.0 -49.7707086,-27.2232514992311,0.0 -49.7704092,-27.2232203992312,0.0 -49.7700339,-27.2231950992312,0.0 -49.7695711,-27.2231095992312,0.0 -49.7690772,-27.2229384992312,0.0 -49.7687272,-27.2228144992312,0.0 -49.7684706,-27.2226700992312,0.0 -49.7681556,-27.2224445992312,0.0 -49.7677895,-27.2222335992312,0.0 -49.7677332,-27.2221791992312,0.0 -49.7676457,-27.2220877992312,0.0 -49.7675796,-27.2220294992312,0.0 -49.7675076,-27.2219905992312,0.0 -49.7674337,-27.2219671992312,0.0 -49.7673404,-27.2219438992312,0.0 -49.7672626,-27.2219341992312,0.0 -49.7671518,-27.2219302992312,0.0 -49.7670682,-27.2219302992312,0.0 -49.766934,-27.2219360992312,0.0 -49.7666462,-27.2219360992312,0.0 -49.766314,-27.2219355992312,0.0 -49.766164,-27.2218816992312,0.0 -49.7660629,-27.2217805992312,0.0 -49.7660551,-27.2216327992312,0.0 -49.7661096,-27.2210416992312,0.0 -49.7660396,-27.2205905992312,0.0 -49.7660522,-27.2203999992312,0.0 -49.7660328,-27.2203105992312,0.0 -49.7659667,-27.2200266992312,0.0 -49.7659449,-27.2199555992312,0.0 -49.7658928,-27.2197855992312,0.0 -49.7658733,-27.2195405992312,0.0 -49.7658724,-27.2193752992312,0.0 -49.7658724,-27.2191419992312,0.0 -49.765884,-27.2189902992312,0.0 -49.7659268,-27.2189008992312,0.0 -49.7659674,-27.2188481992312,0.0 -49.7660318,-27.2187647992312,0.0 -49.7661446,-27.2186402992312,0.0 -49.7662924,-27.2185352992312,0.0 -49.7664829,-27.2184380992312,0.0 -49.7666385,-27.2183719992312,0.0 -49.7667979,-27.2183214992312,0.0 -49.7669068,-27.2183019992313,0.0 -49.7671333,-27.2182263992312,0.0 -49.7673054,-27.2181075992312,0.0 -49.7674473,-27.2179694992312,0.0 -49.7675679,-27.2177866992313,0.0 -49.7676534,-27.2176330992313,0.0 -49.7677107,-27.2175004992313,0.0 -49.7677526,-27.2174036992313,0.0 -49.7678362,-27.2172928992313,0.0 -49.7679295,-27.2172091992313,0.0 -49.7679937,-27.2171742992313,0.0 -49.7680909,-27.2171197992313,0.0 -49.7685673,-27.2169000992313,0.0 -49.7688006,-27.2167833992313,0.0 -49.7689115,-27.2166997992313,0.0 -49.7689951,-27.2166044992313,0.0 -49.769032,-27.2165189992313,0.0 -49.76904,-27.2164685992313,0.0 -49.7690418,-27.2163847992313,0.0 -49.7690476,-27.2163031992313,0.0 -49.7690515,-27.2162408992313,0.0 -49.769067,-27.2161669992313,0.0 -49.7690884,-27.2160969992313,0.0 -49.7691215,-27.2160250992313,0.0 -49.7691526,-27.2159608992313,0.0 -49.7693626,-27.2154864992313,0.0 -49.7695741,-27.2147731992313,0.0 -49.769605,-27.2146347992313,0.0 -49.769704,-27.2141928992313,0.0 -49.7697906,-27.2137857992313,0.0 -49.7698512,-27.2133439992313,0.0 -49.7699303,-27.2129042992314,0.0 -49.7699537,-27.2126514992314,0.0 -49.7699615,-27.2124764992314,0.0 -49.7698681,-27.2120487992314,0.0 -49.7697826,-27.2118853992314,0.0 -49.7695648,-27.2115276992314,0.0 -49.7693159,-27.2111465992314,0.0 -49.769089,-27.2108148992314,0.0 -49.7688579,-27.2104374992314,0.0 -49.7688292,-27.2103903992314,0.0 -49.768526,-27.2099919992314,0.0 -49.7682662,-27.2095242992314,0.0 -49.7682242,-27.2094588992314,0.0 -49.7680496,-27.2091864992314,0.0 -49.7678606,-27.2088695992314,0.0 -49.7677287,-27.2086659992314,0.0 -49.7676418,-27.2085737992314,0.0 -49.7675419,-27.2085312992314,0.0 -49.7673302,-27.2085577992314,0.0 -49.767113,-27.2086044992314,0.0 -49.7669209,-27.2086851992314,0.0 -49.7667754,-27.2087308992314,0.0 -49.7666423,-27.2087659992314,0.0 -49.7665168,-27.2087876992314,0.0 -49.7663515,-27.2088478992314,0.0 -49.7661242,-27.2089461992314,0.0 -49.7659925,-27.2090473992314,0.0 -49.7658446,-27.2091153992314,0.0 -49.7657161,-27.2090976992314,0.0 -49.765639,-27.2090604992314,0.0 -49.7656031,-27.2090472992314,0.0 -49.7655419,-27.2090246992314,0.0 -49.7654472,-27.2089623992314,0.0 -49.7654045,-27.2088898992314,0.0 -49.7652932,-27.2086645992314,0.0 -49.7651281,-27.2085036992314,0.0 -49.765042,-27.2084250992314,0.0 -49.7648955,-27.2083092992314,0.0 -49.7648028,-27.2082419992314,0.0 -49.7645054,-27.2080499992314,0.0 -49.7642173,-27.2078852992314,0.0 -49.7638554,-27.2078350992314,0.0 -49.7579336,-27.2021461992315,0.0 -49.7579326,-27.2021449992316,0.0 -49.7582294,-27.2013949992316,0.0 -49.7582647,-27.2012585992316,0.0 -49.7583195,-27.2009500992316,0.0 -49.7583429,-27.2008634992316,0.0 -49.7583467,-27.2007827992316,0.0 -49.7583565,-27.2007128992316,0.0 -49.7583623,-27.2006612992316,0.0 -49.758372,-27.2005796992316,0.0 -49.7583817,-27.2004969992316,0.0 -49.7583954,-27.2003978992316,0.0 -49.7584129,-27.2002830992316,0.0 -49.7584313,-27.2001411992316,0.0 -49.7584391,-27.2000711992316,0.0 -49.7584799,-27.1998869992316,0.0 -49.7585577,-27.1996224992316,0.0 -49.7585733,-27.1995213992316,0.0 -49.7586199,-27.1992297992316,0.0 -49.7586744,-27.1989574992316,0.0 -49.7587444,-27.1987941992316,0.0 -49.7588533,-27.1986035992316,0.0 -49.7590399,-27.1983819992316,0.0 -49.7592538,-27.1981019992316,0.0 -49.7594521,-27.1979230992316,0.0 -49.7596437,-27.1978102992316,0.0 -49.7598381,-27.1977208992316,0.0 -49.7601259,-27.1976119992316,0.0 -49.7601279,-27.1976109992316,0.0 -49.7603048,-27.1975263992316,0.0 -49.7604098,-27.1974408992316,0.0 -49.7606237,-27.1971841992316,0.0 -49.7608142,-27.1968847992317,0.0 -49.7609348,-27.1966980992317,0.0 -49.7609775,-27.1965775992317,0.0 -49.7609737,-27.1964491992317,0.0 -49.7609192,-27.1963480992317,0.0 -49.7609045,-27.1963314992317,0.0 -49.7608298,-27.1962469992317,0.0 -49.7607442,-27.1961730992317,0.0 -49.7605731,-27.1960525992317,0.0 -49.7603553,-27.1959164992317,0.0 -49.7601823,-27.1958153992317,0.0 -49.7600909,-27.1957550992317,0.0 -49.7599217,-27.1956578992317,0.0 -49.7597448,-27.1955508992317,0.0 -49.7596553,-27.1954711992317,0.0 -49.7596028,-27.1953933992317,0.0 -49.7595601,-27.1952767992317,0.0 -49.7595406,-27.1951930992317,0.0 -49.7595192,-27.1950812992317,0.0 -49.7595056,-27.1949860992317,0.0 -49.7594901,-27.1949257992317,0.0 -49.7594901,-27.1948129992317,0.0 -49.7594842,-27.1947351992317,0.0 -49.7594818,-27.1946953992317,0.0 -49.7594701,-27.1946544992317,0.0 -49.759441,-27.1946000992317,0.0 -49.7594079,-27.1945689992317,0.0 -49.7593671,-27.1945436992317,0.0 -49.7593087,-27.1945203992317,0.0 -49.7592154,-27.1944950992317,0.0 -49.7591046,-27.1944639992317,0.0 -49.7590268,-27.1944464992317,0.0 -49.7589704,-27.1944211992317,0.0 -49.7589043,-27.1943395992317,0.0 -49.7588557,-27.1942520992317,0.0 -49.7588314,-27.1941732992317,0.0 -49.7588042,-27.1940779992317,0.0 -49.7587672,-27.1939690992317,0.0 -49.7587478,-27.1938990992317,0.0 -49.7587206,-27.1938465992317,0.0 -49.7586933,-27.1937940992317,0.0 -49.758637,-27.1937007992317,0.0 -49.7585903,-27.1936229992317,0.0 -49.7585689,-27.1935568992317,0.0 -49.7585592,-27.1934868992317,0.0 -49.7585689,-27.1934421992317,0.0 -49.7585708,-27.1933643992317,0.0 -49.7585825,-27.1932914992317,0.0 -49.7585942,-27.1932234992317,0.0 -49.7585883,-27.1931592992317,0.0 -49.7585708,-27.1930970992317,0.0 -49.7585397,-27.1930250992317,0.0 -49.758495,-27.1929686992317,0.0 -49.7584367,-27.1928928992317,0.0 -49.7583686,-27.1928209992317,0.0 -49.7583181,-27.1927606992317,0.0 -49.7582753,-27.1926848992317,0.0 -49.7582539,-27.1926070992317,0.0 -49.7582442,-27.1925700992317,0.0 -49.7582247,-27.1924923992317,0.0 -49.7581975,-27.1923912992317,0.0 -49.758112,-27.1921870992317,0.0 -49.7580478,-27.1920120992317,0.0 -49.7579506,-27.1917864992318,0.0 -49.7578743,-27.1916882992318,0.0 -49.7578451,-27.1916163992318,0.0 -49.7578179,-27.1915580992318,0.0 -49.757777,-27.1914880992318,0.0 -49.7577323,-27.1914355992318,0.0 -49.7577031,-27.1913888992318,0.0 -49.7576176,-27.1913130992318,0.0 -49.7575087,-27.1912255992318,0.0 -49.7574232,-27.1911380992318,0.0 -49.7573415,-27.1910446992318,0.0 -49.7572754,-27.1909396992318,0.0 -49.7572579,-27.1908871992318,0.0 -49.7572598,-27.1908541992318,0.0 -49.7572586,-27.1908330992318,0.0 -49.7572535,-27.1907423992318,0.0 -49.7572418,-27.1906334992318,0.0 -49.7572418,-27.1904992992318,0.0 -49.7572457,-27.1904292992318,0.0 -49.7572457,-27.1903398992318,0.0 -49.7572496,-27.1902231992318,0.0 -49.7572438,-27.1901823992318,0.0 -49.7572166,-27.1901220992318,0.0 -49.7571854,-27.1900734992318,0.0 -49.7571601,-27.1900346992318,0.0 -49.7571355,-27.1900018992318,0.0 -49.757043,-27.1898780992318,0.0 -49.756973,-27.1897633992318,0.0 -49.7569283,-27.1896699992318,0.0 -49.7569011,-27.1896117992318,0.0 -49.7568719,-27.1895494992318,0.0 -49.7568175,-27.1894599992318,0.0 -49.7567591,-27.1893238992318,0.0 -49.75673,-27.1892188992318,0.0 -49.7566872,-27.1890536992318,0.0 -49.7566016,-27.1886802992318,0.0 -49.7565394,-27.1883536992318,0.0 -49.7565642,-27.1881875992318,0.0 -49.7565239,-27.1879939992318,0.0 -49.7564889,-27.1879103992318,0.0 -49.7564597,-27.1878539992318,0.0 -49.7564111,-27.1877936992318,0.0 -49.7563605,-27.1877430992318,0.0 -49.7563022,-27.1876983992318,0.0 -49.7562441,-27.1876631992318,0.0 -49.756238,-27.1876594992318,0.0 -49.756098,-27.1875194992318,0.0 -49.7559269,-27.1872705992318,0.0 -49.7557714,-27.1870217992318,0.0 -49.7557247,-27.1869322992318,0.0 -49.7556761,-27.1868253992318,0.0 -49.7556119,-27.1867358992318,0.0 -49.7555808,-27.1866464992319,0.0 -49.7555633,-27.1865725992319,0.0 -49.7555614,-27.1864986992319,0.0 -49.7555614,-27.1864247992318,0.0 -49.7555575,-27.1863158992319,0.0 -49.7555282,-27.1861965992319,0.0 -49.7555225,-27.1861734992319,0.0 -49.7555118,-27.1861501992319,0.0 -49.7554894,-27.1861190992319,0.0 -49.755471,-27.1860976992319,0.0 -49.7554447,-27.1860703992319,0.0 -49.7554185,-27.1860454992319,0.0 -49.7554029,-27.1860305992319,0.0 -49.7553524,-27.1859984992319,0.0 -49.7553076,-27.1859654992319,0.0 -49.7552775,-27.1859430992319,0.0 -49.7551336,-27.1858458992319,0.0 -49.7549508,-27.1857408992319,0.0 -49.7548031,-27.1856319992319,0.0 -49.7547253,-27.1854997992319,0.0 -49.7547136,-27.1854219992319,0.0 -49.7546942,-27.1852858992319,0.0 -49.7546786,-27.1851808992319,0.0 -49.7546747,-27.1850486992319,0.0 -49.7546592,-27.1849241992319,0.0 -49.7546592,-27.1848036992319,0.0 -49.7546786,-27.1845469992319,0.0 -49.7546669,-27.1842475992319,0.0 -49.7546903,-27.1839286992319,0.0 -49.7546631,-27.1836952992319,0.0 -49.7546319,-27.1834269992319,0.0 -49.7545775,-27.1831936992319,0.0 -49.754527,-27.1830536992319,0.0 -49.7544764,-27.1829292992319,0.0 -49.7543908,-27.1827930992319,0.0 -49.7542897,-27.1826258992319,0.0 -49.7541536,-27.1824392992319,0.0 -49.7540175,-27.1822953992319,0.0 -49.7537988,-27.1820114992319,0.0 -49.753686,-27.181754799232,0.0 -49.7534954,-27.181307599232,0.0 -49.7534099,-27.180990699232,0.0 -49.7533242,-27.180806299232,0.0 -49.7532427,-27.180687299232,0.0 -49.7531066,-27.180520099232,0.0 -49.7529627,-27.180360699232,0.0 -49.7528888,-27.180240099232,0.0 -49.7528693,-27.180162399232,0.0 -49.7528616,-27.180072899232,0.0 -49.7528654,-27.180014599232,0.0 -49.7528886,-27.179932299232,0.0 -49.7529004,-27.179890099232,0.0 -49.7529549,-27.179695699232,0.0 -49.753021,-27.179514899232,0.0 -49.7530988,-27.179227099232,0.0 -49.7531727,-27.178954899232,0.0 -49.7532582,-27.178659299232,0.0 -49.7533554,-27.178371499232,0.0 -49.753441,-27.178040999232,0.0 -49.7534643,-27.177900999232,0.0 -49.7534624,-27.177839699232,0.0 -49.7534527,-27.177777499232,0.0 -49.7534352,-27.177713399232,0.0 -49.7534206,-27.177665699232,0.0 -49.7533807,-27.177549999232,0.0 -49.7533438,-27.177442099232,0.0 -49.7532981,-27.177328399232,0.0 -49.7532572,-27.177238599232,0.0 -49.7531082,-27.176776799232,0.0 -49.7529592,-27.176389499232,0.0 -49.7524711,-27.1756851992321,0.0 -49.7521335,-27.1754061992321,0.0 -49.7516781,-27.1750934992321,0.0 -49.7516822,-27.1750935992321,0.0 -49.7545234,-27.1751381992321,0.0 -49.7545456,-27.1751276992321,0.0 -49.7545842,-27.1751253992321,0.0 -49.7547343,-27.1750870992321,0.0 -49.7548652,-27.1750103992321,0.0 -49.7550894,-27.1748700992321,0.0 -49.7553474,-27.1747517992321,0.0 -49.7555231,-27.1747581992321,0.0 -49.7556529,-27.1747965992321,0.0 -49.755686,-27.1748062992321,0.0 -49.7557498,-27.1748251992321,0.0 -49.7560053,-27.1749816992321,0.0 -49.7561024,-27.1750934992321,0.0 -49.7574232,-27.1751668992321,0.0 -49.7576914,-27.1751956992321,0.0 -49.7577553,-27.1752019992321,0.0 -49.7578894,-27.1753009992321,0.0 -49.7579597,-27.1754446992321,0.0 -49.7579649,-27.1755218992321,0.0 -49.7579794,-27.1757340992321,0.0 -49.7579565,-27.1757895992321,0.0 -49.7578209,-27.1759938992321,0.0 -49.7577968,-27.1761249992321,0.0 -49.7578,-27.1762334992321,0.0 -49.7578447,-27.1763037992321,0.0 -49.7579725,-27.176348499232,0.0 -49.7581992,-27.176348499232,0.0 -49.7582829,-27.176342599232,0.0 -49.7584259,-27.176332499232,0.0 -49.7585974,-27.176326899232,0.0 -49.7586207,-27.176326099232,0.0 -49.7586942,-27.176342099232,0.0 -49.7588027,-27.176399599232,0.0 -49.7589465,-27.176520899232,0.0 -49.7590423,-27.176623099232,0.0 -49.7591253,-27.176709399232,0.0 -49.759182,-27.176757999232,0.0 -49.7593041,-27.176862599232,0.0 -49.7594127,-27.176904199232,0.0 -49.7594988,-27.176910899232,0.0 -49.7595756,-27.176849899232,0.0 -49.7595899,-27.176787599232,0.0 -49.759534,-27.176700799232,0.0 -49.7595261,-27.176688599232,0.0 -49.759443,-27.176575199232,0.0 -49.7593808,-27.176442699232,0.0 -49.7593392,-27.176274999232,0.0 -49.7593057,-27.1760977992321,0.0 -49.7592706,-27.1759380992321,0.0 -49.759245,-27.1758822992321,0.0 -49.7592456,-27.1758234992321,0.0 -49.7592482,-27.1757863992321,0.0 -49.7592834,-27.175778499232,0.0 -49.7593808,-27.175823199232,0.0 -49.7594909,-27.1759636992321,0.0 -49.7596059,-27.1760977992321,0.0 -49.7596776,-27.176195899232,0.0 -49.7597783,-27.176222399232,0.0 -49.759847,-27.176227099232,0.0 -49.7600258,-27.1762574992321,0.0 -49.7601695,-27.176252699232,0.0 -49.7602701,-27.1761999992321,0.0 -49.7602765,-27.1761312992321,0.0 -49.7602238,-27.1760722992321,0.0 -49.7601392,-27.1760003992321,0.0 -49.7600658,-27.1759189992321,0.0 -49.7600003,-27.1758247992321,0.0 -49.7599173,-27.1757113992321,0.0 -49.7598071,-27.1756219992321,0.0 -49.759764,-27.1755181992321,0.0 -49.7597272,-27.1753808992321,0.0 -49.7597113,-27.1752467992321,0.0 -49.7596881,-27.1751751992321,0.0 -49.7596714,-27.1751237992321,0.0 -49.7596666,-27.1750455992321,0.0 -49.7597049,-27.1749561992321,0.0 -49.7597513,-27.1748589992321,0.0 -49.7598116,-27.1745572992321,0.0 -49.7597818,-27.1742294992321,0.0 -49.7597145,-27.1739373992321,0.0 -49.759641,-27.1737378992321,0.0 -49.7596362,-27.1736531992321,0.0 -49.7596809,-27.1735733992321,0.0 -49.7597666,-27.1735146992321,0.0 -49.756511,-27.1577020992324,0.0 -49.7562815,-27.1564784992324,0.0 -49.7562544,-27.1563428992324,0.0 -49.7562253,-27.1561975992324,0.0 -49.756212,-27.1559866992324,0.0 -49.7562082,-27.1557826992324,0.0 -49.7561949,-27.1556706992324,0.0 -49.7561924,-27.1556499992324,0.0 -49.7561347,-27.1555237992324,0.0 -49.756001,-27.1554073992325,0.0 -49.75578,-27.1552767992324,0.0 -49.7555122,-27.1550847992325,0.0 -49.7554221,-27.1549821992324,0.0 -49.7552681,-27.1547959992325,0.0 -49.7552241,-27.1546629992325,0.0 -49.7551933,-27.1544673992325,0.0 -49.755189,-27.1539046992325,0.0 -49.7551434,-27.1530748992325,0.0 -49.7551054,-27.1527301992325,0.0 -49.7550493,-27.1526250992325,0.0 -49.7550068,-27.1525745992325,0.0 -49.7549119,-27.1525162992325,0.0 -49.7548197,-27.1524712992325,0.0 -49.7546816,-27.1524428992325,0.0 -49.7545489,-27.1524296992325,0.0 -49.7544712,-27.1524300992325,0.0 -49.7544001,-27.1524380992325,0.0 -49.754297,-27.1524575992325,0.0 -49.7542005,-27.1524780992325,0.0 -49.7541171,-27.1524976992325,0.0 -49.7540487,-27.1525115992325,0.0 -49.7539738,-27.1525144992325,0.0 -49.7538476,-27.1525045992325,0.0 -49.7537398,-27.1524872992325,0.0 -49.7535675,-27.1524594992325,0.0 -49.7532323,-27.1523931992325,0.0 -49.7530055,-27.1523374992325,0.0 -49.7527548,-27.1522430992325,0.0 -49.7526618,-27.1521896992325,0.0 -49.7525913,-27.1521493992325,0.0 -49.7525687,-27.1521363992325,0.0 -49.7524944,-27.1520773992325,0.0 -49.752416,-27.1519662992325,0.0 -49.7523338,-27.1518551992325,0.0 -49.7522794,-27.1517668992325,0.0 -49.752238,-27.1516911992325,0.0 -49.7521767,-27.1516430992325,0.0 -49.7521043,-27.1515898992325,0.0 -49.7519955,-27.1515147992325,0.0 -49.7519411,-27.1514289992325,0.0 -49.7518991,-27.1513272992325,0.0 -49.7518912,-27.1512810992325,0.0 -49.751119,-27.1510452992325,0.0 -49.7505288,-27.1508848992325,0.0 -49.7504116,-27.1508441992325,0.0 -49.7503294,-27.1508155992325,0.0 -49.7500001,-27.1506865992325,0.0 -49.749716,-27.1505392992325,0.0 -49.7492979,-27.1503022992325,0.0 -49.7489849,-27.1501332992326,0.0 -49.748695,-27.1499547992325,0.0 -49.7485554,-27.1498687992326,0.0 -49.7481722,-27.1496278992326,0.0 -49.7481147,-27.1495917992326,0.0 -49.7478399,-27.1494183992326,0.0 -49.7476917,-27.1493059992326,0.0 -49.7476276,-27.1492733992326,0.0 -49.7475753,-27.1492589992326,0.0 -49.7475669,-27.1492571992326,0.0 -49.747488,-27.1492405992326,0.0 -49.7473974,-27.1492230992326,0.0 -49.7473382,-27.1492153992326,0.0 -49.747257,-27.1492069992326,0.0 -49.7472029,-27.1492058992326,0.0 -49.746977,-27.1492318992326,0.0 -49.7468615,-27.1492477992326,0.0 -49.7468173,-27.1492575992326,0.0 -49.7465714,-27.1490222992326,0.0 -49.7461115,-27.1486262992326,0.0 -49.7456069,-27.1480706992326,0.0 -49.7447511,-27.1473105992326,0.0 -49.7440422,-27.1469209992326,0.0 -49.7433021,-27.1465108992326,0.0 -49.742816,-27.1460038992326,0.0 -49.7426499,-27.1455224992326,0.0 -49.7424432,-27.1457801992326,0.0 -49.7419281,-27.1464228992326,0.0 -49.7416187,-27.1469458992326,0.0 -49.7413076,-27.1472958992326,0.0 -49.7409187,-27.1475836992326,0.0 -49.7403899,-27.1477936992326,0.0 -49.7397988,-27.1478481992326,0.0 -49.7390365,-27.1476847992326,0.0 -49.7387721,-27.1475574992326,0.0 -49.7386165,-27.1474825992326,0.0 -49.7383132,-27.1473581992326,0.0 -49.7380488,-27.1472958992326,0.0 -49.737761,-27.1472803992326,0.0 -49.7374499,-27.1473969992326,0.0 -49.7373099,-27.1475136992326,0.0 -49.7371077,-27.1478558992326,0.0 -49.736993,-27.1481105992326,0.0 -49.7369035,-27.1482233992326,0.0 -49.7368666,-27.1482603992326,0.0 -49.736797,-27.1483619992326,0.0 -49.7367441,-27.1484392992326,0.0 -49.7366255,-27.1485655992326,0.0 -49.7364213,-27.1486783992326,0.0 -49.7363163,-27.1487094992326,0.0 -49.7361141,-27.1487386992326,0.0 -49.7359624,-27.1487425992326,0.0 -49.735838,-27.1487308992326,0.0 -49.7357447,-27.1487016992326,0.0 -49.7350814,-27.1485496992326,0.0 -49.7345129,-27.1483260992326,0.0 -49.7339253,-27.1482366992326,0.0 -49.7334026,-27.1480580992326,0.0 -49.7331887,-27.1479686992326,0.0 -49.7329709,-27.1478228992326,0.0 -49.7327396,-27.1476497992326,0.0 -49.7325685,-27.1474961992326,0.0 -49.7324139,-27.1473756992326,0.0 -49.7321339,-27.1471889992326,0.0 -49.731955,-27.1470917992326,0.0 -49.7317139,-27.1469556992326,0.0 -49.731605,-27.1469089992326,0.0 -49.7314456,-27.1468506992326,0.0 -49.7311578,-27.1467922992326,0.0 -49.7307533,-27.1467572992326,0.0 -49.7300203,-27.1466231992326,0.0 -49.729612,-27.1465511992326,0.0 -49.7294739,-27.1465281992326,0.0 -49.7294136,-27.1465181992326,0.0 -49.7292581,-27.1464870992326,0.0 -49.7290967,-27.1464442992326,0.0 -49.7289917,-27.1463956992326,0.0 -49.7288517,-27.1463236992326,0.0 -49.7287331,-27.1462439992326,0.0 -49.7286315,-27.1461671992326,0.0 -49.7278259,-27.1455350992326,0.0 -49.7274104,-27.1452192992326,0.0 -49.727006,-27.1449548992326,0.0 -49.7267045,-27.1448585992327,0.0</coordinates>
</LinearRing>
</outerBoundaryIs>
</Polygon>
</MultiGeometry>
</Placemark>
</Folder>
</Document></kml>
