<?xml version='1.0' encoding='UTF-8'?>
<kml xmlns:xsd="http://www.w3.org/2001/XMLSchema" xmlns:gx="http://www.google.com/kml/ext/2.2" xmlns:atom="http://www.w3.org/2005/Atom" xmlns="http://www.opengis.net/kml/2.2">
<Document>
<name>marema_4210555_localidades_2022</name>
<visibility>1</visibility>
<Schema name="01. Cidade" id="kml_schema_ft_01._Cidade">
<SimpleField type="xsd:string" name="CD_UF">
<displayName>CD_UF</displayName>
</SimpleField>
<SimpleField type="xsd:string" name="NM_UF">
<displayName>NM_UF</displayName>
</SimpleField>
<SimpleField type="xsd:string" name="SIGLA_UF">
<displayName>SIGLA_UF</displayName>
</SimpleField>
<SimpleField type="xsd:string" name="CD_MUN">
<displayName>CD_MUN</displayName>
</SimpleField>
<SimpleField type="xsd:string" name="NM_MUN">
<displayName>NM_MUN</displayName>
</SimpleField>
<SimpleField type="xsd:string" name="CD_RGINT">
<displayName>CD_RGINT</displayName>
</SimpleField>
<SimpleField type="xsd:string" name="NM_RGINT">
<displayName>NM_RGINT</displayName>
</SimpleField>
<SimpleField type="xsd:string" name="CD_RGI">
<displayName>CD_RGI</displayName>
</SimpleField>
<SimpleField type="xsd:string" name="NM_RGI">
<displayName>NM_RGI</displayName>
</SimpleField>
<SimpleField type="xsd:string" name="CT_LOCALIDADE">
<displayName>CT_LOCALIDADE</displayName>
</SimpleField>
<SimpleField type="xsd:string" name="SCT_LOCALIDADE">
<displayName>SCT_LOCALIDADE</displayName>
</SimpleField>
<SimpleField type="xsd:string" name="CD_LOCALIDADE">
<displayName>CD_LOCALIDADE</displayName>
</SimpleField>
<SimpleField type="xsd:string" name="NM_LOCALIDADE">
<displayName>NM_LOCALIDADE</displayName>
</SimpleField>
<SimpleField type="xsd:string" name="LAT_LOCALIDADE">
<displayName>LAT_LOCALIDADE</displayName>
</SimpleField>
<SimpleField type="xsd:string" name="LONG_LOCALIDADE">
<displayName>LONG_LOCALIDADE</displayName>
</SimpleField>
</Schema>
<Schema name="Terra Indígena" id="kml_schema_ft_Terra_Indígena">
<SimpleField type="xsd:string" name="COD_TI">
<displayName>COD_TI</displayName>
</SimpleField>
<SimpleField type="xsd:string" name="NOM_TI">
<displayName>NOM_TI</displayName>
</SimpleField>
</Schema>
<Schema name="Município" id="kml_schema_ft_Município">
<SimpleField type="xsd:string" name="CD_UF">
<displayName>CD_UF</displayName>
</SimpleField>
<SimpleField type="xsd:string" name="NM_UF">
<displayName>NM_UF</displayName>
</SimpleField>
<SimpleField type="xsd:string" name="CD_MUN">
<displayName>CD_MUN</displayName>
</SimpleField>
<SimpleField type="xsd:string" name="NM_MUN">
<displayName>NM_MUN</displayName>
</SimpleField>
<SimpleField type="xsd:string" name="CD_RGINT">
<displayName>CD_RGINT</displayName>
</SimpleField>
<SimpleField type="xsd:string" name="NM_RGINT">
<displayName>NM_RGINT</displayName>
</SimpleField>
<SimpleField type="xsd:string" name="CD_RGI">
<displayName>CD_RGI</displayName>
</SimpleField>
<SimpleField type="xsd:string" name="NM_RGI">
<displayName>NM_RGI</displayName>
</SimpleField>
</Schema>
<Folder id="01. Cidade">
<name>01. Cidade</name>
<Folder id="01.03. Sede Municipal">
<name>01.03. Sede Municipal</name>
<Placemark id="01.03. Sede Municipal">
<name>Marema [4210555]</name>
<visibility>1</visibility>
<snippet> </snippet>
<description>&lt;center&gt;&lt;table&gt;&lt;tr&gt;&lt;th colspan='2' align='center'&gt;&lt;em&gt;Atributos&lt;/em&gt;&lt;/th&gt;&lt;/tr&gt;&lt;tr bgcolor="#E3E3F3"&gt;
&lt;th&gt;CD_UF&lt;/th&gt;
&lt;td&gt;42&lt;/td&gt;
&lt;/tr&gt;&lt;tr bgcolor=""&gt;
&lt;th&gt;NM_UF&lt;/th&gt;
&lt;td&gt;Santa Catarina&lt;/td&gt;
&lt;/tr&gt;&lt;tr bgcolor="#E3E3F3"&gt;
&lt;th&gt;SIGLA_UF&lt;/th&gt;
&lt;td&gt;SC&lt;/td&gt;
&lt;/tr&gt;&lt;tr bgcolor=""&gt;
&lt;th&gt;CD_MUN&lt;/th&gt;
&lt;td&gt;4210555&lt;/td&gt;
&lt;/tr&gt;&lt;tr bgcolor="#E3E3F3"&gt;
&lt;th&gt;NM_MUN&lt;/th&gt;
&lt;td&gt;Marema&lt;/td&gt;
&lt;/tr&gt;&lt;tr bgcolor=""&gt;
&lt;th&gt;CD_RGINT&lt;/th&gt;
&lt;td&gt;4204&lt;/td&gt;
&lt;/tr&gt;&lt;tr bgcolor="#E3E3F3"&gt;
&lt;th&gt;NM_RGINT&lt;/th&gt;
&lt;td&gt;Chapecó&lt;/td&gt;
&lt;/tr&gt;&lt;tr bgcolor=""&gt;
&lt;th&gt;CD_RGI&lt;/th&gt;
&lt;td&gt;420007&lt;/td&gt;
&lt;/tr&gt;&lt;tr bgcolor="#E3E3F3"&gt;
&lt;th&gt;NM_RGI&lt;/th&gt;
&lt;td&gt;Chapecó&lt;/td&gt;
&lt;/tr&gt;&lt;tr bgcolor=""&gt;
&lt;th&gt;CT_LOCALIDADE&lt;/th&gt;
&lt;td&gt;Cidade&lt;/td&gt;
&lt;/tr&gt;&lt;tr bgcolor="#E3E3F3"&gt;
&lt;th&gt;SCT_LOCALIDADE&lt;/th&gt;
&lt;td&gt;Sede Municipal&lt;/td&gt;
&lt;/tr&gt;&lt;tr bgcolor=""&gt;
&lt;th&gt;CD_LOCALIDADE&lt;/th&gt;
&lt;td&gt;4210555&lt;/td&gt;
&lt;/tr&gt;&lt;tr bgcolor="#E3E3F3"&gt;
&lt;th&gt;NM_LOCALIDADE&lt;/th&gt;
&lt;td&gt;Marema&lt;/td&gt;
&lt;/tr&gt;&lt;tr bgcolor=""&gt;
&lt;th&gt;LAT_LOCALIDADE&lt;/th&gt;
&lt;td&gt;-26.8029&lt;/td&gt;
&lt;/tr&gt;&lt;tr bgcolor="#E3E3F3"&gt;
&lt;th&gt;LONG_LOCALIDADE&lt;/th&gt;
&lt;td&gt;-52.6255&lt;/td&gt;
&lt;/tr&gt;&lt;/table&gt;&lt;/center&gt;</description>
<Style>
<IconStyle>
<color>ff00aaff</color>
<scale>1.0</scale>
<Icon>
<href>http://maps.google.com/mapfiles/kml/shapes/placemark_circle.png</href>
</Icon>
</IconStyle>
<LabelStyle>
<scale>1.0</scale>
</LabelStyle>
<LineStyle>
<color>ffffffff</color>
<width>3</width>
<gx:labelVisibility>1</gx:labelVisibility>
</LineStyle>
<PolyStyle>
<color>00ffffff</color>
</PolyStyle>
</Style>
<ExtendedData>
<SchemaData schemaUrl="#kml_schema_ft_01._Cidade">
<SimpleData name="CD_UF">42</SimpleData>
<SimpleData name="NM_UF">Santa Catarina</SimpleData>
<SimpleData name="SIGLA_UF">SC</SimpleData>
<SimpleData name="CD_MUN">4210555</SimpleData>
<SimpleData name="NM_MUN">Marema</SimpleData>
<SimpleData name="CD_RGINT">4204</SimpleData>
<SimpleData name="NM_RGINT">Chapecó</SimpleData>
<SimpleData name="CD_RGI">420007</SimpleData>
<SimpleData name="NM_RGI">Chapecó</SimpleData>
<SimpleData name="CT_LOCALIDADE">Cidade</SimpleData>
<SimpleData name="SCT_LOCALIDADE">Sede Municipal</SimpleData>
<SimpleData name="CD_LOCALIDADE">4210555</SimpleData>
<SimpleData name="NM_LOCALIDADE">Marema</SimpleData>
<SimpleData name="LAT_LOCALIDADE">-26.8029</SimpleData>
<SimpleData name="LONG_LOCALIDADE">-52.6255</SimpleData>
</SchemaData>
</ExtendedData>
<Point>
<extrude>0</extrude>
<coordinates>-52.6255,-26.8028999992393,0.0</coordinates>
</Point>
</Placemark>
</Folder>
</Folder>
<Folder id="13. Referência">
<name>13. Referência</name>
<Placemark id="13. Referência">
<name>Marema [4210555]</name>
<visibility>1</visibility>
<snippet> </snippet>
<description>&lt;center&gt;&lt;table&gt;&lt;tr&gt;&lt;th colspan='2' align='center'&gt;&lt;em&gt;Attributes&lt;/em&gt;&lt;/th&gt;&lt;/tr&gt;&lt;tr bgcolor="#E3E3F3"&gt;
&lt;th&gt;CD_UF&lt;/th&gt;
&lt;td&gt;42&lt;/td&gt;
&lt;/tr&gt;&lt;tr bgcolor=""&gt;
&lt;th&gt;NM_UF&lt;/th&gt;
&lt;td&gt;Santa Catarina&lt;/td&gt;
&lt;/tr&gt;&lt;tr bgcolor="#E3E3F3"&gt;
&lt;th&gt;CD_MUN&lt;/th&gt;
&lt;td&gt;4210555&lt;/td&gt;
&lt;/tr&gt;&lt;tr bgcolor=""&gt;
&lt;th&gt;NM_MUN&lt;/th&gt;
&lt;td&gt;Marema&lt;/td&gt;
&lt;/tr&gt;&lt;tr bgcolor="#E3E3F3"&gt;
&lt;th&gt;CD_RGINT&lt;/th&gt;
&lt;td&gt;4204&lt;/td&gt;
&lt;/tr&gt;&lt;tr bgcolor=""&gt;
&lt;th&gt;NM_RGINT&lt;/th&gt;
&lt;td&gt;Chapecó&lt;/td&gt;
&lt;/tr&gt;&lt;tr bgcolor="#E3E3F3"&gt;
&lt;th&gt;CD_RGI&lt;/th&gt;
&lt;td&gt;420007&lt;/td&gt;
&lt;/tr&gt;&lt;tr bgcolor=""&gt;
&lt;th&gt;NM_RGI&lt;/th&gt;
&lt;td&gt;Chapecó&lt;/td&gt;
&lt;/tr&gt;&lt;/table&gt;&lt;/center&gt;</description>
<Style>
<IconStyle>
<scale>0.7</scale>
</IconStyle>
<LabelStyle>
<scale>0.7</scale>
</LabelStyle>
<LineStyle>
<color>ffffffff</color>
<width>3</width>
<gx:labelVisibility>1</gx:labelVisibility>
</LineStyle>
<PolyStyle>
<color>00ffffff</color>
</PolyStyle>
</Style>
<ExtendedData>
<SchemaData schemaUrl="#kml_schema_ft_Município">
<SimpleData name="CD_UF">42</SimpleData>
<SimpleData name="NM_UF">Santa Catarina</SimpleData>
<SimpleData name="CD_MUN">4210555</SimpleData>
<SimpleData name="NM_MUN">Marema</SimpleData>
<SimpleData name="CD_RGINT">4204</SimpleData>
<SimpleData name="NM_RGINT">Chapecó</SimpleData>
<SimpleData name="CD_RGI">420007</SimpleData>
<SimpleData name="NM_RGI">Chapecó</SimpleData>
</SchemaData>
</ExtendedData>
<MultiGeometry>
<Polygon>
<extrude>0</extrude>
<tessellate>1</tessellate>
<outerBoundaryIs>
<LinearRing>
<coordinates>-52.5909213,-26.7982025992393,0.0 -52.5905782,-26.7985061992393,0.0 -52.5890236,-26.7994791992393,0.0 -52.5868411,-26.8006531992393,0.0 -52.585848,-26.8011384992393,0.0 -52.5850942,-26.8013957992393,0.0 -52.5843975,-26.8015102992393,0.0 -52.5836866,-26.8014633992393,0.0 -52.5832003,-26.8013380992393,0.0 -52.5829466,-26.8011544992393,0.0 -52.5824023,-26.8005742992393,0.0 -52.5816962,-26.7995803992393,0.0 -52.5814857,-26.7990360992393,0.0 -52.581442,-26.7985936992393,0.0 -52.5814654,-26.7979160992393,0.0 -52.5815144,-26.7977215992394,0.0 -52.581532,-26.7974619992394,0.0 -52.5815042,-26.7972982992394,0.0 -52.5814694,-26.7969569992394,0.0 -52.5814593,-26.7961316992394,0.0 -52.5813719,-26.7958088992394,0.0 -52.5811666,-26.7955138992394,0.0 -52.5808324,-26.7953158992394,0.0 -52.5803992,-26.7952466992394,0.0 -52.5801769,-26.7952533992394,0.0 -52.5800091,-26.7952584992394,0.0 -52.5793271,-26.7954857992394,0.0 -52.5780129,-26.7957956992394,0.0 -52.5775731,-26.7959953992394,0.0 -52.5771623,-26.7963164992394,0.0 -52.5763582,-26.7968069992394,0.0 -52.575406,-26.7973127992394,0.0 -52.5747419,-26.7975454992394,0.0 -52.5737893,-26.7977236992394,0.0 -52.5730032,-26.7977998992394,0.0 -52.5725021,-26.7977773992394,0.0 -52.5718855,-26.7976326992394,0.0 -52.5712734,-26.7974875992394,0.0 -52.5707846,-26.7973210992394,0.0 -52.5704323,-26.7972011992394,0.0 -52.5698931,-26.7968065992394,0.0 -52.5693965,-26.7961214992394,0.0 -52.5690249,-26.7953927992394,0.0 -52.5685354,-26.7945681992394,0.0 -52.5680494,-26.7938012992394,0.0 -52.567651,-26.7932606992394,0.0 -52.567482,-26.7930430992394,0.0 -52.5673259,-26.7929168992395,0.0 -52.5666389,-26.7923874992395,0.0 -52.56634,-26.7921255992395,0.0 -52.5661986,-26.7920095992395,0.0 -52.5660115,-26.7919619992395,0.0 -52.5657744,-26.7918784992395,0.0 -52.5654928,-26.7917397992395,0.0 -52.5653754,-26.7916911992395,0.0 -52.5653124,-26.7916672992395,0.0 -52.5649342,-26.7916140992395,0.0 -52.5646773,-26.7916203992395,0.0 -52.5642844,-26.7916669992395,0.0 -52.5640219,-26.7917577992395,0.0 -52.5637401,-26.7918976992395,0.0 -52.5634293,-26.7919402992395,0.0 -52.5632972,-26.7919474992395,0.0 -52.5630684,-26.7919813992395,0.0 -52.5625,-26.7920728992395,0.0 -52.5617823,-26.7924334992395,0.0 -52.5614124,-26.7926785992395,0.0 -52.5611171,-26.7929132992394,0.0 -52.5609004,-26.7930789992395,0.0 -52.5605335,-26.7933362992394,0.0 -52.5603922,-26.7934459992394,0.0 -52.5602974,-26.7935486992394,0.0 -52.5602301,-26.7936222992394,0.0 -52.5601355,-26.7936696992394,0.0 -52.5598013,-26.7938079992394,0.0 -52.5593065,-26.7940522992394,0.0 -52.5586489,-26.7943044992394,0.0 -52.5584797,-26.7943693992394,0.0 -52.5578079,-26.7945221992394,0.0 -52.5570372,-26.7945916992394,0.0 -52.5558938,-26.7946556992394,0.0 -52.5550825,-26.7946384992394,0.0 -52.5544299,-26.7945485992394,0.0 -52.5540931,-26.7945559992394,0.0 -52.553612,-26.7946582992394,0.0 -52.5526793,-26.7947618992394,0.0 -52.5518692,-26.7948341992394,0.0 -52.5514412,-26.7948002992394,0.0 -52.5512093,-26.7947825992394,0.0 -52.5509528,-26.7947725992394,0.0 -52.5506274,-26.7948063992394,0.0 -52.5504991,-26.7948403992394,0.0 -52.5503967,-26.7949129992394,0.0 -52.5502637,-26.7950055992394,0.0 -52.5500884,-26.7950513992394,0.0 -52.5497535,-26.7951195992394,0.0 -52.5495276,-26.7952092992394,0.0 -52.549386,-26.7953646992394,0.0 -52.5492786,-26.7956484992394,0.0 -52.5493387,-26.7959738992394,0.0 -52.5494262,-26.7962763992394,0.0 -52.5495048,-26.7964520992394,0.0 -52.5497035,-26.7968967992394,0.0 -52.5501978,-26.7973629992394,0.0 -52.5503755,-26.7974862992394,0.0 -52.550581,-26.7978214992394,0.0 -52.5508901,-26.7982537992393,0.0 -52.5510876,-26.7987742992393,0.0 -52.5511661,-26.7991515992393,0.0 -52.5512122,-26.7993181992393,0.0 -52.5512614,-26.7994453992393,0.0 -52.5512635,-26.7995992992393,0.0 -52.5512201,-26.8001548992393,0.0 -52.5510928,-26.8004641992393,0.0 -52.550891,-26.8007133992393,0.0 -52.5507165,-26.8008537992393,0.0 -52.5507215,-26.8011599992393,0.0 -52.550722,-26.8011878992393,0.0 -52.5507219,-26.8012136992393,0.0 -52.5507255,-26.8012348992393,0.0 -52.5507308,-26.8012519992393,0.0 -52.5507446,-26.8012691992393,0.0 -52.5507944,-26.8012962992393,0.0 -52.5508956,-26.8013308992393,0.0 -52.5509669,-26.8013446992393,0.0 -52.5512,-26.8013896992393,0.0 -52.5515476,-26.8014765992393,0.0 -52.5519012,-26.8015381992393,0.0 -52.5521581,-26.8016141992393,0.0 -52.5525229,-26.8017043992393,0.0 -52.5529338,-26.8018011992393,0.0 -52.5535913,-26.8019008992393,0.0 -52.5540044,-26.8019626992393,0.0 -52.5541557,-26.8019969992393,0.0 -52.5543361,-26.8020662992393,0.0 -52.554399,-26.8020974992393,0.0 -52.5544619,-26.8021286992393,0.0 -52.5546521,-26.8021905992393,0.0 -52.5548953,-26.8021935992393,0.0 -52.5552611,-26.8021475992393,0.0 -52.5556643,-26.8021153992393,0.0 -52.5558153,-26.8021357992393,0.0 -52.5558852,-26.8021771992393,0.0 -52.5559275,-26.8022373992393,0.0 -52.5559459,-26.8022635992393,0.0 -52.5559741,-26.8023706992393,0.0 -52.555984,-26.8024897992393,0.0 -52.5559682,-26.8026312992393,0.0 -52.5559456,-26.8027570992393,0.0 -52.5559486,-26.8028462992393,0.0 -52.5559727,-26.8029530992393,0.0 -52.5560123,-26.8030296992393,0.0 -52.5560723,-26.8031254992393,0.0 -52.5561325,-26.8032101992392,0.0 -52.5561607,-26.8032501992392,0.0 -52.5561869,-26.8032896992392,0.0 -52.5561905,-26.8032951992393,0.0 -52.5562472,-26.8033739992393,0.0 -52.5563163,-26.8034675992392,0.0 -52.5563641,-26.8035264992392,0.0 -52.5564349,-26.8036298992392,0.0 -52.556501,-26.8037385992392,0.0 -52.5565643,-26.8038778992392,0.0 -52.556596,-26.8039650992392,0.0 -52.5566203,-26.8040630992392,0.0 -52.5566532,-26.8043518992392,0.0 -52.5566689,-26.8044314992392,0.0 -52.5567412,-26.8046147992392,0.0 -52.5568052,-26.8047542992392,0.0 -52.5568337,-26.8048451992392,0.0 -52.5568391,-26.8049009992392,0.0 -52.5568199,-26.8049570992392,0.0 -52.5567834,-26.8050115992392,0.0 -52.5567285,-26.8050865992392,0.0 -52.5566337,-26.8052838992392,0.0 -52.5566165,-26.8053549992392,0.0 -52.5566145,-26.8054326992392,0.0 -52.556622,-26.8055340992392,0.0 -52.5566332,-26.8056114992392,0.0 -52.5566364,-26.8056653992392,0.0 -52.5566148,-26.8057635992392,0.0 -52.5565762,-26.8058702992392,0.0 -52.5565579,-26.8059151992392,0.0 -52.5565155,-26.8060194992392,0.0 -52.5564913,-26.8061141992392,0.0 -52.5564707,-26.8062830992392,0.0 -52.5564749,-26.8063875992392,0.0 -52.556484,-26.8064515992392,0.0 -52.556536,-26.8065669992392,0.0 -52.5565771,-26.8066807992392,0.0 -52.5565884,-26.8067460992392,0.0 -52.5565738,-26.8068507992392,0.0 -52.55655,-26.8069623992392,0.0 -52.5565498,-26.8069810992392,0.0 -52.5565495,-26.8070230992392,0.0 -52.556569,-26.8071151992392,0.0 -52.5565757,-26.8071622992392,0.0 -52.5565796,-26.8073307992392,0.0 -52.5565991,-26.8074416992392,0.0 -52.5566249,-26.8075019992392,0.0 -52.5566878,-26.8076156992392,0.0 -52.5567898,-26.8077772992392,0.0 -52.5568686,-26.8079277992392,0.0 -52.5569193,-26.8080045992392,0.0 -52.5569984,-26.8080842992392,0.0 -52.5570437,-26.8081246992392,0.0 -52.5571137,-26.8081870992392,0.0 -52.5571661,-26.8082357992391,0.0 -52.5571917,-26.8082825992391,0.0 -52.5572065,-26.8083440992392,0.0 -52.5572154,-26.8084045992391,0.0 -52.5572292,-26.8084279992392,0.0 -52.5572693,-26.8084576992391,0.0 -52.5573097,-26.8084940992391,0.0 -52.5573546,-26.8085641992391,0.0 -52.5573919,-26.8086343992391,0.0 -52.5574111,-26.8086508992391,0.0 -52.5574757,-26.8086801992391,0.0 -52.5575459,-26.8087060992391,0.0 -52.557571,-26.8087326992391,0.0 -52.5575829,-26.8087593992391,0.0 -52.5575859,-26.8088064992391,0.0 -52.557595,-26.8088737992391,0.0 -52.5576189,-26.8089339992391,0.0 -52.5576788,-26.8090037992391,0.0 -52.5577286,-26.8090400992391,0.0 -52.5578387,-26.8090888992391,0.0 -52.557873,-26.8091085992391,0.0 -52.5579233,-26.8091659992391,0.0 -52.558021,-26.8093085992391,0.0 -52.5580533,-26.8093388992391,0.0 -52.5581274,-26.8093825992391,0.0 -52.5581805,-26.8094026992391,0.0 -52.558209,-26.8094228992391,0.0 -52.5582452,-26.8094633992391,0.0 -52.5582909,-26.8095139992391,0.0 -52.5583327,-26.8095475992391,0.0 -52.5583916,-26.8095812992391,0.0 -52.5585302,-26.8096652992391,0.0 -52.5586612,-26.8097603992391,0.0 -52.5586827,-26.8097723992391,0.0 -52.5586972,-26.8097804992391,0.0 -52.5587144,-26.8098007992391,0.0 -52.5587411,-26.8098547992391,0.0 -52.5587697,-26.8098951992391,0.0 -52.5588381,-26.8099625992391,0.0 -52.5588686,-26.8099928992391,0.0 -52.55888,-26.8100131992391,0.0 -52.5588878,-26.8100502992391,0.0 -52.55889,-26.8101212992391,0.0 -52.5588771,-26.8102058992391,0.0 -52.5588659,-26.8102362992391,0.0 -52.5588153,-26.8103480992391,0.0 -52.5587684,-26.8104429992391,0.0 -52.5587385,-26.8105343992391,0.0 -52.5587386,-26.8105681992391,0.0 -52.558756,-26.8106458992391,0.0 -52.5587639,-26.8107134992391,0.0 -52.5587585,-26.8107676992391,0.0 -52.5587209,-26.8108697992391,0.0 -52.5586348,-26.8110899992391,0.0 -52.5586311,-26.8111102992391,0.0 -52.5586407,-26.8111305992391,0.0 -52.5586806,-26.8111607992391,0.0 -52.5587205,-26.8111876992391,0.0 -52.5587357,-26.8112113992391,0.0 -52.5587415,-26.8112383992391,0.0 -52.5587496,-26.8113363992391,0.0 -52.558746,-26.8113905992391,0.0 -52.5587273,-26.8114345992391,0.0 -52.5587123,-26.8114718992391,0.0 -52.5587125,-26.8115192992391,0.0 -52.5587012,-26.8115429992391,0.0 -52.5586673,-26.8115769992391,0.0 -52.5586523,-26.8116141992391,0.0 -52.5586451,-26.8116818992391,0.0 -52.5586323,-26.8117935992391,0.0 -52.5586193,-26.8118511992391,0.0 -52.5585855,-26.8119257992391,0.0 -52.5584952,-26.8120892992391,0.0 -52.5584832,-26.8121139992391,0.0 -52.558469,-26.8121434992391,0.0 -52.5584409,-26.8122606992391,0.0 -52.5579996,-26.8131785992391,0.0 -52.5575097,-26.814583399239,0.0 -52.5574065,-26.816089899239,0.0 -52.5573437,-26.817403299239,0.0 -52.5572516,-26.8187441992389,0.0 -52.5570504,-26.8198865992389,0.0 -52.5570443,-26.8205910992389,0.0 -52.5569283,-26.8215112992389,0.0 -52.5569414,-26.8218740992389,0.0 -52.5569545,-26.8222368992389,0.0 -52.5570802,-26.8232842992389,0.0 -52.5573854,-26.8241640992388,0.0 -52.5576767,-26.8247403992388,0.0 -52.557949,-26.8255290992388,0.0 -52.557742,-26.8262976992388,0.0 -52.5570065,-26.8268882992388,0.0 -52.5565226,-26.8273902992388,0.0 -52.5563951,-26.8282153992388,0.0 -52.5565353,-26.8289212992388,0.0 -52.5567801,-26.8292786992387,0.0 -52.5574961,-26.8302655992387,0.0 -52.5577391,-26.8307137992387,0.0 -52.5578849,-26.8315209992387,0.0 -52.5577556,-26.8324750992387,0.0 -52.5573352,-26.8330607992387,0.0 -52.5565449,-26.8337107992387,0.0 -52.5554533,-26.8347913992386,0.0 -52.5548826,-26.8354966992386,0.0 -52.5544093,-26.8361357992386,0.0 -52.5541331,-26.8368835992386,0.0 -52.5539225,-26.8376990992386,0.0 -52.5542664,-26.8385718992386,0.0 -52.5545861,-26.8394043992385,0.0 -52.5543473,-26.8400029992385,0.0 -52.5533599,-26.8404592992385,0.0 -52.5528423,-26.8409021992385,0.0 -52.5528304,-26.8415088992385,0.0 -52.553421,-26.8425103992385,0.0 -52.5537565,-26.8430834992385,0.0 -52.5541631,-26.8438326992385,0.0 -52.5546376,-26.8443394992384,0.0 -52.5554915,-26.8448711992384,0.0 -52.5563739,-26.8451547992384,0.0 -52.5576543,-26.8455658992384,0.0 -52.5587645,-26.8457842992384,0.0 -52.5596111,-26.8457279992384,0.0 -52.5606042,-26.8455298992384,0.0 -52.561629,-26.8451988992384,0.0 -52.5625376,-26.8450396992384,0.0 -52.5632598,-26.8442967992384,0.0 -52.5641492,-26.8438480992385,0.0 -52.5655161,-26.8439362992385,0.0 -52.5672962,-26.8443912992384,0.0 -52.5677472,-26.8446043992384,0.0 -52.5686978,-26.8450537992384,0.0 -52.5691714,-26.8447441992384,0.0 -52.569645,-26.8444346992385,0.0 -52.5698863,-26.8435249992385,0.0 -52.570194,-26.8425154992385,0.0 -52.5702757,-26.8422390992385,0.0 -52.5704253,-26.8417330992385,0.0 -52.5704793,-26.8416323992385,0.0 -52.5707646,-26.8411009992385,0.0 -52.5712936,-26.8401314992385,0.0 -52.5719129,-26.8388382992386,0.0 -52.5723829,-26.8380093992386,0.0 -52.5725279,-26.8374399992386,0.0 -52.5721035,-26.8369204992386,0.0 -52.5716297,-26.8363218992386,0.0 -52.5718017,-26.8359092992386,0.0 -52.5725341,-26.8355105992386,0.0 -52.5730558,-26.8348322992386,0.0 -52.5737481,-26.8348564992386,0.0 -52.5743607,-26.8350965992386,0.0 -52.5749039,-26.8355992992386,0.0 -52.574908,-26.8356232992386,0.0 -52.5749264,-26.8357810992386,0.0 -52.5749374,-26.8358758992386,0.0 -52.5749405,-26.8358894992386,0.0 -52.5749554,-26.8359554992386,0.0 -52.5749816,-26.8360758992386,0.0 -52.574989,-26.8362095992386,0.0 -52.5750046,-26.8363303992386,0.0 -52.5750409,-26.8365068992386,0.0 -52.5751014,-26.8366531992386,0.0 -52.5751654,-26.8367715992386,0.0 -52.5752254,-26.8369128992386,0.0 -52.5752716,-26.8370247992386,0.0 -52.5753011,-26.8371029992386,0.0 -52.5753326,-26.8372245992386,0.0 -52.5753561,-26.8373913992386,0.0 -52.5753633,-26.8374856992386,0.0 -52.5753644,-26.8375496992386,0.0 -52.5753645,-26.8376219992386,0.0 -52.5753585,-26.8376793992386,0.0 -52.5753695,-26.8377709992386,0.0 -52.5753832,-26.8378834992386,0.0 -52.5753797,-26.8380877992386,0.0 -52.5753717,-26.8382057992386,0.0 -52.5753798,-26.8382991992386,0.0 -52.5754132,-26.8383910992386,0.0 -52.5754016,-26.8385214992386,0.0 -52.5753943,-26.8386255992386,0.0 -52.5753796,-26.8387175992386,0.0 -52.5753538,-26.8388400992386,0.0 -52.5753167,-26.8389568992385,0.0 -52.5752731,-26.8390405992386,0.0 -52.5751919,-26.8391649992386,0.0 -52.5751418,-26.8392461992386,0.0 -52.5751009,-26.8393598992385,0.0 -52.575082,-26.8394655992385,0.0 -52.5750505,-26.8397105992385,0.0 -52.5750324,-26.8398518992385,0.0 -52.5750342,-26.8399004992385,0.0 -52.5750359,-26.8399489992385,0.0 -52.5750524,-26.8400757992385,0.0 -52.5750978,-26.8401462992385,0.0 -52.5751169,-26.8401769992385,0.0 -52.5751396,-26.8402134992385,0.0 -52.5751601,-26.8402468992385,0.0 -52.575207,-26.8402946992385,0.0 -52.5752534,-26.8403472992385,0.0 -52.5752738,-26.8404025992385,0.0 -52.5752615,-26.8404454992385,0.0 -52.5752349,-26.8404679992385,0.0 -52.5751895,-26.8404847992385,0.0 -52.5751735,-26.8405242992385,0.0 -52.5751723,-26.8405556992385,0.0 -52.5751859,-26.8406025992385,0.0 -52.5752033,-26.8406429992385,0.0 -52.5752581,-26.8406778992385,0.0 -52.5752762,-26.8406938992385,0.0 -52.5752831,-26.8407000992385,0.0 -52.5752802,-26.8407913992385,0.0 -52.5753051,-26.8408319992385,0.0 -52.575318,-26.8408904992385,0.0 -52.5753592,-26.8409997992385,0.0 -52.5753929,-26.8411155992385,0.0 -52.5753462,-26.8411907992385,0.0 -52.5752999,-26.8412376992385,0.0 -52.5752535,-26.8412879992385,0.0 -52.57526,-26.8413247992385,0.0 -52.5752666,-26.8413399992385,0.0 -52.5752552,-26.8413495992385,0.0 -52.5752398,-26.8413691992385,0.0 -52.5752893,-26.8414637992385,0.0 -52.5753076,-26.8415810992385,0.0 -52.5753173,-26.8416345992385,0.0 -52.5753203,-26.8416613992385,0.0 -52.5753422,-26.8416753992385,0.0 -52.5753648,-26.8416659992385,0.0 -52.5754147,-26.8416108992385,0.0 -52.575441,-26.8416015992385,0.0 -52.5754857,-26.8416029992385,0.0 -52.5755404,-26.8416295992385,0.0 -52.5755728,-26.8416589992385,0.0 -52.5756121,-26.8417200992385,0.0 -52.5756381,-26.8417553992385,0.0 -52.5756624,-26.8417882992385,0.0 -52.5756692,-26.8417920992385,0.0 -52.5757137,-26.8417966992385,0.0 -52.5758515,-26.8417925992385,0.0 -52.5758738,-26.8417965992385,0.0 -52.575921,-26.8418330992385,0.0 -52.5759283,-26.8418317992385,0.0 -52.5759811,-26.8418099992385,0.0 -52.5760523,-26.8417986992385,0.0 -52.5760931,-26.8418098992385,0.0 -52.5761508,-26.8418816992385,0.0 -52.5762207,-26.8419122992385,0.0 -52.5762793,-26.8419507992385,0.0 -52.57632,-26.8419652992385,0.0 -52.576349,-26.8419961992385,0.0 -52.5763815,-26.8420323992385,0.0 -52.5764218,-26.8420602992385,0.0 -52.5764412,-26.8420879992385,0.0 -52.5764577,-26.8421114992385,0.0 -52.5765525,-26.8421944992385,0.0 -52.5766254,-26.8422600992385,0.0 -52.5766689,-26.8423080992385,0.0 -52.5766867,-26.8423372992385,0.0 -52.5767004,-26.8423810992385,0.0 -52.5767142,-26.8424215992385,0.0 -52.5767465,-26.8424692992385,0.0 -52.5768057,-26.8424896992385,0.0 -52.5768521,-26.8425022992385,0.0 -52.5768614,-26.8425047992385,0.0 -52.5769282,-26.8425220992385,0.0 -52.5770835,-26.8425868992385,0.0 -52.5771164,-26.8426132992385,0.0 -52.5771268,-26.8426436992385,0.0 -52.5771146,-26.8426800992385,0.0 -52.5771918,-26.8427311992385,0.0 -52.577239,-26.8427846992385,0.0 -52.5772493,-26.8428184992385,0.0 -52.5772676,-26.8428343992385,0.0 -52.5772937,-26.8428385992385,0.0 -52.5772928,-26.8428719992385,0.0 -52.5772907,-26.8429454992385,0.0 -52.5772898,-26.8429809992385,0.0 -52.5773113,-26.8430150992385,0.0 -52.5773305,-26.8429988992385,0.0 -52.5773682,-26.8429900992385,0.0 -52.5773868,-26.8429939992385,0.0 -52.5774085,-26.8430267992385,0.0 -52.5774897,-26.8430693992385,0.0 -52.5775299,-26.8431148992385,0.0 -52.5775503,-26.8431891992385,0.0 -52.5775702,-26.8432801992385,0.0 -52.5775722,-26.8433459992385,0.0 -52.5775785,-26.8433896992385,0.0 -52.5776121,-26.8433940992385,0.0 -52.5776423,-26.8433882992385,0.0 -52.5776541,-26.8433685992385,0.0 -52.5776885,-26.8433461992385,0.0 -52.5777303,-26.8433273992385,0.0 -52.5777639,-26.8433350992385,0.0 -52.5777892,-26.8433659992385,0.0 -52.5777982,-26.8434466992385,0.0 -52.5778357,-26.8434532992385,0.0 -52.5779369,-26.8434597992385,0.0 -52.5780311,-26.8434547992385,0.0 -52.5780912,-26.8434565992385,0.0 -52.5781175,-26.8434540992385,0.0 -52.5781406,-26.8434346992385,0.0 -52.5781482,-26.8434315992385,0.0 -52.5781782,-26.8434324992385,0.0 -52.5782163,-26.8434135992385,0.0 -52.5782963,-26.8433879992385,0.0 -52.5783602,-26.8433865992385,0.0 -52.57842,-26.8433984992385,0.0 -52.57851,-26.8434200992385,0.0 -52.5786083,-26.8434127992385,0.0 -52.5786194,-26.8434023992385,0.0 -52.5787042,-26.8432997992385,0.0 -52.578729,-26.8432736992385,0.0 -52.5787861,-26.8432403992385,0.0 -52.5789052,-26.8431826992385,0.0 -52.578926,-26.8431725992385,0.0 -52.5789962,-26.8431177992385,0.0 -52.579064,-26.8430828992385,0.0 -52.5791374,-26.8430514992385,0.0 -52.5791715,-26.8430256992385,0.0 -52.579196,-26.8430129992385,0.0 -52.5792278,-26.8430071992385,0.0 -52.5792836,-26.8430120992385,0.0 -52.5794106,-26.8429955992385,0.0 -52.5794528,-26.8429750992385,0.0 -52.579472,-26.8429521992385,0.0 -52.5795026,-26.8429162992385,0.0 -52.579531,-26.8429002992385,0.0 -52.5795721,-26.8428947992385,0.0 -52.5796118,-26.8429043992385,0.0 -52.5796673,-26.8429225992385,0.0 -52.579698,-26.8429151992385,0.0 -52.5797076,-26.8429054992385,0.0 -52.5797367,-26.8428593992385,0.0 -52.5797732,-26.8428134992385,0.0 -52.5797923,-26.8427939992385,0.0 -52.5798187,-26.8427812992385,0.0 -52.5798466,-26.8427853992385,0.0 -52.5799475,-26.8428133992385,0.0 -52.5799887,-26.8428078992385,0.0 -52.5800865,-26.8427736992385,0.0 -52.5801327,-26.8427532992385,0.0 -52.5801403,-26.8427549992385,0.0 -52.5801494,-26.8427570992385,0.0 -52.5802024,-26.8428054992385,0.0 -52.5802348,-26.8428147992385,0.0 -52.5802626,-26.8428222992385,0.0 -52.5802778,-26.8428126992385,0.0 -52.5802856,-26.8427960992385,0.0 -52.5803105,-26.8427699992385,0.0 -52.5804675,-26.8426904992385,0.0 -52.5804867,-26.8426675992385,0.0 -52.5804913,-26.8426341992385,0.0 -52.5805005,-26.8425606992385,0.0 -52.5805073,-26.8425105992385,0.0 -52.5805208,-26.8424941992385,0.0 -52.5805859,-26.8424674992385,0.0 -52.580673,-26.8424420992385,0.0 -52.5808037,-26.8424106992385,0.0 -52.5809019,-26.8423697992385,0.0 -52.5810412,-26.8422949992385,0.0 -52.5811202,-26.8422418992385,0.0 -52.5811854,-26.8421797992385,0.0 -52.5812074,-26.8421587992385,0.0 -52.5812869,-26.8421239992385,0.0 -52.5813255,-26.8421084992385,0.0 -52.581392,-26.8420816992385,0.0 -52.5815378,-26.8419795992385,0.0 -52.5816559,-26.8419020992385,0.0 -52.581816,-26.8418308992385,0.0 -52.581948,-26.8417696992385,0.0 -52.5822762,-26.8416060992385,0.0 -52.5825929,-26.8414301992385,0.0 -52.5827436,-26.8413243992385,0.0 -52.5827595,-26.8413131992385,0.0 -52.5829123,-26.8412038992385,0.0 -52.5829767,-26.8411732992385,0.0 -52.583047,-26.8411480992385,0.0 -52.5831473,-26.8411304992385,0.0 -52.5832456,-26.8411161992385,0.0 -52.5834647,-26.8410983992385,0.0 -52.583679,-26.8410966992385,0.0 -52.5838276,-26.8411107992385,0.0 -52.5840674,-26.8411603992385,0.0 -52.5842246,-26.8411890992385,0.0 -52.584434,-26.8412290992385,0.0 -52.5844968,-26.8412410992385,0.0 -52.5847006,-26.8412526992385,0.0 -52.5848332,-26.8412440992385,0.0 -52.5849147,-26.8412354992385,0.0 -52.5849529,-26.8412229992385,0.0 -52.5849818,-26.8412033992385,0.0 -52.5850228,-26.8411569992385,0.0 -52.5850614,-26.8411274992385,0.0 -52.5851053,-26.8411150992385,0.0 -52.5851715,-26.8411201992385,0.0 -52.5853103,-26.8411774992385,0.0 -52.5854867,-26.8412508992385,0.0 -52.5856894,-26.8413410992385,0.0 -52.5857503,-26.8413421992385,0.0 -52.585805,-26.8413537992385,0.0 -52.5859706,-26.8414255992385,0.0 -52.5860139,-26.8414341992385,0.0 -52.58605,-26.8414412992385,0.0 -52.5861013,-26.8414426992385,0.0 -52.5861416,-26.8414267992385,0.0 -52.5862145,-26.8414041992385,0.0 -52.586299,-26.8413929992385,0.0 -52.5863839,-26.8413832992385,0.0 -52.5864292,-26.8413675992385,0.0 -52.5864939,-26.8413187992385,0.0 -52.5866134,-26.8412034992385,0.0 -52.586789,-26.8410596992385,0.0 -52.5869123,-26.8409576992385,0.0 -52.5870804,-26.8408452992385,0.0 -52.5871986,-26.8407828992385,0.0 -52.587344,-26.8407251992385,0.0 -52.5874372,-26.8407052992385,0.0 -52.5876115,-26.8406807992385,0.0 -52.5878037,-26.8406721992385,0.0 -52.5880622,-26.8406518992385,0.0 -52.588166,-26.8406267992385,0.0 -52.5882705,-26.8405921992385,0.0 -52.5883525,-26.8405502992385,0.0 -52.5884912,-26.8404568992385,0.0 -52.5886212,-26.8403787992385,0.0 -52.5886905,-26.8403547992385,0.0 -52.588787,-26.8403436992385,0.0 -52.5889188,-26.8403606992385,0.0 -52.5889897,-26.8403569992385,0.0 -52.5890315,-26.8403478992385,0.0 -52.5890887,-26.8403221992385,0.0 -52.5891637,-26.8402688992385,0.0 -52.5892777,-26.8401655992385,0.0 -52.589341,-26.8401264992385,0.0 -52.5894689,-26.8400753992385,0.0 -52.589569,-26.8400450992385,0.0 -52.5896712,-26.8400115992385,0.0 -52.5897095,-26.8399920992385,0.0 -52.5897366,-26.8399655992385,0.0 -52.5897757,-26.8399155992385,0.0 -52.5898203,-26.8398327992385,0.0 -52.5898534,-26.8397927992385,0.0 -52.589925,-26.8397458992385,0.0 -52.5901803,-26.8395796992385,0.0 -52.5902416,-26.8395505992385,0.0 -52.5903507,-26.8395124992385,0.0 -52.5904713,-26.8394878992385,0.0 -52.5905165,-26.8395487992385,0.0 -52.5905377,-26.8395772992385,0.0 -52.5905805,-26.8397008992385,0.0 -52.5906225,-26.8397966992385,0.0 -52.5906885,-26.8398971992385,0.0 -52.5907805,-26.8399998992385,0.0 -52.590806,-26.8400447992385,0.0 -52.5908321,-26.8400693992385,0.0 -52.5908508,-26.8400800992385,0.0 -52.5908992,-26.8400963992385,0.0 -52.5909788,-26.8401086992385,0.0 -52.5910548,-26.8401105992385,0.0 -52.5911571,-26.8401043992385,0.0 -52.5912638,-26.8400709992385,0.0 -52.5913782,-26.8400411992385,0.0 -52.5914656,-26.8400276992385,0.0 -52.5916135,-26.8400328992385,0.0 -52.5917609,-26.8400483992385,0.0 -52.5918795,-26.8400801992385,0.0 -52.5920678,-26.8401488992385,0.0 -52.5922062,-26.8402037992385,0.0 -52.5922153,-26.8402073992385,0.0 -52.5923181,-26.8402168992385,0.0 -52.5924026,-26.8401984992385,0.0 -52.5924797,-26.8401662992385,0.0 -52.5925495,-26.8401201992385,0.0 -52.5926899,-26.8399823992385,0.0 -52.5927533,-26.8398880992385,0.0 -52.5928158,-26.8398166992385,0.0 -52.5929526,-26.8396967992385,0.0 -52.5930842,-26.8396084992385,0.0 -52.5933335,-26.8394363992385,0.0 -52.5934454,-26.8394047992385,0.0 -52.5935689,-26.8394015992385,0.0 -52.5935796,-26.8394012992385,0.0 -52.5937014,-26.8394338992385,0.0 -52.5937347,-26.8394522992385,0.0 -52.5938187,-26.8394985992385,0.0 -52.5938667,-26.8395753992385,0.0 -52.5938989,-26.8396722992385,0.0 -52.5939405,-26.8398541992385,0.0 -52.5940202,-26.8402019992385,0.0 -52.5940449,-26.8402918992385,0.0 -52.5940892,-26.8403616992385,0.0 -52.5941628,-26.8404940992385,0.0 -52.5942001,-26.8405362992385,0.0 -52.5942772,-26.8406850992385,0.0 -52.5943296,-26.8407413992385,0.0 -52.5944279,-26.8408057992385,0.0 -52.5944807,-26.8408483992385,0.0 -52.5945306,-26.8408496992385,0.0 -52.5945885,-26.8408374992385,0.0 -52.594644,-26.8407960992385,0.0 -52.594681,-26.8407763992385,0.0 -52.5947181,-26.8407566992385,0.0 -52.5949731,-26.8407151992385,0.0 -52.595043,-26.8406894992385,0.0 -52.595253,-26.8406054992385,0.0 -52.5953617,-26.8405970992385,0.0 -52.595427,-26.8406055992385,0.0 -52.5955503,-26.8406350992385,0.0 -52.5956904,-26.8406845992385,0.0 -52.5957823,-26.8407383992385,0.0 -52.5958535,-26.8407847992385,0.0 -52.5958887,-26.8408267992385,0.0 -52.595903,-26.8408565992385,0.0 -52.5959069,-26.8408648992385,0.0 -52.5959135,-26.8409129992385,0.0 -52.595902,-26.8410084992385,0.0 -52.5959062,-26.8410803992385,0.0 -52.5959275,-26.8411850992385,0.0 -52.5959622,-26.8412544992385,0.0 -52.5960475,-26.8413525992385,0.0 -52.5961807,-26.8415273992385,0.0 -52.5962337,-26.8416070992385,0.0 -52.596318,-26.8417600992385,0.0 -52.5963474,-26.8418058992385,0.0 -52.5963947,-26.8418794992385,0.0 -52.5964553,-26.8419452992385,0.0 -52.596548,-26.8420045992385,0.0 -52.5966082,-26.8420370992385,0.0 -52.5966498,-26.8420553992385,0.0 -52.5967132,-26.8420624992385,0.0 -52.5968342,-26.8420505992385,0.0 -52.596934,-26.8420224992385,0.0 -52.597066,-26.8419852992385,0.0 -52.5971852,-26.8419473992385,0.0 -52.5972957,-26.8419076992385,0.0 -52.5974138,-26.8418749992385,0.0 -52.5975524,-26.8418271992385,0.0 -52.5976787,-26.8417774992385,0.0 -52.5977788,-26.8417458992385,0.0 -52.5979057,-26.8417184992385,0.0 -52.5980096,-26.8416937992385,0.0 -52.5981401,-26.8416766992385,0.0 -52.5981882,-26.8416729992385,0.0 -52.5982053,-26.8416715992385,0.0 -52.5982321,-26.8416723992385,0.0 -52.5983049,-26.8416743992385,0.0 -52.5983314,-26.8416853992385,0.0 -52.5983579,-26.8416998992385,0.0 -52.5983878,-26.8417350992385,0.0 -52.5984016,-26.8418042992385,0.0 -52.5984113,-26.8418871992385,0.0 -52.5984127,-26.8419578992385,0.0 -52.5984171,-26.8420699992385,0.0 -52.5984451,-26.8421517992385,0.0 -52.5984813,-26.8422097992385,0.0 -52.5986023,-26.8422889992385,0.0 -52.5986991,-26.8423506992385,0.0 -52.5989086,-26.8424579992385,0.0 -52.5990644,-26.8425312992385,0.0 -52.5991699,-26.8425913992385,0.0 -52.5992573,-26.8426351992385,0.0 -52.5993634,-26.8426711992385,0.0 -52.5994099,-26.8426762992385,0.0 -52.599474,-26.8426832992385,0.0 -52.5995812,-26.8427034992385,0.0 -52.5996458,-26.8427142992385,0.0 -52.5997222,-26.8427405992385,0.0 -52.5998321,-26.8428161992385,0.0 -52.5999043,-26.8428561992385,0.0 -52.6000031,-26.8429141992385,0.0 -52.6001053,-26.8429930992385,0.0 -52.6002113,-26.8430815992385,0.0 -52.6004825,-26.8433207992385,0.0 -52.6007705,-26.8435432992385,0.0 -52.6008163,-26.8435805992385,0.0 -52.6008586,-26.8436187992385,0.0 -52.600899,-26.8436623992385,0.0 -52.6009498,-26.8436980992385,0.0 -52.6009965,-26.8437177992385,0.0 -52.6010549,-26.8437283992385,0.0 -52.6011211,-26.8437369992385,0.0 -52.6012134,-26.8437374992385,0.0 -52.6012723,-26.8437348992385,0.0 -52.6013404,-26.8437310992385,0.0 -52.6014116,-26.8437397992385,0.0 -52.6015436,-26.8437611992385,0.0 -52.6016952,-26.8437876992385,0.0 -52.6018015,-26.8438004992385,0.0 -52.6019078,-26.8438115992385,0.0 -52.6020517,-26.8438363992385,0.0 -52.6021521,-26.8438439992385,0.0 -52.6023031,-26.8438443992385,0.0 -52.6024206,-26.8438379992385,0.0 -52.6024992,-26.8438327992385,0.0 -52.6025552,-26.8438290992385,0.0 -52.6026132,-26.8438198992385,0.0 -52.6025724,-26.8439321992385,0.0 -52.6025315,-26.8440445992385,0.0 -52.6025087,-26.8443615992385,0.0 -52.6025031,-26.8444414992384,0.0 -52.6024807,-26.8447621992384,0.0 -52.6024146,-26.8451553992384,0.0 -52.602318,-26.8458015992384,0.0 -52.6022768,-26.8460509992384,0.0 -52.6022656,-26.8461572992384,0.0 -52.6023067,-26.8463680992384,0.0 -52.6023906,-26.8466142992384,0.0 -52.6025275,-26.8468119992384,0.0 -52.6026645,-26.8469254992384,0.0 -52.6028565,-26.8471046992384,0.0 -52.6030255,-26.8473725992384,0.0 -52.6031871,-26.8475026992384,0.0 -52.6032652,-26.8475384992384,0.0 -52.6033513,-26.8475400992384,0.0 -52.6034159,-26.8475216992384,0.0 -52.6035012,-26.8474624992384,0.0 -52.6036057,-26.8474269992384,0.0 -52.6037554,-26.8473987992384,0.0 -52.6039049,-26.8473957992384,0.0 -52.6041494,-26.8474246992384,0.0 -52.6045198,-26.8474358992384,0.0 -52.6047755,-26.8474582992384,0.0 -52.6052769,-26.8476387992384,0.0 -52.6055346,-26.8477725992384,0.0 -52.6058363,-26.8480267992384,0.0 -52.6059696,-26.8481874992384,0.0 -52.6060455,-26.8483356992384,0.0 -52.606052,-26.8483482992384,0.0 -52.6061226,-26.8484894992384,0.0 -52.606244,-26.8486744992384,0.0 -52.6063705,-26.8488866992384,0.0 -52.6064622,-26.8490865992384,0.0 -52.6066109,-26.8492476992384,0.0 -52.606773,-26.8494192992384,0.0 -52.6068172,-26.8495321992384,0.0 -52.6068195,-26.8496954992383,0.0 -52.6068054,-26.8499311992383,0.0 -52.6067519,-26.8501174992383,0.0 -52.6067448,-26.8502390992383,0.0 -52.6067394,-26.8503879992383,0.0 -52.6066937,-26.8505982992383,0.0 -52.6065788,-26.8507741992383,0.0 -52.6064778,-26.8509093992383,0.0 -52.6064415,-26.8510241992383,0.0 -52.606438,-26.8511288992383,0.0 -52.6064345,-26.8512334992383,0.0 -52.6065075,-26.8516021992383,0.0 -52.6066034,-26.8518843992383,0.0 -52.6066641,-26.8519444992383,0.0 -52.6067471,-26.8520293992383,0.0 -52.6070054,-26.8520997992383,0.0 -52.6071948,-26.8521859992383,0.0 -52.6072904,-26.8523154992383,0.0 -52.6073966,-26.8524948992383,0.0 -52.6075154,-26.8528359992383,0.0 -52.6076295,-26.8531270992383,0.0 -52.6076734,-26.8532678992383,0.0 -52.6077133,-26.8535437992383,0.0 -52.6077026,-26.8537781992383,0.0 -52.6076806,-26.8538630992383,0.0 -52.6076439,-26.8540048992383,0.0 -52.6075463,-26.8541561992383,0.0 -52.6073388,-26.8542962992383,0.0 -52.6071852,-26.8543413992383,0.0 -52.6069323,-26.8543710992383,0.0 -52.6068409,-26.8543989992383,0.0 -52.60676,-26.8544641992383,0.0 -52.6067094,-26.8545799992383,0.0 -52.6066854,-26.8547232992382,0.0 -52.6066912,-26.8548501992382,0.0 -52.6067287,-26.8549651992382,0.0 -52.6067864,-26.8550678992382,0.0 -52.6069231,-26.8552047992382,0.0 -52.6072033,-26.8554129992382,0.0 -52.6074198,-26.8555787992382,0.0 -52.6075003,-26.8557171992382,0.0 -52.6075339,-26.8558921992382,0.0 -52.6075415,-26.8560983992382,0.0 -52.6075491,-26.8563871992382,0.0 -52.6075504,-26.8567719992382,0.0 -52.6075921,-26.8571437992382,0.0 -52.6076092,-26.8576666992382,0.0 -52.6075921,-26.8578935992382,0.0 -52.6075505,-26.8581766992382,0.0 -52.6074963,-26.8583048992382,0.0 -52.6074104,-26.8585082992382,0.0 -52.6072696,-26.8587917992382,0.0 -52.6071971,-26.8588440992382,0.0 -52.6070038,-26.8588944992382,0.0 -52.6068067,-26.8589392992382,0.0 -52.6065016,-26.8590362992382,0.0 -52.6063917,-26.8590878992382,0.0 -52.6062954,-26.8591759992382,0.0 -52.6061558,-26.8593661992382,0.0 -52.6061395,-26.8594253992382,0.0 -52.6061623,-26.8595039992382,0.0 -52.6062076,-26.8595834992382,0.0 -52.6063215,-26.8596605992382,0.0 -52.6065323,-26.8597658992381,0.0 -52.606612,-26.8598072992382,0.0 -52.6066595,-26.8598318992382,0.0 -52.6066756,-26.8598853992381,0.0 -52.6066792,-26.8599619992382,0.0 -52.6066594,-26.8600056992382,0.0 -52.6065849,-26.8600556992381,0.0 -52.6062203,-26.8601941992381,0.0 -52.6059364,-26.8602707992381,0.0 -52.6056885,-26.8603273992381,0.0 -52.6053959,-26.8604340992381,0.0 -52.6052417,-26.8604426992381,0.0 -52.6049937,-26.8604420992381,0.0 -52.6049855,-26.8604407992381,0.0 -52.6050334,-26.8606360992381,0.0 -52.6052161,-26.8608355992381,0.0 -52.6055656,-26.8608235992381,0.0 -52.6061281,-26.8607054992381,0.0 -52.6064243,-26.8607299992381,0.0 -52.6067205,-26.8607544992381,0.0 -52.6074536,-26.8606455992381,0.0 -52.6079974,-26.8604125992381,0.0 -52.6085584,-26.8602398992381,0.0 -52.6092906,-26.8600881992381,0.0 -52.6100257,-26.8600188992381,0.0 -52.6106439,-26.8600183992382,0.0 -52.612252,-26.8602160992381,0.0 -52.6132839,-26.8603913992381,0.0 -52.6136644,-26.8607265992381,0.0 -52.6139589,-26.8609859992381,0.0 -52.6144633,-26.8616465992381,0.0 -52.6151475,-26.8622161992381,0.0 -52.6152281,-26.8622643992381,0.0 -52.6156057,-26.8624901992381,0.0 -52.6158986,-26.8626789992381,0.0 -52.6162162,-26.8629409992381,0.0 -52.6164633,-26.8632954992381,0.0 -52.6168052,-26.8635374992381,0.0 -52.6171864,-26.8637667992381,0.0 -52.6175863,-26.8638806992381,0.0 -52.6183388,-26.8639586992381,0.0 -52.6194893,-26.8641912992381,0.0 -52.6201571,-26.8645078992381,0.0 -52.6208011,-26.864845599238,0.0 -52.656253,-26.8536412992383,0.0 -52.6974582,-26.8187610992389,0.0 -52.6986125,-26.8199317992389,0.0 -52.716948,-26.8036134992392,0.0 -52.7165939,-26.8024051992393,0.0 -52.7158919,-26.8009421992393,0.0 -52.7153103,-26.8002716992393,0.0 -52.7147484,-26.8000173992393,0.0 -52.7137259,-26.7997904992393,0.0 -52.7128523,-26.7997901992393,0.0 -52.7116285,-26.7998919992393,0.0 -52.7104548,-26.8001019992393,0.0 -52.7082014,-26.8003277992393,0.0 -52.7054976,-26.8006953992393,0.0 -52.7038929,-26.8007477992393,0.0 -52.70132,-26.8006916992393,0.0 -52.7010517,-26.8006768992393,0.0 -52.6992136,-26.8005752992393,0.0 -52.6961411,-26.8003727992393,0.0 -52.6945823,-26.8003913992393,0.0 -52.6935162,-26.8004911992393,0.0 -52.6925762,-26.8008318992393,0.0 -52.6924301,-26.8008848992393,0.0 -52.6915183,-26.8015811992393,0.0 -52.6906562,-26.8025407992393,0.0 -52.6894298,-26.8041110992392,0.0 -52.6886659,-26.8049577992392,0.0 -52.6879981,-26.8054838992392,0.0 -52.6868573,-26.8062295992392,0.0 -52.6861557,-26.8067120992392,0.0 -52.6856427,-26.8068951992392,0.0 -52.6849516,-26.8068935992392,0.0 -52.6840368,-26.8066094992392,0.0 -52.682885,-26.8058757992392,0.0 -52.6826081,-26.8056924992392,0.0 -52.6816885,-26.8050835992392,0.0 -52.6798647,-26.8034691992392,0.0 -52.6790483,-26.8025226992393,0.0 -52.6772548,-26.8007426992393,0.0 -52.676661,-26.8003670992393,0.0 -52.6755037,-26.7999231992393,0.0 -52.6742858,-26.7996864992393,0.0 -52.6731928,-26.7994740992393,0.0 -52.6717789,-26.7991064992393,0.0 -52.6713948,-26.7990066992393,0.0 -52.669172,-26.7981826992394,0.0 -52.6682494,-26.7975484992394,0.0 -52.6676544,-26.7966002992394,0.0 -52.6670493,-26.7950385992394,0.0 -52.6663974,-26.7930365992394,0.0 -52.6660301,-26.7916697992395,0.0 -52.6659698,-26.7913834992395,0.0 -52.6658724,-26.7909843992395,0.0 -52.6656075,-26.7902468992395,0.0 -52.6649213,-26.7888215992395,0.0 -52.6643406,-26.7872452992396,0.0 -52.6642936,-26.7864518992396,0.0 -52.6642875,-26.7863484992396,0.0 -52.6645157,-26.7856077992396,0.0 -52.6649042,-26.7849365992396,0.0 -52.6658101,-26.7841117992396,0.0 -52.6665725,-26.7835909992396,0.0 -52.6676275,-26.7831023992396,0.0 -52.6682734,-26.7828691992397,0.0 -52.6699262,-26.7822721992397,0.0 -52.6699783,-26.7822533992397,0.0 -52.6727997,-26.7812625992397,0.0 -52.6737404,-26.7809785992397,0.0 -52.6747691,-26.7806679992397,0.0 -52.6769857,-26.7797251992397,0.0 -52.6775875,-26.7793439992397,0.0 -52.6780774,-26.7790337992397,0.0 -52.6783104,-26.7788407992397,0.0 -52.6793531,-26.7779774992397,0.0 -52.6805908,-26.7768984992398,0.0 -52.6819687,-26.7757106992398,0.0 -52.683404,-26.7744395992398,0.0 -52.6841088,-26.7738208992398,0.0 -52.6848541,-26.7733650992398,0.0 -52.685153,-26.7732759992398,0.0 -52.6861133,-26.7729896992398,0.0 -52.6874999,-26.7724960992399,0.0 -52.6877712,-26.7723802992398,0.0 -52.6881023,-26.7722259992399,0.0 -52.688474,-26.7720249992399,0.0 -52.6899379,-26.7714858992399,0.0 -52.6920089,-26.7707989992399,0.0 -52.6941383,-26.7699879992399,0.0 -52.695379,-26.7695861992399,0.0 -52.696151,-26.7692532992399,0.0 -52.6963724,-26.7691577992399,0.0 -52.697055,-26.7686250992399,0.0 -52.6974783,-26.7680695992399,0.0 -52.6976059,-26.7677435992399,0.0 -52.6977185,-26.76745609924,0.0 -52.6978315,-26.76667219924,0.0 -52.6978619,-26.76548889924,0.0 -52.6977864,-26.76427719924,0.0 -52.6978225,-26.76335179924,0.0 -52.6978523,-26.76293739924,0.0 -52.6977323,-26.76253009924,0.0 -52.6975416,-26.76224559924,0.0 -52.6972264,-26.7620181992401,0.0 -52.6968455,-26.7618075992401,0.0 -52.6960497,-26.7615213992401,0.0 -52.6958462,-26.7614650992401,0.0 -52.6954717,-26.7613615992401,0.0 -52.6946835,-26.7613216992401,0.0 -52.6932808,-26.7613545992401,0.0 -52.6919,-26.7614462992401,0.0 -52.6910319,-26.7615733992401,0.0 -52.6901409,-26.7617038992401,0.0 -52.6890708,-26.7619168992401,0.0 -52.6878544,-26.76225509924,0.0 -52.6869246,-26.76253909924,0.0 -52.6865415,-26.76265609924,0.0 -52.6853401,-26.76301689924,0.0 -52.683079,-26.76379049924,0.0 -52.6808121,-26.76417519924,0.0 -52.679291,-26.76433699924,0.0 -52.6783165,-26.76439459924,0.0 -52.6770954,-26.76420909924,0.0 -52.6760201,-26.76381519924,0.0 -52.6757891,-26.76371209924,0.0 -52.6745474,-26.76315749924,0.0 -52.6734903,-26.76249209924,0.0 -52.67129,-26.7612290992401,0.0 -52.6696799,-26.7600945992401,0.0 -52.6694284,-26.7599148992401,0.0 -52.6685281,-26.7592714992401,0.0 -52.6674647,-26.7585691992401,0.0 -52.666422,-26.7578723992401,0.0 -52.665519,-26.7572689992401,0.0 -52.6647033,-26.7567359992402,0.0 -52.6645223,-26.7566177992402,0.0 -52.6636675,-26.7560592992402,0.0 -52.6630477,-26.7557715992402,0.0 -52.6617398,-26.7551645992402,0.0 -52.6594344,-26.7541026992402,0.0 -52.6577534,-26.7530882992402,0.0 -52.6568689,-26.7526025992402,0.0 -52.6561133,-26.7524119992402,0.0 -52.6542387,-26.7523417992402,0.0 -52.6530862,-26.7524051992402,0.0 -52.6522896,-26.7524488992402,0.0 -52.6509384,-26.7527637992402,0.0 -52.6502757,-26.7530860992402,0.0 -52.6496073,-26.7536001992402,0.0 -52.6493901,-26.7539633992402,0.0 -52.6492698,-26.7545272992402,0.0 -52.6493464,-26.7550941992402,0.0 -52.6495165,-26.7556138992402,0.0 -52.6501279,-26.7570618992401,0.0 -52.6502166,-26.7572827992401,0.0 -52.6504652,-26.7579019992401,0.0 -52.651159,-26.7590734992401,0.0 -52.651556,-26.7599051992401,0.0 -52.6516956,-26.7606784992401,0.0 -52.6517277,-26.7617259992401,0.0 -52.6515861,-26.76257929924,0.0 -52.6512804,-26.76333479924,0.0 -52.6506776,-26.76432919924,0.0 -52.6497025,-26.76552979924,0.0 -52.6495276,-26.76575049924,0.0 -52.6486929,-26.76680389924,0.0 -52.6477183,-26.7680428992399,0.0 -52.646787,-26.7688849992399,0.0 -52.6456878,-26.7697953992399,0.0 -52.6450859,-26.7704473992399,0.0 -52.6445298,-26.7710497992399,0.0 -52.6439332,-26.7718085992399,0.0 -52.6430921,-26.7728801992399,0.0 -52.641916,-26.7744461992398,0.0 -52.6412234,-26.7752255992398,0.0 -52.6410066,-26.7754694992398,0.0 -52.6397701,-26.7764539992398,0.0 -52.6382165,-26.7776069992398,0.0 -52.6361216,-26.7788410992397,0.0 -52.6353075,-26.7793568992397,0.0 -52.6339384,-26.7799634992397,0.0 -52.6332044,-26.7800946992397,0.0 -52.631946,-26.7800631992397,0.0 -52.6303815,-26.7798126992397,0.0 -52.6297499,-26.7796447992397,0.0 -52.6289985,-26.7794449992397,0.0 -52.6273076,-26.7784899992397,0.0 -52.6263072,-26.7779486992397,0.0 -52.6259921,-26.7778047992397,0.0 -52.6257156,-26.7776784992397,0.0 -52.6249999,-26.7773513992398,0.0 -52.6244117,-26.7771250992398,0.0 -52.6242237,-26.7770101992398,0.0 -52.6240527,-26.7768389992398,0.0 -52.6236119,-26.7763977992398,0.0 -52.6233197,-26.7759685992398,0.0 -52.6230274,-26.7755394992398,0.0 -52.6223649,-26.7743978992398,0.0 -52.622235,-26.7735439992398,0.0 -52.6223981,-26.7725916992398,0.0 -52.6227067,-26.7719384992399,0.0 -52.6230158,-26.7715611992399,0.0 -52.6225789,-26.7710132992399,0.0 -52.6221344,-26.7704175992399,0.0 -52.6219383,-26.7701546992399,0.0 -52.620973,-26.7690507992399,0.0 -52.6200027,-26.7682732992399,0.0 -52.6191993,-26.7676810992399,0.0 -52.6182488,-26.76698949924,0.0 -52.6172348,-26.76655239924,0.0 -52.6161428,-26.76620399924,0.0 -52.615036,-26.76603129924,0.0 -52.6141259,-26.76601589924,0.0 -52.613531,-26.76612159924,0.0 -52.6123395,-26.76653469924,0.0 -52.611455,-26.76686009924,0.0 -52.6109246,-26.76694349924,0.0 -52.6104112,-26.76687629924,0.0 -52.6100483,-26.76677609924,0.0 -52.6095174,-26.76648149924,0.0 -52.6088342,-26.76591789924,0.0 -52.607645,-26.76497839924,0.0 -52.6068211,-26.76428749924,0.0 -52.6059291,-26.76363819924,0.0 -52.6052835,-26.76317509924,0.0 -52.6048117,-26.76265629924,0.0 -52.6044159,-26.76243739924,0.0 -52.6039561,-26.7622262992401,0.0 -52.6036014,-26.76220879924,0.0 -52.603248,-26.76227289924,0.0 -52.6026584,-26.76257599924,0.0 -52.6019961,-26.76306689924,0.0 -52.6016018,-26.76363409924,0.0 -52.6014732,-26.76402649924,0.0 -52.6013543,-26.76443839924,0.0 -52.6012817,-26.76506639924,0.0 -52.6012131,-26.76563699924,0.0 -52.6011712,-26.76606279924,0.0 -52.601234,-26.76644439924,0.0 -52.6015361,-26.7671434992399,0.0 -52.6019603,-26.7676842992399,0.0 -52.602363,-26.7679654992399,0.0 -52.6028016,-26.7681623992399,0.0 -52.603604,-26.7684475992399,0.0 -52.6038546,-26.7685511992399,0.0 -52.6041575,-26.7686307992399,0.0 -52.6044408,-26.7687315992399,0.0 -52.6046303,-26.7687865992399,0.0 -52.6049462,-26.7688675992399,0.0 -52.6051768,-26.7688928992399,0.0 -52.6054521,-26.7688693992399,0.0 -52.6064478,-26.7687739992399,0.0 -52.6076849,-26.7685696992399,0.0 -52.6085699,-26.7685535992399,0.0 -52.6094573,-26.7684720992399,0.0 -52.6101505,-26.7685357992399,0.0 -52.6106101,-26.7686851992399,0.0 -52.6110191,-26.7690016992399,0.0 -52.6114746,-26.7693295992399,0.0 -52.6119682,-26.7698912992399,0.0 -52.6122451,-26.7702508992399,0.0 -52.6123209,-26.7704522992399,0.0 -52.6122845,-26.7706905992399,0.0 -52.6119981,-26.7710685992399,0.0 -52.6109183,-26.7721847992399,0.0 -52.6097168,-26.7736229992398,0.0 -52.6095597,-26.7738934992398,0.0 -52.6094787,-26.7740329992398,0.0 -52.6090783,-26.7745055992398,0.0 -52.6084059,-26.7749297992398,0.0 -52.6076715,-26.7754923992398,0.0 -52.6069389,-26.7760904992398,0.0 -52.6061615,-26.7766115992398,0.0 -52.6057917,-26.7769991992398,0.0 -52.6057553,-26.7770373992398,0.0 -52.6053662,-26.7774639992397,0.0 -52.6051725,-26.7777096992397,0.0 -52.6050782,-26.7778933992397,0.0 -52.6049415,-26.7781406992397,0.0 -52.6048609,-26.7783733992397,0.0 -52.6046731,-26.7787423992397,0.0 -52.6045558,-26.7790998992397,0.0 -52.6044822,-26.7795574992397,0.0 -52.604481,-26.7799834992397,0.0 -52.6045555,-26.7811206992397,0.0 -52.6044893,-26.7816041992397,0.0 -52.6042494,-26.7827301992396,0.0 -52.6038345,-26.7841255992396,0.0 -52.6035574,-26.7848610992396,0.0 -52.6031243,-26.7855545992396,0.0 -52.6022997,-26.7870982992396,0.0 -52.6019499,-26.7878362992396,0.0 -52.6019341,-26.7883241992395,0.0 -52.6020316,-26.7887247992395,0.0 -52.6020534,-26.7890540992395,0.0 -52.6020589,-26.7894453992395,0.0 -52.6019074,-26.7897995992395,0.0 -52.6017698,-26.7901210992395,0.0 -52.6015551,-26.7903706992395,0.0 -52.6013524,-26.7906561992395,0.0 -52.6011802,-26.7908588992395,0.0 -52.6008069,-26.7914648992395,0.0 -52.6006975,-26.7916698992395,0.0 -52.6005537,-26.7919313992395,0.0 -52.600022,-26.7923511992395,0.0 -52.5993415,-26.7927876992395,0.0 -52.5987384,-26.7931684992394,0.0 -52.5982224,-26.7932769992394,0.0 -52.5978353,-26.7932602992394,0.0 -52.5976324,-26.7932471992395,0.0 -52.5975154,-26.7932396992394,0.0 -52.5971331,-26.7930901992395,0.0 -52.5965195,-26.7928609992395,0.0 -52.5961724,-26.7928165992395,0.0 -52.5957706,-26.7928692992394,0.0 -52.59543,-26.7930571992394,0.0 -52.5946979,-26.7936821992394,0.0 -52.5939256,-26.7943257992394,0.0 -52.5930989,-26.7949548992394,0.0 -52.5927733,-26.7953312992394,0.0 -52.5925104,-26.7955578992394,0.0 -52.5923389,-26.7957314992394,0.0 -52.5921728,-26.7959959992394,0.0 -52.5919493,-26.7966020992394,0.0 -52.5916606,-26.7974503992394,0.0 -52.5911962,-26.7979593992394,0.0 -52.5909213,-26.7982025992393,0.0</coordinates>
</LinearRing>
</outerBoundaryIs>
</Polygon>
</MultiGeometry>
</Placemark>
<Placemark id="13. Referência">
<name>TI - Xapecó [9709]</name>
<visibility>0</visibility>
<snippet> </snippet>
<description>&lt;center&gt;&lt;table&gt;&lt;tr&gt;&lt;th colspan='2' align='center'&gt;&lt;em&gt;Attributes&lt;/em&gt;&lt;/th&gt;&lt;/tr&gt;&lt;tr bgcolor="#E3E3F3"&gt;
&lt;th&gt;COD_TI&lt;/th&gt;
&lt;td&gt;9709&lt;/td&gt;
&lt;/tr&gt;&lt;tr bgcolor=""&gt;
&lt;th&gt;NOM_TI&lt;/th&gt;
&lt;td&gt;Xapecó&lt;/td&gt;
&lt;/tr&gt;&lt;/table&gt;&lt;/center&gt;</description>
<Style>
<IconStyle>
<scale>0.7</scale>
</IconStyle>
<LabelStyle>
<scale>0.7</scale>
</LabelStyle>
<LineStyle>
<color>ff00aaaa</color>
<width>3</width>
<gx:labelVisibility>1</gx:labelVisibility>
</LineStyle>
<PolyStyle>
<color>3300aaaa</color>
</PolyStyle>
</Style>
<ExtendedData>
<SchemaData schemaUrl="#kml_schema_ft_Terra_Indígena">
<SimpleData name="COD_TI">9709</SimpleData>
<SimpleData name="NOM_TI">Xapecó</SimpleData>
</SchemaData>
</ExtendedData>
<MultiGeometry>
<MultiGeometry>
<Polygon>
<extrude>0</extrude>
<tessellate>1</tessellate>
<outerBoundaryIs>
<LinearRing>
<coordinates>-52.5511372494475,-26.7990129328256,0.0 -52.55113326,-26.7987329692393,0.0 -52.5509328099999,-26.7983433992393,0.0 -52.5509207123806,-26.7983344764248,0.0 -52.5510876,-26.7987742992393,0.0 -52.5511372494475,-26.7990129328256,0.0</coordinates>
</LinearRing>
</outerBoundaryIs>
</Polygon>
<Polygon>
<extrude>0</extrude>
<tessellate>1</tessellate>
<outerBoundaryIs>
<LinearRing>
<coordinates>-52.5921583346861,-26.7960352270995,0.0 -52.5924309572223,-26.7956383147858,0.0 -52.5923389,-26.7957314992394,0.0 -52.5921728,-26.7959959992394,0.0 -52.5921583346861,-26.7960352270995,0.0</coordinates>
</LinearRing>
</outerBoundaryIs>
</Polygon>
</MultiGeometry>
</MultiGeometry>
</Placemark>
</Folder>
</Document></kml>
