<?xml version='1.0' encoding='UTF-8'?>
<kml xmlns:xsd="http://www.w3.org/2001/XMLSchema" xmlns:gx="http://www.google.com/kml/ext/2.2" xmlns:atom="http://www.w3.org/2005/Atom" xmlns="http://www.opengis.net/kml/2.2">
<Document>
<name>nova_itaberaba_4211454_localidades_2022</name>
<visibility>1</visibility>
<Schema name="Localidades" id="kml_schema_ft_Localidades">
<SimpleField type="xsd:string" name="CD_UF">
<displayName>CD_UF</displayName>
</SimpleField>
<SimpleField type="xsd:string" name="NM_UF">
<displayName>NM_UF</displayName>
</SimpleField>
<SimpleField type="xsd:string" name="SIGLA_UF">
<displayName>SIGLA_UF</displayName>
</SimpleField>
<SimpleField type="xsd:string" name="CD_MUN">
<displayName>CD_MUN</displayName>
</SimpleField>
<SimpleField type="xsd:string" name="NM_MUN">
<displayName>NM_MUN</displayName>
</SimpleField>
<SimpleField type="xsd:string" name="CD_RGINT">
<displayName>CD_RGINT</displayName>
</SimpleField>
<SimpleField type="xsd:string" name="NM_RGINT">
<displayName>NM_RGINT</displayName>
</SimpleField>
<SimpleField type="xsd:string" name="CD_RGI">
<displayName>CD_RGI</displayName>
</SimpleField>
<SimpleField type="xsd:string" name="NM_RGI">
<displayName>NM_RGI</displayName>
</SimpleField>
<SimpleField type="xsd:string" name="CT_LOCALIDADE">
<displayName>CT_LOCALIDADE</displayName>
</SimpleField>
<SimpleField type="xsd:string" name="SCT_LOCALIDADE">
<displayName>SCT_LOCALIDADE</displayName>
</SimpleField>
<SimpleField type="xsd:string" name="CD_LOCALIDADE">
<displayName>CD_LOCALIDADE</displayName>
</SimpleField>
<SimpleField type="xsd:string" name="NM_LOCALIDADE">
<displayName>NM_LOCALIDADE</displayName>
</SimpleField>
</Schema>
<Schema name="01. Cidade" id="kml_schema_ft_01._Cidade">
<SimpleField type="xsd:string" name="CD_UF">
<displayName>CD_UF</displayName>
</SimpleField>
<SimpleField type="xsd:string" name="NM_UF">
<displayName>NM_UF</displayName>
</SimpleField>
<SimpleField type="xsd:string" name="SIGLA_UF">
<displayName>SIGLA_UF</displayName>
</SimpleField>
<SimpleField type="xsd:string" name="CD_MUN">
<displayName>CD_MUN</displayName>
</SimpleField>
<SimpleField type="xsd:string" name="NM_MUN">
<displayName>NM_MUN</displayName>
</SimpleField>
<SimpleField type="xsd:string" name="CD_RGINT">
<displayName>CD_RGINT</displayName>
</SimpleField>
<SimpleField type="xsd:string" name="NM_RGINT">
<displayName>NM_RGINT</displayName>
</SimpleField>
<SimpleField type="xsd:string" name="CD_RGI">
<displayName>CD_RGI</displayName>
</SimpleField>
<SimpleField type="xsd:string" name="NM_RGI">
<displayName>NM_RGI</displayName>
</SimpleField>
<SimpleField type="xsd:string" name="CT_LOCALIDADE">
<displayName>CT_LOCALIDADE</displayName>
</SimpleField>
<SimpleField type="xsd:string" name="SCT_LOCALIDADE">
<displayName>SCT_LOCALIDADE</displayName>
</SimpleField>
<SimpleField type="xsd:string" name="CD_LOCALIDADE">
<displayName>CD_LOCALIDADE</displayName>
</SimpleField>
<SimpleField type="xsd:string" name="NM_LOCALIDADE">
<displayName>NM_LOCALIDADE</displayName>
</SimpleField>
<SimpleField type="xsd:string" name="LAT_LOCALIDADE">
<displayName>LAT_LOCALIDADE</displayName>
</SimpleField>
<SimpleField type="xsd:string" name="LONG_LOCALIDADE">
<displayName>LONG_LOCALIDADE</displayName>
</SimpleField>
</Schema>
<Schema name="Município" id="kml_schema_ft_Município">
<SimpleField type="xsd:string" name="CD_UF">
<displayName>CD_UF</displayName>
</SimpleField>
<SimpleField type="xsd:string" name="NM_UF">
<displayName>NM_UF</displayName>
</SimpleField>
<SimpleField type="xsd:string" name="CD_MUN">
<displayName>CD_MUN</displayName>
</SimpleField>
<SimpleField type="xsd:string" name="NM_MUN">
<displayName>NM_MUN</displayName>
</SimpleField>
<SimpleField type="xsd:string" name="CD_RGINT">
<displayName>CD_RGINT</displayName>
</SimpleField>
<SimpleField type="xsd:string" name="NM_RGINT">
<displayName>NM_RGINT</displayName>
</SimpleField>
<SimpleField type="xsd:string" name="CD_RGI">
<displayName>CD_RGI</displayName>
</SimpleField>
<SimpleField type="xsd:string" name="NM_RGI">
<displayName>NM_RGI</displayName>
</SimpleField>
</Schema>
<Folder id="01. Cidade">
<name>01. Cidade</name>
<Folder id="01.03. Sede Municipal">
<name>01.03. Sede Municipal</name>
<Placemark id="01.03. Sede Municipal">
<name>Nova Itaberaba [4211454]</name>
<visibility>1</visibility>
<snippet> </snippet>
<description>&lt;center&gt;&lt;table&gt;&lt;tr&gt;&lt;th colspan='2' align='center'&gt;&lt;em&gt;Atributos&lt;/em&gt;&lt;/th&gt;&lt;/tr&gt;&lt;tr bgcolor="#E3E3F3"&gt;
&lt;th&gt;CD_UF&lt;/th&gt;
&lt;td&gt;42&lt;/td&gt;
&lt;/tr&gt;&lt;tr bgcolor=""&gt;
&lt;th&gt;NM_UF&lt;/th&gt;
&lt;td&gt;Santa Catarina&lt;/td&gt;
&lt;/tr&gt;&lt;tr bgcolor="#E3E3F3"&gt;
&lt;th&gt;SIGLA_UF&lt;/th&gt;
&lt;td&gt;SC&lt;/td&gt;
&lt;/tr&gt;&lt;tr bgcolor=""&gt;
&lt;th&gt;CD_MUN&lt;/th&gt;
&lt;td&gt;4211454&lt;/td&gt;
&lt;/tr&gt;&lt;tr bgcolor="#E3E3F3"&gt;
&lt;th&gt;NM_MUN&lt;/th&gt;
&lt;td&gt;Nova Itaberaba&lt;/td&gt;
&lt;/tr&gt;&lt;tr bgcolor=""&gt;
&lt;th&gt;CD_RGINT&lt;/th&gt;
&lt;td&gt;4204&lt;/td&gt;
&lt;/tr&gt;&lt;tr bgcolor="#E3E3F3"&gt;
&lt;th&gt;NM_RGINT&lt;/th&gt;
&lt;td&gt;Chapecó&lt;/td&gt;
&lt;/tr&gt;&lt;tr bgcolor=""&gt;
&lt;th&gt;CD_RGI&lt;/th&gt;
&lt;td&gt;420007&lt;/td&gt;
&lt;/tr&gt;&lt;tr bgcolor="#E3E3F3"&gt;
&lt;th&gt;NM_RGI&lt;/th&gt;
&lt;td&gt;Chapecó&lt;/td&gt;
&lt;/tr&gt;&lt;tr bgcolor=""&gt;
&lt;th&gt;CT_LOCALIDADE&lt;/th&gt;
&lt;td&gt;Cidade&lt;/td&gt;
&lt;/tr&gt;&lt;tr bgcolor="#E3E3F3"&gt;
&lt;th&gt;SCT_LOCALIDADE&lt;/th&gt;
&lt;td&gt;Sede Municipal&lt;/td&gt;
&lt;/tr&gt;&lt;tr bgcolor=""&gt;
&lt;th&gt;CD_LOCALIDADE&lt;/th&gt;
&lt;td&gt;4211454&lt;/td&gt;
&lt;/tr&gt;&lt;tr bgcolor="#E3E3F3"&gt;
&lt;th&gt;NM_LOCALIDADE&lt;/th&gt;
&lt;td&gt;Nova Itaberaba&lt;/td&gt;
&lt;/tr&gt;&lt;tr bgcolor=""&gt;
&lt;th&gt;LAT_LOCALIDADE&lt;/th&gt;
&lt;td&gt;-26.9411&lt;/td&gt;
&lt;/tr&gt;&lt;tr bgcolor="#E3E3F3"&gt;
&lt;th&gt;LONG_LOCALIDADE&lt;/th&gt;
&lt;td&gt;-52.8135&lt;/td&gt;
&lt;/tr&gt;&lt;/table&gt;&lt;/center&gt;</description>
<Style>
<IconStyle>
<color>ff00aaff</color>
<scale>1.0</scale>
<Icon>
<href>http://maps.google.com/mapfiles/kml/shapes/placemark_circle.png</href>
</Icon>
</IconStyle>
<LabelStyle>
<scale>1.0</scale>
</LabelStyle>
<LineStyle>
<color>ffffffff</color>
<width>3</width>
<gx:labelVisibility>1</gx:labelVisibility>
</LineStyle>
<PolyStyle>
<color>00ffffff</color>
</PolyStyle>
</Style>
<ExtendedData>
<SchemaData schemaUrl="#kml_schema_ft_01._Cidade">
<SimpleData name="CD_UF">42</SimpleData>
<SimpleData name="NM_UF">Santa Catarina</SimpleData>
<SimpleData name="SIGLA_UF">SC</SimpleData>
<SimpleData name="CD_MUN">4211454</SimpleData>
<SimpleData name="NM_MUN">Nova Itaberaba</SimpleData>
<SimpleData name="CD_RGINT">4204</SimpleData>
<SimpleData name="NM_RGINT">Chapecó</SimpleData>
<SimpleData name="CD_RGI">420007</SimpleData>
<SimpleData name="NM_RGI">Chapecó</SimpleData>
<SimpleData name="CT_LOCALIDADE">Cidade</SimpleData>
<SimpleData name="SCT_LOCALIDADE">Sede Municipal</SimpleData>
<SimpleData name="CD_LOCALIDADE">4211454</SimpleData>
<SimpleData name="NM_LOCALIDADE">Nova Itaberaba</SimpleData>
<SimpleData name="LAT_LOCALIDADE">-26.9411</SimpleData>
<SimpleData name="LONG_LOCALIDADE">-52.8135</SimpleData>
</SchemaData>
</ExtendedData>
<Point>
<extrude>0</extrude>
<coordinates>-52.8135,-26.9410999992366,0.0</coordinates>
</Point>
</Placemark>
</Folder>
</Folder>
<Folder id="12. Outras Localidades">
<name>12. Outras Localidades</name>
<Placemark id="12. Outras Localidades">
<name>Linha Garibaldi [421145400001]</name>
<visibility>1</visibility>
<snippet> </snippet>
<description>&lt;center&gt;&lt;table&gt;&lt;tr&gt;&lt;th colspan='2' align='center'&gt;&lt;em&gt;Attributes&lt;/em&gt;&lt;/th&gt;&lt;/tr&gt;&lt;tr bgcolor="#E3E3F3"&gt;
&lt;th&gt;CD_UF&lt;/th&gt;
&lt;td&gt;42&lt;/td&gt;
&lt;/tr&gt;&lt;tr bgcolor=""&gt;
&lt;th&gt;NM_UF&lt;/th&gt;
&lt;td&gt;Santa Catarina&lt;/td&gt;
&lt;/tr&gt;&lt;tr bgcolor="#E3E3F3"&gt;
&lt;th&gt;SIGLA_UF&lt;/th&gt;
&lt;td&gt;SC&lt;/td&gt;
&lt;/tr&gt;&lt;tr bgcolor=""&gt;
&lt;th&gt;CD_MUN&lt;/th&gt;
&lt;td&gt;4211454&lt;/td&gt;
&lt;/tr&gt;&lt;tr bgcolor="#E3E3F3"&gt;
&lt;th&gt;NM_MUN&lt;/th&gt;
&lt;td&gt;Nova Itaberaba&lt;/td&gt;
&lt;/tr&gt;&lt;tr bgcolor=""&gt;
&lt;th&gt;CD_RGINT&lt;/th&gt;
&lt;td&gt;4204&lt;/td&gt;
&lt;/tr&gt;&lt;tr bgcolor="#E3E3F3"&gt;
&lt;th&gt;NM_RGINT&lt;/th&gt;
&lt;td&gt;Chapecó&lt;/td&gt;
&lt;/tr&gt;&lt;tr bgcolor=""&gt;
&lt;th&gt;CD_RGI&lt;/th&gt;
&lt;td&gt;420007&lt;/td&gt;
&lt;/tr&gt;&lt;tr bgcolor="#E3E3F3"&gt;
&lt;th&gt;NM_RGI&lt;/th&gt;
&lt;td&gt;Chapecó&lt;/td&gt;
&lt;/tr&gt;&lt;tr bgcolor=""&gt;
&lt;th&gt;CT_LOCALIDADE&lt;/th&gt;
&lt;td&gt;Outras Localidades&lt;/td&gt;
&lt;/tr&gt;&lt;tr bgcolor="#E3E3F3"&gt;
&lt;th&gt;SCT_LOCALIDADE&lt;/th&gt;
&lt;td&gt;&lt;/td&gt;
&lt;/tr&gt;&lt;tr bgcolor=""&gt;
&lt;th&gt;CD_LOCALIDADE&lt;/th&gt;
&lt;td&gt;421145400001&lt;/td&gt;
&lt;/tr&gt;&lt;tr bgcolor="#E3E3F3"&gt;
&lt;th&gt;NM_LOCALIDADE&lt;/th&gt;
&lt;td&gt;Linha Garibaldi&lt;/td&gt;
&lt;/tr&gt;&lt;/table&gt;&lt;/center&gt;</description>
<Style>
<IconStyle>
<color>ff0069d3</color>
<scale>0.6</scale>
<Icon>
<href>http://maps.google.com/mapfiles/kml/shapes/placemark_circle.png</href>
</Icon>
</IconStyle>
<LabelStyle>
<scale>0.6</scale>
</LabelStyle>
<LineStyle>
<width>1.0</width>
<gx:labelVisibility>1</gx:labelVisibility>
</LineStyle>
</Style>
<ExtendedData>
<SchemaData schemaUrl="#kml_schema_ft_Localidades">
<SimpleData name="CD_UF">42</SimpleData>
<SimpleData name="NM_UF">Santa Catarina</SimpleData>
<SimpleData name="SIGLA_UF">SC</SimpleData>
<SimpleData name="CD_MUN">4211454</SimpleData>
<SimpleData name="NM_MUN">Nova Itaberaba</SimpleData>
<SimpleData name="CD_RGINT">4204</SimpleData>
<SimpleData name="NM_RGINT">Chapecó</SimpleData>
<SimpleData name="CD_RGI">420007</SimpleData>
<SimpleData name="NM_RGI">Chapecó</SimpleData>
<SimpleData name="CT_LOCALIDADE">Outras Localidades</SimpleData>
<SimpleData name="CD_LOCALIDADE">421145400001</SimpleData>
<SimpleData name="NM_LOCALIDADE">Linha Garibaldi</SimpleData>
</SchemaData>
</ExtendedData>
<Point>
<extrude>0</extrude>
<coordinates>-52.8129074,-26.918165599237,0.0</coordinates>
</Point>
</Placemark>
</Folder>
<Folder id="13. Referência">
<name>13. Referência</name>
<Placemark id="13. Referência">
<name>Nova Itaberaba [4211454]</name>
<visibility>1</visibility>
<snippet> </snippet>
<description>&lt;center&gt;&lt;table&gt;&lt;tr&gt;&lt;th colspan='2' align='center'&gt;&lt;em&gt;Attributes&lt;/em&gt;&lt;/th&gt;&lt;/tr&gt;&lt;tr bgcolor="#E3E3F3"&gt;
&lt;th&gt;CD_UF&lt;/th&gt;
&lt;td&gt;42&lt;/td&gt;
&lt;/tr&gt;&lt;tr bgcolor=""&gt;
&lt;th&gt;NM_UF&lt;/th&gt;
&lt;td&gt;Santa Catarina&lt;/td&gt;
&lt;/tr&gt;&lt;tr bgcolor="#E3E3F3"&gt;
&lt;th&gt;CD_MUN&lt;/th&gt;
&lt;td&gt;4211454&lt;/td&gt;
&lt;/tr&gt;&lt;tr bgcolor=""&gt;
&lt;th&gt;NM_MUN&lt;/th&gt;
&lt;td&gt;Nova Itaberaba&lt;/td&gt;
&lt;/tr&gt;&lt;tr bgcolor="#E3E3F3"&gt;
&lt;th&gt;CD_RGINT&lt;/th&gt;
&lt;td&gt;4204&lt;/td&gt;
&lt;/tr&gt;&lt;tr bgcolor=""&gt;
&lt;th&gt;NM_RGINT&lt;/th&gt;
&lt;td&gt;Chapecó&lt;/td&gt;
&lt;/tr&gt;&lt;tr bgcolor="#E3E3F3"&gt;
&lt;th&gt;CD_RGI&lt;/th&gt;
&lt;td&gt;420007&lt;/td&gt;
&lt;/tr&gt;&lt;tr bgcolor=""&gt;
&lt;th&gt;NM_RGI&lt;/th&gt;
&lt;td&gt;Chapecó&lt;/td&gt;
&lt;/tr&gt;&lt;/table&gt;&lt;/center&gt;</description>
<Style>
<IconStyle>
<scale>0.7</scale>
</IconStyle>
<LabelStyle>
<scale>0.7</scale>
</LabelStyle>
<LineStyle>
<color>ffffffff</color>
<width>3</width>
<gx:labelVisibility>1</gx:labelVisibility>
</LineStyle>
<PolyStyle>
<color>00ffffff</color>
</PolyStyle>
</Style>
<ExtendedData>
<SchemaData schemaUrl="#kml_schema_ft_Município">
<SimpleData name="CD_UF">42</SimpleData>
<SimpleData name="NM_UF">Santa Catarina</SimpleData>
<SimpleData name="CD_MUN">4211454</SimpleData>
<SimpleData name="NM_MUN">Nova Itaberaba</SimpleData>
<SimpleData name="CD_RGINT">4204</SimpleData>
<SimpleData name="NM_RGINT">Chapecó</SimpleData>
<SimpleData name="CD_RGI">420007</SimpleData>
<SimpleData name="NM_RGI">Chapecó</SimpleData>
</SchemaData>
</ExtendedData>
<MultiGeometry>
<Polygon>
<extrude>0</extrude>
<tessellate>1</tessellate>
<outerBoundaryIs>
<LinearRing>
<coordinates>-52.8096582,-26.9043690992373,0.0 -52.8096153,-26.9043843992373,0.0 -52.8095688,-26.9043929992373,0.0 -52.8094985,-26.9043940992373,0.0 -52.8094443,-26.9043936992373,0.0 -52.8093983,-26.9043855992373,0.0 -52.8093681,-26.9043730992373,0.0 -52.8093353,-26.9043459992373,0.0 -52.8092967,-26.9043121992373,0.0 -52.809249,-26.9042494992373,0.0 -52.8092273,-26.9042107992373,0.0 -52.8092115,-26.9041765992373,0.0 -52.8092011,-26.9041353992373,0.0 -52.809183,-26.9040217992373,0.0 -52.8091539,-26.9036516992373,0.0 -52.80915,-26.9034901992373,0.0 -52.8091459,-26.9034358992373,0.0 -52.8091132,-26.9033845992373,0.0 -52.8090605,-26.9033380992373,0.0 -52.8089998,-26.9032925992373,0.0 -52.8089104,-26.9032656992373,0.0 -52.8088428,-26.9032532992373,0.0 -52.8085895,-26.9032440992373,0.0 -52.8083422,-26.9032460992373,0.0 -52.8081401,-26.9032111992373,0.0 -52.8080954,-26.9031978992373,0.0 -52.8080708,-26.9031864992373,0.0 -52.8080422,-26.9031630992373,0.0 -52.8080219,-26.9031365992373,0.0 -52.8079899,-26.9030865992373,0.0 -52.8078754,-26.9029530992373,0.0 -52.8077609,-26.9028334992373,0.0 -52.8076846,-26.9027353992373,0.0 -52.8076384,-26.9026686992373,0.0 -52.8076068,-26.9026071992373,0.0 -52.8075821,-26.9025334992373,0.0 -52.8075479,-26.9023587992373,0.0 -52.8074984,-26.9020921992373,0.0 -52.8074672,-26.9017868992373,0.0 -52.8074258,-26.9016143992373,0.0 -52.8073631,-26.9014005992373,0.0 -52.8072555,-26.9010033992374,0.0 -52.8072083,-26.9008800992374,0.0 -52.8071227,-26.9007462992374,0.0 -52.8070432,-26.9006548992374,0.0 -52.8069772,-26.9005969992374,0.0 -52.8069124,-26.9005533992374,0.0 -52.8068286,-26.9004997992374,0.0 -52.8067442,-26.9004513992374,0.0 -52.806668,-26.9004130992374,0.0 -52.8065966,-26.9003889992374,0.0 -52.8065416,-26.9003819992374,0.0 -52.8064887,-26.9003955992374,0.0 -52.806274,-26.9004758992374,0.0 -52.8058333,-26.9006545992374,0.0 -52.8050765,-26.9009170992374,0.0 -52.8045906,-26.9010463992373,0.0 -52.8043516,-26.9011271992374,0.0 -52.8041056,-26.9012197992373,0.0 -52.8039533,-26.9012807992373,0.0 -52.8038611,-26.9013303992373,0.0 -52.8037518,-26.9013992992373,0.0 -52.8036432,-26.9014558992373,0.0 -52.8035107,-26.9015135992373,0.0 -52.8033017,-26.9016091992373,0.0 -52.80307,-26.9016917992373,0.0 -52.8029258,-26.9017367992373,0.0 -52.8028557,-26.9017576992373,0.0 -52.8027275,-26.9017807992373,0.0 -52.8025863,-26.9018039992373,0.0 -52.802368,-26.9018240992373,0.0 -52.801808,-26.9018509992373,0.0 -52.8016387,-26.9018619992373,0.0 -52.8015394,-26.9018790992373,0.0 -52.801452,-26.9019052992373,0.0 -52.8014037,-26.9019228992373,0.0 -52.8013537,-26.9019448992373,0.0 -52.8013012,-26.9019796992373,0.0 -52.8012263,-26.9020308992373,0.0 -52.801106,-26.9021255992373,0.0 -52.8010219,-26.9021793992373,0.0 -52.800813,-26.9022867992373,0.0 -52.8006827,-26.9023607992373,0.0 -52.8006338,-26.9024079992373,0.0 -52.8006244,-26.9024545992373,0.0 -52.8006435,-26.9025211992373,0.0 -52.8006893,-26.9025994992373,0.0 -52.8007395,-26.9026661992373,0.0 -52.8007821,-26.9027172992373,0.0 -52.8008566,-26.9027824992373,0.0 -52.8009317,-26.9028443992373,0.0 -52.8010381,-26.9029116992373,0.0 -52.8013564,-26.9030821992373,0.0 -52.8017758,-26.9033329992373,0.0 -52.8021909,-26.9035516992373,0.0 -52.8024594,-26.9036817992373,0.0 -52.8025434,-26.9037121992373,0.0 -52.8026273,-26.9037424992373,0.0 -52.80274,-26.9037831992373,0.0 -52.8028682,-26.9038146992373,0.0 -52.8031387,-26.9038784992373,0.0 -52.8032458,-26.9039179992373,0.0 -52.8032987,-26.9039450992373,0.0 -52.8033336,-26.9039788992373,0.0 -52.8033702,-26.9040333992373,0.0 -52.8034274,-26.9041366992373,0.0 -52.8034691,-26.9042635992373,0.0 -52.8034742,-26.9043376992373,0.0 -52.8034675,-26.9044434992373,0.0 -52.803451,-26.9045339992373,0.0 -52.8034324,-26.9046567992373,0.0 -52.803412,-26.9047080992373,0.0 -52.803383,-26.9047463992373,0.0 -52.8033355,-26.9047901992373,0.0 -52.8032536,-26.9048458992373,0.0 -52.8031443,-26.9049032992373,0.0 -52.8030872,-26.9049325992373,0.0 -52.8030075,-26.9050074992373,0.0 -52.8029679,-26.9050565992373,0.0 -52.802919,-26.9050936992373,0.0 -52.8026099,-26.9052456992373,0.0 -52.8025614,-26.9052794992373,0.0 -52.802521,-26.9053079992373,0.0 -52.802471,-26.9053562992373,0.0 -52.8023143,-26.9055640992373,0.0 -52.8021817,-26.9057106992373,0.0 -52.8020109,-26.9059036992372,0.0 -52.8018959,-26.9060076992373,0.0 -52.8018133,-26.9060662992372,0.0 -52.8017169,-26.9061303992372,0.0 -52.8015416,-26.9062392992372,0.0 -52.8014774,-26.9062791992373,0.0 -52.8014258,-26.9063116992372,0.0 -52.8013692,-26.9063694992372,0.0 -52.8012956,-26.9064387992372,0.0 -52.8009801,-26.9068324992372,0.0 -52.8008133,-26.9069999992372,0.0 -52.800779,-26.9070298992372,0.0 -52.8006309,-26.9071593992372,0.0 -52.8004211,-26.9072998992372,0.0 -52.7998728,-26.9076950992372,0.0 -52.7994432,-26.9080401992372,0.0 -52.7993583,-26.9080992992372,0.0 -52.7992869,-26.9081382992372,0.0 -52.7992609,-26.9081482992372,0.0 -52.7991787,-26.9081579992372,0.0 -52.7990471,-26.9081734992372,0.0 -52.7989038,-26.9081940992372,0.0 -52.798725,-26.9082222992372,0.0 -52.798639,-26.9082516992372,0.0 -52.798576,-26.9082744992372,0.0 -52.7985112,-26.9083182992372,0.0 -52.7984246,-26.9083817992372,0.0 -52.7983682,-26.9084296992372,0.0 -52.7983442,-26.9084525992372,0.0 -52.7983183,-26.9084815992372,0.0 -52.7982974,-26.9085242992372,0.0 -52.798271,-26.9085985992372,0.0 -52.7982531,-26.9087338992372,0.0 -52.7982123,-26.9089605992372,0.0 -52.7981337,-26.9091996992372,0.0 -52.7981154,-26.9092593992372,0.0 -52.7980845,-26.9093286992372,0.0 -52.7980469,-26.9093865992372,0.0 -52.7979864,-26.9094636992372,0.0 -52.7978769,-26.9096060992372,0.0 -52.7977702,-26.9097281992372,0.0 -52.7977283,-26.9097739992372,0.0 -52.7976704,-26.9098372992372,0.0 -52.7975745,-26.9099484992372,0.0 -52.7974654,-26.9100727992372,0.0 -52.7974005,-26.9101435992372,0.0 -52.7973368,-26.9102025992372,0.0 -52.797104,-26.9103671992372,0.0 -52.7969144,-26.9105100992372,0.0 -52.7965324,-26.9108469992372,0.0 -52.7963077,-26.9110403992372,0.0 -52.7961975,-26.9111483992372,0.0 -52.7960884,-26.9112689992371,0.0 -52.7959846,-26.9114019992371,0.0 -52.7958209,-26.9116186992371,0.0 -52.7957304,-26.9117633992371,0.0 -52.7956622,-26.9118988992371,0.0 -52.7955945,-26.9120664992371,0.0 -52.7955564,-26.9121785992371,0.0 -52.7955114,-26.9124309992371,0.0 -52.7954708,-26.9126623992371,0.0 -52.7954513,-26.9127836992371,0.0 -52.7954399,-26.9128895992371,0.0 -52.7954347,-26.9130064992371,0.0 -52.7954251,-26.9131070992371,0.0 -52.7954194,-26.9132104992371,0.0 -52.7954164,-26.9133355992371,0.0 -52.795418,-26.9134068992371,0.0 -52.7954201,-26.9136155992371,0.0 -52.795417,-26.9137378992371,0.0 -52.7953536,-26.9142460992371,0.0 -52.795345,-26.9143052992371,0.0 -52.7953125,-26.9144013992371,0.0 -52.7952666,-26.9144982992371,0.0 -52.7952188,-26.9145791992371,0.0 -52.7951746,-26.9146508992371,0.0 -52.7951207,-26.9147205992371,0.0 -52.7950542,-26.9147771992371,0.0 -52.7950031,-26.9148193992371,0.0 -52.7948437,-26.9149169992371,0.0 -52.7946606,-26.9150176992371,0.0 -52.7945994,-26.9150464992371,0.0 -52.7945463,-26.9150705992371,0.0 -52.7944817,-26.9150993992371,0.0 -52.7944233,-26.9151236992371,0.0 -52.7943772,-26.9151481992371,0.0 -52.7942724,-26.9152037992371,0.0 -52.7941151,-26.9152890992371,0.0 -52.7939866,-26.9153450992371,0.0 -52.7938666,-26.9154028992371,0.0 -52.793568,-26.9155292992371,0.0 -52.7934152,-26.9155827992371,0.0 -52.7932216,-26.9156501992371,0.0 -52.7930624,-26.9157000992371,0.0 -52.7928786,-26.9157421992371,0.0 -52.7927589,-26.9157671992371,0.0 -52.7927542,-26.9157675992371,0.0 -52.7927,-26.9157723992371,0.0 -52.7926723,-26.9157747992371,0.0 -52.7925944,-26.9157773992371,0.0 -52.792558,-26.9157769992371,0.0 -52.7924224,-26.9157558992371,0.0 -52.792254,-26.9157394992371,0.0 -52.7920701,-26.9157256992371,0.0 -52.7918982,-26.9157076992371,0.0 -52.7917965,-26.9156941992371,0.0 -52.7916422,-26.9156641992371,0.0 -52.7914553,-26.9156123992371,0.0 -52.7911647,-26.9154957992371,0.0 -52.7910979,-26.9154726992371,0.0 -52.7910198,-26.9154547992371,0.0 -52.7909516,-26.9154539992371,0.0 -52.7908201,-26.9154681992371,0.0 -52.790679,-26.9154908992371,0.0 -52.7904941,-26.9155104992371,0.0 -52.7903761,-26.9155229992371,0.0 -52.7902575,-26.9155406992371,0.0 -52.7901104,-26.9155603992371,0.0 -52.7899162,-26.9155844992371,0.0 -52.7897803,-26.9156078992371,0.0 -52.7894031,-26.9156533992371,0.0 -52.7893454,-26.9156711992371,0.0 -52.7892988,-26.9156978992371,0.0 -52.7892581,-26.9157353992371,0.0 -52.789216,-26.9157896992371,0.0 -52.7891493,-26.9158856992371,0.0 -52.789059,-26.9160187992371,0.0 -52.7890099,-26.9160978992371,0.0 -52.7889444,-26.9162311992371,0.0 -52.788922,-26.9163218992371,0.0 -52.788917,-26.916380599237,0.0 -52.7889187,-26.916433799237,0.0 -52.7889346,-26.9165231992371,0.0 -52.7889899,-26.916669899237,0.0 -52.7890197,-26.916760799237,0.0 -52.7890268,-26.9167888992371,0.0 -52.7890469,-26.916876899237,0.0 -52.789059,-26.916974899237,0.0 -52.7890633,-26.917029599237,0.0 -52.7890597,-26.917097499237,0.0 -52.7890441,-26.917142999237,0.0 -52.7890076,-26.917198799237,0.0 -52.7889412,-26.917285899237,0.0 -52.7888813,-26.917336699237,0.0 -52.7888035,-26.917366999237,0.0 -52.7887198,-26.917389999237,0.0 -52.7885669,-26.917404499237,0.0 -52.788472,-26.917402599237,0.0 -52.7883246,-26.917389799237,0.0 -52.7881894,-26.917378099237,0.0 -52.7881001,-26.917390599237,0.0 -52.788034,-26.917416499237,0.0 -52.7879666,-26.917461699237,0.0 -52.7878849,-26.917538899237,0.0 -52.7878094,-26.917644899237,0.0 -52.7877524,-26.917741199237,0.0 -52.7877036,-26.917831599237,0.0 -52.7876584,-26.917930899237,0.0 -52.7876315,-26.918005299237,0.0 -52.7875929,-26.918140899237,0.0 -52.7875804,-26.918277899237,0.0 -52.7875763,-26.918419599237,0.0 -52.7875868,-26.918552599237,0.0 -52.7876068,-26.918627299237,0.0 -52.7877027,-26.918839299237,0.0 -52.7877244,-26.918873399237,0.0 -52.7877973,-26.918988099237,0.0 -52.7879683,-26.919214199237,0.0 -52.788149,-26.919460799237,0.0 -52.7882469,-26.919601199237,0.0 -52.7884342,-26.919842099237,0.0 -52.7885592,-26.920008199237,0.0 -52.7886454,-26.920138399237,0.0 -52.7887149,-26.920256099237,0.0 -52.7887798,-26.920364699237,0.0 -52.7888088,-26.920440499237,0.0 -52.7888364,-26.920541999237,0.0 -52.7888394,-26.920613099237,0.0 -52.7888361,-26.920660799237,0.0 -52.7888019,-26.920753699237,0.0 -52.7887339,-26.920890299237,0.0 -52.7886417,-26.921036199237,0.0 -52.7885576,-26.921157699237,0.0 -52.7884243,-26.921312399237,0.0 -52.7882965,-26.921449999237,0.0 -52.7881142,-26.9216098992369,0.0 -52.7879705,-26.9217237992369,0.0 -52.7878572,-26.921806999237,0.0 -52.7877591,-26.9218767992369,0.0 -52.7876584,-26.9219484992369,0.0 -52.787527,-26.9220411992369,0.0 -52.7873933,-26.9221210992369,0.0 -52.7872706,-26.9221884992369,0.0 -52.7870642,-26.9222847992369,0.0 -52.7869952,-26.9223167992369,0.0 -52.7869172,-26.9223738992369,0.0 -52.7868739,-26.9224146992369,0.0 -52.7868339,-26.9224637992369,0.0 -52.7868045,-26.9225137992369,0.0 -52.7867873,-26.9225628992369,0.0 -52.7867771,-26.9226186992369,0.0 -52.7867734,-26.9226737992369,0.0 -52.7867757,-26.9227488992369,0.0 -52.7867867,-26.9227924992369,0.0 -52.7868189,-26.9228741992369,0.0 -52.7868637,-26.9229346992369,0.0 -52.7869226,-26.9229838992369,0.0 -52.7870133,-26.9230230992369,0.0 -52.7871751,-26.9230785992369,0.0 -52.7873525,-26.9231249992369,0.0 -52.7875076,-26.9231624992369,0.0 -52.7875977,-26.9231929992369,0.0 -52.7876406,-26.9232182992369,0.0 -52.7876875,-26.9232657992369,0.0 -52.7877135,-26.9233106992369,0.0 -52.7877186,-26.9233408992369,0.0 -52.787721,-26.9233795992369,0.0 -52.7877043,-26.9234104992369,0.0 -52.787666,-26.9234399992369,0.0 -52.7875639,-26.9235032992369,0.0 -52.7874951,-26.9235501992369,0.0 -52.7873967,-26.9236266992369,0.0 -52.7873155,-26.9236949992369,0.0 -52.7872858,-26.9237199992369,0.0 -52.7871986,-26.9237936992369,0.0 -52.7871119,-26.9238677992369,0.0 -52.7870175,-26.9239565992369,0.0 -52.7868259,-26.9241397992369,0.0 -52.7867146,-26.9242563992369,0.0 -52.7866249,-26.9243602992369,0.0 -52.7865244,-26.9244788992369,0.0 -52.7864289,-26.9245990992369,0.0 -52.7863316,-26.9247163992369,0.0 -52.7862168,-26.9248257992369,0.0 -52.7861175,-26.9249114992369,0.0 -52.7857774,-26.9252078992369,0.0 -52.7855953,-26.9253857992369,0.0 -52.7855387,-26.9254388992369,0.0 -52.7854854,-26.9255015992369,0.0 -52.7854391,-26.9255696992369,0.0 -52.7853476,-26.9257125992369,0.0 -52.7853158,-26.9257683992369,0.0 -52.7852207,-26.9259271992369,0.0 -52.7851406,-26.9260734992369,0.0 -52.7850965,-26.9261584992369,0.0 -52.7850441,-26.9262595992369,0.0 -52.7849745,-26.9263970992369,0.0 -52.7849171,-26.9264917992369,0.0 -52.7848432,-26.9266048992369,0.0 -52.7847332,-26.9267532992369,0.0 -52.7846706,-26.9268460992368,0.0 -52.7846305,-26.9269162992368,0.0 -52.7845986,-26.9269612992368,0.0 -52.7845253,-26.9270513992368,0.0 -52.7844937,-26.9270980992368,0.0 -52.7844821,-26.9271348992368,0.0 -52.7844409,-26.9272585992368,0.0 -52.7844053,-26.9273653992368,0.0 -52.7843614,-26.9274448992368,0.0 -52.7843238,-26.9275112992368,0.0 -52.7842756,-26.9275888992368,0.0 -52.7842273,-26.9276660992368,0.0 -52.7841639,-26.9277554992368,0.0 -52.7840397,-26.9278728992368,0.0 -52.7839198,-26.9279935992368,0.0 -52.7837684,-26.9281331992368,0.0 -52.7836458,-26.9282551992368,0.0 -52.7835712,-26.9283463992368,0.0 -52.7834793,-26.9284879992368,0.0 -52.7834169,-26.9285653992368,0.0 -52.7833645,-26.9285875992368,0.0 -52.7832349,-26.9286077992368,0.0 -52.7830552,-26.9286099992368,0.0 -52.7829343,-26.9285999992368,0.0 -52.7827994,-26.9285840992368,0.0 -52.7826535,-26.9285803992368,0.0 -52.7825229,-26.9285796992368,0.0 -52.7823987,-26.9285701992368,0.0 -52.7822524,-26.9285592992368,0.0 -52.7821472,-26.9285465992368,0.0 -52.7820426,-26.9285132992368,0.0 -52.7819244,-26.9284699992368,0.0 -52.7817558,-26.9284049992368,0.0 -52.7815961,-26.9283433992368,0.0 -52.7814629,-26.9282757992368,0.0 -52.7813807,-26.9282369992368,0.0 -52.7812543,-26.9281786992368,0.0 -52.7810516,-26.9280859992368,0.0 -52.7807826,-26.9279816992368,0.0 -52.7805689,-26.9279012992368,0.0 -52.7804213,-26.9278269992368,0.0 -52.7803265,-26.9277747992368,0.0 -52.7802439,-26.9277601992368,0.0 -52.780189,-26.9277601992368,0.0 -52.7801104,-26.9277754992368,0.0 -52.7800732,-26.9277895992368,0.0 -52.7800408,-26.9278097992368,0.0 -52.7800196,-26.9278286992368,0.0 -52.7800041,-26.9278645992368,0.0 -52.7800045,-26.9278883992368,0.0 -52.7800098,-26.9279368992368,0.0 -52.7800364,-26.9280223992368,0.0 -52.7800703,-26.9280727992368,0.0 -52.7801007,-26.9281076992368,0.0 -52.7801125,-26.9281218992368,0.0 -52.7801202,-26.9281391992368,0.0 -52.7801225,-26.9281632992368,0.0 -52.7801171,-26.9281930992368,0.0 -52.7800971,-26.9282361992368,0.0 -52.7800661,-26.9282753992368,0.0 -52.7800255,-26.9283225992368,0.0 -52.7800052,-26.9283546992368,0.0 -52.7799447,-26.9284341992368,0.0 -52.7798746,-26.9285203992368,0.0 -52.7798203,-26.9285725992368,0.0 -52.7797849,-26.9285928992368,0.0 -52.7797397,-26.9286154992368,0.0 -52.7796441,-26.9286481992368,0.0 -52.7794955,-26.9286893992368,0.0 -52.7793612,-26.9287146992368,0.0 -52.7792362,-26.9287388992368,0.0 -52.7790442,-26.9287642992368,0.0 -52.778905,-26.9287777992368,0.0 -52.7787326,-26.9287925992368,0.0 -52.7785794,-26.9288078992368,0.0 -52.778463,-26.9288119992368,0.0 -52.7783507,-26.9288108992368,0.0 -52.7782308,-26.9288014992368,0.0 -52.7781197,-26.9287826992368,0.0 -52.7780004,-26.9287507992368,0.0 -52.7778504,-26.9286905992368,0.0 -52.7777257,-26.9286290992368,0.0 -52.777584,-26.9285559992368,0.0 -52.7774237,-26.9284743992368,0.0 -52.7773141,-26.9284366992368,0.0 -52.7771537,-26.9284094992368,0.0 -52.7769704,-26.9283899992368,0.0 -52.7767061,-26.9283639992368,0.0 -52.7766111,-26.9283558992368,0.0 -52.7765161,-26.9283477992368,0.0 -52.7763646,-26.9283488992368,0.0 -52.7762629,-26.9283685992368,0.0 -52.7762092,-26.9284056992368,0.0 -52.7761696,-26.9284481992368,0.0 -52.7761326,-26.9285210992368,0.0 -52.7761007,-26.9285980992368,0.0 -52.7760715,-26.9286858992368,0.0 -52.7760582,-26.9287333992368,0.0 -52.7760338,-26.9288153992368,0.0 -52.7760155,-26.9288950992368,0.0 -52.7759919,-26.9289964992368,0.0 -52.7759805,-26.9291133992368,0.0 -52.7759785,-26.9291335992368,0.0 -52.7759656,-26.9292681992368,0.0 -52.7759539,-26.9293568992368,0.0 -52.7759348,-26.9294563992368,0.0 -52.7759163,-26.9295159992368,0.0 -52.7758809,-26.9295798992368,0.0 -52.7758316,-26.9296484992368,0.0 -52.7757706,-26.9297102992368,0.0 -52.775678,-26.9297915992368,0.0 -52.7755088,-26.9299255992368,0.0 -52.7754384,-26.9299850992368,0.0 -52.7753973,-26.9300431992368,0.0 -52.7753603,-26.9300991992368,0.0 -52.7753387,-26.9301570992368,0.0 -52.7752645,-26.9303326992368,0.0 -52.7751467,-26.9305482992368,0.0 -52.7750205,-26.9307529992368,0.0 -52.7749503,-26.9308708992368,0.0 -52.7748865,-26.9309835992368,0.0 -52.7747923,-26.9311405992368,0.0 -52.7747197,-26.9312374992368,0.0 -52.7746484,-26.9313190992368,0.0 -52.7745965,-26.9313730992368,0.0 -52.7745616,-26.9314175992368,0.0 -52.7745472,-26.9314490992368,0.0 -52.7745389,-26.9315045992368,0.0 -52.7745396,-26.9315537992368,0.0 -52.7745422,-26.9316425992368,0.0 -52.7745483,-26.9317368992368,0.0 -52.7745565,-26.9318255992367,0.0 -52.7745588,-26.9319004992368,0.0 -52.7745559,-26.9319297992368,0.0 -52.7745452,-26.9319715992367,0.0 -52.774525,-26.9320163992367,0.0 -52.7744857,-26.9320725992367,0.0 -52.7744606,-26.9320889992367,0.0 -52.7743959,-26.9321090992368,0.0 -52.7743481,-26.9321182992367,0.0 -52.7742672,-26.9321239992367,0.0 -52.7741809,-26.9321260992367,0.0 -52.7740859,-26.9321347992367,0.0 -52.7739804,-26.9321421992367,0.0 -52.7738103,-26.9321463992367,0.0 -52.7736314,-26.9321486992367,0.0 -52.7735521,-26.9321455992367,0.0 -52.7734206,-26.9321416992367,0.0 -52.7733401,-26.9321436992368,0.0 -52.77326,-26.9321507992367,0.0 -52.7731768,-26.9321673992368,0.0 -52.7730611,-26.9321913992367,0.0 -52.772926,-26.9322182992368,0.0 -52.7728424,-26.9322275992368,0.0 -52.7726344,-26.9322452992367,0.0 -52.772507,-26.9322463992367,0.0 -52.7723889,-26.9322398992367,0.0 -52.7722636,-26.9322221992367,0.0 -52.7721625,-26.9322158992367,0.0 -52.7720453,-26.9322152992367,0.0 -52.7719535,-26.9322244992367,0.0 -52.7718973,-26.9322418992367,0.0 -52.7718619,-26.9322620992367,0.0 -52.7718245,-26.9322925992367,0.0 -52.7717867,-26.9323339992368,0.0 -52.7717346,-26.9323938992367,0.0 -52.7716631,-26.9324694992367,0.0 -52.7715812,-26.9325556992367,0.0 -52.7714726,-26.9326591992367,0.0 -52.7713791,-26.9327584992367,0.0 -52.7712706,-26.9328699992367,0.0 -52.7711379,-26.9329987992367,0.0 -52.770989,-26.9331465992367,0.0 -52.770843,-26.9332902992367,0.0 -52.7706815,-26.9334357992367,0.0 -52.7705716,-26.9335232992367,0.0 -52.7704628,-26.9336168992367,0.0 -52.7703467,-26.9337075992367,0.0 -52.7702315,-26.9337988992367,0.0 -52.770102,-26.9338984992367,0.0 -52.7699894,-26.9339843992367,0.0 -52.7698635,-26.9340904992367,0.0 -52.7697654,-26.9341776992367,0.0 -52.7696638,-26.9342697992367,0.0 -52.7696558,-26.9342774992367,0.0 -52.7695293,-26.9343993992367,0.0 -52.7693826,-26.9345396992367,0.0 -52.76919,-26.9347224992367,0.0 -52.7690581,-26.9348441992367,0.0 -52.7689212,-26.9349562992367,0.0 -52.768793,-26.9350621992367,0.0 -52.7686784,-26.9351509992367,0.0 -52.7685207,-26.9352726992367,0.0 -52.7684016,-26.9353626992367,0.0 -52.768263,-26.9354563992367,0.0 -52.7681357,-26.9355446992367,0.0 -52.7679948,-26.9356445992367,0.0 -52.7678989,-26.9356915992367,0.0 -52.7677305,-26.9357723992367,0.0 -52.7675711,-26.9358333992367,0.0 -52.767344,-26.9358997992367,0.0 -52.7671288,-26.9359522992367,0.0 -52.766979,-26.9360044992367,0.0 -52.7668041,-26.9360931992367,0.0 -52.7666772,-26.9361470992367,0.0 -52.7665525,-26.9361709992367,0.0 -52.7663969,-26.9361851992367,0.0 -52.7661976,-26.9362091992367,0.0 -52.7659436,-26.9362580992367,0.0 -52.7657314,-26.9363355992367,0.0 -52.7654705,-26.9364475992367,0.0 -52.7652692,-26.9365543992367,0.0 -52.7650558,-26.9366711992367,0.0 -52.7647825,-26.9368018992367,0.0 -52.7645655,-26.9369257992367,0.0 -52.7642534,-26.9371240992366,0.0 -52.7640476,-26.9372509992366,0.0 -52.763826,-26.9373936992366,0.0 -52.7636187,-26.9375449992366,0.0 -52.7634222,-26.9376814992366,0.0 -52.7632275,-26.9377993992366,0.0 -52.7630131,-26.9379672992366,0.0 -52.7629072,-26.9380717992366,0.0 -52.762861,-26.9381422992366,0.0 -52.7628473,-26.9381944992366,0.0 -52.7628157,-26.9382791992366,0.0 -52.7627884,-26.9383949992366,0.0 -52.7627686,-26.9385270992366,0.0 -52.7627382,-26.9387952992366,0.0 -52.7627326,-26.9389863992366,0.0 -52.7626685,-26.9393331992366,0.0 -52.7626106,-26.9395520992366,0.0 -52.7625458,-26.9397989992366,0.0 -52.7624997,-26.9399744992366,0.0 -52.7624657,-26.9401125992366,0.0 -52.7624387,-26.9402322992366,0.0 -52.7623875,-26.9404264992366,0.0 -52.762336,-26.9405979992366,0.0 -52.7622549,-26.9408451992366,0.0 -52.762203,-26.9409861992366,0.0 -52.7620819,-26.9413324992366,0.0 -52.7619941,-26.9415502992366,0.0 -52.7619163,-26.9416608992366,0.0 -52.761809,-26.9417697992366,0.0 -52.7616808,-26.9418968992366,0.0 -52.7615421,-26.9420059992366,0.0 -52.7614317,-26.9420756992366,0.0 -52.7612815,-26.9421592992366,0.0 -52.7611961,-26.9422001992365,0.0 -52.7610836,-26.9422400992366,0.0 -52.7609023,-26.9422910992365,0.0 -52.7607369,-26.9423059992365,0.0 -52.7606223,-26.9423173992366,0.0 -52.7606042,-26.9422871992366,0.0 -52.7605918,-26.9422368992366,0.0 -52.7605665,-26.9421885992366,0.0 -52.7605246,-26.9421489992366,0.0 -52.7603069,-26.9418718992366,0.0 -52.7602074,-26.9417304992366,0.0 -52.7601079,-26.9415891992366,0.0 -52.759972,-26.9413283992366,0.0 -52.7598533,-26.9411309992366,0.0 -52.759836,-26.9410822992366,0.0 -52.7598346,-26.9410331992366,0.0 -52.7598552,-26.9409832992366,0.0 -52.7599306,-26.9408932992366,0.0 -52.7600344,-26.9407938992366,0.0 -52.7601488,-26.9406710992366,0.0 -52.7603135,-26.9404536992366,0.0 -52.7604325,-26.9402816992366,0.0 -52.7605425,-26.9401152992366,0.0 -52.760607,-26.9399534992366,0.0 -52.7606301,-26.9398508992366,0.0 -52.7606505,-26.9397201992366,0.0 -52.760667,-26.9395929992366,0.0 -52.7607033,-26.9393475992366,0.0 -52.7607503,-26.9389753992366,0.0 -52.7607309,-26.9388088992366,0.0 -52.7606804,-26.9386711992366,0.0 -52.7606022,-26.9385778992366,0.0 -52.7604935,-26.9384979992366,0.0 -52.7603621,-26.9384572992366,0.0 -52.7602437,-26.9384166992366,0.0 -52.7601814,-26.9383952992366,0.0 -52.7599176,-26.9383258992366,0.0 -52.7596892,-26.9382613992366,0.0 -52.7595506,-26.9382491992366,0.0 -52.759389,-26.9382655992366,0.0 -52.759272,-26.9382929992366,0.0 -52.7591509,-26.9383331992366,0.0 -52.7590504,-26.9384138992366,0.0 -52.7590379,-26.9384293992366,0.0 -52.758981,-26.9385001992366,0.0 -52.7589142,-26.9386074992366,0.0 -52.7588958,-26.9386607992366,0.0 -52.7588972,-26.9387100992366,0.0 -52.7589005,-26.9387593992366,0.0 -52.7589186,-26.9388364992366,0.0 -52.7589647,-26.9389672992366,0.0 -52.7589944,-26.9390843992366,0.0 -52.7589928,-26.9391689992366,0.0 -52.758971,-26.9392469992366,0.0 -52.7589387,-26.9393041992366,0.0 -52.7588983,-26.9393579992366,0.0 -52.7587824,-26.9394402992366,0.0 -52.7587058,-26.9394809992366,0.0 -52.7586801,-26.9394946992366,0.0 -52.7586645,-26.9395030992366,0.0 -52.7586437,-26.9395458992366,0.0 -52.7586199,-26.9396204992366,0.0 -52.7586038,-26.9396877992366,0.0 -52.7585985,-26.9398533992366,0.0 -52.7585992,-26.9399518992366,0.0 -52.7585851,-26.9401440992366,0.0 -52.7585633,-26.9402220992366,0.0 -52.7585332,-26.9402861992366,0.0 -52.7585017,-26.9403168992366,0.0 -52.7584227,-26.9403471992366,0.0 -52.7582836,-26.9403842992366,0.0 -52.758225,-26.9404316992366,0.0 -52.7581962,-26.9404710992366,0.0 -52.7581836,-26.9405206992366,0.0 -52.7581831,-26.9405734992366,0.0 -52.7581826,-26.9406262992366,0.0 -52.7581691,-26.9407145992366,0.0 -52.7581114,-26.9409359992366,0.0 -52.7579648,-26.9414041992366,0.0 -52.757819,-26.9417201992366,0.0 -52.7577682,-26.9418305992366,0.0 -52.7577012,-26.9419379992366,0.0 -52.7622223,-26.9626818992362,0.0 -52.7660372,-26.9812940992358,0.0 -52.7661051,-26.9816254992358,0.0 -52.768772,-26.9946509992355,0.0 -52.7970205,-27.0074454992353,0.0 -52.7971356,-27.0074975992353,0.0 -52.8213652,-27.0184650992351,0.0 -52.8298728,-27.0174286992351,0.0 -52.8404695,-27.0179523992351,0.0 -52.840239,-27.0097524992352,0.0 -52.8477041,-27.0099622992352,0.0 -52.8493979,-27.0100098992352,0.0 -52.8916969,-27.0105996992352,0.0 -52.8940069,-26.9753058992359,0.0 -52.8939723,-26.9752673992359,0.0 -52.8939696,-26.9752643992359,0.0 -52.8937327,-26.9750009992359,0.0 -52.893131,-26.9741604992359,0.0 -52.8929664,-26.9739305992359,0.0 -52.8927585,-26.9734029992359,0.0 -52.8924427,-26.971111099236,0.0 -52.8922414,-26.969438199236,0.0 -52.89242,-26.9676572992361,0.0 -52.892607,-26.9672072992361,0.0 -52.8936506,-26.9646956992361,0.0 -52.8947461,-26.9628883992361,0.0 -52.8963594,-26.9607125992362,0.0 -52.8982179,-26.9583365992362,0.0 -52.8985538,-26.9580477992362,0.0 -52.8988897,-26.9577589992363,0.0 -52.898972,-26.9576882992362,0.0 -52.9003816,-26.9564764992363,0.0 -52.9027456,-26.9544120992363,0.0 -52.9042215,-26.9529957992363,0.0 -52.9062105,-26.9511143992364,0.0 -52.9079488,-26.9495339992364,0.0 -52.9101942,-26.9476947992364,0.0 -52.913412,-26.9453968992365,0.0 -52.9156565,-26.9435118992365,0.0 -52.9163754,-26.9427292992365,0.0 -52.9170944,-26.9419466992366,0.0 -52.9182427,-26.9402825992366,0.0 -52.9189544,-26.9385098992366,0.0 -52.9195791,-26.9366554992367,0.0 -52.9196639,-26.9364038992367,0.0 -52.9204212,-26.9343100992367,0.0 -52.9207311,-26.9329778992367,0.0 -52.9209333,-26.9313266992368,0.0 -52.9211539,-26.9291587992368,0.0 -52.9210957,-26.9272363992368,0.0 -52.9206326,-26.9257672992369,0.0 -52.9199067,-26.9236707992369,0.0 -52.919517,-26.9217985992369,0.0 -52.9187726,-26.920266399237,0.0 -52.9177287,-26.919021299237,0.0 -52.9171843,-26.918582299237,0.0 -52.9166399,-26.918143199237,0.0 -52.9159198,-26.917901099237,0.0 -52.9151521,-26.917865699237,0.0 -52.914109,-26.918177499237,0.0 -52.9124581,-26.918840999237,0.0 -52.9112933,-26.919520799237,0.0 -52.9106181,-26.920422799237,0.0 -52.9099029,-26.9219893992369,0.0 -52.90958,-26.9240772992369,0.0 -52.909421,-26.9270202992369,0.0 -52.9093493,-26.9274058992368,0.0 -52.9089504,-26.9295526992368,0.0 -52.9085241,-26.9315732992368,0.0 -52.9081827,-26.9341040992367,0.0 -52.9077921,-26.9352083992367,0.0 -52.9073702,-26.9359695992367,0.0 -52.90662,-26.9366772992367,0.0 -52.9053867,-26.9380599992366,0.0 -52.9036125,-26.9395240992366,0.0 -52.9029598,-26.9402078992366,0.0 -52.9022187,-26.9409731992366,0.0 -52.9015652,-26.9416086992366,0.0 -52.8999779,-26.9422246992365,0.0 -52.8975484,-26.9429322992365,0.0 -52.8941639,-26.9436098992365,0.0 -52.8922348,-26.9438591992365,0.0 -52.8891966,-26.9442518992365,0.0 -52.8888973,-26.9442905992365,0.0 -52.8870012,-26.9443407992365,0.0 -52.8842607,-26.9444133992365,0.0 -52.8839512,-26.9444011992365,0.0 -52.8792907,-26.9442177992365,0.0 -52.8771669,-26.9441270992365,0.0 -52.8765324,-26.9439659992365,0.0 -52.875716,-26.9437587992365,0.0 -52.8751948,-26.9434843992365,0.0 -52.8749999,-26.9432330992365,0.0 -52.8748325,-26.9430173992365,0.0 -52.8747342,-26.9425830992365,0.0 -52.8746635,-26.9419851992366,0.0 -52.8747195,-26.9415707992366,0.0 -52.874861,-26.9411006992366,0.0 -52.8749999,-26.9407178992366,0.0 -52.8756166,-26.9402260992366,0.0 -52.8764427,-26.9393032992366,0.0 -52.8772772,-26.9380920992366,0.0 -52.8776211,-26.9375927992366,0.0 -52.8786391,-26.9365322992367,0.0 -52.88017,-26.9352154992367,0.0 -52.88115,-26.9342968992367,0.0 -52.881842,-26.9336214992367,0.0 -52.8823309,-26.9331442992367,0.0 -52.88334,-26.9317316992368,0.0 -52.88454,-26.9298323992368,0.0 -52.8851759,-26.9287081992368,0.0 -52.8859497,-26.9273400992368,0.0 -52.8881858,-26.9232298992369,0.0 -52.888568,-26.9225273992369,0.0 -52.8896366,-26.920392299237,0.0 -52.8897835,-26.920098599237,0.0 -52.8902987,-26.918236199237,0.0 -52.8908171,-26.916669299237,0.0 -52.8907932,-26.9139161992371,0.0 -52.8904386,-26.9094289992372,0.0 -52.8900112,-26.9078509992372,0.0 -52.8886472,-26.9051489992373,0.0 -52.887852,-26.9041623992373,0.0 -52.8871419,-26.9034929992373,0.0 -52.8865258,-26.9031485992373,0.0 -52.8856749,-26.9028954992373,0.0 -52.8849466,-26.9029051992373,0.0 -52.8840239,-26.9030673992373,0.0 -52.8834082,-26.9033702992373,0.0 -52.8821253,-26.9046542992373,0.0 -52.8809528,-26.9058371992373,0.0 -52.8808058,-26.9059854992373,0.0 -52.8798393,-26.9069605992372,0.0 -52.8777945,-26.9088747992372,0.0 -52.8768664,-26.9096911992372,0.0 -52.8758888,-26.9103903992372,0.0 -52.8749999,-26.9111205992372,0.0 -52.8742987,-26.9117719992371,0.0 -52.8742321,-26.9118582992371,0.0 -52.8739661,-26.9122032992371,0.0 -52.8735189,-26.9126556992371,0.0 -52.8730656,-26.9131299992371,0.0 -52.8725143,-26.9135837992371,0.0 -52.8717612,-26.9141556992371,0.0 -52.8710099,-26.9148460992371,0.0 -52.8703668,-26.9155691992371,0.0 -52.8699158,-26.9162712992371,0.0 -52.8696075,-26.916667799237,0.0 -52.8683337,-26.918383899237,0.0 -52.8668119,-26.920386799237,0.0 -52.8639794,-26.9228338992369,0.0 -52.8616982,-26.9245409992369,0.0 -52.8600557,-26.9252790992369,0.0 -52.8588599,-26.9255390992369,0.0 -52.8566939,-26.9254047992369,0.0 -52.8546523,-26.9250896992369,0.0 -52.8538131,-26.9249215992369,0.0 -52.8530235,-26.9244434992369,0.0 -52.8525952,-26.9238304992369,0.0 -52.8524194,-26.9230837992369,0.0 -52.8524232,-26.9222045992369,0.0 -52.8525607,-26.9217142992369,0.0 -52.8528979,-26.921151699237,0.0 -52.8537901,-26.920114199237,0.0 -52.8550244,-26.918876899237,0.0 -52.857257,-26.916669499237,0.0 -52.8554108,-26.9161836992371,0.0 -52.8549011,-26.9159399992371,0.0 -52.8544095,-26.9158976992371,0.0 -52.8539637,-26.9159114992371,0.0 -52.853454,-26.9157589992371,0.0 -52.8529787,-26.9155450992371,0.0 -52.8523455,-26.9151145992371,0.0 -52.851819,-26.9146016992371,0.0 -52.8513137,-26.9139846992371,0.0 -52.8506633,-26.9134269992371,0.0 -52.8501896,-26.9130622992371,0.0 -52.8495918,-26.9127749992371,0.0 -52.8489304,-26.9127951992371,0.0 -52.8482127,-26.9130103992371,0.0 -52.8474397,-26.9133659992371,0.0 -52.8431869,-26.9149312992371,0.0 -52.840171,-26.9103731992372,0.0 -52.8383294,-26.9113253992371,0.0 -52.8333176,-26.9139167992371,0.0 -52.8332857,-26.9139050992371,0.0 -52.833235,-26.9138773992371,0.0 -52.8332016,-26.9138448992371,0.0 -52.8331739,-26.9138374992371,0.0 -52.8331225,-26.9138368992371,0.0 -52.8330949,-26.9138187992371,0.0 -52.8330516,-26.9137932992371,0.0 -52.8330181,-26.9137822992371,0.0 -52.8330024,-26.9137642992371,0.0 -52.8329577,-26.9136711992371,0.0 -52.8329088,-26.9135994992371,0.0 -52.8328638,-26.9135455992371,0.0 -52.8328404,-26.9134990992371,0.0 -52.8328349,-26.9134491992371,0.0 -52.8328233,-26.9134205992371,0.0 -52.8327993,-26.9133990992371,0.0 -52.8327618,-26.9133844992371,0.0 -52.8327205,-26.9133554992371,0.0 -52.8327088,-26.9133304992371,0.0 -52.8326778,-26.9132517992371,0.0 -52.832649,-26.9131517992371,0.0 -52.8326517,-26.9130734992371,0.0 -52.8326738,-26.9130309992371,0.0 -52.8326839,-26.9130061992371,0.0 -52.8326804,-26.9129562992371,0.0 -52.8326651,-26.9128884992371,0.0 -52.8326398,-26.9128454992371,0.0 -52.8326021,-26.9128000992371,0.0 -52.8325635,-26.9127623992371,0.0 -52.8325432,-26.9127424992371,0.0 -52.8324665,-26.9126756992371,0.0 -52.8324089,-26.9126253992371,0.0 -52.8323881,-26.9126038992371,0.0 -52.8323618,-26.9125767992371,0.0 -52.8323423,-26.9125462992371,0.0 -52.8323366,-26.9125194992371,0.0 -52.8323404,-26.9124920992371,0.0 -52.8323436,-26.9124694992371,0.0 -52.8323576,-26.9124447992371,0.0 -52.8323753,-26.9124210992371,0.0 -52.8323761,-26.9124192992371,0.0 -52.8323686,-26.9123799992371,0.0 -52.8323649,-26.9123442992371,0.0 -52.8323612,-26.9123156992371,0.0 -52.8323494,-26.9122977992371,0.0 -52.8323063,-26.9122545992371,0.0 -52.8322826,-26.9122400992371,0.0 -52.8322768,-26.9122257992371,0.0 -52.832275,-26.9122078992371,0.0 -52.8322672,-26.9121899992371,0.0 -52.8322515,-26.9121719992371,0.0 -52.8322342,-26.9121183992371,0.0 -52.8322286,-26.9120790992371,0.0 -52.8322248,-26.9120540992371,0.0 -52.8322092,-26.9120254992371,0.0 -52.8321857,-26.9119895992371,0.0 -52.8321801,-26.9119538992371,0.0 -52.8321645,-26.9119287992371,0.0 -52.832135,-26.9118998992371,0.0 -52.8320969,-26.9118535992371,0.0 -52.8320794,-26.9118177992371,0.0 -52.8320703,-26.9117213992371,0.0 -52.8320599,-26.9115357992371,0.0 -52.8320568,-26.9114357992372,0.0 -52.832044,-26.9113036992371,0.0 -52.832029,-26.9112000992372,0.0 -52.8320177,-26.9110250992372,0.0 -52.8320004,-26.9109498992372,0.0 -52.8319791,-26.9108961992372,0.0 -52.8319556,-26.9108637992372,0.0 -52.8319163,-26.9108240992372,0.0 -52.831865,-26.9107950992372,0.0 -52.8317997,-26.9107801992372,0.0 -52.8317343,-26.9107830992372,0.0 -52.8316768,-26.9107968992372,0.0 -52.831622,-26.9108283992372,0.0 -52.8315382,-26.9108990992372,0.0 -52.8314804,-26.9109377992372,0.0 -52.8314347,-26.9109551992372,0.0 -52.8313932,-26.9109512992372,0.0 -52.8313498,-26.9109258992372,0.0 -52.831246,-26.9107748992372,0.0 -52.8311461,-26.9106417992372,0.0 -52.8311176,-26.9105698992372,0.0 -52.8310945,-26.9104803992372,0.0 -52.8310854,-26.9103730992372,0.0 -52.8310865,-26.9103622992372,0.0 -52.831094,-26.9102873992372,0.0 -52.8310846,-26.9102193992372,0.0 -52.8310613,-26.9101619992372,0.0 -52.8310322,-26.9100865992372,0.0 -52.8309975,-26.9099504992372,0.0 -52.8309655,-26.9097888992372,0.0 -52.8308856,-26.9098207992372,0.0 -52.8307551,-26.9098557992372,0.0 -52.8306182,-26.9098974992372,0.0 -52.8305824,-26.9099185992372,0.0 -52.8305445,-26.9099575992372,0.0 -52.8305166,-26.9099930992372,0.0 -52.8304705,-26.9100605992372,0.0 -52.8304426,-26.9100888992372,0.0 -52.8303832,-26.9101061992372,0.0 -52.8303297,-26.9101056992372,0.0 -52.8302764,-26.9100909992372,0.0 -52.8301543,-26.9100220992372,0.0 -52.8300697,-26.9099641992372,0.0 -52.8300185,-26.9099422992372,0.0 -52.8299315,-26.9099343992372,0.0 -52.8298642,-26.9099444992372,0.0 -52.8297356,-26.9099719992372,0.0 -52.8295731,-26.9100276992372,0.0 -52.8294761,-26.9100660992372,0.0 -52.8293768,-26.9101401992372,0.0 -52.8293174,-26.9102006992372,0.0 -52.8292462,-26.9102962992372,0.0 -52.8291914,-26.9103821992372,0.0 -52.8291548,-26.9104465992372,0.0 -52.8291224,-26.9104894992372,0.0 -52.8290763,-26.9105325992372,0.0 -52.8289435,-26.9106250992372,0.0 -52.8288993,-26.9106462992372,0.0 -52.828787,-26.9106742992372,0.0 -52.8286187,-26.9107054992372,0.0 -52.8285246,-26.9107228992372,0.0 -52.8284224,-26.9107472992372,0.0 -52.828327,-26.9107576992372,0.0 -52.8281492,-26.9107421992372,0.0 -52.8280355,-26.9107306992372,0.0 -52.8278849,-26.9106868992372,0.0 -52.8277554,-26.9106537992372,0.0 -52.8276636,-26.9106424992372,0.0 -52.8275758,-26.9106418992372,0.0 -52.8274959,-26.9106557992372,0.0 -52.8274478,-26.9106804992372,0.0 -52.8273976,-26.9107124992372,0.0 -52.8273614,-26.9107551992372,0.0 -52.8272545,-26.9108870992372,0.0 -52.8271941,-26.9109582992372,0.0 -52.8271378,-26.9110080992372,0.0 -52.8270857,-26.9110399992372,0.0 -52.8270116,-26.9110752992372,0.0 -52.8269473,-26.9111249992371,0.0 -52.826913,-26.9111784992372,0.0 -52.8269006,-26.9112249992371,0.0 -52.826902,-26.9112966992372,0.0 -52.8269196,-26.9113432992372,0.0 -52.8269471,-26.9113936992371,0.0 -52.8270262,-26.9114765992371,0.0 -52.8270557,-26.9115269992371,0.0 -52.8270613,-26.9115627992371,0.0 -52.8270471,-26.9116020992371,0.0 -52.8270189,-26.9116305992371,0.0 -52.8269829,-26.9116446992371,0.0 -52.826923,-26.9116477992371,0.0 -52.8267177,-26.9112953992372,0.0 -52.8225047,-26.9042454992373,0.0 -52.8152909,-26.9018949992373,0.0 -52.8145167,-26.9016528992373,0.0 -52.814499,-26.9017086992373,0.0 -52.8144799,-26.9017504992373,0.0 -52.814449,-26.9018001992373,0.0 -52.8144129,-26.9018291992373,0.0 -52.8143637,-26.9018577992373,0.0 -52.8143103,-26.9018849992373,0.0 -52.8142207,-26.9019170992373,0.0 -52.8140871,-26.9019446992373,0.0 -52.8139945,-26.9019526992373,0.0 -52.8139443,-26.9019490992373,0.0 -52.8138654,-26.9019414992373,0.0 -52.813715,-26.9019242992373,0.0 -52.8136008,-26.9019199992373,0.0 -52.8134855,-26.9019103992373,0.0 -52.813375,-26.9019053992373,0.0 -52.8133141,-26.9018998992373,0.0 -52.8132383,-26.9018856992373,0.0 -52.813099,-26.9018452992373,0.0 -52.8130189,-26.9018180992373,0.0 -52.8129489,-26.9017928992373,0.0 -52.8128598,-26.9017553992373,0.0 -52.8128022,-26.9017227992373,0.0 -52.8126894,-26.9016484992373,0.0 -52.8126143,-26.9015971992373,0.0 -52.8125556,-26.9015602992373,0.0 -52.8124999,-26.9015373992373,0.0 -52.8124572,-26.9015240992373,0.0 -52.8123682,-26.9015114992373,0.0 -52.8123015,-26.9014968992373,0.0 -52.8122395,-26.9014944992373,0.0 -52.8121245,-26.9015090992373,0.0 -52.8120404,-26.9015274992373,0.0 -52.8119505,-26.9015519992373,0.0 -52.811885,-26.9015827992373,0.0 -52.8118291,-26.9016132992373,0.0 -52.8117873,-26.9016423992373,0.0 -52.8117149,-26.9017464992373,0.0 -52.8116141,-26.9019104992373,0.0 -52.8115084,-26.9021717992373,0.0 -52.8114126,-26.9024233992373,0.0 -52.8113732,-26.9025094992373,0.0 -52.8112744,-26.9026611992373,0.0 -52.8112007,-26.9027480992373,0.0 -52.8111402,-26.9028135992373,0.0 -52.811084,-26.9028469992373,0.0 -52.8109674,-26.9029060992373,0.0 -52.8108741,-26.9029635992373,0.0 -52.8108387,-26.9029896992373,0.0 -52.8108032,-26.9030158992373,0.0 -52.8107316,-26.9030794992373,0.0 -52.8106691,-26.9031533992373,0.0 -52.8106083,-26.9032266992373,0.0 -52.8105422,-26.9032998992373,0.0 -52.8104805,-26.9033764992373,0.0 -52.810418,-26.9034446992373,0.0 -52.8103615,-26.9035124992373,0.0 -52.8102894,-26.9036049992373,0.0 -52.8101791,-26.9037303992373,0.0 -52.8100945,-26.9038278992373,0.0 -52.8100141,-26.9039201992373,0.0 -52.8099396,-26.9040255992373,0.0 -52.8098324,-26.9041701992373,0.0 -52.8097516,-26.9042816992373,0.0 -52.8097111,-26.9043327992373,0.0 -52.8096902,-26.9043484992373,0.0 -52.8096582,-26.9043690992373,0.0</coordinates>
</LinearRing>
</outerBoundaryIs>
</Polygon>
</MultiGeometry>
</Placemark>
</Folder>
</Document></kml>
