<?xml version='1.0' encoding='UTF-8'?>
<kml xmlns:xsd="http://www.w3.org/2001/XMLSchema" xmlns:gx="http://www.google.com/kml/ext/2.2" xmlns:atom="http://www.w3.org/2005/Atom" xmlns="http://www.opengis.net/kml/2.2">
<Document>
<name>nova_erechim_4211405_localidades_2022</name>
<visibility>1</visibility>
<Schema name="01. Cidade" id="kml_schema_ft_01._Cidade">
<SimpleField type="xsd:string" name="CD_UF">
<displayName>CD_UF</displayName>
</SimpleField>
<SimpleField type="xsd:string" name="NM_UF">
<displayName>NM_UF</displayName>
</SimpleField>
<SimpleField type="xsd:string" name="SIGLA_UF">
<displayName>SIGLA_UF</displayName>
</SimpleField>
<SimpleField type="xsd:string" name="CD_MUN">
<displayName>CD_MUN</displayName>
</SimpleField>
<SimpleField type="xsd:string" name="NM_MUN">
<displayName>NM_MUN</displayName>
</SimpleField>
<SimpleField type="xsd:string" name="CD_RGINT">
<displayName>CD_RGINT</displayName>
</SimpleField>
<SimpleField type="xsd:string" name="NM_RGINT">
<displayName>NM_RGINT</displayName>
</SimpleField>
<SimpleField type="xsd:string" name="CD_RGI">
<displayName>CD_RGI</displayName>
</SimpleField>
<SimpleField type="xsd:string" name="NM_RGI">
<displayName>NM_RGI</displayName>
</SimpleField>
<SimpleField type="xsd:string" name="CT_LOCALIDADE">
<displayName>CT_LOCALIDADE</displayName>
</SimpleField>
<SimpleField type="xsd:string" name="SCT_LOCALIDADE">
<displayName>SCT_LOCALIDADE</displayName>
</SimpleField>
<SimpleField type="xsd:string" name="CD_LOCALIDADE">
<displayName>CD_LOCALIDADE</displayName>
</SimpleField>
<SimpleField type="xsd:string" name="NM_LOCALIDADE">
<displayName>NM_LOCALIDADE</displayName>
</SimpleField>
<SimpleField type="xsd:string" name="LAT_LOCALIDADE">
<displayName>LAT_LOCALIDADE</displayName>
</SimpleField>
<SimpleField type="xsd:string" name="LONG_LOCALIDADE">
<displayName>LONG_LOCALIDADE</displayName>
</SimpleField>
</Schema>
<Schema name="Município" id="kml_schema_ft_Município">
<SimpleField type="xsd:string" name="CD_UF">
<displayName>CD_UF</displayName>
</SimpleField>
<SimpleField type="xsd:string" name="NM_UF">
<displayName>NM_UF</displayName>
</SimpleField>
<SimpleField type="xsd:string" name="CD_MUN">
<displayName>CD_MUN</displayName>
</SimpleField>
<SimpleField type="xsd:string" name="NM_MUN">
<displayName>NM_MUN</displayName>
</SimpleField>
<SimpleField type="xsd:string" name="CD_RGINT">
<displayName>CD_RGINT</displayName>
</SimpleField>
<SimpleField type="xsd:string" name="NM_RGINT">
<displayName>NM_RGINT</displayName>
</SimpleField>
<SimpleField type="xsd:string" name="CD_RGI">
<displayName>CD_RGI</displayName>
</SimpleField>
<SimpleField type="xsd:string" name="NM_RGI">
<displayName>NM_RGI</displayName>
</SimpleField>
</Schema>
<Folder id="01. Cidade">
<name>01. Cidade</name>
<Folder id="01.03. Sede Municipal">
<name>01.03. Sede Municipal</name>
<Placemark id="01.03. Sede Municipal">
<name>Nova Erechim [4211405]</name>
<visibility>1</visibility>
<snippet> </snippet>
<description>&lt;center&gt;&lt;table&gt;&lt;tr&gt;&lt;th colspan='2' align='center'&gt;&lt;em&gt;Atributos&lt;/em&gt;&lt;/th&gt;&lt;/tr&gt;&lt;tr bgcolor="#E3E3F3"&gt;
&lt;th&gt;CD_UF&lt;/th&gt;
&lt;td&gt;42&lt;/td&gt;
&lt;/tr&gt;&lt;tr bgcolor=""&gt;
&lt;th&gt;NM_UF&lt;/th&gt;
&lt;td&gt;Santa Catarina&lt;/td&gt;
&lt;/tr&gt;&lt;tr bgcolor="#E3E3F3"&gt;
&lt;th&gt;SIGLA_UF&lt;/th&gt;
&lt;td&gt;SC&lt;/td&gt;
&lt;/tr&gt;&lt;tr bgcolor=""&gt;
&lt;th&gt;CD_MUN&lt;/th&gt;
&lt;td&gt;4211405&lt;/td&gt;
&lt;/tr&gt;&lt;tr bgcolor="#E3E3F3"&gt;
&lt;th&gt;NM_MUN&lt;/th&gt;
&lt;td&gt;Nova Erechim&lt;/td&gt;
&lt;/tr&gt;&lt;tr bgcolor=""&gt;
&lt;th&gt;CD_RGINT&lt;/th&gt;
&lt;td&gt;4204&lt;/td&gt;
&lt;/tr&gt;&lt;tr bgcolor="#E3E3F3"&gt;
&lt;th&gt;NM_RGINT&lt;/th&gt;
&lt;td&gt;Chapecó&lt;/td&gt;
&lt;/tr&gt;&lt;tr bgcolor=""&gt;
&lt;th&gt;CD_RGI&lt;/th&gt;
&lt;td&gt;420007&lt;/td&gt;
&lt;/tr&gt;&lt;tr bgcolor="#E3E3F3"&gt;
&lt;th&gt;NM_RGI&lt;/th&gt;
&lt;td&gt;Chapecó&lt;/td&gt;
&lt;/tr&gt;&lt;tr bgcolor=""&gt;
&lt;th&gt;CT_LOCALIDADE&lt;/th&gt;
&lt;td&gt;Cidade&lt;/td&gt;
&lt;/tr&gt;&lt;tr bgcolor="#E3E3F3"&gt;
&lt;th&gt;SCT_LOCALIDADE&lt;/th&gt;
&lt;td&gt;Sede Municipal&lt;/td&gt;
&lt;/tr&gt;&lt;tr bgcolor=""&gt;
&lt;th&gt;CD_LOCALIDADE&lt;/th&gt;
&lt;td&gt;4211405&lt;/td&gt;
&lt;/tr&gt;&lt;tr bgcolor="#E3E3F3"&gt;
&lt;th&gt;NM_LOCALIDADE&lt;/th&gt;
&lt;td&gt;Nova Erechim&lt;/td&gt;
&lt;/tr&gt;&lt;tr bgcolor=""&gt;
&lt;th&gt;LAT_LOCALIDADE&lt;/th&gt;
&lt;td&gt;-26.9035&lt;/td&gt;
&lt;/tr&gt;&lt;tr bgcolor="#E3E3F3"&gt;
&lt;th&gt;LONG_LOCALIDADE&lt;/th&gt;
&lt;td&gt;-52.9069&lt;/td&gt;
&lt;/tr&gt;&lt;/table&gt;&lt;/center&gt;</description>
<Style>
<IconStyle>
<color>ff00aaff</color>
<scale>1.0</scale>
<Icon>
<href>http://maps.google.com/mapfiles/kml/shapes/placemark_circle.png</href>
</Icon>
</IconStyle>
<LabelStyle>
<scale>1.0</scale>
</LabelStyle>
<LineStyle>
<color>ffffffff</color>
<width>3</width>
<gx:labelVisibility>1</gx:labelVisibility>
</LineStyle>
<PolyStyle>
<color>00ffffff</color>
</PolyStyle>
</Style>
<ExtendedData>
<SchemaData schemaUrl="#kml_schema_ft_01._Cidade">
<SimpleData name="CD_UF">42</SimpleData>
<SimpleData name="NM_UF">Santa Catarina</SimpleData>
<SimpleData name="SIGLA_UF">SC</SimpleData>
<SimpleData name="CD_MUN">4211405</SimpleData>
<SimpleData name="NM_MUN">Nova Erechim</SimpleData>
<SimpleData name="CD_RGINT">4204</SimpleData>
<SimpleData name="NM_RGINT">Chapecó</SimpleData>
<SimpleData name="CD_RGI">420007</SimpleData>
<SimpleData name="NM_RGI">Chapecó</SimpleData>
<SimpleData name="CT_LOCALIDADE">Cidade</SimpleData>
<SimpleData name="SCT_LOCALIDADE">Sede Municipal</SimpleData>
<SimpleData name="CD_LOCALIDADE">4211405</SimpleData>
<SimpleData name="NM_LOCALIDADE">Nova Erechim</SimpleData>
<SimpleData name="LAT_LOCALIDADE">-26.9035</SimpleData>
<SimpleData name="LONG_LOCALIDADE">-52.9069</SimpleData>
</SchemaData>
</ExtendedData>
<Point>
<extrude>0</extrude>
<coordinates>-52.9069,-26.9034999992373,0.0</coordinates>
</Point>
</Placemark>
</Folder>
</Folder>
<Folder id="13. Referência">
<name>13. Referência</name>
<Placemark id="13. Referência">
<name>Nova Erechim [4211405]</name>
<visibility>1</visibility>
<snippet> </snippet>
<description>&lt;center&gt;&lt;table&gt;&lt;tr&gt;&lt;th colspan='2' align='center'&gt;&lt;em&gt;Attributes&lt;/em&gt;&lt;/th&gt;&lt;/tr&gt;&lt;tr bgcolor="#E3E3F3"&gt;
&lt;th&gt;CD_UF&lt;/th&gt;
&lt;td&gt;42&lt;/td&gt;
&lt;/tr&gt;&lt;tr bgcolor=""&gt;
&lt;th&gt;NM_UF&lt;/th&gt;
&lt;td&gt;Santa Catarina&lt;/td&gt;
&lt;/tr&gt;&lt;tr bgcolor="#E3E3F3"&gt;
&lt;th&gt;CD_MUN&lt;/th&gt;
&lt;td&gt;4211405&lt;/td&gt;
&lt;/tr&gt;&lt;tr bgcolor=""&gt;
&lt;th&gt;NM_MUN&lt;/th&gt;
&lt;td&gt;Nova Erechim&lt;/td&gt;
&lt;/tr&gt;&lt;tr bgcolor="#E3E3F3"&gt;
&lt;th&gt;CD_RGINT&lt;/th&gt;
&lt;td&gt;4204&lt;/td&gt;
&lt;/tr&gt;&lt;tr bgcolor=""&gt;
&lt;th&gt;NM_RGINT&lt;/th&gt;
&lt;td&gt;Chapecó&lt;/td&gt;
&lt;/tr&gt;&lt;tr bgcolor="#E3E3F3"&gt;
&lt;th&gt;CD_RGI&lt;/th&gt;
&lt;td&gt;420007&lt;/td&gt;
&lt;/tr&gt;&lt;tr bgcolor=""&gt;
&lt;th&gt;NM_RGI&lt;/th&gt;
&lt;td&gt;Chapecó&lt;/td&gt;
&lt;/tr&gt;&lt;/table&gt;&lt;/center&gt;</description>
<Style>
<IconStyle>
<scale>0.7</scale>
</IconStyle>
<LabelStyle>
<scale>0.7</scale>
</LabelStyle>
<LineStyle>
<color>ffffffff</color>
<width>3</width>
<gx:labelVisibility>1</gx:labelVisibility>
</LineStyle>
<PolyStyle>
<color>00ffffff</color>
</PolyStyle>
</Style>
<ExtendedData>
<SchemaData schemaUrl="#kml_schema_ft_Município">
<SimpleData name="CD_UF">42</SimpleData>
<SimpleData name="NM_UF">Santa Catarina</SimpleData>
<SimpleData name="CD_MUN">4211405</SimpleData>
<SimpleData name="NM_MUN">Nova Erechim</SimpleData>
<SimpleData name="CD_RGINT">4204</SimpleData>
<SimpleData name="NM_RGINT">Chapecó</SimpleData>
<SimpleData name="CD_RGI">420007</SimpleData>
<SimpleData name="NM_RGI">Chapecó</SimpleData>
</SchemaData>
</ExtendedData>
<MultiGeometry>
<Polygon>
<extrude>0</extrude>
<tessellate>1</tessellate>
<outerBoundaryIs>
<LinearRing>
<coordinates>-52.8746564,-26.8950664992375,0.0 -52.8744376,-26.8951179992375,0.0 -52.8743008,-26.8951471992375,0.0 -52.8741639,-26.8951762992375,0.0 -52.8739581,-26.8951826992375,0.0 -52.8738363,-26.8951707992375,0.0 -52.8737611,-26.8951503992375,0.0 -52.8737167,-26.8951283992375,0.0 -52.8736746,-26.8950926992375,0.0 -52.8736004,-26.8950162992375,0.0 -52.8735711,-26.8949735992375,0.0 -52.8735499,-26.8949270992375,0.0 -52.8735287,-26.8948795992375,0.0 -52.8735037,-26.8948491992375,0.0 -52.8734433,-26.8948002992375,0.0 -52.8733864,-26.8947744992375,0.0 -52.8733126,-26.8947578992375,0.0 -52.8732399,-26.8947507992375,0.0 -52.8731351,-26.8947318992375,0.0 -52.8729343,-26.8946690992375,0.0 -52.8727175,-26.8945876992375,0.0 -52.8724804,-26.8944932992375,0.0 -52.8721532,-26.8943300992375,0.0 -52.8719927,-26.8942427992375,0.0 -52.8718962,-26.8942216992375,0.0 -52.8717996,-26.8942005992375,0.0 -52.8716515,-26.8941942992375,0.0 -52.8715277,-26.8942008992375,0.0 -52.8714199,-26.8942205992375,0.0 -52.8712067,-26.8943078992375,0.0 -52.8710087,-26.8944165992375,0.0 -52.87082,-26.8945250992375,0.0 -52.8706153,-26.8946275992375,0.0 -52.8703577,-26.8947071992375,0.0 -52.8700776,-26.8947771992375,0.0 -52.869731,-26.8948480992375,0.0 -52.8689967,-26.8949621992375,0.0 -52.8688032,-26.8949784992375,0.0 -52.868073,-26.8950030992375,0.0 -52.8678425,-26.8949828992375,0.0 -52.8673272,-26.8949217992375,0.0 -52.8668712,-26.8948933992375,0.0 -52.8665213,-26.8949022992375,0.0 -52.8656889,-26.8949216992375,0.0 -52.864887,-26.8949365992375,0.0 -52.8643018,-26.8949202992375,0.0 -52.8642669,-26.8949193992375,0.0 -52.8633416,-26.8948913992375,0.0 -52.8625758,-26.8947785992375,0.0 -52.8620038,-26.8946605992375,0.0 -52.8616425,-26.8946060992375,0.0 -52.8612187,-26.8945642992375,0.0 -52.8609711,-26.8945852992375,0.0 -52.8607966,-26.8946290992375,0.0 -52.8606049,-26.8946286992375,0.0 -52.8603571,-26.8946348992375,0.0 -52.8601051,-26.8946618992375,0.0 -52.8597662,-26.8947610992375,0.0 -52.8595005,-26.8948889992375,0.0 -52.8590131,-26.8950887992375,0.0 -52.8587394,-26.8951790992375,0.0 -52.858366,-26.8952705992375,0.0 -52.8580954,-26.8953763992375,0.0 -52.8577523,-26.8955785992375,0.0 -52.8575002,-26.8957418992375,0.0 -52.8572283,-26.8959500992374,0.0 -52.8570664,-26.8961081992374,0.0 -52.8568119,-26.8963523992374,0.0 -52.8565857,-26.8965273992374,0.0 -52.8562447,-26.8966840992374,0.0 -52.8558507,-26.8967587992374,0.0 -52.8552691,-26.8968369992374,0.0 -52.8548634,-26.8968422992374,0.0 -52.8545489,-26.8968229992374,0.0 -52.8542633,-26.8967680992374,0.0 -52.8540364,-26.8967036992374,0.0 -52.8538757,-26.8966068992374,0.0 -52.8537197,-26.8964224992374,0.0 -52.8535931,-26.8962599992374,0.0 -52.8534127,-26.8961143992374,0.0 -52.8533046,-26.8959896992375,0.0 -52.8532644,-26.8958016992375,0.0 -52.853252,-26.8955466992375,0.0 -52.8532885,-26.8952595992375,0.0 -52.853373,-26.8948738992375,0.0 -52.853464,-26.8946323992375,0.0 -52.8535152,-26.8943280992375,0.0 -52.8536035,-26.8940715992375,0.0 -52.8536573,-26.8939074992375,0.0 -52.8537139,-26.8935926992375,0.0 -52.8537304,-26.8933416992375,0.0 -52.8537816,-26.8930133992375,0.0 -52.8538734,-26.8925459992375,0.0 -52.8538917,-26.8920855992375,0.0 -52.8539493,-26.8917548992375,0.0 -52.8539867,-26.8915562992375,0.0 -52.854087,-26.8913488992375,0.0 -52.8542519,-26.8909504992375,0.0 -52.8543584,-26.8907148992376,0.0 -52.8544448,-26.8904588992376,0.0 -52.8544796,-26.8901890992376,0.0 -52.8544348,-26.8898443992376,0.0 -52.8542983,-26.8894890992376,0.0 -52.8541007,-26.8890212992376,0.0 -52.8538273,-26.8886853992376,0.0 -52.8536274,-26.8884480992376,0.0 -52.8534141,-26.8883277992376,0.0 -52.8530804,-26.8881788992376,0.0 -52.8528727,-26.8881598992376,0.0 -52.8527265,-26.8881465992376,0.0 -52.8522412,-26.8882227992376,0.0 -52.8518072,-26.8883435992376,0.0 -52.8513834,-26.8885299992376,0.0 -52.850788,-26.8888872992376,0.0 -52.850181,-26.8892087992376,0.0 -52.8495198,-26.8896298992376,0.0 -52.8485895,-26.8901942992376,0.0 -52.8472143,-26.8911704992375,0.0 -52.8462871,-26.8919255992375,0.0 -52.8454527,-26.8927192992375,0.0 -52.8453669,-26.8928007992375,0.0 -52.8452894,-26.8928745992375,0.0 -52.8454696,-26.8937161992375,0.0 -52.8458848,-26.8944681992375,0.0 -52.8460092,-26.8946933992375,0.0 -52.8474349,-26.8961561992374,0.0 -52.8491703,-26.8975749992374,0.0 -52.8501133,-26.8984505992374,0.0 -52.8511105,-26.8993495992374,0.0 -52.8518229,-26.8998358992374,0.0 -52.8529485,-26.9006087992374,0.0 -52.8543197,-26.9015020992373,0.0 -52.8553714,-26.9021486992373,0.0 -52.8564029,-26.9030071992373,0.0 -52.8574599,-26.9040441992373,0.0 -52.858829,-26.9054665992373,0.0 -52.8594769,-26.9062810992373,0.0 -52.8598051,-26.9069248992372,0.0 -52.8602277,-26.9079646992372,0.0 -52.8607456,-26.9095462992372,0.0 -52.8609304,-26.9101110992372,0.0 -52.8609498,-26.9106301992372,0.0 -52.86082,-26.9120222992371,0.0 -52.8602224,-26.9134605992371,0.0 -52.8587213,-26.9152683992371,0.0 -52.857257,-26.916669499237,0.0 -52.8550244,-26.918876899237,0.0 -52.8537901,-26.920114199237,0.0 -52.8528979,-26.921151699237,0.0 -52.8525607,-26.9217142992369,0.0 -52.8524232,-26.9222045992369,0.0 -52.8524194,-26.9230837992369,0.0 -52.8525952,-26.9238304992369,0.0 -52.8530235,-26.9244434992369,0.0 -52.8538131,-26.9249215992369,0.0 -52.8546523,-26.9250896992369,0.0 -52.8566939,-26.9254047992369,0.0 -52.8588599,-26.9255390992369,0.0 -52.8600557,-26.9252790992369,0.0 -52.8616982,-26.9245409992369,0.0 -52.8639794,-26.9228338992369,0.0 -52.8668119,-26.920386799237,0.0 -52.8683337,-26.918383899237,0.0 -52.8696075,-26.916667799237,0.0 -52.8699158,-26.9162712992371,0.0 -52.8703668,-26.9155691992371,0.0 -52.8710099,-26.9148460992371,0.0 -52.8717612,-26.9141556992371,0.0 -52.8725143,-26.9135837992371,0.0 -52.8730656,-26.9131299992371,0.0 -52.8735189,-26.9126556992371,0.0 -52.8739661,-26.9122032992371,0.0 -52.8742321,-26.9118582992371,0.0 -52.8742987,-26.9117719992371,0.0 -52.8749999,-26.9111205992372,0.0 -52.8758888,-26.9103903992372,0.0 -52.8768664,-26.9096911992372,0.0 -52.8777945,-26.9088747992372,0.0 -52.8798393,-26.9069605992372,0.0 -52.8808058,-26.9059854992373,0.0 -52.8809528,-26.9058371992373,0.0 -52.8821253,-26.9046542992373,0.0 -52.8834082,-26.9033702992373,0.0 -52.8840239,-26.9030673992373,0.0 -52.8849466,-26.9029051992373,0.0 -52.8856749,-26.9028954992373,0.0 -52.8865258,-26.9031485992373,0.0 -52.8871419,-26.9034929992373,0.0 -52.887852,-26.9041623992373,0.0 -52.8886472,-26.9051489992373,0.0 -52.8900112,-26.9078509992372,0.0 -52.8904386,-26.9094289992372,0.0 -52.8907932,-26.9139161992371,0.0 -52.8908171,-26.916669299237,0.0 -52.8902987,-26.918236199237,0.0 -52.8897835,-26.920098599237,0.0 -52.8896366,-26.920392299237,0.0 -52.888568,-26.9225273992369,0.0 -52.8881858,-26.9232298992369,0.0 -52.8859497,-26.9273400992368,0.0 -52.8851759,-26.9287081992368,0.0 -52.88454,-26.9298323992368,0.0 -52.88334,-26.9317316992368,0.0 -52.8823309,-26.9331442992367,0.0 -52.881842,-26.9336214992367,0.0 -52.88115,-26.9342968992367,0.0 -52.88017,-26.9352154992367,0.0 -52.8786391,-26.9365322992367,0.0 -52.8776211,-26.9375927992366,0.0 -52.8772772,-26.9380920992366,0.0 -52.8764427,-26.9393032992366,0.0 -52.8756166,-26.9402260992366,0.0 -52.8749999,-26.9407178992366,0.0 -52.874861,-26.9411006992366,0.0 -52.8747195,-26.9415707992366,0.0 -52.8746635,-26.9419851992366,0.0 -52.8747342,-26.9425830992365,0.0 -52.8748325,-26.9430173992365,0.0 -52.8749999,-26.9432330992365,0.0 -52.8751948,-26.9434843992365,0.0 -52.875716,-26.9437587992365,0.0 -52.8765324,-26.9439659992365,0.0 -52.8771669,-26.9441270992365,0.0 -52.8792907,-26.9442177992365,0.0 -52.8839512,-26.9444011992365,0.0 -52.8842607,-26.9444133992365,0.0 -52.8870012,-26.9443407992365,0.0 -52.8888973,-26.9442905992365,0.0 -52.8891966,-26.9442518992365,0.0 -52.8922348,-26.9438591992365,0.0 -52.8941639,-26.9436098992365,0.0 -52.8975484,-26.9429322992365,0.0 -52.8999779,-26.9422246992365,0.0 -52.9015652,-26.9416086992366,0.0 -52.9022187,-26.9409731992366,0.0 -52.9029598,-26.9402078992366,0.0 -52.9036125,-26.9395240992366,0.0 -52.9053867,-26.9380599992366,0.0 -52.90662,-26.9366772992367,0.0 -52.9073702,-26.9359695992367,0.0 -52.9077921,-26.9352083992367,0.0 -52.9081827,-26.9341040992367,0.0 -52.9085241,-26.9315732992368,0.0 -52.9089504,-26.9295526992368,0.0 -52.9093493,-26.9274058992368,0.0 -52.909421,-26.9270202992369,0.0 -52.90958,-26.9240772992369,0.0 -52.9099029,-26.9219893992369,0.0 -52.9106181,-26.920422799237,0.0 -52.9112933,-26.919520799237,0.0 -52.9124581,-26.918840999237,0.0 -52.914109,-26.918177499237,0.0 -52.9151521,-26.917865699237,0.0 -52.9159198,-26.917901099237,0.0 -52.9166399,-26.918143199237,0.0 -52.9171843,-26.918582299237,0.0 -52.9177287,-26.919021299237,0.0 -52.9187726,-26.920266399237,0.0 -52.919517,-26.9217985992369,0.0 -52.9199067,-26.9236707992369,0.0 -52.9206326,-26.9257672992369,0.0 -52.9210957,-26.9272363992368,0.0 -52.9211539,-26.9291587992368,0.0 -52.9209333,-26.9313266992368,0.0 -52.9207311,-26.9329778992367,0.0 -52.9204212,-26.9343100992367,0.0 -52.9196639,-26.9364038992367,0.0 -52.9195791,-26.9366554992367,0.0 -52.9189544,-26.9385098992366,0.0 -52.9182427,-26.9402825992366,0.0 -52.9170944,-26.9419466992366,0.0 -52.9163754,-26.9427292992365,0.0 -52.9156565,-26.9435118992365,0.0 -52.913412,-26.9453968992365,0.0 -52.9101942,-26.9476947992364,0.0 -52.9079488,-26.9495339992364,0.0 -52.9062105,-26.9511143992364,0.0 -52.9042215,-26.9529957992363,0.0 -52.9027456,-26.9544120992363,0.0 -52.9003816,-26.9564764992363,0.0 -52.898972,-26.9576882992362,0.0 -52.8988897,-26.9577589992363,0.0 -52.8985538,-26.9580477992362,0.0 -52.8982179,-26.9583365992362,0.0 -52.8963594,-26.9607125992362,0.0 -52.8947461,-26.9628883992361,0.0 -52.8936506,-26.9646956992361,0.0 -52.892607,-26.9672072992361,0.0 -52.89242,-26.9676572992361,0.0 -52.8922414,-26.969438199236,0.0 -52.8924427,-26.971111099236,0.0 -52.8927585,-26.9734029992359,0.0 -52.8929664,-26.9739305992359,0.0 -52.893131,-26.9741604992359,0.0 -52.8937327,-26.9750009992359,0.0 -52.8939696,-26.9752643992359,0.0 -52.8939723,-26.9752673992359,0.0 -52.8940069,-26.9753058992359,0.0 -52.8942873,-26.9756175992359,0.0 -52.8956426,-26.9762275992359,0.0 -52.8965025,-26.9767944992359,0.0 -52.8980883,-26.9770318992359,0.0 -52.900294,-26.9767128992359,0.0 -52.9018632,-26.9759611992359,0.0 -52.903883,-26.9747009992359,0.0 -52.9047794,-26.9739412992359,0.0 -52.9052357,-26.9735546992359,0.0 -52.9064247,-26.972821799236,0.0 -52.9089339,-26.971341799236,0.0 -52.9119564,-26.969635399236,0.0 -52.9139001,-26.968527399236,0.0 -52.9145,-26.968185299236,0.0 -52.9172234,-26.9669851992361,0.0 -52.9201989,-26.9659400992361,0.0 -52.9226915,-26.9651257992361,0.0 -52.9249611,-26.9645773992361,0.0 -52.9268016,-26.9644968992361,0.0 -52.9274932,-26.9644666992361,0.0 -52.9307193,-26.9647881992361,0.0 -52.9335249,-26.9650961992361,0.0 -52.9344166,-26.9651940992361,0.0 -52.9364098,-26.9653949992361,0.0 -52.9374999,-26.9654899992361,0.0 -52.9391252,-26.9658067992361,0.0 -52.9400863,-26.9659095992361,0.0 -52.9406039,-26.9659024992361,0.0 -52.9412528,-26.9658935992361,0.0 -52.9421572,-26.9657186992361,0.0 -52.9430059,-26.9653124992361,0.0 -52.943211,-26.9651050992361,0.0 -52.9435411,-26.9647713992361,0.0 -52.943709,-26.9639799992361,0.0 -52.9435634,-26.9630537992362,0.0 -52.9432105,-26.9621303992362,0.0 -52.9424425,-26.9611895992362,0.0 -52.941491,-26.9603352992362,0.0 -52.9404091,-26.9592362992362,0.0 -52.9397401,-26.9583337992362,0.0 -52.9389711,-26.9575111992363,0.0 -52.9383943,-26.9566144992363,0.0 -52.9375,-26.9555108992363,0.0 -52.9367121,-26.9542341992363,0.0 -52.9356712,-26.9526247992363,0.0 -52.9350833,-26.9514425992364,0.0 -52.9346396,-26.9504108992364,0.0 -52.9342588,-26.9488831992364,0.0 -52.9342956,-26.9485133992364,0.0 -52.9343121,-26.9483479992364,0.0 -52.9340366,-26.9484238992364,0.0 -52.9337337,-26.9485954992364,0.0 -52.9335806,-26.9487112992364,0.0 -52.9334765,-26.9488241992364,0.0 -52.9334062,-26.9489106992364,0.0 -52.9333543,-26.9489856992364,0.0 -52.9332572,-26.9491279992364,0.0 -52.9331601,-26.9492702992364,0.0 -52.9330557,-26.9493941992364,0.0 -52.9329835,-26.9494617992364,0.0 -52.9329358,-26.9495366992364,0.0 -52.9328782,-26.9496783992364,0.0 -52.9328165,-26.9498351992364,0.0 -52.9327935,-26.9499021992364,0.0 -52.932788,-26.9499801992364,0.0 -52.9327888,-26.9500061992364,0.0 -52.9327995,-26.9500690992364,0.0 -52.9328503,-26.9501686992364,0.0 -52.9328625,-26.9502130992364,0.0 -52.9328736,-26.9503056992364,0.0 -52.9328703,-26.9503872992364,0.0 -52.9328486,-26.9504765992364,0.0 -52.932845,-26.9505618992364,0.0 -52.9328474,-26.9506952992364,0.0 -52.9328478,-26.9508287992364,0.0 -52.9328302,-26.9509179992364,0.0 -52.9327989,-26.9509811992364,0.0 -52.9327222,-26.9511043992364,0.0 -52.9326641,-26.9511716992364,0.0 -52.9326074,-26.9512724992364,0.0 -52.9325778,-26.9513208992364,0.0 -52.9325187,-26.9513547992364,0.0 -52.9324485,-26.9513666992364,0.0 -52.9324136,-26.9513649992364,0.0 -52.9323882,-26.9513637992364,0.0 -52.9323465,-26.9513568992364,0.0 -52.9323394,-26.9513418992364,0.0 -52.9323363,-26.9513086992364,0.0 -52.9323263,-26.9512532992364,0.0 -52.9323241,-26.9511975992364,0.0 -52.9323066,-26.9511016992364,0.0 -52.9322821,-26.9510610992364,0.0 -52.9322561,-26.9510243992364,0.0 -52.9321979,-26.9509693992364,0.0 -52.9321078,-26.9508778992364,0.0 -52.9320512,-26.9508043992364,0.0 -52.9319855,-26.9507086992364,0.0 -52.9319253,-26.9506537992364,0.0 -52.9318875,-26.9506393992364,0.0 -52.9318543,-26.9506397992364,0.0 -52.931832,-26.9506585992364,0.0 -52.9318164,-26.9506883992364,0.0 -52.9317974,-26.9507330992364,0.0 -52.9317878,-26.9507591992364,0.0 -52.9317615,-26.9507779992364,0.0 -52.931714,-26.9507858992364,0.0 -52.9316599,-26.9507828992364,0.0 -52.9315462,-26.9507432992364,0.0 -52.9313618,-26.9507080992364,0.0 -52.9312892,-26.9507088992364,0.0 -52.9311969,-26.9507395992364,0.0 -52.9311582,-26.9507621992364,0.0 -52.9311199,-26.9507959992364,0.0 -52.9310784,-26.9508555992364,0.0 -52.9310419,-26.9508781992364,0.0 -52.9310087,-26.9508822992364,0.0 -52.9309713,-26.9508790992364,0.0 -52.9308912,-26.9508429992364,0.0 -52.9308484,-26.9508063992364,0.0 -52.9308245,-26.9507769992364,0.0 -52.9308131,-26.9507475992364,0.0 -52.9308081,-26.9507216992364,0.0 -52.9308062,-26.9506703992364,0.0 -52.9308057,-26.9505957992364,0.0 -52.9308075,-26.9505290992364,0.0 -52.9308032,-26.9504661992364,0.0 -52.9307993,-26.9504142992364,0.0 -52.9307802,-26.9503441992364,0.0 -52.9307598,-26.9502961992364,0.0 -52.930703,-26.9502152992364,0.0 -52.9306237,-26.9501457992364,0.0 -52.9305558,-26.9501057992364,0.0 -52.9304862,-26.9500731992364,0.0 -52.9304681,-26.9500696992364,0.0 -52.9304319,-26.9500627992364,0.0 -52.9303666,-26.9500375992364,0.0 -52.9303325,-26.9500119992364,0.0 -52.9302935,-26.9499679992364,0.0 -52.9302309,-26.9498982992364,0.0 -52.9301133,-26.9497604992364,0.0 -52.9300409,-26.9496545992364,0.0 -52.9299892,-26.9496038992364,0.0 -52.9299302,-26.9495758992364,0.0 -52.9298885,-26.9495732992364,0.0 -52.9298121,-26.9495865992364,0.0 -52.9297302,-26.9496150992364,0.0 -52.9296301,-26.9496624992364,0.0 -52.9295978,-26.9496695992364,0.0 -52.9295332,-26.9496837992364,0.0 -52.9294731,-26.9496818992364,0.0 -52.9294459,-26.9496751992364,0.0 -52.9294073,-26.9496427992364,0.0 -52.929355,-26.9495771992364,0.0 -52.9293327,-26.9495295992364,0.0 -52.929325,-26.9494887992364,0.0 -52.929329,-26.9494290992364,0.0 -52.9293435,-26.9493691992364,0.0 -52.929373,-26.9493236992364,0.0 -52.9294644,-26.9492165992364,0.0 -52.9295144,-26.9491630992364,0.0 -52.9295719,-26.9491428992364,0.0 -52.9296546,-26.9491294992364,0.0 -52.9297408,-26.9491044992364,0.0 -52.9297977,-26.9490693992364,0.0 -52.9298177,-26.9490464992364,0.0 -52.9298267,-26.9490089992364,0.0 -52.9298234,-26.9489755992364,0.0 -52.9298046,-26.9489163992364,0.0 -52.9297749,-26.9488354992364,0.0 -52.929661,-26.9486222992364,0.0 -52.9295468,-26.9484503992364,0.0 -52.929474,-26.9483295992364,0.0 -52.9294465,-26.9482559992364,0.0 -52.9294269,-26.9481638992364,0.0 -52.9294209,-26.9481117992364,0.0 -52.9294226,-26.9480445992364,0.0 -52.9294304,-26.9479664992364,0.0 -52.9294592,-26.9479022992364,0.0 -52.9295111,-26.9478481992364,0.0 -52.9295905,-26.9478012992364,0.0 -52.9296784,-26.9477579992364,0.0 -52.9298293,-26.9476824992364,0.0 -52.9299455,-26.9476159992364,0.0 -52.9300306,-26.9475540992365,0.0 -52.9300912,-26.9475039992364,0.0 -52.9301251,-26.9474619992365,0.0 -52.9302045,-26.9473590992364,0.0 -52.9302595,-26.9472710992365,0.0 -52.9303062,-26.9471802992365,0.0 -52.9303619,-26.9471078992365,0.0 -52.9303932,-26.9470546992365,0.0 -52.9304066,-26.9469608992365,0.0 -52.9304018,-26.9468862992365,0.0 -52.9303824,-26.9468081992365,0.0 -52.9303621,-26.9467608992365,0.0 -52.9303293,-26.9467168992365,0.0 -52.9302653,-26.9466735992365,0.0 -52.930198,-26.9466498992365,0.0 -52.9301447,-26.9466137992365,0.0 -52.9301036,-26.9465698992365,0.0 -52.9300896,-26.9465290992365,0.0 -52.9300925,-26.9464915992365,0.0 -52.9301098,-26.9464537992365,0.0 -52.9301618,-26.9463925992365,0.0 -52.930202,-26.9463541992365,0.0 -52.9302158,-26.9463313992365,0.0 -52.9302335,-26.9463047992365,0.0 -52.9302405,-26.9462671992365,0.0 -52.9302331,-26.9462307992365,0.0 -52.9302177,-26.9462087992365,0.0 -52.9302001,-26.9461829992365,0.0 -52.9301467,-26.9461430992365,0.0 -52.9300535,-26.9460938992365,0.0 -52.9299836,-26.9460618992365,0.0 -52.9298993,-26.9460339992365,0.0 -52.9298282,-26.9460179992365,0.0 -52.9297773,-26.9459929992365,0.0 -52.9297296,-26.9459416992365,0.0 -52.9296906,-26.9458949992365,0.0 -52.929664,-26.9458506992365,0.0 -52.9296567,-26.9458208992365,0.0 -52.9296554,-26.9457833992365,0.0 -52.9296696,-26.9457156992365,0.0 -52.929693,-26.9456738992365,0.0 -52.9297417,-26.9456325992365,0.0 -52.9297642,-26.9456140992365,0.0 -52.9298448,-26.9455477992365,0.0 -52.9299017,-26.9455088992365,0.0 -52.9299944,-26.9454242992365,0.0 -52.9300416,-26.9453963992365,0.0 -52.93008,-26.9453735992365,0.0 -52.9302186,-26.9452722992365,0.0 -52.9302787,-26.9452077992365,0.0 -52.9303329,-26.9451509992365,0.0 -52.9303607,-26.9451143992365,0.0 -52.930382,-26.9450690992365,0.0 -52.9303889,-26.9450275992365,0.0 -52.9303951,-26.9449686992365,0.0 -52.9303956,-26.9449234992365,0.0 -52.9303802,-26.9448421992365,0.0 -52.9303352,-26.9446293992365,0.0 -52.9303331,-26.9445704992365,0.0 -52.9303423,-26.9445365992365,0.0 -52.9303601,-26.9445062992365,0.0 -52.9304229,-26.9444581992365,0.0 -52.9304818,-26.9444176992365,0.0 -52.9305306,-26.9443870992365,0.0 -52.9305563,-26.9443468992365,0.0 -52.9305616,-26.9443204992365,0.0 -52.9305606,-26.9442903992365,0.0 -52.9305596,-26.9442639992365,0.0 -52.9305666,-26.9442262992365,0.0 -52.9306031,-26.9441406992365,0.0 -52.9306424,-26.9440724992365,0.0 -52.9306967,-26.9439604992365,0.0 -52.9307322,-26.9439035992365,0.0 -52.9307473,-26.9438581992365,0.0 -52.9307587,-26.9437690992365,0.0 -52.9307635,-26.9436686992365,0.0 -52.9307805,-26.9436194992365,0.0 -52.9308085,-26.9435853992365,0.0 -52.9308658,-26.9435546992365,0.0 -52.9309503,-26.9435312992365,0.0 -52.9310867,-26.9434999992365,0.0 -52.9312629,-26.9434796992365,0.0 -52.9313813,-26.9434710992365,0.0 -52.9314809,-26.9434627992365,0.0 -52.931576,-26.9434430992365,0.0 -52.9316289,-26.9434143992365,0.0 -52.9316538,-26.9434008992365,0.0 -52.9317456,-26.9433472992365,0.0 -52.9318104,-26.9432900992365,0.0 -52.9318587,-26.9432460992365,0.0 -52.9318707,-26.9432307992365,0.0 -52.93187,-26.9432118992365,0.0 -52.9318522,-26.9431835992365,0.0 -52.9318391,-26.9431647992365,0.0 -52.9318463,-26.9431306992365,0.0 -52.9318707,-26.9431115992365,0.0 -52.9319139,-26.9430960992365,0.0 -52.9319467,-26.9430806992365,0.0 -52.931962,-26.9430520992365,0.0 -52.9319606,-26.9430066992365,0.0 -52.9319527,-26.9429631992365,0.0 -52.9319354,-26.9429443992365,0.0 -52.9318821,-26.9429162992365,0.0 -52.9317677,-26.9428491992365,0.0 -52.9317163,-26.9428135992365,0.0 -52.9316539,-26.9427534992365,0.0 -52.9316011,-26.9426724992365,0.0 -52.9315733,-26.9425949992365,0.0 -52.9315563,-26.9425194992365,0.0 -52.931559,-26.9424833992366,0.0 -52.9315701,-26.9424416992366,0.0 -52.9315986,-26.9424187992365,0.0 -52.9316587,-26.9424107992365,0.0 -52.9317129,-26.9424140992366,0.0 -52.9318239,-26.9424227992365,0.0 -52.9318718,-26.9424261992365,0.0 -52.9319336,-26.9424067992365,0.0 -52.9319537,-26.9423838992365,0.0 -52.9319714,-26.9423495992366,0.0 -52.9319865,-26.9423134992365,0.0 -52.9319854,-26.9422793992366,0.0 -52.9319736,-26.9422340992366,0.0 -52.9319397,-26.9421604992366,0.0 -52.9318876,-26.9420925992366,0.0 -52.9317698,-26.9420006992366,0.0 -52.9316608,-26.9419237992366,0.0 -52.9315768,-26.9418574992366,0.0 -52.9314423,-26.9417511992366,0.0 -52.9313674,-26.9417005992366,0.0 -52.931339,-26.9416590992366,0.0 -52.9313277,-26.9416325992366,0.0 -52.9313204,-26.9416022992366,0.0 -52.9313203,-26.9415435992366,0.0 -52.9313187,-26.9414942992366,0.0 -52.9313183,-26.9414242992366,0.0 -52.9313041,-26.9413711992366,0.0 -52.9312979,-26.9413163992366,0.0 -52.9312962,-26.9412669992366,0.0 -52.9313015,-26.9412547992366,0.0 -52.9313079,-26.9412402992366,0.0 -52.9313262,-26.9412287992366,0.0 -52.931355,-26.9412171992366,0.0 -52.9314109,-26.9412052992366,0.0 -52.9314625,-26.9411935992366,0.0 -52.9314914,-26.9411819992366,0.0 -52.9315033,-26.9411628992366,0.0 -52.9315025,-26.9411400992366,0.0 -52.9314975,-26.9411134992366,0.0 -52.9314793,-26.9410739992366,0.0 -52.9314285,-26.9409929992366,0.0 -52.9313787,-26.9409399992366,0.0 -52.9313457,-26.9408868992366,0.0 -52.9313297,-26.9408512992366,0.0 -52.9313272,-26.9408360992366,0.0 -52.9313247,-26.9408246992366,0.0 -52.9313432,-26.9407681992366,0.0 -52.9313558,-26.9407134992366,0.0 -52.9313828,-26.9406546992366,0.0 -52.9314041,-26.9406050992366,0.0 -52.931467,-26.9405003992366,0.0 -52.9315217,-26.9404505992366,0.0 -52.9315674,-26.9403816992366,0.0 -52.9315788,-26.9403472992366,0.0 -52.9315875,-26.9403039992366,0.0 -52.9315861,-26.9402620992366,0.0 -52.9315848,-26.9402200992366,0.0 -52.9315811,-26.9401806992366,0.0 -52.9315736,-26.9401425992366,0.0 -52.9315557,-26.9401045992366,0.0 -52.9315327,-26.9400461992366,0.0 -52.931521,-26.9400043992366,0.0 -52.9315154,-26.9399624992366,0.0 -52.9315152,-26.9399000992366,0.0 -52.9315323,-26.9398503992366,0.0 -52.9315585,-26.9398197992366,0.0 -52.9315871,-26.9398004992366,0.0 -52.9316263,-26.9397887992366,0.0 -52.9316467,-26.9397771992366,0.0 -52.9317407,-26.9396608992366,0.0 -52.9317954,-26.9396108992366,0.0 -52.9318729,-26.9395141992366,0.0 -52.9319225,-26.9394552992366,0.0 -52.9320018,-26.9393243992366,0.0 -52.9320347,-26.9392588992366,0.0 -52.9320644,-26.9391434992366,0.0 -52.9321161,-26.9389924992366,0.0 -52.9321653,-26.9389225992366,0.0 -52.9322387,-26.9388677992366,0.0 -52.9322651,-26.9388547992366,0.0 -52.9323081,-26.9388336992366,0.0 -52.9323569,-26.9388197992366,0.0 -52.9324764,-26.9387894992366,0.0 -52.9326323,-26.9387626992366,0.0 -52.9328385,-26.9387265992366,0.0 -52.9328525,-26.9387240992366,0.0 -52.9329091,-26.9387143992366,0.0 -52.933039,-26.9386922992366,0.0 -52.9331848,-26.9386658992366,0.0 -52.9333166,-26.9386474992366,0.0 -52.9333772,-26.9386263992366,0.0 -52.9333995,-26.9386136992366,0.0 -52.9334192,-26.9386024992366,0.0 -52.9334463,-26.9385812992366,0.0 -52.9334926,-26.9385166992366,0.0 -52.9335592,-26.9384213992366,0.0 -52.9335857,-26.9383854992366,0.0 -52.9336021,-26.9383405992366,0.0 -52.9336,-26.9382965992366,0.0 -52.9335978,-26.9382487992366,0.0 -52.9335944,-26.9382194992366,0.0 -52.9336008,-26.9381787992366,0.0 -52.9336262,-26.9381648992366,0.0 -52.9336867,-26.9381438992366,0.0 -52.9337662,-26.9381071992366,0.0 -52.9338242,-26.9380882992366,0.0 -52.933875,-26.9380345992366,0.0 -52.9338897,-26.9379971992366,0.0 -52.9338911,-26.9379070992366,0.0 -52.9338891,-26.9378629992366,0.0 -52.9338542,-26.9377724992366,0.0 -52.9337995,-26.9376093992366,0.0 -52.9337336,-26.9373803992366,0.0 -52.9336984,-26.9372384992367,0.0 -52.9336839,-26.9371471992366,0.0 -52.933656,-26.9369864992366,0.0 -52.9336641,-26.9368942992367,0.0 -52.9336912,-26.9367844992367,0.0 -52.9337272,-26.9367204992367,0.0 -52.9337994,-26.9366401992367,0.0 -52.9339318,-26.9365443992367,0.0 -52.9340434,-26.9364772992367,0.0 -52.9340971,-26.9364418992367,0.0 -52.9341261,-26.9364039992367,0.0 -52.9341414,-26.9363460992367,0.0 -52.9341397,-26.9363093992367,0.0 -52.9341375,-26.9362616992367,0.0 -52.9341261,-26.9361922992367,0.0 -52.9341193,-26.9361336992367,0.0 -52.9341146,-26.9361157992367,0.0 -52.9340994,-26.9360572992367,0.0 -52.9340728,-26.9359701992367,0.0 -52.9340473,-26.9359050992367,0.0 -52.9340302,-26.9357904992367,0.0 -52.9340146,-26.9355976992367,0.0 -52.933986,-26.9354223992367,0.0 -52.9339621,-26.9352579992367,0.0 -52.9339457,-26.9351140992367,0.0 -52.9339584,-26.9350008992367,0.0 -52.9339956,-26.9347863992367,0.0 -52.9340114,-26.9346508992367,0.0 -52.9340119,-26.9345736992367,0.0 -52.9340044,-26.9345445992367,0.0 -52.9339967,-26.9345376992367,0.0 -52.9339767,-26.9345199992367,0.0 -52.9339431,-26.9345029992367,0.0 -52.9338461,-26.9344322992367,0.0 -52.9336888,-26.9343420992367,0.0 -52.9335774,-26.9342803992367,0.0 -52.9334499,-26.9342109992367,0.0 -52.9333695,-26.9341874992367,0.0 -52.9332976,-26.9341829992367,0.0 -52.9332947,-26.9341828992367,0.0 -52.9331773,-26.9341793992367,0.0 -52.9330096,-26.9341703992367,0.0 -52.9326674,-26.9341499992367,0.0 -52.9325407,-26.9341393992367,0.0 -52.9323916,-26.9341296992367,0.0 -52.932342,-26.9341205992367,0.0 -52.9322789,-26.9340881992367,0.0 -52.9322389,-26.9340640992367,0.0 -52.9321764,-26.9340409992367,0.0 -52.9321023,-26.9340328992367,0.0 -52.9320003,-26.9340212992367,0.0 -52.9319526,-26.9340085992367,0.0 -52.9318969,-26.9339767992367,0.0 -52.9318353,-26.9339297992367,0.0 -52.931788,-26.9338785992367,0.0 -52.9317251,-26.9338215992367,0.0 -52.9316904,-26.9337789992367,0.0 -52.9316804,-26.9337390992367,0.0 -52.9316771,-26.9336870992367,0.0 -52.9316809,-26.9335917992367,0.0 -52.9316955,-26.9334857992367,0.0 -52.9316923,-26.9333687992367,0.0 -52.9316708,-26.9333000992367,0.0 -52.9316408,-26.9332243992367,0.0 -52.9315876,-26.9331788992367,0.0 -52.9314999,-26.9331383992367,0.0 -52.9313876,-26.9330987992367,0.0 -52.9312556,-26.9330483992367,0.0 -52.9310298,-26.9329099992367,0.0 -52.931011,-26.9328984992367,0.0 -52.9307406,-26.9327218992367,0.0 -52.9306361,-26.9326710992367,0.0 -52.9305411,-26.9326369992367,0.0 -52.9304729,-26.9326213992367,0.0 -52.9303448,-26.9326214992367,0.0 -52.9302265,-26.9326260992367,0.0 -52.930096,-26.9326488992367,0.0 -52.9299606,-26.9326973992367,0.0 -52.9298701,-26.9327440992367,0.0 -52.9297035,-26.9328705992367,0.0 -52.9294044,-26.9330943992367,0.0 -52.9292088,-26.9332277992367,0.0 -52.9290717,-26.9332863992367,0.0 -52.9289518,-26.9333151992367,0.0 -52.9288681,-26.9333148992367,0.0 -52.9288119,-26.9332980992367,0.0 -52.9287944,-26.9332874992367,0.0 -52.9287554,-26.9332638992367,0.0 -52.9287143,-26.9332173992367,0.0 -52.9286787,-26.9331495992367,0.0 -52.9286644,-26.9331026992367,0.0 -52.9286598,-26.9330445992367,0.0 -52.9286602,-26.9330400992367,0.0 -52.9286639,-26.9329970992367,0.0 -52.9287091,-26.9329114992367,0.0 -52.9287401,-26.9328197992367,0.0 -52.9288275,-26.9326638992367,0.0 -52.9290035,-26.9324352992368,0.0 -52.9291071,-26.9323129992367,0.0 -52.9292932,-26.9320934992367,0.0 -52.9295692,-26.9318209992368,0.0 -52.929688,-26.9317292992368,0.0 -52.9298346,-26.9316468992368,0.0 -52.9298632,-26.9316020992368,0.0 -52.9298731,-26.9315364992368,0.0 -52.9298576,-26.9314605992368,0.0 -52.9298309,-26.9314105992368,0.0 -52.9297842,-26.9313686992368,0.0 -52.9297095,-26.9313386992368,0.0 -52.9296297,-26.9313450992368,0.0 -52.9295798,-26.9313687992368,0.0 -52.9294321,-26.9314506992368,0.0 -52.9293045,-26.9315243992368,0.0 -52.9292283,-26.9315633992368,0.0 -52.9291456,-26.9315846992368,0.0 -52.9291004,-26.9315861992368,0.0 -52.9290444,-26.9315627992368,0.0 -52.9289793,-26.9315179992368,0.0 -52.9289223,-26.9314727992368,0.0 -52.9288447,-26.9313773992368,0.0 -52.9287885,-26.9313133992368,0.0 -52.9287675,-26.9312893992368,0.0 -52.9287371,-26.9312467992368,0.0 -52.9286835,-26.9311396992368,0.0 -52.9286433,-26.9310572992368,0.0 -52.9285962,-26.9309609992368,0.0 -52.9285228,-26.9308323992368,0.0 -52.928462,-26.9307402992368,0.0 -52.9283851,-26.9306121992368,0.0 -52.9283463,-26.9305153992368,0.0 -52.9282979,-26.9303862992368,0.0 -52.9282803,-26.9303141992368,0.0 -52.9282714,-26.9302453992368,0.0 -52.9282781,-26.9301650992368,0.0 -52.9282745,-26.9300815992368,0.0 -52.9282639,-26.9299728992368,0.0 -52.9282252,-26.9298324992368,0.0 -52.9281936,-26.9296663992368,0.0 -52.9281399,-26.9295517992368,0.0 -52.9280552,-26.9294312992368,0.0 -52.92799,-26.9293354992368,0.0 -52.9279335,-26.9292066992368,0.0 -52.9279051,-26.9290695992368,0.0 -52.9279009,-26.9290187992368,0.0 -52.9279079,-26.9289891992368,0.0 -52.9279544,-26.9289329992368,0.0 -52.9280461,-26.9288386992368,0.0 -52.92822,-26.9286728992368,0.0 -52.9283964,-26.9284548992368,0.0 -52.9284208,-26.9284067992368,0.0 -52.9284288,-26.9283555992368,0.0 -52.928422,-26.9282940992368,0.0 -52.928419,-26.9282790992368,0.0 -52.9284043,-26.9282069992368,0.0 -52.928374,-26.9280736992368,0.0 -52.9283261,-26.9279554992368,0.0 -52.928295,-26.9278947992368,0.0 -52.9282242,-26.9277665992368,0.0 -52.9281055,-26.9276109992368,0.0 -52.9279878,-26.9275279992368,0.0 -52.9278865,-26.9274444992368,0.0 -52.9277731,-26.9273220992368,0.0 -52.9276594,-26.9271880992368,0.0 -52.9274935,-26.9270233992368,0.0 -52.9274061,-26.9269320992368,0.0 -52.9271211,-26.9266130992369,0.0 -52.9269813,-26.9264365992369,0.0 -52.9269673,-26.9263961992369,0.0 -52.9269705,-26.9263742992369,0.0 -52.9269792,-26.9263413992369,0.0 -52.9270123,-26.9263040992369,0.0 -52.9270289,-26.9262954992369,0.0 -52.927072,-26.9262731992369,0.0 -52.9271399,-26.9262411992369,0.0 -52.9272042,-26.9262211992369,0.0 -52.9272644,-26.9262002992369,0.0 -52.9273004,-26.9261846992369,0.0 -52.9274675,-26.9260833992369,0.0 -52.9275747,-26.9260168992369,0.0 -52.9275796,-26.9260142992369,0.0 -52.9276582,-26.9259730992369,0.0 -52.9277641,-26.9259174992369,0.0 -52.9278257,-26.9258825992369,0.0 -52.9279483,-26.9257937992369,0.0 -52.9281483,-26.9256585992369,0.0 -52.9282769,-26.9255658992369,0.0 -52.9283481,-26.9255113992369,0.0 -52.9283791,-26.9254823992369,0.0 -52.9284116,-26.9254340992369,0.0 -52.9284191,-26.9254065992369,0.0 -52.9284259,-26.9253815992369,0.0 -52.92842,-26.9253381992369,0.0 -52.9283403,-26.9251921992369,0.0 -52.928312,-26.9251023992369,0.0 -52.9282974,-26.9250012992369,0.0 -52.9282929,-26.9249046992369,0.0 -52.9282991,-26.9248137992369,0.0 -52.9283139,-26.9247248992369,0.0 -52.9283328,-26.9246443992369,0.0 -52.9283641,-26.9245620992369,0.0 -52.9284092,-26.9244978992369,0.0 -52.9284216,-26.9244802992369,0.0 -52.9284406,-26.9244505992369,0.0 -52.9284689,-26.9244372992369,0.0 -52.9285033,-26.9244324992369,0.0 -52.9285721,-26.9244227992369,0.0 -52.9286709,-26.9244163992369,0.0 -52.9287368,-26.9244120992369,0.0 -52.9288794,-26.9244143992369,0.0 -52.9289819,-26.9244202992369,0.0 -52.9291404,-26.9244619992369,0.0 -52.929323,-26.9245304992369,0.0 -52.9294709,-26.9245738992369,0.0 -52.9295386,-26.9245737992369,0.0 -52.9295988,-26.9245534992369,0.0 -52.929655,-26.9244897992369,0.0 -52.929678,-26.9244439992369,0.0 -52.9297007,-26.9243596992369,0.0 -52.9297101,-26.9242975992369,0.0 -52.9297302,-26.9241392992369,0.0 -52.9297309,-26.9240286992369,0.0 -52.9297311,-26.9240069992369,0.0 -52.9297118,-26.9238478992369,0.0 -52.9296179,-26.9234112992369,0.0 -52.9295873,-26.9232708992369,0.0 -52.9295866,-26.9232091992369,0.0 -52.9296043,-26.9231504992369,0.0 -52.9296241,-26.9230917992369,0.0 -52.9296645,-26.9230395992369,0.0 -52.9297324,-26.9229991992369,0.0 -52.9298469,-26.9229661992369,0.0 -52.9300269,-26.9229290992369,0.0 -52.9302014,-26.9229031992369,0.0 -52.930218,-26.9229011992369,0.0 -52.9304117,-26.9228776992369,0.0 -52.9305504,-26.9228673992369,0.0 -52.9306779,-26.9228520992369,0.0 -52.9307203,-26.9228469992369,0.0 -52.9308786,-26.9228214992369,0.0 -52.9311453,-26.9227830992369,0.0 -52.9313882,-26.9227364992369,0.0 -52.9315952,-26.9226876992369,0.0 -52.9317505,-26.9226510992369,0.0 -52.9318406,-26.9226188992369,0.0 -52.9319356,-26.9225809992369,0.0 -52.9320683,-26.9225199992369,0.0 -52.9321989,-26.9224862992369,0.0 -52.9322873,-26.9224776992369,0.0 -52.9323323,-26.9224833992369,0.0 -52.9324233,-26.9225164992369,0.0 -52.9325148,-26.9225604992369,0.0 -52.9325673,-26.9225949992369,0.0 -52.9326209,-26.9226549992369,0.0 -52.932686,-26.9227435992369,0.0 -52.9327672,-26.9229188992369,0.0 -52.9328504,-26.9231212992369,0.0 -52.9329147,-26.9232258992369,0.0 -52.932917,-26.9232296992369,0.0 -52.9329385,-26.9232543992369,0.0 -52.932976,-26.9232877992369,0.0 -52.9330137,-26.9233118992369,0.0 -52.9330609,-26.9233210992369,0.0 -52.9331344,-26.9233257992369,0.0 -52.9332466,-26.9233233992369,0.0 -52.9333826,-26.9233185992369,0.0 -52.9334648,-26.9233030992369,0.0 -52.9335226,-26.9232791992369,0.0 -52.9335945,-26.9232511992369,0.0 -52.9336546,-26.9232401992369,0.0 -52.9337133,-26.9232343992369,0.0 -52.9337765,-26.9232301992369,0.0 -52.9338961,-26.9232222992369,0.0 -52.9339566,-26.9232127992369,0.0 -52.9340016,-26.9231967992369,0.0 -52.9340246,-26.9231885992369,0.0 -52.9340527,-26.9231764992369,0.0 -52.9340841,-26.9231629992369,0.0 -52.9341155,-26.9231399992369,0.0 -52.9342013,-26.9230604992369,0.0 -52.9342299,-26.9230250992369,0.0 -52.9342468,-26.9229953992369,0.0 -52.9342681,-26.9229290992369,0.0 -52.9342884,-26.9227973992369,0.0 -52.9343054,-26.9226803992369,0.0 -52.9342991,-26.9225896992369,0.0 -52.9342754,-26.9224795992369,0.0 -52.9342282,-26.9223393992369,0.0 -52.9341833,-26.9222026992369,0.0 -52.9341158,-26.9220632992369,0.0 -52.9339945,-26.9219039992369,0.0 -52.9339509,-26.9218399992369,0.0 -52.9339337,-26.9217751992369,0.0 -52.9339354,-26.921689499237,0.0 -52.9339382,-26.9216165992369,0.0 -52.9339517,-26.921557899237,0.0 -52.9339868,-26.9214802992369,0.0 -52.9340459,-26.921359699237,0.0 -52.9341338,-26.921245299237,0.0 -52.934186,-26.921185199237,0.0 -52.9343121,-26.921096899237,0.0 -52.9344612,-26.921022399237,0.0 -52.9346255,-26.920930599237,0.0 -52.9347523,-26.920861999237,0.0 -52.9348644,-26.920777799237,0.0 -52.9349676,-26.920680799237,0.0 -52.9351059,-26.920549699237,0.0 -52.93521,-26.920427099237,0.0 -52.9354104,-26.920140599237,0.0 -52.935649,-26.919829899237,0.0 -52.9357922,-26.919685799237,0.0 -52.9358869,-26.919620299237,0.0 -52.9359111,-26.919615799237,0.0 -52.9359318,-26.919622299237,0.0 -52.9359884,-26.919700399237,0.0 -52.9361054,-26.919852799237,0.0 -52.9362479,-26.920026099237,0.0 -52.9363469,-26.920138999237,0.0 -52.9363935,-26.920177399237,0.0 -52.9364287,-26.920190699237,0.0 -52.93649,-26.920201699237,0.0 -52.9365449,-26.920199699237,0.0 -52.9365972,-26.920186799237,0.0 -52.9367122,-26.920115699237,0.0 -52.9369994,-26.919937599237,0.0 -52.9371184,-26.919877299237,0.0 -52.9372711,-26.919826299237,0.0 -52.9374651,-26.919789499237,0.0 -52.9375,-26.919782799237,0.0 -52.9375317,-26.919776799237,0.0 -52.9375852,-26.919780199237,0.0 -52.9376211,-26.919808299237,0.0 -52.937673,-26.919876099237,0.0 -52.9377486,-26.919959099237,0.0 -52.9377926,-26.919986999237,0.0 -52.9378256,-26.919996999237,0.0 -52.9378581,-26.919996099237,0.0 -52.9379082,-26.919980199237,0.0 -52.9379514,-26.919946299237,0.0 -52.9379624,-26.919920499237,0.0 -52.9379628,-26.919884099237,0.0 -52.9379603,-26.919829599237,0.0 -52.9379538,-26.919775099237,0.0 -52.9379598,-26.919727599237,0.0 -52.9379925,-26.919686699237,0.0 -52.9381046,-26.919633899237,0.0 -52.9381827,-26.919606299237,0.0 -52.9382592,-26.919569999237,0.0 -52.9382962,-26.919552399237,0.0 -52.9384028,-26.919480399237,0.0 -52.9385425,-26.919361399237,0.0 -52.9387225,-26.919186699237,0.0 -52.9389412,-26.918984499237,0.0 -52.9390544,-26.918879599237,0.0 -52.9391838,-26.918797299237,0.0 -52.9393068,-26.918705899237,0.0 -52.9394095,-26.918616899237,0.0 -52.939483,-26.918534999237,0.0 -52.9395584,-26.918424899237,0.0 -52.9396215,-26.918335899237,0.0 -52.939664,-26.918287599237,0.0 -52.9397057,-26.918264699237,0.0 -52.9398092,-26.918237599237,0.0 -52.9399239,-26.918232099237,0.0 -52.9400112,-26.918230099237,0.0 -52.940092,-26.918239999237,0.0 -52.9401691,-26.918281899237,0.0 -52.9402073,-26.918317399237,0.0 -52.9402774,-26.918404099237,0.0 -52.9403772,-26.918500099237,0.0 -52.9404539,-26.918553799237,0.0 -52.9405455,-26.918602699237,0.0 -52.9405965,-26.918611499237,0.0 -52.9407011,-26.918623399237,0.0 -52.9407511,-26.918627899237,0.0 -52.9408274,-26.918623499237,0.0 -52.9409241,-26.918606699237,0.0 -52.941066,-26.918567899237,0.0 -52.9411785,-26.918519899237,0.0 -52.941181,-26.918518799237,0.0 -52.9412669,-26.918476399237,0.0 -52.9413,-26.918457399237,0.0 -52.9413269,-26.918444099237,0.0 -52.9413884,-26.918407899237,0.0 -52.9413925,-26.918254699237,0.0 -52.9413998,-26.918145399237,0.0 -52.9414061,-26.918081499237,0.0 -52.9414144,-26.918023499237,0.0 -52.9414294,-26.917972199237,0.0 -52.9414436,-26.917948299237,0.0 -52.9415171,-26.917866599237,0.0 -52.9415571,-26.917829299237,0.0 -52.9415787,-26.917804199237,0.0 -52.9415986,-26.917781099237,0.0 -52.9416396,-26.917727799237,0.0 -52.9416575,-26.917698299237,0.0 -52.9416685,-26.917647099237,0.0 -52.9416762,-26.917523199237,0.0 -52.9416855,-26.917417699237,0.0 -52.941694,-26.917333799237,0.0 -52.9417119,-26.917280599237,0.0 -52.9417478,-26.917237499237,0.0 -52.941782,-26.917203399237,0.0 -52.9418667,-26.917128699237,0.0 -52.9418833,-26.917114099237,0.0 -52.9419428,-26.917057399237,0.0 -52.9420441,-26.916938699237,0.0 -52.9421368,-26.916808899237,0.0 -52.9422053,-26.916702799237,0.0 -52.9422223,-26.916667599237,0.0 -52.942271,-26.916566599237,0.0 -52.9423179,-26.9164166992371,0.0 -52.9423942,-26.9161855992371,0.0 -52.9424498,-26.9159993992371,0.0 -52.9424699,-26.9159206992371,0.0 -52.9424867,-26.9157758992371,0.0 -52.9424853,-26.9157081992371,0.0 -52.9424739,-26.9156765992371,0.0 -52.9424476,-26.9156465992371,0.0 -52.9423327,-26.9155481992371,0.0 -52.9422374,-26.9154730992371,0.0 -52.9421798,-26.9154065992371,0.0 -52.9421591,-26.9153604992371,0.0 -52.9421502,-26.9153124992371,0.0 -52.942143,-26.9152519992371,0.0 -52.9421458,-26.9151966992371,0.0 -52.942145,-26.9151574992371,0.0 -52.9421347,-26.9151141992371,0.0 -52.9420694,-26.9150151992371,0.0 -52.9420161,-26.9149232992371,0.0 -52.9419883,-26.9148529992371,0.0 -52.9419618,-26.9147179992371,0.0 -52.9419527,-26.9146611992371,0.0 -52.9419237,-26.9145991992371,0.0 -52.9418807,-26.9145267992371,0.0 -52.9418426,-26.9144335992371,0.0 -52.9418144,-26.9143438992371,0.0 -52.9417917,-26.9142017992371,0.0 -52.9417679,-26.9141024992371,0.0 -52.9417504,-26.9140190992371,0.0 -52.941741,-26.9139462992371,0.0 -52.9417534,-26.9138766992371,0.0 -52.9417776,-26.9138069992371,0.0 -52.9418133,-26.9137192992371,0.0 -52.941842,-26.9136743992371,0.0 -52.941929,-26.9135841992371,0.0 -52.9420922,-26.9134324992371,0.0 -52.9421538,-26.9133568992371,0.0 -52.9422119,-26.9133008992371,0.0 -52.9422619,-26.9132360992371,0.0 -52.9423286,-26.9131177992371,0.0 -52.9423475,-26.9130765992371,0.0 -52.9423485,-26.9130338992371,0.0 -52.9423341,-26.9130019992371,0.0 -52.9423179,-26.9129844992371,0.0 -52.9421787,-26.9129119992371,0.0 -52.9420391,-26.9128428992371,0.0 -52.9419118,-26.9127649992371,0.0 -52.9417837,-26.9126726992371,0.0 -52.9417116,-26.9126186992371,0.0 -52.941663,-26.9125554992371,0.0 -52.9416159,-26.9124708992371,0.0 -52.9415723,-26.9123631992371,0.0 -52.941541,-26.9122801992371,0.0 -52.9415252,-26.9122122992371,0.0 -52.941522,-26.9121554992371,0.0 -52.9415311,-26.9121197992371,0.0 -52.9415634,-26.9120606992371,0.0 -52.9416376,-26.9119334992371,0.0 -52.9416865,-26.9118522992371,0.0 -52.9417442,-26.9117194992371,0.0 -52.941773,-26.9116173992371,0.0 -52.9417919,-26.9114857992372,0.0 -52.9417994,-26.9113702992372,0.0 -52.9418001,-26.9112175992372,0.0 -52.9417794,-26.9109783992372,0.0 -52.9417711,-26.9107971992372,0.0 -52.9417752,-26.9106477992372,0.0 -52.9418001,-26.9105213992372,0.0 -52.941814,-26.9104289992372,0.0 -52.941824,-26.9102813992372,0.0 -52.9418324,-26.9102137992372,0.0 -52.9418432,-26.9101352992372,0.0 -52.9418355,-26.9100467992372,0.0 -52.9418397,-26.9099633992372,0.0 -52.9418499,-26.9098887992372,0.0 -52.9418704,-26.9098298992372,0.0 -52.9418932,-26.9097922992372,0.0 -52.9419043,-26.9097601992372,0.0 -52.9419111,-26.9097051992372,0.0 -52.9419044,-26.9096697992372,0.0 -52.9418838,-26.9096258992372,0.0 -52.9418574,-26.9095854992372,0.0 -52.9418389,-26.9095468992372,0.0 -52.9418303,-26.9095097992372,0.0 -52.9418308,-26.9094406992372,0.0 -52.9418141,-26.9093948992372,0.0 -52.9417915,-26.9093491992372,0.0 -52.9417613,-26.9093124992372,0.0 -52.9417056,-26.9092671992372,0.0 -52.9416499,-26.9092115992372,0.0 -52.94161,-26.9091821992372,0.0 -52.9415321,-26.9091250992372,0.0 -52.9414711,-26.9090835992372,0.0 -52.9414329,-26.9090435992372,0.0 -52.9414025,-26.9089997992372,0.0 -52.9413845,-26.9089487992372,0.0 -52.9413737,-26.9088975992372,0.0 -52.9413786,-26.9088514992372,0.0 -52.941383,-26.9087787992372,0.0 -52.9414013,-26.9087147992372,0.0 -52.9414428,-26.9085936992372,0.0 -52.9414817,-26.9084796992372,0.0 -52.9415192,-26.9083904992372,0.0 -52.9415697,-26.9082884992372,0.0 -52.9416601,-26.9080677992372,0.0 -52.9417402,-26.9078860992372,0.0 -52.9418131,-26.9077399992372,0.0 -52.941889,-26.9076111992372,0.0 -52.941965,-26.9075180992372,0.0 -52.9420544,-26.9074106992372,0.0 -52.9421161,-26.9073325992372,0.0 -52.9422076,-26.9072017992372,0.0 -52.9424314,-26.9068154992372,0.0 -52.9424501,-26.9067691992372,0.0 -52.9424523,-26.9067289992372,0.0 -52.9424492,-26.9066724992372,0.0 -52.9424323,-26.9066144992372,0.0 -52.9424201,-26.9065952992372,0.0 -52.9423982,-26.9065832992372,0.0 -52.942355,-26.9065805992372,0.0 -52.9421505,-26.9066045992372,0.0 -52.9418796,-26.9066315992372,0.0 -52.9417233,-26.9066304992372,0.0 -52.9416152,-26.9066148992372,0.0 -52.94156,-26.9066018992372,0.0 -52.9415127,-26.9065850992372,0.0 -52.9414886,-26.9065590992372,0.0 -52.9414742,-26.9065275992372,0.0 -52.9414315,-26.9063536992373,0.0 -52.94141,-26.9062929992373,0.0 -52.9413637,-26.9062303992372,0.0 -52.9413159,-26.9061941992373,0.0 -52.94124,-26.9061233992372,0.0 -52.9411779,-26.9060539992373,0.0 -52.9411493,-26.9059980992373,0.0 -52.9411377,-26.9059337992372,0.0 -52.9411395,-26.9058332992373,0.0 -52.9411267,-26.9057823992373,0.0 -52.9411025,-26.9057439992373,0.0 -52.9410707,-26.9057234992373,0.0 -52.9410214,-26.9057050992373,0.0 -52.9409245,-26.9056778992373,0.0 -52.9407596,-26.9056493992373,0.0 -52.9406707,-26.9056290992373,0.0 -52.9406155,-26.9056054992373,0.0 -52.9405897,-26.9055848992373,0.0 -52.9405535,-26.9055362992373,0.0 -52.9404967,-26.9054536992373,0.0 -52.9404517,-26.9053980992373,0.0 -52.9404405,-26.9053843992373,0.0 -52.9403879,-26.9052937992373,0.0 -52.9403503,-26.9051765992373,0.0 -52.9403414,-26.9051238992373,0.0 -52.9403537,-26.9050584992373,0.0 -52.9403762,-26.9050139992373,0.0 -52.9404124,-26.9049691992373,0.0 -52.94047,-26.9049186992373,0.0 -52.9405413,-26.9048678992373,0.0 -52.9406153,-26.9047845992373,0.0 -52.940684,-26.9047038992373,0.0 -52.9407321,-26.9046676992373,0.0 -52.9407863,-26.9046400992373,0.0 -52.9408169,-26.9046077992373,0.0 -52.9408587,-26.9045482992373,0.0 -52.9408677,-26.9045354992373,0.0 -52.9409264,-26.9044910992373,0.0 -52.9409923,-26.9044368992373,0.0 -52.9410686,-26.9043471992373,0.0 -52.941172,-26.9042411992373,0.0 -52.941247,-26.9041486992373,0.0 -52.9413078,-26.9040628992373,0.0 -52.9413684,-26.9039682992373,0.0 -52.9414452,-26.9038686992373,0.0 -52.941516,-26.9037949992373,0.0 -52.9416032,-26.9037267992373,0.0 -52.9417032,-26.9036144992373,0.0 -52.941756,-26.9035546992373,0.0 -52.9418246,-26.9035016992373,0.0 -52.9418705,-26.9034549992373,0.0 -52.9419312,-26.9033691992373,0.0 -52.9419905,-26.9033063992373,0.0 -52.9420439,-26.9032765992373,0.0 -52.9421333,-26.9032534992373,0.0 -52.9422867,-26.9032444992373,0.0 -52.9423941,-26.9032420992373,0.0 -52.9424642,-26.9032281992373,0.0 -52.9425974,-26.9031896992373,0.0 -52.942673,-26.9031580992373,0.0 -52.9428332,-26.9030517992373,0.0 -52.9429402,-26.9029775992373,0.0 -52.9430104,-26.9028979992373,0.0 -52.9430548,-26.9028244992373,0.0 -52.9430716,-26.9027733992373,0.0 -52.9430702,-26.9027136992373,0.0 -52.943046,-26.9026237992373,0.0 -52.9429932,-26.9024864992373,0.0 -52.9429361,-26.9023593992373,0.0 -52.9428764,-26.9022448992373,0.0 -52.9428064,-26.9021424992373,0.0 -52.9427365,-26.9020628992373,0.0 -52.942651,-26.9020034992373,0.0 -52.9425382,-26.9019474992373,0.0 -52.9423807,-26.9018373992373,0.0 -52.9423115,-26.9017866992373,0.0 -52.9422704,-26.9017407992373,0.0 -52.9422392,-26.9016873992373,0.0 -52.9422203,-26.9016200992373,0.0 -52.9421968,-26.9014708992373,0.0 -52.9422046,-26.9012883992373,0.0 -52.9422539,-26.9010313992373,0.0 -52.9423016,-26.9008167992374,0.0 -52.9423083,-26.9006778992374,0.0 -52.9423073,-26.9005481992374,0.0 -52.94229,-26.9004080992374,0.0 -52.9422679,-26.9003166992374,0.0 -52.9422265,-26.9002252992374,0.0 -52.9421685,-26.9001347992374,0.0 -52.9420633,-26.9000137992374,0.0 -52.942009,-26.8999348992374,0.0 -52.9419674,-26.8998585992374,0.0 -52.9419038,-26.8996878992374,0.0 -52.9418566,-26.8995451992374,0.0 -52.9418049,-26.8994619992374,0.0 -52.941756,-26.8994164992374,0.0 -52.9416976,-26.8993926992374,0.0 -52.9415736,-26.8993739992374,0.0 -52.9414805,-26.8993649992374,0.0 -52.9413681,-26.8993797992374,0.0 -52.9412232,-26.8994082992374,0.0 -52.9410824,-26.8994385992374,0.0 -52.9409889,-26.8994460992374,0.0 -52.940889,-26.8994376992374,0.0 -52.940777,-26.8994222992374,0.0 -52.9407289,-26.8994108992374,0.0 -52.9407003,-26.8993827992374,0.0 -52.9406735,-26.8993420992374,0.0 -52.9406627,-26.8993064992374,0.0 -52.9406659,-26.8992704992374,0.0 -52.9406987,-26.8992211992374,0.0 -52.9407507,-26.8991373992374,0.0 -52.9407829,-26.8990612992374,0.0 -52.9408015,-26.8990033992374,0.0 -52.9408022,-26.8989440992374,0.0 -52.9407785,-26.8988241992374,0.0 -52.9407405,-26.8987298992374,0.0 -52.9407246,-26.8986405992374,0.0 -52.9407253,-26.8986260992374,0.0 -52.9407334,-26.8984571992374,0.0 -52.9407287,-26.8982472992374,0.0 -52.9407227,-26.8981559992374,0.0 -52.9406951,-26.8980795992374,0.0 -52.9406587,-26.8980068992374,0.0 -52.9406137,-26.8979523992374,0.0 -52.9405761,-26.8979155992374,0.0 -52.9404442,-26.8978432992374,0.0 -52.9403589,-26.8978075992374,0.0 -52.9402221,-26.8977766992374,0.0 -52.9400956,-26.8977580992374,0.0 -52.9400059,-26.8977493992374,0.0 -52.9399458,-26.8977310992374,0.0 -52.9398627,-26.8976952992374,0.0 -52.9398303,-26.8976674992374,0.0 -52.9398036,-26.8976286992374,0.0 -52.9397785,-26.8975720992374,0.0 -52.9397656,-26.8975276992374,0.0 -52.9397629,-26.8974934992374,0.0 -52.9397679,-26.8974506992374,0.0 -52.9397806,-26.8973931992374,0.0 -52.9398029,-26.8973247992374,0.0 -52.9398231,-26.8972473992374,0.0 -52.9398289,-26.8971847992374,0.0 -52.9398201,-26.8970368992374,0.0 -52.9397979,-26.8969284992374,0.0 -52.9398041,-26.8968497992374,0.0 -52.9398192,-26.8968136992374,0.0 -52.939851,-26.8967595992374,0.0 -52.9398915,-26.8967086992374,0.0 -52.9399182,-26.8966581992374,0.0 -52.939936,-26.8966025992374,0.0 -52.9400301,-26.8964577992374,0.0 -52.9401104,-26.8963581992374,0.0 -52.9402193,-26.8962629992374,0.0 -52.9402699,-26.8962172992374,0.0 -52.9403131,-26.8961966992374,0.0 -52.9403545,-26.8961951992374,0.0 -52.9404309,-26.8961902992374,0.0 -52.9405478,-26.8961858992374,0.0 -52.9406052,-26.8961827992374,0.0 -52.940684,-26.8961578992374,0.0 -52.9407527,-26.8961259992374,0.0 -52.9408035,-26.8960927992375,0.0 -52.9408443,-26.8960544992375,0.0 -52.9408606,-26.8960329992374,0.0 -52.9408577,-26.8959902992374,0.0 -52.9408415,-26.8959339992375,0.0 -52.9408339,-26.8959188992374,0.0 -52.9407958,-26.8958430992374,0.0 -52.9407563,-26.8957602992374,0.0 -52.94072,-26.8956849992374,0.0 -52.9406446,-26.8955922992375,0.0 -52.94062,-26.8955554992375,0.0 -52.9406034,-26.8954761992375,0.0 -52.9405868,-26.8953502992375,0.0 -52.9405828,-26.8952595992375,0.0 -52.9405745,-26.8951980992375,0.0 -52.9405475,-26.8951399992375,0.0 -52.940509,-26.8950559992375,0.0 -52.9404869,-26.8949947992375,0.0 -52.9404731,-26.8949080992375,0.0 -52.940474,-26.8947676992375,0.0 -52.9404787,-26.8947124992375,0.0 -52.9404807,-26.8945780992375,0.0 -52.9405107,-26.8941514992375,0.0 -52.9405282,-26.8939611992375,0.0 -52.9405264,-26.8938795992375,0.0 -52.9405201,-26.8938588992375,0.0 -52.9405083,-26.8938204992375,0.0 -52.9404835,-26.8937695992375,0.0 -52.9404467,-26.8937171992375,0.0 -52.9404044,-26.8936772992375,0.0 -52.9403108,-26.8935967992375,0.0 -52.9401445,-26.8934797992375,0.0 -52.9400097,-26.8934037992375,0.0 -52.9399727,-26.8933771992375,0.0 -52.9399184,-26.8933287992375,0.0 -52.9398879,-26.8932868992375,0.0 -52.9398196,-26.8931794992375,0.0 -52.9397838,-26.8931194992375,0.0 -52.9397471,-26.8930580992375,0.0 -52.9396844,-26.8929329992375,0.0 -52.9396391,-26.8928419992375,0.0 -52.9396223,-26.8927963992375,0.0 -52.9396215,-26.8927609992375,0.0 -52.939625,-26.8927544992375,0.0 -52.9396329,-26.8927395992375,0.0 -52.939683,-26.8926836992375,0.0 -52.9397789,-26.8925977992375,0.0 -52.939817,-26.8925750992375,0.0 -52.9398601,-26.8925635992375,0.0 -52.939905,-26.8925466992375,0.0 -52.9399902,-26.8924777992375,0.0 -52.9400267,-26.8924345992375,0.0 -52.9400439,-26.8924094992375,0.0 -52.9400584,-26.8923526992375,0.0 -52.9400723,-26.8922675992375,0.0 -52.9400906,-26.8922053992375,0.0 -52.9401132,-26.8921571992375,0.0 -52.9401544,-26.8920991992375,0.0 -52.9401901,-26.8920642992375,0.0 -52.9402391,-26.8920265992375,0.0 -52.9403296,-26.8919746992375,0.0 -52.9404034,-26.8919188992375,0.0 -52.9404422,-26.8918719992375,0.0 -52.9404643,-26.8918177992375,0.0 -52.9404794,-26.8917625992375,0.0 -52.9404822,-26.8916383992375,0.0 -52.9404686,-26.8914794992375,0.0 -52.9404669,-26.8913540992375,0.0 -52.9404736,-26.8912514992375,0.0 -52.9404916,-26.8911693992375,0.0 -52.940535,-26.8910911992375,0.0 -52.9405912,-26.8909909992375,0.0 -52.9406116,-26.8908901992375,0.0 -52.9406203,-26.8908177992375,0.0 -52.9406164,-26.8907054992375,0.0 -52.9406131,-26.8906228992376,0.0 -52.9406004,-26.8904915992376,0.0 -52.9406031,-26.8903512992376,0.0 -52.9406213,-26.8902630992376,0.0 -52.9406443,-26.8902186992376,0.0 -52.9406864,-26.8901775992376,0.0 -52.9407468,-26.8901411992376,0.0 -52.9408205,-26.8900922992376,0.0 -52.9409333,-26.8900179992376,0.0 -52.9409674,-26.8899921992376,0.0 -52.9410813,-26.8899060992376,0.0 -52.9411178,-26.8898747992376,0.0 -52.9411818,-26.8898199992376,0.0 -52.9412672,-26.8897340992376,0.0 -52.9413368,-26.8896450992376,0.0 -52.941386,-26.8895199992376,0.0 -52.941418,-26.8894301992376,0.0 -52.941454,-26.8893648992376,0.0 -52.9415091,-26.8892642992376,0.0 -52.9415377,-26.8891834992376,0.0 -52.9415633,-26.8891096992376,0.0 -52.9415742,-26.8890588992376,0.0 -52.9415902,-26.8889905992376,0.0 -52.9416336,-26.8888258992376,0.0 -52.9416719,-26.8886979992376,0.0 -52.9416937,-26.8886295992376,0.0 -52.9417422,-26.8885206992376,0.0 -52.9417777,-26.8884572992376,0.0 -52.9418203,-26.8883503992376,0.0 -52.9418499,-26.8882662992376,0.0 -52.9418798,-26.8881961992376,0.0 -52.9419041,-26.8881539992376,0.0 -52.9419372,-26.8881198992376,0.0 -52.9420161,-26.8880851992376,0.0 -52.942132,-26.8880533992376,0.0 -52.9422021,-26.8880416992376,0.0 -52.9422583,-26.8880198992376,0.0 -52.9423119,-26.8879822992376,0.0 -52.9423692,-26.8879273992376,0.0 -52.9424146,-26.8878587992376,0.0 -52.9424786,-26.8877568992376,0.0 -52.9425019,-26.8877264992376,0.0 -52.9425338,-26.8876848992376,0.0 -52.942612,-26.8876122992376,0.0 -52.9426715,-26.8875695992376,0.0 -52.9427313,-26.8875408992376,0.0 -52.9427954,-26.8875191992376,0.0 -52.942869,-26.8875022992376,0.0 -52.9429756,-26.8874845992376,0.0 -52.9430619,-26.8874793992376,0.0 -52.9431384,-26.8874775992376,0.0 -52.9431815,-26.8874767992376,0.0 -52.9432348,-26.8874604992376,0.0 -52.9433544,-26.8873916992376,0.0 -52.9434375,-26.8873585992376,0.0 -52.9435029,-26.8873392992376,0.0 -52.9435365,-26.8873403992376,0.0 -52.9435867,-26.8873623992376,0.0 -52.9436467,-26.8873880992376,0.0 -52.9437129,-26.8873999992376,0.0 -52.9437559,-26.8874026992376,0.0 -52.9437815,-26.8873944992376,0.0 -52.9438451,-26.8873574992376,0.0 -52.9438745,-26.8873545992376,0.0 -52.9439349,-26.8873701992376,0.0 -52.9439857,-26.8873712992376,0.0 -52.9440349,-26.8873600992376,0.0 -52.9440687,-26.8873398992376,0.0 -52.9441049,-26.8873005992376,0.0 -52.9441193,-26.8872785992376,0.0 -52.9441418,-26.8872423992376,0.0 -52.9441855,-26.8872154992376,0.0 -52.944219,-26.8872056992376,0.0 -52.9442619,-26.8872066992376,0.0 -52.9443241,-26.8872257992376,0.0 -52.9443688,-26.8872354992376,0.0 -52.9443865,-26.8872288992376,0.0 -52.9443987,-26.8872116992376,0.0 -52.9444057,-26.8871682992376,0.0 -52.9444253,-26.8870902992376,0.0 -52.944446,-26.8870509992376,0.0 -52.944496,-26.8870067992376,0.0 -52.9445577,-26.8869610992376,0.0 -52.944611,-26.8869395992376,0.0 -52.9446522,-26.8869334992376,0.0 -52.9446911,-26.8869381992376,0.0 -52.9447531,-26.8869577992376,0.0 -52.9448016,-26.8869674992376,0.0 -52.944833,-26.8869612992376,0.0 -52.9448921,-26.8869381992376,0.0 -52.9449579,-26.8868873992376,0.0 -52.9450063,-26.8868257992376,0.0 -52.9450252,-26.8868109992376,0.0 -52.9450694,-26.8867979992376,0.0 -52.9451185,-26.8867868992376,0.0 -52.9451714,-26.8867815992376,0.0 -52.94522,-26.8867860992376,0.0 -52.9452543,-26.8867783992376,0.0 -52.9454101,-26.8866741992376,0.0 -52.9454682,-26.8866635992376,0.0 -52.9455295,-26.8866524992376,0.0 -52.9455649,-26.8866375992376,0.0 -52.9455927,-26.8866172992376,0.0 -52.9456089,-26.8865967992376,0.0 -52.9456214,-26.8865640992376,0.0 -52.9456605,-26.8864866992376,0.0 -52.9456949,-26.8864369992376,0.0 -52.945729,-26.8863994992376,0.0 -52.9457689,-26.8863620992376,0.0 -52.945822,-26.8863406992376,0.0 -52.9458722,-26.8863352992376,0.0 -52.946026,-26.8863351992376,0.0 -52.9461234,-26.8863320992376,0.0 -52.9461854,-26.8863438992376,0.0 -52.9462646,-26.8863682992376,0.0 -52.9463535,-26.8863794992376,0.0 -52.9464178,-26.8863738992376,0.0 -52.9464202,-26.8863730992376,0.0 -52.9464744,-26.8863530992376,0.0 -52.9465115,-26.8863335992376,0.0 -52.9465395,-26.8863064992376,0.0 -52.9465775,-26.8862505992376,0.0 -52.9465959,-26.8862028992376,0.0 -52.9466113,-26.8861320992376,0.0 -52.9466236,-26.8860200992376,0.0 -52.946649,-26.8859108992376,0.0 -52.9467265,-26.8856808992377,0.0 -52.9467716,-26.8855899992376,0.0 -52.9468118,-26.8855353992377,0.0 -52.9468457,-26.8855031992377,0.0 -52.9469125,-26.8854551992377,0.0 -52.9469594,-26.8854257992377,0.0 -52.9469774,-26.8854053992377,0.0 -52.9469955,-26.8853614992376,0.0 -52.9470024,-26.8853199992377,0.0 -52.9470068,-26.8853010992377,0.0 -52.9470251,-26.8852685992377,0.0 -52.9470317,-26.8852392992376,0.0 -52.9470418,-26.8852238992377,0.0 -52.9470655,-26.8852070992377,0.0 -52.9470775,-26.8851917992377,0.0 -52.947084,-26.8851658992377,0.0 -52.9470919,-26.8850863992377,0.0 -52.9471098,-26.8849984992377,0.0 -52.9471231,-26.8848906992377,0.0 -52.9471163,-26.8848112992377,0.0 -52.9471196,-26.8847593992377,0.0 -52.9471153,-26.8846874992377,0.0 -52.9471231,-26.8846413992377,0.0 -52.9471404,-26.8846059992377,0.0 -52.947152,-26.8845616992377,0.0 -52.9472081,-26.8844791992377,0.0 -52.9472492,-26.8844183992377,0.0 -52.9472877,-26.8843816992377,0.0 -52.9473363,-26.8843186992377,0.0 -52.9473844,-26.8842412992377,0.0 -52.9474108,-26.8841917992377,0.0 -52.9474317,-26.8841334992377,0.0 -52.9474621,-26.8840361992377,0.0 -52.9475066,-26.8839184992377,0.0 -52.9475503,-26.8838123992377,0.0 -52.9475951,-26.8837019992377,0.0 -52.947645,-26.8835647992377,0.0 -52.9476737,-26.8834644992377,0.0 -52.9477192,-26.8833306992377,0.0 -52.9477527,-26.8831927992377,0.0 -52.9477818,-26.8830807992377,0.0 -52.9478256,-26.8828591992377,0.0 -52.9478378,-26.8827384992377,0.0 -52.9478321,-26.8826153992377,0.0 -52.9478096,-26.8824957992377,0.0 -52.9477988,-26.8823451992377,0.0 -52.9477985,-26.8822171992377,0.0 -52.9477847,-26.8821357992377,0.0 -52.9477777,-26.8821171992377,0.0 -52.9477492,-26.8820404992377,0.0 -52.9477446,-26.8820280992377,0.0 -52.9476844,-26.8819350992377,0.0 -52.9476675,-26.8819164992377,0.0 -52.9475787,-26.8818187992377,0.0 -52.9475389,-26.8816705992377,0.0 -52.9482263,-26.8791626992378,0.0 -52.9488259,-26.8769755992378,0.0 -52.9507178,-26.867972499238,0.0 -52.9502851,-26.867911299238,0.0 -52.9485151,-26.867660999238,0.0 -52.9395919,-26.866398999238,0.0 -52.9306961,-26.8651408992381,0.0 -52.9262274,-26.8645088992381,0.0 -52.9242656,-26.8642313992381,0.0 -52.9189121,-26.8634742992381,0.0 -52.9182849,-26.8633855992381,0.0 -52.9177761,-26.8633322992381,0.0 -52.9168416,-26.8632344992381,0.0 -52.9059288,-26.8620918992381,0.0 -52.9060366,-26.8626651992381,0.0 -52.9060366,-26.8627730992381,0.0 -52.9060365,-26.8629478992381,0.0 -52.9059255,-26.8633504992381,0.0 -52.9057581,-26.8637598992381,0.0 -52.9056065,-26.8641636992381,0.0 -52.9055985,-26.8641850992381,0.0 -52.9055415,-26.8642785992381,0.0 -52.9054167,-26.8644831992381,0.0 -52.9049941,-26.8648464992381,0.0 -52.9048669,-26.8649900992381,0.0 -52.9045257,-26.865181299238,0.0 -52.9040936,-26.865363399238,0.0 -52.9038329,-26.865421399238,0.0 -52.9035999,-26.865450999238,0.0 -52.9034545,-26.865469499238,0.0 -52.90308,-26.865495899238,0.0 -52.9027629,-26.865472999238,0.0 -52.9026452,-26.865421499238,0.0 -52.9025755,-26.865366599238,0.0 -52.9025379,-26.865313999238,0.0 -52.9025084,-26.865274299238,0.0 -52.9024247,-26.865242499238,0.0 -52.9022513,-26.865204699238,0.0 -52.9016125,-26.865061899238,0.0 -52.9011294,-26.8648525992381,0.0 -52.9005395,-26.8646130992381,0.0 -52.8998715,-26.8644596992381,0.0 -52.8997145,-26.8644536992381,0.0 -52.8995576,-26.8644476992381,0.0 -52.8992577,-26.8644907992381,0.0 -52.8990551,-26.8645900992381,0.0 -52.8988893,-26.864695199238,0.0 -52.8986421,-26.8648711992381,0.0 -52.8983086,-26.865047799238,0.0 -52.8979229,-26.865191599238,0.0 -52.8970463,-26.865354299238,0.0 -52.8963771,-26.865330299238,0.0 -52.8958639,-26.865181499238,0.0 -52.8955164,-26.864870099238,0.0 -52.8953338,-26.8643515992381,0.0 -52.8952831,-26.8638381992381,0.0 -52.8953541,-26.8630952992381,0.0 -52.8956032,-26.8618857992381,0.0 -52.8962065,-26.8596089992382,0.0 -52.89651,-26.8585216992382,0.0 -52.8970033,-26.8567547992382,0.0 -52.8973465,-26.8555508992382,0.0 -52.8974205,-26.8551460992382,0.0 -52.897418,-26.8551159992382,0.0 -52.8973906,-26.8547873992382,0.0 -52.8972622,-26.8544872992383,0.0 -52.8969652,-26.8541280992383,0.0 -52.8966575,-26.8538810992383,0.0 -52.8964948,-26.8537277992383,0.0 -52.8961853,-26.8535765992383,0.0 -52.896,-26.8534713992383,0.0 -52.8956662,-26.8532479992383,0.0 -52.8943765,-26.8522640992383,0.0 -52.8927015,-26.8509807992383,0.0 -52.8914353,-26.8501214992383,0.0 -52.8905657,-26.8498539992383,0.0 -52.8901619,-26.8498015992383,0.0 -52.8897057,-26.8498365992383,0.0 -52.889304,-26.8499092992383,0.0 -52.8890828,-26.8500224992383,0.0 -52.8887339,-26.8502009992383,0.0 -52.8880092,-26.8506701992383,0.0 -52.8873574,-26.8512228992383,0.0 -52.8869205,-26.8517139992383,0.0 -52.8866631,-26.8521298992383,0.0 -52.886296,-26.8529004992383,0.0 -52.8862005,-26.8531376992383,0.0 -52.8860173,-26.8535927992383,0.0 -52.8856809,-26.8544129992383,0.0 -52.8855042,-26.8550683992382,0.0 -52.8854579,-26.8553803992382,0.0 -52.8854665,-26.8555760992382,0.0 -52.8855226,-26.8557424992382,0.0 -52.8855956,-26.8559682992382,0.0 -52.8856015,-26.8561389992382,0.0 -52.8855565,-26.8563285992382,0.0 -52.8853891,-26.8570336992382,0.0 -52.8850328,-26.8580977992382,0.0 -52.8844573,-26.8591539992382,0.0 -52.8840868,-26.8596422992382,0.0 -52.8839127,-26.8598481992382,0.0 -52.8835203,-26.8603118992381,0.0 -52.883328,-26.8605466992381,0.0 -52.8832898,-26.8605933992381,0.0 -52.8829857,-26.8608918992381,0.0 -52.882935,-26.8609297992381,0.0 -52.8826995,-26.8611052992381,0.0 -52.8823685,-26.8613107992381,0.0 -52.8817452,-26.8616471992381,0.0 -52.8809025,-26.8620423992381,0.0 -52.8804896,-26.8622402992381,0.0 -52.8801543,-26.8623663992381,0.0 -52.8799064,-26.8624045992381,0.0 -52.8797238,-26.8624327992381,0.0 -52.8794706,-26.8624482992381,0.0 -52.8791801,-26.8624399992381,0.0 -52.8788772,-26.8624456992381,0.0 -52.8786434,-26.8624678992381,0.0 -52.8782808,-26.8625385992381,0.0 -52.877506,-26.8627531992381,0.0 -52.8762988,-26.8632754992381,0.0 -52.8756163,-26.8636663992381,0.0 -52.8755196,-26.8638208992381,0.0 -52.8755108,-26.8638349992381,0.0 -52.8754156,-26.8639871992381,0.0 -52.8753649,-26.8643568992381,0.0 -52.8753888,-26.8646853992381,0.0 -52.8756931,-26.865145499238,0.0 -52.8757505,-26.865195499238,0.0 -52.8760667,-26.865470799238,0.0 -52.8766374,-26.865774999238,0.0 -52.8770434,-26.865932599238,0.0 -52.8781959,-26.866088299238,0.0 -52.8789394,-26.866081899238,0.0 -52.8793804,-26.866023199238,0.0 -52.8795236,-26.865971999238,0.0 -52.8797614,-26.865886899238,0.0 -52.8800817,-26.865832199238,0.0 -52.8804252,-26.865817499238,0.0 -52.8808927,-26.865826299238,0.0 -52.8815917,-26.865898999238,0.0 -52.8825777,-26.866057699238,0.0 -52.8827189,-26.866080499238,0.0 -52.8844445,-26.866662099238,0.0 -52.8848593,-26.866840999238,0.0 -52.8850463,-26.867084499238,0.0 -52.8851004,-26.867282099238,0.0 -52.8851803,-26.867574599238,0.0 -52.8851864,-26.867614099238,0.0 -52.8852706,-26.868162899238,0.0 -52.8853513,-26.868889499238,0.0 -52.8854617,-26.869338899238,0.0 -52.8859516,-26.8703221992379,0.0 -52.8862695,-26.8709457992379,0.0 -52.8865512,-26.8713617992379,0.0 -52.8868768,-26.8717345992379,0.0 -52.8873896,-26.8720137992379,0.0 -52.8882377,-26.8723795992379,0.0 -52.8892665,-26.8727533992379,0.0 -52.889377,-26.8727934992379,0.0 -52.890293,-26.8731981992379,0.0 -52.8906056,-26.8733362992379,0.0 -52.8916013,-26.8737541992379,0.0 -52.8917167,-26.8738025992379,0.0 -52.8928545,-26.8741254992379,0.0 -52.8933831,-26.8744825992379,0.0 -52.8934165,-26.8745186992379,0.0 -52.8938643,-26.8750028992378,0.0 -52.8938965,-26.8751953992378,0.0 -52.8938996,-26.8753807992378,0.0 -52.8938131,-26.8756081992378,0.0 -52.8935722,-26.8758622992378,0.0 -52.893133,-26.8761190992378,0.0 -52.89224,-26.8764551992378,0.0 -52.8912144,-26.8767848992378,0.0 -52.8897588,-26.8769820992378,0.0 -52.8888954,-26.8770964992378,0.0 -52.8884429,-26.8771564992378,0.0 -52.8880348,-26.8771533992378,0.0 -52.8869488,-26.8771450992378,0.0 -52.8854045,-26.8770456992378,0.0 -52.8852149,-26.8770553992378,0.0 -52.8827678,-26.8771803992378,0.0 -52.8824312,-26.8772556992378,0.0 -52.8808767,-26.8776036992378,0.0 -52.8798375,-26.8780321992378,0.0 -52.8794885,-26.8783357992378,0.0 -52.879233,-26.8785580992378,0.0 -52.8786635,-26.8793949992378,0.0 -52.8783329,-26.8801209992378,0.0 -52.8783073,-26.8804605992377,0.0 -52.8782787,-26.8808385992377,0.0 -52.8782321,-26.8810317992377,0.0 -52.8782254,-26.8810873992377,0.0 -52.8782102,-26.8812132992377,0.0 -52.8781953,-26.8815437992377,0.0 -52.8781786,-26.8816414992377,0.0 -52.8781193,-26.8819882992377,0.0 -52.8780048,-26.8824237992377,0.0 -52.8779758,-26.8824826992377,0.0 -52.8777199,-26.8830019992377,0.0 -52.8773964,-26.8837314992377,0.0 -52.8771808,-26.8841445992377,0.0 -52.8769619,-26.8843643992377,0.0 -52.8768528,-26.8844947992377,0.0 -52.8767437,-26.8846251992377,0.0 -52.8765583,-26.8848854992377,0.0 -52.876266,-26.8854716992376,0.0 -52.8759146,-26.8859862992376,0.0 -52.8754879,-26.8862842992376,0.0 -52.8749999,-26.8864788992376,0.0 -52.8744156,-26.8868912992376,0.0 -52.8742613,-26.8870001992376,0.0 -52.8738387,-26.8873078992376,0.0 -52.8732354,-26.8877425992376,0.0 -52.8730862,-26.8878499992376,0.0 -52.8723928,-26.8882875992376,0.0 -52.872019,-26.8885514992376,0.0 -52.8719554,-26.8886469992376,0.0 -52.8719051,-26.8887223992376,0.0 -52.8718532,-26.8889471992376,0.0 -52.8718786,-26.8891441992376,0.0 -52.8719265,-26.8893963992376,0.0 -52.8719456,-26.8894969992376,0.0 -52.8720529,-26.8897881992376,0.0 -52.8722246,-26.8900167992376,0.0 -52.8725179,-26.8902822992376,0.0 -52.8729889,-26.8907328992375,0.0 -52.873416,-26.8909894992375,0.0 -52.8739397,-26.8912522992375,0.0 -52.8743235,-26.8915050992375,0.0 -52.8745235,-26.8916335992375,0.0 -52.8748951,-26.8919708992375,0.0 -52.8749999,-26.8920659992375,0.0 -52.8756201,-26.8924592992375,0.0 -52.8760361,-26.8927738992375,0.0 -52.8762013,-26.8930869992375,0.0 -52.8762654,-26.8934133992375,0.0 -52.8762019,-26.8937725992375,0.0 -52.8759335,-26.8943159992375,0.0 -52.8756624,-26.8946192992375,0.0 -52.8752532,-26.8948394992375,0.0 -52.8749999,-26.8949305992375,0.0 -52.8747517,-26.8950439992375,0.0 -52.8746564,-26.8950664992375,0.0</coordinates>
</LinearRing>
</outerBoundaryIs>
</Polygon>
</MultiGeometry>
</Placemark>
</Folder>
</Document></kml>
