<?xml version='1.0' encoding='UTF-8'?>
<kml xmlns:xsd="http://www.w3.org/2001/XMLSchema" xmlns:gx="http://www.google.com/kml/ext/2.2" xmlns:atom="http://www.w3.org/2005/Atom" xmlns="http://www.opengis.net/kml/2.2">
<Document>
<name>pinheiro_preto_4213005_localidades_2022</name>
<visibility>1</visibility>
<Schema name="01. Cidade" id="kml_schema_ft_01._Cidade">
<SimpleField type="xsd:string" name="CD_UF">
<displayName>CD_UF</displayName>
</SimpleField>
<SimpleField type="xsd:string" name="NM_UF">
<displayName>NM_UF</displayName>
</SimpleField>
<SimpleField type="xsd:string" name="SIGLA_UF">
<displayName>SIGLA_UF</displayName>
</SimpleField>
<SimpleField type="xsd:string" name="CD_MUN">
<displayName>CD_MUN</displayName>
</SimpleField>
<SimpleField type="xsd:string" name="NM_MUN">
<displayName>NM_MUN</displayName>
</SimpleField>
<SimpleField type="xsd:string" name="CD_RGINT">
<displayName>CD_RGINT</displayName>
</SimpleField>
<SimpleField type="xsd:string" name="NM_RGINT">
<displayName>NM_RGINT</displayName>
</SimpleField>
<SimpleField type="xsd:string" name="CD_RGI">
<displayName>CD_RGI</displayName>
</SimpleField>
<SimpleField type="xsd:string" name="NM_RGI">
<displayName>NM_RGI</displayName>
</SimpleField>
<SimpleField type="xsd:string" name="CT_LOCALIDADE">
<displayName>CT_LOCALIDADE</displayName>
</SimpleField>
<SimpleField type="xsd:string" name="SCT_LOCALIDADE">
<displayName>SCT_LOCALIDADE</displayName>
</SimpleField>
<SimpleField type="xsd:string" name="CD_LOCALIDADE">
<displayName>CD_LOCALIDADE</displayName>
</SimpleField>
<SimpleField type="xsd:string" name="NM_LOCALIDADE">
<displayName>NM_LOCALIDADE</displayName>
</SimpleField>
<SimpleField type="xsd:string" name="LAT_LOCALIDADE">
<displayName>LAT_LOCALIDADE</displayName>
</SimpleField>
<SimpleField type="xsd:string" name="LONG_LOCALIDADE">
<displayName>LONG_LOCALIDADE</displayName>
</SimpleField>
</Schema>
<Schema name="Município" id="kml_schema_ft_Município">
<SimpleField type="xsd:string" name="CD_UF">
<displayName>CD_UF</displayName>
</SimpleField>
<SimpleField type="xsd:string" name="NM_UF">
<displayName>NM_UF</displayName>
</SimpleField>
<SimpleField type="xsd:string" name="CD_MUN">
<displayName>CD_MUN</displayName>
</SimpleField>
<SimpleField type="xsd:string" name="NM_MUN">
<displayName>NM_MUN</displayName>
</SimpleField>
<SimpleField type="xsd:string" name="CD_RGINT">
<displayName>CD_RGINT</displayName>
</SimpleField>
<SimpleField type="xsd:string" name="NM_RGINT">
<displayName>NM_RGINT</displayName>
</SimpleField>
<SimpleField type="xsd:string" name="CD_RGI">
<displayName>CD_RGI</displayName>
</SimpleField>
<SimpleField type="xsd:string" name="NM_RGI">
<displayName>NM_RGI</displayName>
</SimpleField>
</Schema>
<Folder id="01. Cidade">
<name>01. Cidade</name>
<Folder id="01.03. Sede Municipal">
<name>01.03. Sede Municipal</name>
<Placemark id="01.03. Sede Municipal">
<name>Pinheiro Preto [4213005]</name>
<visibility>1</visibility>
<snippet> </snippet>
<description>&lt;center&gt;&lt;table&gt;&lt;tr&gt;&lt;th colspan='2' align='center'&gt;&lt;em&gt;Atributos&lt;/em&gt;&lt;/th&gt;&lt;/tr&gt;&lt;tr bgcolor="#E3E3F3"&gt;
&lt;th&gt;CD_UF&lt;/th&gt;
&lt;td&gt;42&lt;/td&gt;
&lt;/tr&gt;&lt;tr bgcolor=""&gt;
&lt;th&gt;NM_UF&lt;/th&gt;
&lt;td&gt;Santa Catarina&lt;/td&gt;
&lt;/tr&gt;&lt;tr bgcolor="#E3E3F3"&gt;
&lt;th&gt;SIGLA_UF&lt;/th&gt;
&lt;td&gt;SC&lt;/td&gt;
&lt;/tr&gt;&lt;tr bgcolor=""&gt;
&lt;th&gt;CD_MUN&lt;/th&gt;
&lt;td&gt;4213005&lt;/td&gt;
&lt;/tr&gt;&lt;tr bgcolor="#E3E3F3"&gt;
&lt;th&gt;NM_MUN&lt;/th&gt;
&lt;td&gt;Pinheiro Preto&lt;/td&gt;
&lt;/tr&gt;&lt;tr bgcolor=""&gt;
&lt;th&gt;CD_RGINT&lt;/th&gt;
&lt;td&gt;4205&lt;/td&gt;
&lt;/tr&gt;&lt;tr bgcolor="#E3E3F3"&gt;
&lt;th&gt;NM_RGINT&lt;/th&gt;
&lt;td&gt;Caçador&lt;/td&gt;
&lt;/tr&gt;&lt;tr bgcolor=""&gt;
&lt;th&gt;CD_RGI&lt;/th&gt;
&lt;td&gt;420015&lt;/td&gt;
&lt;/tr&gt;&lt;tr bgcolor="#E3E3F3"&gt;
&lt;th&gt;NM_RGI&lt;/th&gt;
&lt;td&gt;Videira&lt;/td&gt;
&lt;/tr&gt;&lt;tr bgcolor=""&gt;
&lt;th&gt;CT_LOCALIDADE&lt;/th&gt;
&lt;td&gt;Cidade&lt;/td&gt;
&lt;/tr&gt;&lt;tr bgcolor="#E3E3F3"&gt;
&lt;th&gt;SCT_LOCALIDADE&lt;/th&gt;
&lt;td&gt;Sede Municipal&lt;/td&gt;
&lt;/tr&gt;&lt;tr bgcolor=""&gt;
&lt;th&gt;CD_LOCALIDADE&lt;/th&gt;
&lt;td&gt;4213005&lt;/td&gt;
&lt;/tr&gt;&lt;tr bgcolor="#E3E3F3"&gt;
&lt;th&gt;NM_LOCALIDADE&lt;/th&gt;
&lt;td&gt;Pinheiro Preto&lt;/td&gt;
&lt;/tr&gt;&lt;tr bgcolor=""&gt;
&lt;th&gt;LAT_LOCALIDADE&lt;/th&gt;
&lt;td&gt;-27.0448&lt;/td&gt;
&lt;/tr&gt;&lt;tr bgcolor="#E3E3F3"&gt;
&lt;th&gt;LONG_LOCALIDADE&lt;/th&gt;
&lt;td&gt;-51.23&lt;/td&gt;
&lt;/tr&gt;&lt;/table&gt;&lt;/center&gt;</description>
<Style>
<IconStyle>
<color>ff00aaff</color>
<scale>1.0</scale>
<Icon>
<href>http://maps.google.com/mapfiles/kml/shapes/placemark_circle.png</href>
</Icon>
</IconStyle>
<LabelStyle>
<scale>1.0</scale>
</LabelStyle>
<LineStyle>
<color>ffffffff</color>
<width>3</width>
<gx:labelVisibility>1</gx:labelVisibility>
</LineStyle>
<PolyStyle>
<color>00ffffff</color>
</PolyStyle>
</Style>
<ExtendedData>
<SchemaData schemaUrl="#kml_schema_ft_01._Cidade">
<SimpleData name="CD_UF">42</SimpleData>
<SimpleData name="NM_UF">Santa Catarina</SimpleData>
<SimpleData name="SIGLA_UF">SC</SimpleData>
<SimpleData name="CD_MUN">4213005</SimpleData>
<SimpleData name="NM_MUN">Pinheiro Preto</SimpleData>
<SimpleData name="CD_RGINT">4205</SimpleData>
<SimpleData name="NM_RGINT">Caçador</SimpleData>
<SimpleData name="CD_RGI">420015</SimpleData>
<SimpleData name="NM_RGI">Videira</SimpleData>
<SimpleData name="CT_LOCALIDADE">Cidade</SimpleData>
<SimpleData name="SCT_LOCALIDADE">Sede Municipal</SimpleData>
<SimpleData name="CD_LOCALIDADE">4213005</SimpleData>
<SimpleData name="NM_LOCALIDADE">Pinheiro Preto</SimpleData>
<SimpleData name="LAT_LOCALIDADE">-27.0448</SimpleData>
<SimpleData name="LONG_LOCALIDADE">-51.23</SimpleData>
</SchemaData>
</ExtendedData>
<Point>
<extrude>0</extrude>
<coordinates>-51.23,-27.0447999992346,0.0</coordinates>
</Point>
</Placemark>
</Folder>
</Folder>
<Folder id="13. Referência">
<name>13. Referência</name>
<Placemark id="13. Referência">
<name>Pinheiro Preto [4213005]</name>
<visibility>1</visibility>
<snippet> </snippet>
<description>&lt;center&gt;&lt;table&gt;&lt;tr&gt;&lt;th colspan='2' align='center'&gt;&lt;em&gt;Attributes&lt;/em&gt;&lt;/th&gt;&lt;/tr&gt;&lt;tr bgcolor="#E3E3F3"&gt;
&lt;th&gt;CD_UF&lt;/th&gt;
&lt;td&gt;42&lt;/td&gt;
&lt;/tr&gt;&lt;tr bgcolor=""&gt;
&lt;th&gt;NM_UF&lt;/th&gt;
&lt;td&gt;Santa Catarina&lt;/td&gt;
&lt;/tr&gt;&lt;tr bgcolor="#E3E3F3"&gt;
&lt;th&gt;CD_MUN&lt;/th&gt;
&lt;td&gt;4213005&lt;/td&gt;
&lt;/tr&gt;&lt;tr bgcolor=""&gt;
&lt;th&gt;NM_MUN&lt;/th&gt;
&lt;td&gt;Pinheiro Preto&lt;/td&gt;
&lt;/tr&gt;&lt;tr bgcolor="#E3E3F3"&gt;
&lt;th&gt;CD_RGINT&lt;/th&gt;
&lt;td&gt;4205&lt;/td&gt;
&lt;/tr&gt;&lt;tr bgcolor=""&gt;
&lt;th&gt;NM_RGINT&lt;/th&gt;
&lt;td&gt;Caçador&lt;/td&gt;
&lt;/tr&gt;&lt;tr bgcolor="#E3E3F3"&gt;
&lt;th&gt;CD_RGI&lt;/th&gt;
&lt;td&gt;420015&lt;/td&gt;
&lt;/tr&gt;&lt;tr bgcolor=""&gt;
&lt;th&gt;NM_RGI&lt;/th&gt;
&lt;td&gt;Videira&lt;/td&gt;
&lt;/tr&gt;&lt;/table&gt;&lt;/center&gt;</description>
<Style>
<IconStyle>
<scale>0.7</scale>
</IconStyle>
<LabelStyle>
<scale>0.7</scale>
</LabelStyle>
<LineStyle>
<color>ffffffff</color>
<width>3</width>
<gx:labelVisibility>1</gx:labelVisibility>
</LineStyle>
<PolyStyle>
<color>00ffffff</color>
</PolyStyle>
</Style>
<ExtendedData>
<SchemaData schemaUrl="#kml_schema_ft_Município">
<SimpleData name="CD_UF">42</SimpleData>
<SimpleData name="NM_UF">Santa Catarina</SimpleData>
<SimpleData name="CD_MUN">4213005</SimpleData>
<SimpleData name="NM_MUN">Pinheiro Preto</SimpleData>
<SimpleData name="CD_RGINT">4205</SimpleData>
<SimpleData name="NM_RGINT">Caçador</SimpleData>
<SimpleData name="CD_RGI">420015</SimpleData>
<SimpleData name="NM_RGI">Videira</SimpleData>
</SchemaData>
</ExtendedData>
<MultiGeometry>
<Polygon>
<extrude>0</extrude>
<tessellate>1</tessellate>
<outerBoundaryIs>
<LinearRing>
<coordinates>-51.2439237,-27.0643987992342,0.0 -51.2439245,-27.0644074992342,0.0 -51.2439255,-27.0644235992342,0.0 -51.2439287,-27.0645159992342,0.0 -51.2439336,-27.0645943992342,0.0 -51.2439362,-27.0646646992342,0.0 -51.2439396,-27.0647409992342,0.0 -51.2439426,-27.0647629992342,0.0 -51.243954,-27.0648179992342,0.0 -51.243963,-27.0648707992342,0.0 -51.2439665,-27.0648854992342,0.0 -51.2439797,-27.0649339992342,0.0 -51.243984,-27.0649554992342,0.0 -51.2439854,-27.0649677992342,0.0 -51.243986,-27.0649785992342,0.0 -51.243986,-27.0650265992342,0.0 -51.2439882,-27.0650430992342,0.0 -51.2440026,-27.0651001992342,0.0 -51.244005,-27.0651129992342,0.0 -51.2440106,-27.0651496992342,0.0 -51.2440233,-27.0652098992342,0.0 -51.2440313,-27.0652648992342,0.0 -51.2440343,-27.0652824992342,0.0 -51.2440408,-27.0653129992342,0.0 -51.2440528,-27.0653621992342,0.0 -51.2440643,-27.0654037992342,0.0 -51.2440812,-27.0654556992342,0.0 -51.2440857,-27.0654732992342,0.0 -51.2440993,-27.0655320992342,0.0 -51.2441146,-27.0655823992342,0.0 -51.244119,-27.0656011992342,0.0 -51.2441266,-27.0656422992342,0.0 -51.2441305,-27.0656610992342,0.0 -51.2441376,-27.0656908992342,0.0 -51.2441453,-27.0657197992342,0.0 -51.2441588,-27.0657638992342,0.0 -51.2441776,-27.0658162992342,0.0 -51.2441958,-27.0658721992342,0.0 -51.2442163,-27.0659295992342,0.0 -51.2442251,-27.0659564992342,0.0 -51.2442333,-27.0659852992342,0.0 -51.2442403,-27.0660126992342,0.0 -51.2442518,-27.0660688992342,0.0 -51.2442619,-27.0661087992342,0.0 -51.2442693,-27.0661483992342,0.0 -51.2442774,-27.0661831992342,0.0 -51.2442811,-27.0662024992342,0.0 -51.2442878,-27.0662479992342,0.0 -51.2442943,-27.0662823992342,0.0 -51.2442975,-27.0663022992342,0.0 -51.244306,-27.0663705992342,0.0 -51.2443214,-27.0664482992342,0.0 -51.2443355,-27.0665264992342,0.0 -51.2443461,-27.0665759992341,0.0 -51.2443515,-27.0666161992342,0.0 -51.2443542,-27.0666319992342,0.0 -51.2443735,-27.0667116992342,0.0 -51.2443907,-27.0667743992341,0.0 -51.2443961,-27.0667955992342,0.0 -51.2444017,-27.0668215992341,0.0 -51.2444114,-27.0668751992341,0.0 -51.2444162,-27.0668959992341,0.0 -51.2444271,-27.0669386992342,0.0 -51.2444307,-27.0669556992341,0.0 -51.2444339,-27.0669788992341,0.0 -51.2444363,-27.0670237992341,0.0 -51.2444424,-27.0670595992341,0.0 -51.244444,-27.0670718992341,0.0 -51.2444448,-27.0670832992341,0.0 -51.2444451,-27.0671113992342,0.0 -51.2444459,-27.0671231992341,0.0 -51.2444479,-27.0671372992341,0.0 -51.2444572,-27.0671913992341,0.0 -51.2444619,-27.0672073992341,0.0 -51.2444668,-27.0672207992341,0.0 -51.2444726,-27.0672349992341,0.0 -51.2444789,-27.0672488992341,0.0 -51.2444884,-27.0672664992341,0.0 -51.2445032,-27.0672910992341,0.0 -51.2445061,-27.0672975992341,0.0 -51.2445106,-27.0673103992341,0.0 -51.2445138,-27.0673172992341,0.0 -51.2445263,-27.0673375992341,0.0 -51.2445334,-27.0673490992341,0.0 -51.244537,-27.0673563992341,0.0 -51.2445435,-27.0673728992341,0.0 -51.2445465,-27.0673793992341,0.0 -51.2445605,-27.0674027992341,0.0 -51.2445746,-27.0674287992341,0.0 -51.2445798,-27.0674365992341,0.0 -51.244596,-27.0674575992341,0.0 -51.2446081,-27.0674741992341,0.0 -51.2446525,-27.0675382992341,0.0 -51.2446669,-27.0675599992341,0.0 -51.2446992,-27.0676123992341,0.0 -51.2447406,-27.0676757992341,0.0 -51.244771,-27.0677255992341,0.0 -51.2448196,-27.0677994992341,0.0 -51.2448342,-27.0678222992341,0.0 -51.2448673,-27.0678792992341,0.0 -51.2448999,-27.0679300992341,0.0 -51.2449161,-27.0679619992341,0.0 -51.2449234,-27.0679747992341,0.0 -51.244946,-27.0680088992341,0.0 -51.2449681,-27.0680447992341,0.0 -51.2449904,-27.0680756992341,0.0 -51.2450196,-27.0681125992341,0.0 -51.2450431,-27.0681407992341,0.0 -51.2450954,-27.0682011992341,0.0 -51.2451263,-27.0682378992341,0.0 -51.245197,-27.0683258992341,0.0 -51.245215,-27.0683490992341,0.0 -51.2452737,-27.0684289992341,0.0 -51.2453055,-27.0684732992341,0.0 -51.2453417,-27.0685189992341,0.0 -51.2453493,-27.0685290992341,0.0 -51.2453602,-27.0685454992341,0.0 -51.2453728,-27.0685676992341,0.0 -51.2453818,-27.0685816992341,0.0 -51.2454279,-27.0686435992341,0.0 -51.2454452,-27.0686692992341,0.0 -51.2454788,-27.0687214992341,0.0 -51.2454951,-27.0687445992341,0.0 -51.245522,-27.0687809992341,0.0 -51.2455485,-27.0688197992341,0.0 -51.2455611,-27.0688358992341,0.0 -51.2455948,-27.0688747992341,0.0 -51.2456141,-27.0688952992341,0.0 -51.2456377,-27.0689190992341,0.0 -51.2456545,-27.0689347992341,0.0 -51.245673,-27.0689501992341,0.0 -51.2456851,-27.0689586992341,0.0 -51.2457129,-27.0689763992341,0.0 -51.2457216,-27.0689830992341,0.0 -51.2457456,-27.0690033992341,0.0 -51.2457606,-27.0690145992341,0.0 -51.2457756,-27.0690236992341,0.0 -51.2458157,-27.0690445992341,0.0 -51.2458261,-27.0690508992341,0.0 -51.245837,-27.0690581992341,0.0 -51.245854,-27.0690713992341,0.0 -51.2458805,-27.0690931992341,0.0 -51.2459107,-27.0691157992341,0.0 -51.245933,-27.0691355992341,0.0 -51.2459436,-27.0691439992341,0.0 -51.2459568,-27.0691517992341,0.0 -51.2460376,-27.0691920992341,0.0 -51.2460498,-27.0691990992341,0.0 -51.2460808,-27.0692190992341,0.0 -51.2461185,-27.0692407992341,0.0 -51.2461271,-27.0692468992341,0.0 -51.2461492,-27.0692645992341,0.0 -51.2461601,-27.0692720992341,0.0 -51.2462018,-27.0692962992341,0.0 -51.2462165,-27.0693058992341,0.0 -51.2462235,-27.0693110992341,0.0 -51.2462369,-27.0693221992341,0.0 -51.2462608,-27.0693436992341,0.0 -51.2462712,-27.0693525992341,0.0 -51.2462808,-27.0693596992341,0.0 -51.2462897,-27.0693653992341,0.0 -51.2463108,-27.0693768992341,0.0 -51.2463318,-27.0693865992341,0.0 -51.2463922,-27.0694085992341,0.0 -51.2464386,-27.0694235992341,0.0 -51.2464801,-27.0694336992341,0.0 -51.2465064,-27.0694406992341,0.0 -51.2465267,-27.0694447992341,0.0 -51.2465934,-27.0694550992341,0.0 -51.2466766,-27.0694635992341,0.0 -51.246701,-27.0694653992341,0.0 -51.2467592,-27.0694641992341,0.0 -51.2468138,-27.0694606992341,0.0 -51.2468288,-27.0694589992341,0.0 -51.2468652,-27.0694535992341,0.0 -51.2468962,-27.0694507992341,0.0 -51.2469573,-27.0694402992341,0.0 -51.2469884,-27.0694330992341,0.0 -51.2470563,-27.0694204992341,0.0 -51.2470909,-27.0694123992341,0.0 -51.2471296,-27.0694020992341,0.0 -51.2471896,-27.0693838992341,0.0 -51.2472156,-27.0693741992341,0.0 -51.2472535,-27.0693607992341,0.0 -51.2472639,-27.0693556992341,0.0 -51.2473043,-27.0693312992341,0.0 -51.2473484,-27.0693028992341,0.0 -51.2474229,-27.0692530992341,0.0 -51.2474552,-27.0692285992341,0.0 -51.2475298,-27.0691729992341,0.0 -51.2476119,-27.0691093992341,0.0 -51.247635,-27.0690906992341,0.0 -51.2477195,-27.0690175992341,0.0 -51.2477534,-27.0689894992341,0.0 -51.2477666,-27.0689771992341,0.0 -51.247792,-27.0689517992341,0.0 -51.2478228,-27.0689239992341,0.0 -51.2478357,-27.0689114992341,0.0 -51.247867,-27.0688779992341,0.0 -51.2479145,-27.0688303992341,0.0 -51.2479327,-27.0688114992341,0.0 -51.2479605,-27.0687788992341,0.0 -51.247987,-27.0687494992341,0.0 -51.2479992,-27.0687351992341,0.0 -51.2480201,-27.0687079992341,0.0 -51.2480508,-27.0686698992341,0.0 -51.2481161,-27.0685787992341,0.0 -51.2481488,-27.0685378992341,0.0 -51.2481806,-27.0684956992341,0.0 -51.2482233,-27.0684425992341,0.0 -51.2482686,-27.0683783992341,0.0 -51.2482906,-27.0683446992341,0.0 -51.2483079,-27.0683156992341,0.0 -51.2483359,-27.0682662992341,0.0 -51.2483946,-27.0681655992341,0.0 -51.2484472,-27.0680785992341,0.0 -51.2485358,-27.0679285992341,0.0 -51.2485575,-27.0678930992341,0.0 -51.2485639,-27.0678815992341,0.0 -51.2485799,-27.0678500992341,0.0 -51.2485863,-27.0678386992341,0.0 -51.2485968,-27.0678221992341,0.0 -51.2486179,-27.0677915992341,0.0 -51.2486243,-27.0677809992341,0.0 -51.2486412,-27.0677492992341,0.0 -51.2486571,-27.0677173992341,0.0 -51.2486709,-27.0676865992341,0.0 -51.2486902,-27.0676466992341,0.0 -51.2487001,-27.0676235992341,0.0 -51.248705,-27.0676089992341,0.0 -51.2487164,-27.0675697992341,0.0 -51.2487209,-27.0675576992341,0.0 -51.2487368,-27.0675197992341,0.0 -51.2487411,-27.0675061992341,0.0 -51.2487483,-27.0674794992341,0.0 -51.2487539,-27.0674608992341,0.0 -51.2487585,-27.0674478992341,0.0 -51.2487716,-27.0674144992341,0.0 -51.2487842,-27.0673760992341,0.0 -51.2487893,-27.0673621992341,0.0 -51.248802,-27.0673337992341,0.0 -51.2488432,-27.0672498992341,0.0 -51.2488577,-27.0672194992341,0.0 -51.2488901,-27.0671466992341,0.0 -51.2489541,-27.0670091992341,0.0 -51.2489881,-27.0669328992342,0.0 -51.2490004,-27.0669026992341,0.0 -51.2490173,-27.0668579992342,0.0 -51.2490425,-27.0667930992342,0.0 -51.2490758,-27.0666913992341,0.0 -51.2490832,-27.0666662992342,0.0 -51.2491002,-27.0666011992342,0.0 -51.2491148,-27.0665524992342,0.0 -51.2491294,-27.0664865992342,0.0 -51.2491428,-27.0664110992342,0.0 -51.2491554,-27.0663496992342,0.0 -51.2491649,-27.0662919992341,0.0 -51.2491762,-27.0662357992342,0.0 -51.2491818,-27.0661932992342,0.0 -51.2491898,-27.0661465992342,0.0 -51.2491953,-27.0660948992342,0.0 -51.2492007,-27.0660627992342,0.0 -51.2492076,-27.0660148992342,0.0 -51.2492121,-27.0659928992342,0.0 -51.2492229,-27.0659480992342,0.0 -51.2492365,-27.0658743992342,0.0 -51.2492433,-27.0658435992342,0.0 -51.2492474,-27.0658281992342,0.0 -51.2492548,-27.0658046992342,0.0 -51.2492705,-27.0657595992342,0.0 -51.2492863,-27.0657106992342,0.0 -51.249301,-27.0656693992342,0.0 -51.2493085,-27.0656467992342,0.0 -51.249351,-27.0655025992342,0.0 -51.2494012,-27.0653386992342,0.0 -51.2494161,-27.0652950992342,0.0 -51.2494373,-27.0652391992342,0.0 -51.2494447,-27.0652164992342,0.0 -51.2494538,-27.0651814992342,0.0 -51.2494638,-27.0651318992342,0.0 -51.2494773,-27.0650828992342,0.0 -51.2494872,-27.0650296992342,0.0 -51.249499,-27.0649812992342,0.0 -51.2495073,-27.0649271992342,0.0 -51.2495157,-27.0648843992342,0.0 -51.2495168,-27.0648743992342,0.0 -51.2495192,-27.0648404992342,0.0 -51.2495229,-27.0648104992342,0.0 -51.2495237,-27.0647905992342,0.0 -51.2495223,-27.0647631992342,0.0 -51.2495206,-27.0647491992342,0.0 -51.2495191,-27.0647407992342,0.0 -51.2495146,-27.0647244992342,0.0 -51.249509,-27.0647085992342,0.0 -51.249503,-27.0646933992342,0.0 -51.2495012,-27.0646863992342,0.0 -51.2495006,-27.0646777992342,0.0 -51.2495006,-27.0646584992342,0.0 -51.2494974,-27.0646352992342,0.0 -51.2494977,-27.0646211992342,0.0 -51.2494988,-27.0646091992342,0.0 -51.2495024,-27.0645816992342,0.0 -51.2495026,-27.0645754992342,0.0 -51.2495021,-27.0645601992342,0.0 -51.2495038,-27.0645477992342,0.0 -51.2495134,-27.0645122992342,0.0 -51.2495145,-27.0645070992342,0.0 -51.2495164,-27.0644913992342,0.0 -51.2495191,-27.0644799992342,0.0 -51.2495352,-27.0644275992342,0.0 -51.2495395,-27.0644150992342,0.0 -51.2495512,-27.0643869992342,0.0 -51.2495656,-27.0643560992342,0.0 -51.2495832,-27.0643220992342,0.0 -51.2495996,-27.0642921992342,0.0 -51.2496086,-27.0642772992342,0.0 -51.2496259,-27.0642506992342,0.0 -51.249681,-27.0641534992342,0.0 -51.2497141,-27.0641009992342,0.0 -51.2497499,-27.0640386992342,0.0 -51.2497724,-27.0640007992342,0.0 -51.2497994,-27.0639570992342,0.0 -51.2498236,-27.0639192992342,0.0 -51.2498434,-27.0638904992342,0.0 -51.2498675,-27.0638585992342,0.0 -51.2499005,-27.0638175992342,0.0 -51.2499297,-27.0637837992342,0.0 -51.249957,-27.0637492992342,0.0 -51.2499853,-27.0637160992342,0.0 -51.25,-27.0636971992342,0.0 -51.2500154,-27.0636772992342,0.0 -51.2500363,-27.0636478992342,0.0 -51.250089,-27.0635783992342,0.0 -51.2501272,-27.0635285992342,0.0 -51.2501795,-27.0634619992342,0.0 -51.2501962,-27.0634418992342,0.0 -51.250208,-27.0634282992342,0.0 -51.2502163,-27.0634195992342,0.0 -51.2502903,-27.0633548992342,0.0 -51.2503086,-27.0633381992342,0.0 -51.2503655,-27.0632836992342,0.0 -51.2503887,-27.0632584992342,0.0 -51.2503971,-27.0632502992342,0.0 -51.2504644,-27.0631930992342,0.0 -51.2505027,-27.0631567992342,0.0 -51.2505313,-27.0631320992342,0.0 -51.2505612,-27.0631045992342,0.0 -51.2505766,-27.0630926992342,0.0 -51.2506059,-27.0630727992342,0.0 -51.2506142,-27.0630666992342,0.0 -51.2506377,-27.0630476992342,0.0 -51.2506623,-27.0630294992342,0.0 -51.2506954,-27.0630012992342,0.0 -51.2507158,-27.0629862992342,0.0 -51.2507319,-27.0629715992342,0.0 -51.2507572,-27.0629528992342,0.0 -51.250795,-27.0629236992342,0.0 -51.2508144,-27.0629065992342,0.0 -51.2508842,-27.0628382992342,0.0 -51.2509244,-27.0628005992342,0.0 -51.2509517,-27.0627767992342,0.0 -51.2509707,-27.0627616992342,0.0 -51.2509989,-27.0627379992342,0.0 -51.251019,-27.0627221992342,0.0 -51.251036,-27.0627100992342,0.0 -51.251049,-27.0627016992342,0.0 -51.2510927,-27.0626774992342,0.0 -51.2511078,-27.0626698992342,0.0 -51.2511417,-27.0626517992342,0.0 -51.2512007,-27.0626221992342,0.0 -51.2512234,-27.0626112992342,0.0 -51.2512456,-27.0626018992342,0.0 -51.2513008,-27.0625806992342,0.0 -51.2513141,-27.0625762992342,0.0 -51.2513893,-27.0625562992342,0.0 -51.2514928,-27.0625303992342,0.0 -51.2516232,-27.0624970992342,0.0 -51.2516462,-27.0624899992342,0.0 -51.2516667,-27.0624824992342,0.0 -51.2516825,-27.0624755992342,0.0 -51.2517095,-27.0624615992342,0.0 -51.2517216,-27.0624567992342,0.0 -51.2517341,-27.0624527992342,0.0 -51.2518407,-27.0624234992342,0.0 -51.2518735,-27.0624151992342,0.0 -51.2519329,-27.0623987992342,0.0 -51.251956,-27.0623929992342,0.0 -51.251972,-27.0623898992342,0.0 -51.2519838,-27.0623885992342,0.0 -51.2520156,-27.0623860992342,0.0 -51.2520642,-27.0623787992342,0.0 -51.2520995,-27.0623760992342,0.0 -51.2521291,-27.0623725992342,0.0 -51.2521376,-27.0623721992342,0.0 -51.2521606,-27.0623725992342,0.0 -51.2521716,-27.0623722992342,0.0 -51.2522114,-27.0623683992342,0.0 -51.2522247,-27.0623675992342,0.0 -51.2522371,-27.0623676992342,0.0 -51.2522615,-27.0623687992342,0.0 -51.2522752,-27.0623687992342,0.0 -51.2522905,-27.0623679992342,0.0 -51.2523312,-27.0623645992342,0.0 -51.2523458,-27.0623639992342,0.0 -51.2523654,-27.0623645992342,0.0 -51.252415,-27.0623690992342,0.0 -51.2524415,-27.0623703992342,0.0 -51.2524704,-27.0623705992342,0.0 -51.2525306,-27.0623683992342,0.0 -51.2525589,-27.0623681992342,0.0 -51.2526743,-27.0623714992342,0.0 -51.2526893,-27.0623722992342,0.0 -51.2527086,-27.0623738992342,0.0 -51.2527354,-27.0623777992342,0.0 -51.2527559,-27.0623822992342,0.0 -51.2527726,-27.0623877992342,0.0 -51.2528065,-27.0624007992342,0.0 -51.2528232,-27.0624057992342,0.0 -51.2528324,-27.0624079992342,0.0 -51.2528527,-27.0624116992342,0.0 -51.252897,-27.0624185992342,0.0 -51.2529191,-27.0624235992342,0.0 -51.2529401,-27.0624305992342,0.0 -51.2529594,-27.0624385992342,0.0 -51.2529925,-27.0624529992342,0.0 -51.2530058,-27.0624573992342,0.0 -51.2530117,-27.0624588992342,0.0 -51.2530227,-27.0624607992342,0.0 -51.2530543,-27.0624638992342,0.0 -51.2530662,-27.0624661992342,0.0 -51.2530727,-27.0624678992342,0.0 -51.2530872,-27.0624726992342,0.0 -51.2530952,-27.0624759992342,0.0 -51.2531533,-27.0625033992342,0.0 -51.253166,-27.0625083992342,0.0 -51.2531873,-27.0625156992342,0.0 -51.2531982,-27.0625199992342,0.0 -51.2532172,-27.0625295992342,0.0 -51.2532525,-27.0625490992342,0.0 -51.2532635,-27.0625542992342,0.0 -51.2532784,-27.0625604992342,0.0 -51.2532962,-27.0625707992342,0.0 -51.2533271,-27.0625849992342,0.0 -51.253336,-27.0625898992342,0.0 -51.2533431,-27.0625954992342,0.0 -51.2533668,-27.0626208992342,0.0 -51.2533745,-27.0626282992342,0.0 -51.2533797,-27.0626323992342,0.0 -51.2533868,-27.0626369992342,0.0 -51.2533968,-27.0626422992342,0.0 -51.2534475,-27.0626647992342,0.0 -51.2534642,-27.0626736992342,0.0 -51.2534751,-27.0626816992342,0.0 -51.2535031,-27.0627074992342,0.0 -51.2535241,-27.0627254992342,0.0 -51.2535372,-27.0627356992342,0.0 -51.2535502,-27.0627437992342,0.0 -51.2535625,-27.0627499992342,0.0 -51.2535789,-27.0627569992342,0.0 -51.2536526,-27.0627847992342,0.0 -51.253718,-27.0628119992342,0.0 -51.2537455,-27.0628212992342,0.0 -51.2537949,-27.0628354992342,0.0 -51.2538293,-27.0628461992342,0.0 -51.253874,-27.0628607992342,0.0 -51.2539005,-27.0628699992342,0.0 -51.2539104,-27.0628741992342,0.0 -51.2539382,-27.0628870992342,0.0 -51.2539908,-27.0629080992342,0.0 -51.254002,-27.0629135992342,0.0 -51.2540226,-27.0629249992342,0.0 -51.2540366,-27.0629314992342,0.0 -51.254055,-27.0629389992342,0.0 -51.2540687,-27.0629438992342,0.0 -51.2540896,-27.0629500992342,0.0 -51.2541234,-27.0629581992342,0.0 -51.2541367,-27.0629617992342,0.0 -51.2541788,-27.0629762992342,0.0 -51.2541951,-27.0629813992342,0.0 -51.2542637,-27.0629996992342,0.0 -51.254285,-27.0630066992342,0.0 -51.2543393,-27.0630273992342,0.0 -51.2543615,-27.0630352992342,0.0 -51.2543839,-27.0630422992342,0.0 -51.2544416,-27.0630589992342,0.0 -51.2544779,-27.0630714992342,0.0 -51.2545486,-27.0630993992342,0.0 -51.2546257,-27.0631286992342,0.0 -51.2546856,-27.0631549992342,0.0 -51.2547063,-27.0631634992342,0.0 -51.2547281,-27.0631708992342,0.0 -51.2547608,-27.0631804992342,0.0 -51.2547689,-27.0631835992342,0.0 -51.2548049,-27.0631991992342,0.0 -51.2548178,-27.0632036992342,0.0 -51.254847,-27.0632126992342,0.0 -51.2548625,-27.0632181992342,0.0 -51.2548782,-27.0632247992342,0.0 -51.25492,-27.0632453992342,0.0 -51.2549391,-27.0632536992342,0.0 -51.2549601,-27.0632613992342,0.0 -51.2550044,-27.0632758992342,0.0 -51.2550256,-27.0632834992342,0.0 -51.2550451,-27.0632916992342,0.0 -51.2550827,-27.0633092992342,0.0 -51.2551031,-27.0633180992342,0.0 -51.2551256,-27.0633265992342,0.0 -51.2551954,-27.0633506992342,0.0 -51.2552154,-27.0633586992342,0.0 -51.2552675,-27.0633814992342,0.0 -51.2552938,-27.0633914992342,0.0 -51.2553306,-27.0634036992342,0.0 -51.2554071,-27.0634272992342,0.0 -51.2554435,-27.0634389992342,0.0 -51.2555556,-27.0634730992342,0.0 -51.2556377,-27.0634945992342,0.0 -51.2557058,-27.0635143992342,0.0 -51.2557847,-27.0635352992342,0.0 -51.2558022,-27.0635393992342,0.0 -51.2558206,-27.0635428992342,0.0 -51.2558808,-27.0635513992342,0.0 -51.255924,-27.0635592992342,0.0 -51.2559404,-27.0635613992342,0.0 -51.2559935,-27.0635666992342,0.0 -51.2560157,-27.0635697992342,0.0 -51.2560364,-27.0635736992342,0.0 -51.256094,-27.0635862992342,0.0 -51.2561134,-27.0635893992342,0.0 -51.2561543,-27.0635946992342,0.0 -51.2561758,-27.0635979992342,0.0 -51.2561979,-27.0636021992342,0.0 -51.2562598,-27.0636153992342,0.0 -51.2563204,-27.0636256992342,0.0 -51.2563973,-27.0636436992342,0.0 -51.2564844,-27.0636613992342,0.0 -51.256522,-27.0636681992342,0.0 -51.2565574,-27.0636732992342,0.0 -51.2565836,-27.0636762992342,0.0 -51.2566827,-27.0636855992342,0.0 -51.2567909,-27.0636993992342,0.0 -51.256889,-27.0637088992342,0.0 -51.2569821,-27.0637215992342,0.0 -51.2570802,-27.0637326992342,0.0 -51.2571692,-27.0637458992342,0.0 -51.2572377,-27.0637538992342,0.0 -51.2573012,-27.0637624992342,0.0 -51.2573277,-27.0637655992342,0.0 -51.2573574,-27.0637683992342,0.0 -51.2574437,-27.0637752992342,0.0 -51.2574816,-27.0637787992342,0.0 -51.2575206,-27.0637830992342,0.0 -51.2576164,-27.0637946992342,0.0 -51.2576677,-27.0638001992342,0.0 -51.2577441,-27.0638066992342,0.0 -51.2577911,-27.0638114992342,0.0 -51.2578459,-27.0638152992342,0.0 -51.2579409,-27.0638241992342,0.0 -51.2580428,-27.0638314992342,0.0 -51.2580786,-27.0638349992342,0.0 -51.2581234,-27.0638401992342,0.0 -51.2581723,-27.0638436992342,0.0 -51.2582206,-27.0638464992342,0.0 -51.2582901,-27.0638483992342,0.0 -51.2583299,-27.0638502992342,0.0 -51.2583746,-27.0638537992342,0.0 -51.2585067,-27.0638656992342,0.0 -51.2586613,-27.0638815992342,0.0 -51.2587091,-27.0638870992342,0.0 -51.2588557,-27.0639069992342,0.0 -51.258934,-27.0639205992342,0.0 -51.2589686,-27.0639233992342,0.0 -51.2589883,-27.0639256992342,0.0 -51.2590027,-27.0639282992342,0.0 -51.2590429,-27.0639372992342,0.0 -51.2590612,-27.0639407992342,0.0 -51.2591301,-27.0639498992342,0.0 -51.2591546,-27.0639546992342,0.0 -51.259174,-27.0639603992342,0.0 -51.2592022,-27.0639710992342,0.0 -51.2592162,-27.0639754992342,0.0 -51.2592358,-27.0639795992342,0.0 -51.2592809,-27.0639870992342,0.0 -51.2593,-27.0639907992342,0.0 -51.259318,-27.0639949992342,0.0 -51.2593644,-27.0640072992342,0.0 -51.2594155,-27.0640183992342,0.0 -51.2594774,-27.0640347992342,0.0 -51.2595232,-27.0640457992342,0.0 -51.2595439,-27.0640506992342,0.0 -51.2596022,-27.0640683992342,0.0 -51.2596492,-27.0640799992342,0.0 -51.2596861,-27.0640906992342,0.0 -51.2596965,-27.0640933992342,0.0 -51.2597758,-27.0641098992342,0.0 -51.2598221,-27.0641189992342,0.0 -51.2598529,-27.0641262992342,0.0 -51.2598927,-27.0641348992342,0.0 -51.2599413,-27.0641464992342,0.0 -51.259973,-27.0641556992342,0.0 -51.2599988,-27.0641621992342,0.0 -51.260021,-27.0641687992342,0.0 -51.2600471,-27.0641749992342,0.0 -51.2600697,-27.0641815992342,0.0 -51.2600867,-27.0641872992342,0.0 -51.2601087,-27.0641958992342,0.0 -51.2601418,-27.0642076992342,0.0 -51.2602114,-27.0642312992342,0.0 -51.2602587,-27.0642487992342,0.0 -51.2602767,-27.0642548992342,0.0 -51.2602902,-27.0642589992342,0.0 -51.260306,-27.0642626992342,0.0 -51.2603439,-27.0642691992342,0.0 -51.2603748,-27.0642751992342,0.0 -51.2604956,-27.0643010992342,0.0 -51.2605369,-27.0643117992342,0.0 -51.2606029,-27.0643309992342,0.0 -51.2606457,-27.0643413992342,0.0 -51.2606605,-27.0643455992342,0.0 -51.2607043,-27.0643596992342,0.0 -51.2607729,-27.0643830992342,0.0 -51.2607998,-27.0643928992342,0.0 -51.2608284,-27.0644050992342,0.0 -51.2608422,-27.0644100992342,0.0 -51.2609218,-27.0644326992342,0.0 -51.261033,-27.0644674992342,0.0 -51.2610987,-27.0644851992342,0.0 -51.2612284,-27.0645262992342,0.0 -51.2612388,-27.0645301992342,0.0 -51.2612724,-27.0645447992342,0.0 -51.2613114,-27.0645597992342,0.0 -51.2613256,-27.0645658992342,0.0 -51.2613606,-27.0645844992342,0.0 -51.2614357,-27.0646214992342,0.0 -51.261462,-27.0646352992342,0.0 -51.2614848,-27.0646484992342,0.0 -51.2615749,-27.0647024992342,0.0 -51.2616007,-27.0647184992342,0.0 -51.2616346,-27.0647414992342,0.0 -51.2616487,-27.0647516992342,0.0 -51.2616592,-27.0647602992342,0.0 -51.2616793,-27.0647793992342,0.0 -51.2617047,-27.0648061992342,0.0 -51.2617213,-27.0648260992342,0.0 -51.2617421,-27.0648540992342,0.0 -51.2617511,-27.0648641992342,0.0 -51.2617619,-27.0648741992342,0.0 -51.2617859,-27.0648952992342,0.0 -51.2617973,-27.0649070992342,0.0 -51.2618074,-27.0649199992342,0.0 -51.2618212,-27.0649401992342,0.0 -51.2618306,-27.0649529992342,0.0 -51.261841,-27.0649644992342,0.0 -51.2618466,-27.0649696992342,0.0 -51.2618586,-27.0649789992342,0.0 -51.261901,-27.0650063992342,0.0 -51.2619122,-27.0650147992342,0.0 -51.2619176,-27.0650194992342,0.0 -51.2619282,-27.0650301992342,0.0 -51.2619334,-27.0650363992342,0.0 -51.2619435,-27.0650498992342,0.0 -51.2619657,-27.0650816992342,0.0 -51.2619762,-27.0650939992342,0.0 -51.2619855,-27.0651020992342,0.0 -51.2620058,-27.0651161992342,0.0 -51.2620167,-27.0651247992342,0.0 -51.2620239,-27.0651313992342,0.0 -51.2620464,-27.0651538992342,0.0 -51.2620605,-27.0651651992342,0.0 -51.2620823,-27.0651793992342,0.0 -51.2621607,-27.0652259992342,0.0 -51.2621764,-27.0652338992342,0.0 -51.2622017,-27.0652446992342,0.0 -51.2622073,-27.0652479992342,0.0 -51.2622238,-27.0652591992342,0.0 -51.2622316,-27.0652635992342,0.0 -51.2622416,-27.0652682992342,0.0 -51.2622542,-27.0652730992342,0.0 -51.2622695,-27.0652784992342,0.0 -51.2623602,-27.0653076992342,0.0 -51.2623989,-27.0653190992342,0.0 -51.2624108,-27.0653220992342,0.0 -51.2624322,-27.0653267992342,0.0 -51.2624583,-27.0653306992342,0.0 -51.262493,-27.0653336992342,0.0 -51.2625195,-27.0653375992342,0.0 -51.2626637,-27.0653655992342,0.0 -51.2628004,-27.0653897992342,0.0 -51.2628653,-27.0654029992342,0.0 -51.2629055,-27.0654095992342,0.0 -51.2629574,-27.0654169992342,0.0 -51.2629933,-27.0654214992342,0.0 -51.2630121,-27.0654232992342,0.0 -51.2630276,-27.0654240992342,0.0 -51.2630631,-27.0654245992342,0.0 -51.2630876,-27.0654258992342,0.0 -51.2631692,-27.0654339992342,0.0 -51.2632547,-27.0654402992342,0.0 -51.2633428,-27.0654487992342,0.0 -51.2633783,-27.0654525992342,0.0 -51.2633913,-27.0654544992342,0.0 -51.2634555,-27.0654690992342,0.0 -51.2634787,-27.0654732992342,0.0 -51.2634973,-27.0654758992342,0.0 -51.2635417,-27.0654801992342,0.0 -51.2636294,-27.0654871992342,0.0 -51.2636444,-27.0654879992342,0.0 -51.2636532,-27.0654879992342,0.0 -51.2636661,-27.0654869992342,0.0 -51.2637189,-27.0654793992342,0.0 -51.2637349,-27.0654777992342,0.0 -51.2637899,-27.0654741992342,0.0 -51.2638086,-27.0654725992342,0.0 -51.2638785,-27.0654643992342,0.0 -51.2639039,-27.0654617992342,0.0 -51.263967,-27.0654567992342,0.0 -51.2640584,-27.0654507992342,0.0 -51.2640979,-27.0654487992342,0.0 -51.2641333,-27.0654492992342,0.0 -51.2641668,-27.0654486992342,0.0 -51.2642984,-27.0654428992342,0.0 -51.2643961,-27.0654402992342,0.0 -51.2644322,-27.0654385992342,0.0 -51.2645251,-27.0654332992342,0.0 -51.2646049,-27.0654306992342,0.0 -51.2646384,-27.0654286992342,0.0 -51.2646646,-27.0654262992342,0.0 -51.2647263,-27.0654187992342,0.0 -51.2648025,-27.0654108992342,0.0 -51.2648986,-27.0653980992342,0.0 -51.2649601,-27.0653910992342,0.0 -51.265073,-27.0653773992342,0.0 -51.2651938,-27.0653648992342,0.0 -51.2652175,-27.0653631992342,0.0 -51.2652741,-27.0653609992342,0.0 -51.2653255,-27.0653579992342,0.0 -51.2654061,-27.0653567992342,0.0 -51.2654187,-27.0653570992342,0.0 -51.2654447,-27.0653586992342,0.0 -51.2654586,-27.0653588992342,0.0 -51.2654969,-27.0653575992342,0.0 -51.2655459,-27.0653568992342,0.0 -51.2655657,-27.0653560992342,0.0 -51.2656435,-27.0653503992342,0.0 -51.2656816,-27.0653466992342,0.0 -51.2657332,-27.0653403992342,0.0 -51.2658201,-27.0653281992342,0.0 -51.2658372,-27.0653264992342,0.0 -51.2658486,-27.0653257992342,0.0 -51.2658632,-27.0653259992342,0.0 -51.2658827,-27.0653278992342,0.0 -51.2659042,-27.0653313992342,0.0 -51.2659422,-27.0653391992342,0.0 -51.2659567,-27.0653409992342,0.0 -51.2659714,-27.0653410992342,0.0 -51.2660203,-27.0653381992342,0.0 -51.2660367,-27.0653377992342,0.0 -51.2660489,-27.0653384992342,0.0 -51.2660735,-27.0653413992342,0.0 -51.2660893,-27.0653432992342,0.0 -51.2661096,-27.0653444992342,0.0 -51.2661309,-27.0653446992342,0.0 -51.2661751,-27.0653433992342,0.0 -51.2661924,-27.0653432992342,0.0 -51.2662955,-27.0653466992342,0.0 -51.2663303,-27.0653472992342,0.0 -51.2664018,-27.0653473992342,0.0 -51.2664945,-27.0653482992342,0.0 -51.2665385,-27.0653477992342,0.0 -51.2666597,-27.0653421992342,0.0 -51.2667173,-27.0653370992342,0.0 -51.2667512,-27.0653359992342,0.0 -51.2667816,-27.0653340992342,0.0 -51.2668505,-27.0653360992342,0.0 -51.2669191,-27.0653345992342,0.0 -51.266998,-27.0653370992342,0.0 -51.2670932,-27.0653360992342,0.0 -51.2671633,-27.0653382992342,0.0 -51.267243,-27.0653381992342,0.0 -51.2672753,-27.0653386992342,0.0 -51.2673369,-27.0653421992342,0.0 -51.2674203,-27.0653443992342,0.0 -51.2675199,-27.0653515992342,0.0 -51.2675409,-27.0653544992342,0.0 -51.2675576,-27.0653574992342,0.0 -51.2676052,-27.0653683992342,0.0 -51.2676655,-27.0653790992342,0.0 -51.2676795,-27.0653822992342,0.0 -51.2676922,-27.0653857992342,0.0 -51.2677091,-27.0653916992342,0.0 -51.2677315,-27.0654007992342,0.0 -51.2679718,-27.0655092992342,0.0 -51.2683034,-27.0656793992342,0.0 -51.2683254,-27.0656895992342,0.0 -51.2683554,-27.0657044992342,0.0 -51.2683899,-27.0657225992342,0.0 -51.2684234,-27.0657409992342,0.0 -51.2684562,-27.0657602992342,0.0 -51.2685187,-27.0658000992342,0.0 -51.2685757,-27.0658333992342,0.0 -51.2685956,-27.0658456992342,0.0 -51.2686147,-27.0658587992342,0.0 -51.2686447,-27.0658822992342,0.0 -51.2686581,-27.0658916992342,0.0 -51.2686953,-27.0659153992342,0.0 -51.2687279,-27.0659368992342,0.0 -51.2687561,-27.0659542992342,0.0 -51.2688059,-27.0659884992342,0.0 -51.2688281,-27.0660026992342,0.0 -51.2688548,-27.0660184992342,0.0 -51.2689471,-27.0660698992342,0.0 -51.2689742,-27.0660860992342,0.0 -51.2690071,-27.0661081992342,0.0 -51.2690697,-27.0661541992342,0.0 -51.2690907,-27.0661683992342,0.0 -51.2691056,-27.0661779992342,0.0 -51.2691373,-27.0661969992342,0.0 -51.2692161,-27.0662422992342,0.0 -51.2692282,-27.0662483992341,0.0 -51.2692498,-27.0662582992342,0.0 -51.2692985,-27.0662792992342,0.0 -51.2693181,-27.0662869992342,0.0 -51.2693388,-27.0662943992342,0.0 -51.2693603,-27.0663008992342,0.0 -51.2694153,-27.0663150992342,0.0 -51.2694371,-27.0663212992342,0.0 -51.2694585,-27.0663283992342,0.0 -51.2695015,-27.0663438992342,0.0 -51.269524,-27.0663512992342,0.0 -51.2695477,-27.0663577992342,0.0 -51.2696058,-27.0663721992342,0.0 -51.2696259,-27.0663778992342,0.0 -51.2696509,-27.0663864992342,0.0 -51.2696809,-27.0663981992342,0.0 -51.2696994,-27.0664039992342,0.0 -51.2698371,-27.0664380992342,0.0 -51.2699077,-27.0664538992342,0.0 -51.2699323,-27.0664601992341,0.0 -51.2699505,-27.0664658992342,0.0 -51.2700013,-27.0664832992342,0.0 -51.2700304,-27.0664926992341,0.0 -51.2700675,-27.0665037992342,0.0 -51.2701287,-27.0665209992342,0.0 -51.2702217,-27.0665510992342,0.0 -51.2702748,-27.0665664992342,0.0 -51.2703092,-27.0665778992342,0.0 -51.2703768,-27.0666020992341,0.0 -51.2704307,-27.0666223992342,0.0 -51.2704603,-27.0666345992341,0.0 -51.2704992,-27.0666525992341,0.0 -51.2705198,-27.0666616992341,0.0 -51.2705479,-27.0666727992342,0.0 -51.2706085,-27.0666958992342,0.0 -51.2706274,-27.0667036992342,0.0 -51.2706393,-27.0667093992341,0.0 -51.2706584,-27.0667201992341,0.0 -51.2706706,-27.0667261992342,0.0 -51.2706808,-27.0667303992342,0.0 -51.2707208,-27.0667450992342,0.0 -51.2707334,-27.0667506992341,0.0 -51.2707476,-27.0667579992341,0.0 -51.2707624,-27.0667644992342,0.0 -51.2707683,-27.0667680992342,0.0 -51.2707855,-27.0667817992342,0.0 -51.2707956,-27.0667886992341,0.0 -51.2708093,-27.0667964992341,0.0 -51.2708232,-27.0668027992341,0.0 -51.2708396,-27.0668086992342,0.0 -51.2708648,-27.0668165992341,0.0 -51.2709376,-27.0668377992341,0.0 -51.2710297,-27.0668680992342,0.0 -51.2710482,-27.0668756992341,0.0 -51.2710749,-27.0668884992341,0.0 -51.2710873,-27.0668939992342,0.0 -51.2711349,-27.0669129992341,0.0 -51.271155,-27.0669218992341,0.0 -51.2711952,-27.0669417992341,0.0 -51.2714099,-27.0670969992341,0.0 -51.2716937,-27.0667718992341,0.0 -51.271701,-27.0667622992341,0.0 -51.2717156,-27.0667440992342,0.0 -51.2717329,-27.0667202992341,0.0 -51.2717464,-27.0666960992342,0.0 -51.2717632,-27.0666727992342,0.0 -51.2717918,-27.0666489992342,0.0 -51.27183,-27.0666231992342,0.0 -51.2718694,-27.0665963992342,0.0 -51.2718958,-27.0665770992342,0.0 -51.2719048,-27.0665704992342,0.0 -51.2720062,-27.0665442992342,0.0 -51.2721086,-27.0664938992342,0.0 -51.2722054,-27.0664461992342,0.0 -51.2722238,-27.0664356992342,0.0 -51.2722479,-27.0663967992342,0.0 -51.2722697,-27.0663492992342,0.0 -51.2722937,-27.0662916992342,0.0 -51.2723284,-27.0662224992342,0.0 -51.2723917,-27.0661456992342,0.0 -51.2724731,-27.0660672992342,0.0 -51.2725602,-27.0659908992342,0.0 -51.2726472,-27.0659219992342,0.0 -51.2727124,-27.0658668992342,0.0 -51.2727359,-27.0658450992342,0.0 -51.2727809,-27.0658106992342,0.0 -51.2728993,-27.0657013992342,0.0 -51.272938,-27.0656595992342,0.0 -51.2730211,-27.0655698992342,0.0 -51.2731159,-27.0654626992342,0.0 -51.2731607,-27.0654035992342,0.0 -51.2732425,-27.0652807992342,0.0 -51.2733389,-27.0651352992342,0.0 -51.2734129,-27.0650426992342,0.0 -51.2734438,-27.0650183992342,0.0 -51.2735668,-27.0649181992342,0.0 -51.2736998,-27.0648027992342,0.0 -51.2738177,-27.0646854992342,0.0 -51.2738839,-27.0646116992342,0.0 -51.2739591,-27.0645468992342,0.0 -51.2740827,-27.0644587992342,0.0 -51.2741872,-27.0643883992342,0.0 -51.2742445,-27.0643463992342,0.0 -51.2742563,-27.0643366992342,0.0 -51.274308,-27.0642916992342,0.0 -51.2744107,-27.0641919992342,0.0 -51.2744971,-27.0640999992342,0.0 -51.2745398,-27.0640549992342,0.0 -51.2746262,-27.0639674992342,0.0 -51.2747469,-27.0638571992342,0.0 -51.2748501,-27.0637539992342,0.0 -51.2749057,-27.0636897992342,0.0 -51.2749219,-27.0636629992342,0.0 -51.2749543,-27.0635912992342,0.0 -51.2749885,-27.0635336992342,0.0 -51.2750261,-27.0635022992342,0.0 -51.2750609,-27.0634799992342,0.0 -51.2750884,-27.0634582992342,0.0 -51.2751081,-27.0634349992342,0.0 -51.2751249,-27.0634071992342,0.0 -51.2751417,-27.0633788992342,0.0 -51.2751618,-27.0633470992342,0.0 -51.275191,-27.0633121992342,0.0 -51.2752359,-27.0632741992342,0.0 -51.2752876,-27.0632357992342,0.0 -51.2753415,-27.0631967992342,0.0 -51.2754078,-27.0631516992342,0.0 -51.2754769,-27.0631095992342,0.0 -51.2755348,-27.0630670992342,0.0 -51.2755825,-27.0630305992342,0.0 -51.2755966,-27.0630194992342,0.0 -51.2756187,-27.0630014992342,0.0 -51.2757055,-27.0629308992342,0.0 -51.2758544,-27.0628225992342,0.0 -51.2759757,-27.0627303992342,0.0 -51.2760381,-27.0626812992342,0.0 -51.2761296,-27.0626134992342,0.0 -51.2762532,-27.0625222992342,0.0 -51.2763932,-27.0624462992342,0.0 -51.2765304,-27.0623878992342,0.0 -51.276596,-27.0623650992342,0.0 -51.2766491,-27.0623466992342,0.0 -51.2767616,-27.0623039992342,0.0 -51.2768521,-27.0622684992342,0.0 -51.2769134,-27.0622409992342,0.0 -51.2769438,-27.0622298992342,0.0 -51.2770348,-27.0621763992342,0.0 -51.2771384,-27.0621162992342,0.0 -51.2772495,-27.0620562992342,0.0 -51.2773574,-27.0620008992342,0.0 -51.2774515,-27.0619436992342,0.0 -51.2775404,-27.0618891992342,0.0 -51.2776324,-27.0618469992342,0.0 -51.2777412,-27.0618124992342,0.0 -51.2778531,-27.0617873992342,0.0 -51.2779609,-27.0617612992342,0.0 -51.2780634,-27.0617294992342,0.0 -51.2781511,-27.0616920992342,0.0 -51.2782188,-27.0616573992342,0.0 -51.2782843,-27.0616273992342,0.0 -51.2783498,-27.0616039992342,0.0 -51.2784111,-27.0615843992342,0.0 -51.2784755,-27.0615732992342,0.0 -51.2785536,-27.0615744992342,0.0 -51.2786411,-27.0615841992342,0.0 -51.278735,-27.0616024992342,0.0 -51.2788361,-27.0616320992342,0.0 -51.2789425,-27.0616767992342,0.0 -51.2790439,-27.0617272992342,0.0 -51.2792485,-27.0615984992342,0.0 -51.2793706,-27.0614369992343,0.0 -51.2795482,-27.0611692992343,0.0 -51.2796216,-27.0609766992343,0.0 -51.2797428,-27.0607772992343,0.0 -51.2799403,-27.0606051992343,0.0 -51.2800763,-27.0604239992343,0.0 -51.2802849,-27.0602625992343,0.0 -51.2805059,-27.0601152992343,0.0 -51.2807788,-27.0600207992343,0.0 -51.2810903,-27.0599090992343,0.0 -51.2812176,-27.0598737992343,0.0 -51.2813448,-27.0598384992343,0.0 -51.2817725,-27.0598188992343,0.0 -51.2823877,-27.0598562992343,0.0 -51.2841163,-27.0594284992343,0.0 -51.284147,-27.0579952992343,0.0 -51.2844866,-27.0508248992345,0.0 -51.2893312,-27.0509102992345,0.0 -51.28937,-27.0484141992345,0.0 -51.2894004,-27.0485138992345,0.0 -51.2894255,-27.0485930992345,0.0 -51.2894795,-27.0487576992345,0.0 -51.2895416,-27.0489023992345,0.0 -51.2896018,-27.0490358992345,0.0 -51.2896711,-27.0491531992345,0.0 -51.2897773,-27.0493245992345,0.0 -51.2898745,-27.0494901992345,0.0 -51.2899317,-27.0496174992345,0.0 -51.28995,-27.0497092992345,0.0 -51.289956,-27.0497774992345,0.0 -51.2901234,-27.0501750992345,0.0 -51.2902283,-27.0503366992345,0.0 -51.2903219,-27.0504537992345,0.0 -51.2903776,-27.0505177992345,0.0 -51.2904535,-27.0506379992345,0.0 -51.2905262,-27.0507621992345,0.0 -51.2905677,-27.0508617992345,0.0 -51.2905826,-27.0509358992344,0.0 -51.2905876,-27.0510109992344,0.0 -51.2905903,-27.0510851992344,0.0 -51.2905941,-27.0511553992344,0.0 -51.2906122,-27.0512254992345,0.0 -51.2906371,-27.0512994992344,0.0 -51.2906663,-27.0513754992344,0.0 -51.2907,-27.0514494992344,0.0 -51.2907335,-27.0515036992344,0.0 -51.2907525,-27.0515410992344,0.0 -51.2909449,-27.0517338992344,0.0 -51.2910316,-27.0518114992344,0.0 -51.291094,-27.0518802992344,0.0 -51.2911409,-27.0519541992344,0.0 -51.2912056,-27.0520401992344,0.0 -51.2913121,-27.0521413992344,0.0 -51.2913969,-27.0521982992344,0.0 -51.2915087,-27.0523072992344,0.0 -51.2916673,-27.0524083992344,0.0 -51.2917842,-27.0525115992344,0.0 -51.2919208,-27.0525950992344,0.0 -51.2920657,-27.0526728992344,0.0 -51.2922512,-27.0528134992344,0.0 -51.2923761,-27.0529713992344,0.0 -51.2926437,-27.0531250992344,0.0 -51.292842,-27.0532217992344,0.0 -51.2930931,-27.0532841992344,0.0 -51.2933616,-27.0533664992344,0.0 -51.2937935,-27.0536271992344,0.0 -51.2946716,-27.0542873992344,0.0 -51.2952575,-27.0544518992344,0.0 -51.2966055,-27.0544306992344,0.0 -51.2971443,-27.0545126992344,0.0 -51.2972953,-27.0545387992344,0.0 -51.2976978,-27.0546083992344,0.0 -51.2980607,-27.0548819992344,0.0 -51.29832,-27.0552769992344,0.0 -51.2989717,-27.0575122992343,0.0 -51.3176729,-27.0442468992346,0.0 -51.3175494,-27.0188075992351,0.0 -51.303189,-27.021920099235,0.0 -51.2603584,-27.0312030992348,0.0 -51.2549747,-27.0323698992348,0.0 -51.2525698,-27.0328910992348,0.0 -51.2501214,-27.0334217992348,0.0 -51.2485322,-27.0337661992348,0.0 -51.2317526,-27.0327101992348,0.0 -51.2317545,-27.0327073992348,0.0 -51.2319384,-27.0324259992348,0.0 -51.2322214,-27.0316475992348,0.0 -51.2323949,-27.0311705992348,0.0 -51.2324041,-27.0311452992348,0.0 -51.232422,-27.0310960992348,0.0 -51.2325296,-27.0307338992349,0.0 -51.2325177,-27.0303994992349,0.0 -51.2324159,-27.0302102992348,0.0 -51.2324111,-27.0302013992348,0.0 -51.2324063,-27.0301924992349,0.0 -51.2323414,-27.0300719992349,0.0 -51.231614,-27.0290508992349,0.0 -51.231063,-27.0282546992349,0.0 -51.230835,-27.0280656992349,0.0 -51.23079,-27.0280283992349,0.0 -51.2307449,-27.0279909992349,0.0 -51.2303021,-27.0278264992349,0.0 -51.2297927,-27.0277787992349,0.0 -51.2296706,-27.0277672992349,0.0 -51.2288676,-27.0278153992349,0.0 -51.2282651,-27.0278766992349,0.0 -51.228091,-27.0278943992349,0.0 -51.2277303,-27.0279309992349,0.0 -51.2272036,-27.0279150992349,0.0 -51.2261967,-27.0278396992349,0.0 -51.2258046,-27.0279038992349,0.0 -51.2250598,-27.0281698992349,0.0 -51.2243762,-27.0285739992349,0.0 -51.2243248,-27.0286043992349,0.0 -51.2242314,-27.0286594992349,0.0 -51.2224315,-27.0297607992349,0.0 -51.2215555,-27.0300810992349,0.0 -51.2208943,-27.0301155992349,0.0 -51.2202854,-27.0301265992349,0.0 -51.2188526,-27.0301120992349,0.0 -51.2182188,-27.0299653992349,0.0 -51.2175311,-27.0298059992349,0.0 -51.2169593,-27.0296964992349,0.0 -51.2168515,-27.0296794992349,0.0 -51.2158621,-27.0295236992349,0.0 -51.215339,-27.0294709992349,0.0 -51.2150401,-27.0294546992349,0.0 -51.2147274,-27.0294952992349,0.0 -51.2146737,-27.0295022992349,0.0 -51.21462,-27.0295092992349,0.0 -51.2143809,-27.0295095992349,0.0 -51.214026,-27.0295101992349,0.0 -51.2136748,-27.0294838992349,0.0 -51.2133795,-27.0293940992349,0.0 -51.2131477,-27.0293040992349,0.0 -51.2124425,-27.0290398992349,0.0 -51.2121507,-27.0288195992349,0.0 -51.2118287,-27.0284354992349,0.0 -51.2116262,-27.0280209992349,0.0 -51.2115501,-27.0276277992349,0.0 -51.211613,-27.0272630992349,0.0 -51.2119072,-27.0267676992349,0.0 -51.2123361,-27.0264090992349,0.0 -51.2138967,-27.0253676992349,0.0 -51.2150875,-27.024503799235,0.0 -51.2151033,-27.024492399235,0.0 -51.2151142,-27.024484399235,0.0 -51.2153129,-27.024151499235,0.0 -51.2158715,-27.023244199235,0.0 -51.2160389,-27.022808299235,0.0 -51.2160606,-27.022450399235,0.0 -51.2160468,-27.022190999235,0.0 -51.2160374,-27.022015599235,0.0 -51.2159397,-27.021696599235,0.0 -51.215524,-27.021131999235,0.0 -51.2149776,-27.020566699235,0.0 -51.2149344,-27.020521999235,0.0 -51.2149094,-27.020496099235,0.0 -51.2145878,-27.020319299235,0.0 -51.214175,-27.020195199235,0.0 -51.2135496,-27.020161399235,0.0 -51.2134857,-27.020157899235,0.0 -51.2134088,-27.020153799235,0.0 -51.2132111,-27.020143099235,0.0 -51.2118055,-27.0200743992351,0.0 -51.211778,-27.020073099235,0.0 -51.2117504,-27.0200716992351,0.0 -51.2113375,-27.0201086992351,0.0 -51.2107513,-27.020270099235,0.0 -51.2101231,-27.020582899235,0.0 -51.2098213,-27.020778799235,0.0 -51.2095187,-27.020975099235,0.0 -51.2089654,-27.021425599235,0.0 -51.208421,-27.021948099235,0.0 -51.2081448,-27.022404799235,0.0 -51.2077463,-27.023057599235,0.0 -51.2074471,-27.023631899235,0.0 -51.2069699,-27.024130999235,0.0 -51.2066034,-27.024514199235,0.0 -51.2065206,-27.024648399235,0.0 -51.2059814,-27.0255217992349,0.0 -51.2052161,-27.0265279992349,0.0 -51.2045217,-27.0272895992349,0.0 -51.2042232,-27.0275107992349,0.0 -51.2037065,-27.0277699992349,0.0 -51.2032853,-27.0279862992349,0.0 -51.2030578,-27.0281413992349,0.0 -51.2025055,-27.0287010992349,0.0 -51.2020914,-27.0290597992349,0.0 -51.2020355,-27.0291081992349,0.0 -51.2019904,-27.0291472992349,0.0 -51.201736,-27.0294303992349,0.0 -51.2015386,-27.0296840992349,0.0 -51.2013552,-27.0299554992349,0.0 -51.2012081,-27.0302361992348,0.0 -51.2011656,-27.0303134992349,0.0 -51.2011196,-27.0303971992349,0.0 -51.2011012,-27.0304305992348,0.0 -51.2010874,-27.0304556992349,0.0 -51.2010736,-27.0304807992348,0.0 -51.2009056,-27.0306385992348,0.0 -51.2006056,-27.0308592992348,0.0 -51.1998468,-27.0312875992348,0.0 -51.1992829,-27.0315757992348,0.0 -51.1987819,-27.0317487992348,0.0 -51.198541,-27.0317878992348,0.0 -51.1984985,-27.0317947992348,0.0 -51.1984506,-27.0318025992348,0.0 -51.1982564,-27.0318144992348,0.0 -51.1979768,-27.0318101992348,0.0 -51.1977514,-27.0317456992348,0.0 -51.197553,-27.0315946992348,0.0 -51.1971406,-27.0311803992348,0.0 -51.1966131,-27.0303102992348,0.0 -51.1965799,-27.0302555992349,0.0 -51.1965302,-27.0301734992349,0.0 -51.1963157,-27.0294735992349,0.0 -51.1962818,-27.0291252992349,0.0 -51.1963169,-27.0287914992349,0.0 -51.1958479,-27.0284857992349,0.0 -51.1958119,-27.0284769992349,0.0 -51.195805,-27.0284758992349,0.0 -51.1957945,-27.0284738992349,0.0 -51.1957783,-27.0284717992349,0.0 -51.1957575,-27.0284676992349,0.0 -51.1957331,-27.0284635992349,0.0 -51.1957053,-27.0284584992349,0.0 -51.1956798,-27.0284553992349,0.0 -51.1956532,-27.0284512992349,0.0 -51.1956254,-27.0284481992349,0.0 -51.1955987,-27.0284450992349,0.0 -51.1955674,-27.0284409992349,0.0 -51.1955419,-27.0284389992349,0.0 -51.1955164,-27.0284379992349,0.0 -51.1954886,-27.0284369992349,0.0 -51.195462,-27.0284338992349,0.0 -51.1954365,-27.0284328992349,0.0 -51.1954133,-27.0284318992349,0.0 -51.1953751,-27.0284288992349,0.0 -51.1953264,-27.0284174992349,0.0 -51.1952708,-27.0283999992349,0.0 -51.1952163,-27.0283802992349,0.0 -51.1951572,-27.0283554992349,0.0 -51.194975,-27.0281804992349,0.0 -51.1949494,-27.0281265992349,0.0 -51.1948878,-27.0280062992349,0.0 -51.1948355,-27.0279337992349,0.0 -51.1947531,-27.0278529992349,0.0 -51.1946788,-27.0277866992349,0.0 -51.1946498,-27.0277638992349,0.0 -51.1945605,-27.0277069992349,0.0 -51.1944132,-27.0276200992349,0.0 -51.1943112,-27.0275516992349,0.0 -51.1942728,-27.0274915992349,0.0 -51.1942704,-27.0274314992349,0.0 -51.1942796,-27.0273847992349,0.0 -51.1942922,-27.0273442992349,0.0 -51.1943072,-27.0273068992349,0.0 -51.1943176,-27.0272653992349,0.0 -51.1943175,-27.0272176992349,0.0 -51.1943116,-27.0271595992349,0.0 -51.1942964,-27.0270973992349,0.0 -51.1942847,-27.0270018992349,0.0 -51.1942927,-27.0269666992349,0.0 -51.1943158,-27.0269385992349,0.0 -51.1943528,-27.0269084992349,0.0 -51.1943956,-27.0268741992349,0.0 -51.1944338,-27.0268315992349,0.0 -51.194465,-27.0267837992349,0.0 -51.1944973,-27.0267401992349,0.0 -51.1945285,-27.0267100992349,0.0 -51.1945667,-27.0266892992349,0.0 -51.19462,-27.0266704992349,0.0 -51.1946767,-27.0266579992349,0.0 -51.194737,-27.0266536992349,0.0 -51.1947926,-27.0266577992349,0.0 -51.1948482,-27.0266711992349,0.0 -51.1949096,-27.0266907992349,0.0 -51.1949653,-27.0267135992349,0.0 -51.1950267,-27.0267341992349,0.0 -51.1950893,-27.0267506992349,0.0 -51.1951438,-27.0267630992349,0.0 -51.1951982,-27.0267722992349,0.0 -51.1952527,-27.0267773992349,0.0 -51.1953025,-27.0267783992349,0.0 -51.1953512,-27.0267782992349,0.0 -51.1953894,-27.0267740992349,0.0 -51.1954183,-27.0267615992349,0.0 -51.1954461,-27.0267407992349,0.0 -51.1954703,-27.0267023992349,0.0 -51.1954888,-27.0266546992349,0.0 -51.1954957,-27.0266286992349,0.0 -51.1955162,-27.0265498992349,0.0 -51.1955293,-27.0264623992349,0.0 -51.1955321,-27.0264056992349,0.0 -51.1955309,-27.0263783992349,0.0 -51.1955303,-27.0263675992349,0.0 -51.1955302,-27.0263155992349,0.0 -51.1955299,-27.0261817992349,0.0 -51.1955297,-27.0260581992349,0.0 -51.1955289,-27.0259726992349,0.0 -51.1955231,-27.0259073992349,0.0 -51.1954717,-27.0257977992349,0.0 -51.1953956,-27.0257056992349,0.0 -51.1953133,-27.0256383992349,0.0 -51.1952408,-27.0255952992349,0.0 -51.1952143,-27.0255844992349,0.0 -51.195122,-27.0255678992349,0.0 -51.1951091,-27.0255655992349,0.0 -51.1949533,-27.0255346992349,0.0 -51.1887016,-27.0296516992349,0.0 -51.1836984,-27.0329464992348,0.0 -51.1791275,-27.0433809992346,0.0 -51.166888,-27.0713209992341,0.0 -51.1574591,-27.0895096992337,0.0 -51.157824,-27.0895018992337,0.0 -51.1579712,-27.0895204992337,0.0 -51.1580943,-27.0895054992337,0.0 -51.1582239,-27.0895117992337,0.0 -51.1583515,-27.0894899992337,0.0 -51.1585242,-27.0894759992337,0.0 -51.1587069,-27.0894569992337,0.0 -51.1588752,-27.0894730992337,0.0 -51.1590066,-27.0894998992337,0.0 -51.1591451,-27.0895353992337,0.0 -51.1592723,-27.0895990992337,0.0 -51.1593787,-27.0896392992337,0.0 -51.1595246,-27.0896824992337,0.0 -51.1596238,-27.0897275992337,0.0 -51.1597367,-27.0898074992337,0.0 -51.1598164,-27.0898611992337,0.0 -51.1598866,-27.0899111992337,0.0 -51.1599557,-27.0899742992337,0.0 -51.1600268,-27.0900804992337,0.0 -51.1601093,-27.0900885992337,0.0 -51.1601835,-27.0900892992337,0.0 -51.160333,-27.0900824992337,0.0 -51.1603835,-27.0900795992337,0.0 -51.160436,-27.0900757992337,0.0 -51.160503,-27.0900746992337,0.0 -51.1605803,-27.0900679992337,0.0 -51.1606556,-27.0900567992337,0.0 -51.160703,-27.0900445992337,0.0 -51.1607286,-27.0900317992337,0.0 -51.1607637,-27.0900139992337,0.0 -51.1608265,-27.0899741992337,0.0 -51.1608892,-27.0899287992337,0.0 -51.1609499,-27.0898788992337,0.0 -51.1610928,-27.0897621992337,0.0 -51.16117,-27.0897112992337,0.0 -51.1612276,-27.0896723992337,0.0 -51.161278,-27.0896408992337,0.0 -51.1613244,-27.0896139992337,0.0 -51.1613676,-27.0895880992337,0.0 -51.1614201,-27.0895620992337,0.0 -51.1614994,-27.0895323992337,0.0 -51.1616034,-27.0894933992337,0.0 -51.1616755,-27.0894691992337,0.0 -51.1617012,-27.0894561992337,0.0 -51.1617506,-27.0894403992337,0.0 -51.1618227,-27.0894143992337,0.0 -51.161902,-27.0893892992337,0.0 -51.1619834,-27.0893631992337,0.0 -51.1620586,-27.0893435992337,0.0 -51.16214,-27.0893295992337,0.0 -51.1623286,-27.0892995992337,0.0 -51.162376,-27.0892948992337,0.0 -51.162442,-27.0892909992337,0.0 -51.1625131,-27.0892852992337,0.0 -51.1625708,-27.0892786992337,0.0 -51.1626172,-27.0892720992337,0.0 -51.1626543,-27.0892654992337,0.0 -51.1626862,-27.0892598992337,0.0 -51.1626886,-27.0892594992337,0.0 -51.1627151,-27.0892551992337,0.0 -51.1627501,-27.0892477992337,0.0 -51.1627944,-27.0892365992337,0.0 -51.1628943,-27.0892104992337,0.0 -51.1629345,-27.0891974992337,0.0 -51.1629633,-27.0891853992337,0.0 -51.1629859,-27.0891732992337,0.0 -51.1630107,-27.0891649992337,0.0 -51.1630282,-27.0891593992337,0.0 -51.1630344,-27.0891574992337,0.0 -51.163036,-27.0891560992337,0.0 -51.1631348,-27.0890718992337,0.0 -51.1631659,-27.0890564992337,0.0 -51.163217,-27.0890203992337,0.0 -51.1632776,-27.0889705992337,0.0 -51.1633353,-27.0889083992337,0.0 -51.1633853,-27.0888408992337,0.0 -51.1634354,-27.0887791992337,0.0 -51.1634964,-27.0887221992337,0.0 -51.1635791,-27.0886667992337,0.0 -51.1636831,-27.0886008992337,0.0 -51.1637813,-27.0885370992337,0.0 -51.1638015,-27.0885217992337,0.0 -51.1638388,-27.0884964992337,0.0 -51.1638874,-27.0884662992337,0.0 -51.1639365,-27.0884360992337,0.0 -51.1639872,-27.0884043992337,0.0 -51.1640379,-27.0883759992337,0.0 -51.164085,-27.0883525992337,0.0 -51.1641235,-27.0883311992337,0.0 -51.1641533,-27.0883089992337,0.0 -51.1641825,-27.0882828992337,0.0 -51.1642154,-27.0882557992337,0.0 -51.1642613,-27.0882246992337,0.0 -51.1643177,-27.0881826992337,0.0 -51.1643635,-27.0881500992337,0.0 -51.1643958,-27.0881147992337,0.0 -51.1644405,-27.0880807992337,0.0 -51.1644895,-27.0880451992337,0.0 -51.1645364,-27.0880145992337,0.0 -51.1645855,-27.0879799992337,0.0 -51.1646374,-27.0879288992337,0.0 -51.1646717,-27.0878877992337,0.0 -51.1646842,-27.0878652992337,0.0 -51.1646951,-27.0878385992337,0.0 -51.1647027,-27.0878123992337,0.0 -51.1647076,-27.0877861992337,0.0 -51.1647109,-27.0877638992337,0.0 -51.1647196,-27.0877395992337,0.0 -51.1647331,-27.0877108992337,0.0 -51.1647573,-27.0876742992337,0.0 -51.1647959,-27.0876325992337,0.0 -51.1648511,-27.0875833992338,0.0 -51.1648925,-27.0875445992338,0.0 -51.1649063,-27.0875322992337,0.0 -51.1649286,-27.0875135992338,0.0 -51.1649461,-27.0874958992338,0.0 -51.1649609,-27.0874796992338,0.0 -51.1649742,-27.0874702992338,0.0 -51.1649898,-27.0874642992338,0.0 -51.1650155,-27.0874556992338,0.0 -51.1650439,-27.0874411992338,0.0 -51.1650705,-27.0874248992337,0.0 -51.1650972,-27.0874084992337,0.0 -51.1651213,-27.0873955992338,0.0 -51.1651438,-27.0873864992338,0.0 -51.1651679,-27.0873785992338,0.0 -51.1651958,-27.0873697992338,0.0 -51.1652237,-27.0873591992338,0.0 -51.16525,-27.0873490992338,0.0 -51.165273,-27.0873385992338,0.0 -51.1652971,-27.0873290992338,0.0 -51.1653143,-27.0873214992338,0.0 -51.1653298,-27.0873149992338,0.0 -51.1653431,-27.0873060992338,0.0 -51.1653568,-27.0872889992338,0.0 -51.1653672,-27.0872636992338,0.0 -51.1653675,-27.0872544992338,0.0 -51.1653719,-27.0872278992338,0.0 -51.1653734,-27.0871934992338,0.0 -51.1653732,-27.0871552992337,0.0 -51.1653719,-27.0871166992338,0.0 -51.1653688,-27.0870664992338,0.0 -51.1653638,-27.0870031992338,0.0 -51.1653572,-27.0869409992338,0.0 -51.1653472,-27.0868995992338,0.0 -51.1653383,-27.0868595992338,0.0 -51.1653306,-27.0868209992338,0.0 -51.1653212,-27.0867843992338,0.0 -51.1653114,-27.0867506992338,0.0 -51.1653027,-27.0867169992338,0.0 -51.1652972,-27.0866861992338,0.0 -51.1652945,-27.0866571992338,0.0 -51.1652928,-27.0866262992338,0.0 -51.1652937,-27.0865875992338,0.0 -51.1653042,-27.0865458992338,0.0 -51.1653109,-27.0865254992338,0.0 -51.1653278,-27.0864812992338,0.0 -51.1653567,-27.0864362992338,0.0 -51.1653969,-27.0863955992338,0.0 -51.1654361,-27.0863562992338,0.0 -51.1654743,-27.0863179992338,0.0 -51.1655087,-27.0862807992338,0.0 -51.1655409,-27.0862454992338,0.0 -51.1655679,-27.0862136992338,0.0 -51.1655867,-27.0861823992338,0.0 -51.1656011,-27.0861434992338,0.0 -51.1656126,-27.0860964992338,0.0 -51.1656253,-27.0860527992338,0.0 -51.1656424,-27.0860157992338,0.0 -51.1656618,-27.0859878992338,0.0 -51.1656708,-27.0859795992338,0.0 -51.165721,-27.0859323992338,0.0 -51.1658068,-27.0859480992338,0.0 -51.1659088,-27.0859633992338,0.0 -51.1659538,-27.0859699992338,0.0 -51.1660465,-27.0859816992338,0.0 -51.1661988,-27.0859981992338,0.0 -51.1663782,-27.0860147992338,0.0 -51.1665067,-27.0860292992338,0.0 -51.1666113,-27.0860440992338,0.0 -51.166775,-27.0860895992338,0.0 -51.1669613,-27.0861573992338,0.0 -51.1671027,-27.0862268992338,0.0 -51.1671432,-27.0862513992338,0.0 -51.1672622,-27.0863071992338,0.0 -51.1672812,-27.0863140992338,0.0 -51.1674469,-27.0863740992338,0.0 -51.1676188,-27.0864270992338,0.0 -51.1677023,-27.0864625992338,0.0 -51.1678444,-27.0865402992338,0.0 -51.1679916,-27.0866285992338,0.0 -51.1680578,-27.0866706992338,0.0 -51.168106,-27.0866974992338,0.0 -51.1682457,-27.0867659992338,0.0 -51.1684502,-27.0868504992338,0.0 -51.1685838,-27.0868937992338,0.0 -51.1686314,-27.0869091992338,0.0 -51.1687948,-27.0869347992338,0.0 -51.1690172,-27.0869724992338,0.0 -51.1691969,-27.0870035992338,0.0 -51.1692186,-27.0870056992338,0.0 -51.1692847,-27.0870114992338,0.0 -51.169394,-27.0870146992338,0.0 -51.16952,-27.0870160992338,0.0 -51.1696671,-27.0870152992338,0.0 -51.1698372,-27.0870266992338,0.0 -51.1700131,-27.0870583992338,0.0 -51.1701316,-27.0870918992338,0.0 -51.170149,-27.0870954992338,0.0 -51.1702082,-27.0871100992338,0.0 -51.1702618,-27.0871255992338,0.0 -51.1702909,-27.0871339992338,0.0 -51.1703666,-27.0871579992338,0.0 -51.1704368,-27.0871800992338,0.0 -51.1704973,-27.0872028992338,0.0 -51.1705528,-27.0872204992338,0.0 -51.1706044,-27.0872356992338,0.0 -51.1706496,-27.0872494992338,0.0 -51.1706909,-27.0872618992338,0.0 -51.170717,-27.0872701992338,0.0 -51.1707274,-27.0872734992338,0.0 -51.1707617,-27.0872849992338,0.0 -51.1707971,-27.0872955992338,0.0 -51.1708302,-27.0873028992338,0.0 -51.1708654,-27.0873071992338,0.0 -51.1708953,-27.0873090992338,0.0 -51.1709012,-27.0873094992338,0.0 -51.1709228,-27.0873096992337,0.0 -51.1709808,-27.0873193992338,0.0 -51.1710048,-27.0873257992337,0.0 -51.1710787,-27.0873390992338,0.0 -51.1711862,-27.0873527992338,0.0 -51.1713024,-27.0873692992337,0.0 -51.1714154,-27.0873867992338,0.0 -51.1715101,-27.0874103992337,0.0 -51.1715962,-27.0874380992338,0.0 -51.1716748,-27.0874638992338,0.0 -51.1718111,-27.0875100992338,0.0 -51.1718733,-27.0875361992337,0.0 -51.1720694,-27.0876433992337,0.0 -51.1721395,-27.0877089992337,0.0 -51.1721835,-27.0875887992337,0.0 -51.1721886,-27.0875801992337,0.0 -51.1722209,-27.0875009992338,0.0 -51.1722411,-27.0874551992337,0.0 -51.1722582,-27.0874121992337,0.0 -51.1722711,-27.0873693992338,0.0 -51.1722829,-27.0873245992337,0.0 -51.1722989,-27.0872778992338,0.0 -51.1723191,-27.0872311992338,0.0 -51.172353,-27.0871803992338,0.0 -51.1724027,-27.0871245992338,0.0 -51.1724567,-27.0870715992338,0.0 -51.1725075,-27.0870157992338,0.0 -51.1725496,-27.0869543992338,0.0 -51.1725943,-27.0868114992338,0.0 -51.1726108,-27.0867363992338,0.0 -51.1726296,-27.0866715992338,0.0 -51.172655,-27.0866190992338,0.0 -51.1726846,-27.0865654992338,0.0 -51.1727681,-27.0864531992338,0.0 -51.1728174,-27.0863794992338,0.0 -51.1728655,-27.0862980992338,0.0 -51.172905,-27.0862083992338,0.0 -51.172937,-27.0861139992338,0.0 -51.1729603,-27.0860150992338,0.0 -51.1729705,-27.0859428992338,0.0 -51.1729701,-27.0859248992338,0.0 -51.1729592,-27.0857534992338,0.0 -51.1729288,-27.0855093992338,0.0 -51.1729164,-27.0853702992338,0.0 -51.1729561,-27.0849288992338,0.0 -51.1729816,-27.0848327992338,0.0 -51.1730072,-27.0847365992338,0.0 -51.1730292,-27.0846746992338,0.0 -51.1731266,-27.0845194992338,0.0 -51.1732519,-27.0843278992338,0.0 -51.1733549,-27.0841868992338,0.0 -51.1733962,-27.0841350992338,0.0 -51.1734063,-27.0841222992338,0.0 -51.1735903,-27.0838891992338,0.0 -51.1737334,-27.0836878992338,0.0 -51.1738414,-27.0835325992338,0.0 -51.1739569,-27.0833827992338,0.0 -51.1739866,-27.0833356992338,0.0 -51.1740851,-27.0831787992338,0.0 -51.1741814,-27.0830208992338,0.0 -51.1742833,-27.0828769992338,0.0 -51.1743877,-27.0826980992338,0.0 -51.1744488,-27.0825794992338,0.0 -51.1746124,-27.0823076992339,0.0 -51.1747178,-27.0821162992339,0.0 -51.1747201,-27.0821160992339,0.0 -51.203793,-27.0785389992339,0.0 -51.2037039,-27.073956499234,0.0 -51.213645,-27.073753999234,0.0 -51.213394,-27.0684199992341,0.0 -51.2439237,-27.0643987992342,0.0</coordinates>
</LinearRing>
</outerBoundaryIs>
</Polygon>
</MultiGeometry>
</Placemark>
</Folder>
</Document></kml>
