<?xml version='1.0' encoding='UTF-8'?>
<kml xmlns:xsd="http://www.w3.org/2001/XMLSchema" xmlns:gx="http://www.google.com/kml/ext/2.2" xmlns:atom="http://www.w3.org/2005/Atom" xmlns="http://www.opengis.net/kml/2.2">
<Document>
<name>planalto_alegre_4213153_localidades_2022</name>
<visibility>1</visibility>
<Schema name="Núcleos Urbanos" id="kml_schema_ft_Núcleos_Urbanos">
<SimpleField type="xsd:string" name="CD_UF">
<displayName>CD_UF</displayName>
</SimpleField>
<SimpleField type="xsd:string" name="NM_UF">
<displayName>NM_UF</displayName>
</SimpleField>
<SimpleField type="xsd:string" name="SIGLA_UF">
<displayName>SIGLA_UF</displayName>
</SimpleField>
<SimpleField type="xsd:string" name="CD_MUN">
<displayName>CD_MUN</displayName>
</SimpleField>
<SimpleField type="xsd:string" name="NM_MUN">
<displayName>NM_MUN</displayName>
</SimpleField>
<SimpleField type="xsd:string" name="CD_RGINT">
<displayName>CD_RGINT</displayName>
</SimpleField>
<SimpleField type="xsd:string" name="NM_RGINT">
<displayName>NM_RGINT</displayName>
</SimpleField>
<SimpleField type="xsd:string" name="CD_RGI">
<displayName>CD_RGI</displayName>
</SimpleField>
<SimpleField type="xsd:string" name="NM_RGI">
<displayName>NM_RGI</displayName>
</SimpleField>
<SimpleField type="xsd:string" name="CT_LOCALIDADE">
<displayName>CT_LOCALIDADE</displayName>
</SimpleField>
<SimpleField type="xsd:string" name="CD_LOCALIDADE">
<displayName>CD_LOCALIDADE</displayName>
</SimpleField>
<SimpleField type="xsd:string" name="NM_LOCALIDADE">
<displayName>NM_LOCALIDADE</displayName>
</SimpleField>
<SimpleField type="xsd:string" name="LAT_LOCALIDADE">
<displayName>LAT_LOCALIDADE</displayName>
</SimpleField>
<SimpleField type="xsd:string" name="LONG_LOCALIDADE">
<displayName>LONG_LOCALIDADE</displayName>
</SimpleField>
</Schema>
<Schema name="01. Cidade" id="kml_schema_ft_01._Cidade">
<SimpleField type="xsd:string" name="CD_UF">
<displayName>CD_UF</displayName>
</SimpleField>
<SimpleField type="xsd:string" name="NM_UF">
<displayName>NM_UF</displayName>
</SimpleField>
<SimpleField type="xsd:string" name="SIGLA_UF">
<displayName>SIGLA_UF</displayName>
</SimpleField>
<SimpleField type="xsd:string" name="CD_MUN">
<displayName>CD_MUN</displayName>
</SimpleField>
<SimpleField type="xsd:string" name="NM_MUN">
<displayName>NM_MUN</displayName>
</SimpleField>
<SimpleField type="xsd:string" name="CD_RGINT">
<displayName>CD_RGINT</displayName>
</SimpleField>
<SimpleField type="xsd:string" name="NM_RGINT">
<displayName>NM_RGINT</displayName>
</SimpleField>
<SimpleField type="xsd:string" name="CD_RGI">
<displayName>CD_RGI</displayName>
</SimpleField>
<SimpleField type="xsd:string" name="NM_RGI">
<displayName>NM_RGI</displayName>
</SimpleField>
<SimpleField type="xsd:string" name="CT_LOCALIDADE">
<displayName>CT_LOCALIDADE</displayName>
</SimpleField>
<SimpleField type="xsd:string" name="SCT_LOCALIDADE">
<displayName>SCT_LOCALIDADE</displayName>
</SimpleField>
<SimpleField type="xsd:string" name="CD_LOCALIDADE">
<displayName>CD_LOCALIDADE</displayName>
</SimpleField>
<SimpleField type="xsd:string" name="NM_LOCALIDADE">
<displayName>NM_LOCALIDADE</displayName>
</SimpleField>
<SimpleField type="xsd:string" name="LAT_LOCALIDADE">
<displayName>LAT_LOCALIDADE</displayName>
</SimpleField>
<SimpleField type="xsd:string" name="LONG_LOCALIDADE">
<displayName>LONG_LOCALIDADE</displayName>
</SimpleField>
</Schema>
<Schema name="Município" id="kml_schema_ft_Município">
<SimpleField type="xsd:string" name="CD_UF">
<displayName>CD_UF</displayName>
</SimpleField>
<SimpleField type="xsd:string" name="NM_UF">
<displayName>NM_UF</displayName>
</SimpleField>
<SimpleField type="xsd:string" name="CD_MUN">
<displayName>CD_MUN</displayName>
</SimpleField>
<SimpleField type="xsd:string" name="NM_MUN">
<displayName>NM_MUN</displayName>
</SimpleField>
<SimpleField type="xsd:string" name="CD_RGINT">
<displayName>CD_RGINT</displayName>
</SimpleField>
<SimpleField type="xsd:string" name="NM_RGINT">
<displayName>NM_RGINT</displayName>
</SimpleField>
<SimpleField type="xsd:string" name="CD_RGI">
<displayName>CD_RGI</displayName>
</SimpleField>
<SimpleField type="xsd:string" name="NM_RGI">
<displayName>NM_RGI</displayName>
</SimpleField>
</Schema>
<Folder id="01. Cidade">
<name>01. Cidade</name>
<Folder id="01.03. Sede Municipal">
<name>01.03. Sede Municipal</name>
<Placemark id="01.03. Sede Municipal">
<name>Planalto Alegre [4213153]</name>
<visibility>1</visibility>
<snippet> </snippet>
<description>&lt;center&gt;&lt;table&gt;&lt;tr&gt;&lt;th colspan='2' align='center'&gt;&lt;em&gt;Atributos&lt;/em&gt;&lt;/th&gt;&lt;/tr&gt;&lt;tr bgcolor="#E3E3F3"&gt;
&lt;th&gt;CD_UF&lt;/th&gt;
&lt;td&gt;42&lt;/td&gt;
&lt;/tr&gt;&lt;tr bgcolor=""&gt;
&lt;th&gt;NM_UF&lt;/th&gt;
&lt;td&gt;Santa Catarina&lt;/td&gt;
&lt;/tr&gt;&lt;tr bgcolor="#E3E3F3"&gt;
&lt;th&gt;SIGLA_UF&lt;/th&gt;
&lt;td&gt;SC&lt;/td&gt;
&lt;/tr&gt;&lt;tr bgcolor=""&gt;
&lt;th&gt;CD_MUN&lt;/th&gt;
&lt;td&gt;4213153&lt;/td&gt;
&lt;/tr&gt;&lt;tr bgcolor="#E3E3F3"&gt;
&lt;th&gt;NM_MUN&lt;/th&gt;
&lt;td&gt;Planalto Alegre&lt;/td&gt;
&lt;/tr&gt;&lt;tr bgcolor=""&gt;
&lt;th&gt;CD_RGINT&lt;/th&gt;
&lt;td&gt;4204&lt;/td&gt;
&lt;/tr&gt;&lt;tr bgcolor="#E3E3F3"&gt;
&lt;th&gt;NM_RGINT&lt;/th&gt;
&lt;td&gt;Chapecó&lt;/td&gt;
&lt;/tr&gt;&lt;tr bgcolor=""&gt;
&lt;th&gt;CD_RGI&lt;/th&gt;
&lt;td&gt;420007&lt;/td&gt;
&lt;/tr&gt;&lt;tr bgcolor="#E3E3F3"&gt;
&lt;th&gt;NM_RGI&lt;/th&gt;
&lt;td&gt;Chapecó&lt;/td&gt;
&lt;/tr&gt;&lt;tr bgcolor=""&gt;
&lt;th&gt;CT_LOCALIDADE&lt;/th&gt;
&lt;td&gt;Cidade&lt;/td&gt;
&lt;/tr&gt;&lt;tr bgcolor="#E3E3F3"&gt;
&lt;th&gt;SCT_LOCALIDADE&lt;/th&gt;
&lt;td&gt;Sede Municipal&lt;/td&gt;
&lt;/tr&gt;&lt;tr bgcolor=""&gt;
&lt;th&gt;CD_LOCALIDADE&lt;/th&gt;
&lt;td&gt;4213153&lt;/td&gt;
&lt;/tr&gt;&lt;tr bgcolor="#E3E3F3"&gt;
&lt;th&gt;NM_LOCALIDADE&lt;/th&gt;
&lt;td&gt;Planalto Alegre&lt;/td&gt;
&lt;/tr&gt;&lt;tr bgcolor=""&gt;
&lt;th&gt;LAT_LOCALIDADE&lt;/th&gt;
&lt;td&gt;-27.0719&lt;/td&gt;
&lt;/tr&gt;&lt;tr bgcolor="#E3E3F3"&gt;
&lt;th&gt;LONG_LOCALIDADE&lt;/th&gt;
&lt;td&gt;-52.8659&lt;/td&gt;
&lt;/tr&gt;&lt;/table&gt;&lt;/center&gt;</description>
<Style>
<IconStyle>
<color>ff00aaff</color>
<scale>1.0</scale>
<Icon>
<href>http://maps.google.com/mapfiles/kml/shapes/placemark_circle.png</href>
</Icon>
</IconStyle>
<LabelStyle>
<scale>1.0</scale>
</LabelStyle>
<LineStyle>
<color>ffffffff</color>
<width>3</width>
<gx:labelVisibility>1</gx:labelVisibility>
</LineStyle>
<PolyStyle>
<color>00ffffff</color>
</PolyStyle>
</Style>
<ExtendedData>
<SchemaData schemaUrl="#kml_schema_ft_01._Cidade">
<SimpleData name="CD_UF">42</SimpleData>
<SimpleData name="NM_UF">Santa Catarina</SimpleData>
<SimpleData name="SIGLA_UF">SC</SimpleData>
<SimpleData name="CD_MUN">4213153</SimpleData>
<SimpleData name="NM_MUN">Planalto Alegre</SimpleData>
<SimpleData name="CD_RGINT">4204</SimpleData>
<SimpleData name="NM_RGINT">Chapecó</SimpleData>
<SimpleData name="CD_RGI">420007</SimpleData>
<SimpleData name="NM_RGI">Chapecó</SimpleData>
<SimpleData name="CT_LOCALIDADE">Cidade</SimpleData>
<SimpleData name="SCT_LOCALIDADE">Sede Municipal</SimpleData>
<SimpleData name="CD_LOCALIDADE">4213153</SimpleData>
<SimpleData name="NM_LOCALIDADE">Planalto Alegre</SimpleData>
<SimpleData name="LAT_LOCALIDADE">-27.0719</SimpleData>
<SimpleData name="LONG_LOCALIDADE">-52.8659</SimpleData>
</SchemaData>
</ExtendedData>
<Point>
<extrude>0</extrude>
<coordinates>-52.8659,-27.071899999234,0.0</coordinates>
</Point>
</Placemark>
</Folder>
</Folder>
<Folder id="05. Núcleos Urbanos">
<name>05. Núcleos Urbanos</name>
<Placemark id="localidades">
<name>Tarumã [4213153001]</name>
<visibility>1</visibility>
<snippet> </snippet>
<description>&lt;center&gt;&lt;table&gt;&lt;tr&gt;&lt;th colspan='2' align='center'&gt;&lt;em&gt;Attributes&lt;/em&gt;&lt;/th&gt;&lt;/tr&gt;&lt;tr bgcolor="#E3E3F3"&gt;
&lt;th&gt;CD_UF&lt;/th&gt;
&lt;td&gt;42&lt;/td&gt;
&lt;/tr&gt;&lt;tr bgcolor=""&gt;
&lt;th&gt;NM_UF&lt;/th&gt;
&lt;td&gt;Santa Catarina&lt;/td&gt;
&lt;/tr&gt;&lt;tr bgcolor="#E3E3F3"&gt;
&lt;th&gt;SIGLA_UF&lt;/th&gt;
&lt;td&gt;SC&lt;/td&gt;
&lt;/tr&gt;&lt;tr bgcolor=""&gt;
&lt;th&gt;CD_MUN&lt;/th&gt;
&lt;td&gt;4213153&lt;/td&gt;
&lt;/tr&gt;&lt;tr bgcolor="#E3E3F3"&gt;
&lt;th&gt;NM_MUN&lt;/th&gt;
&lt;td&gt;Planalto Alegre&lt;/td&gt;
&lt;/tr&gt;&lt;tr bgcolor=""&gt;
&lt;th&gt;CD_RGINT&lt;/th&gt;
&lt;td&gt;4204&lt;/td&gt;
&lt;/tr&gt;&lt;tr bgcolor="#E3E3F3"&gt;
&lt;th&gt;NM_RGINT&lt;/th&gt;
&lt;td&gt;Chapecó&lt;/td&gt;
&lt;/tr&gt;&lt;tr bgcolor=""&gt;
&lt;th&gt;CD_RGI&lt;/th&gt;
&lt;td&gt;420007&lt;/td&gt;
&lt;/tr&gt;&lt;tr bgcolor="#E3E3F3"&gt;
&lt;th&gt;NM_RGI&lt;/th&gt;
&lt;td&gt;Chapecó&lt;/td&gt;
&lt;/tr&gt;&lt;tr bgcolor=""&gt;
&lt;th&gt;CT_LOCALIDADE&lt;/th&gt;
&lt;td&gt;Núcleo Urbano&lt;/td&gt;
&lt;/tr&gt;&lt;tr bgcolor="#E3E3F3"&gt;
&lt;th&gt;CD_LOCALIDADE&lt;/th&gt;
&lt;td&gt;4213153001&lt;/td&gt;
&lt;/tr&gt;&lt;tr bgcolor=""&gt;
&lt;th&gt;NM_LOCALIDADE&lt;/th&gt;
&lt;td&gt;Tarumã&lt;/td&gt;
&lt;/tr&gt;&lt;tr bgcolor="#E3E3F3"&gt;
&lt;th&gt;LAT_LOCALIDADE&lt;/th&gt;
&lt;td&gt;-27.0356&lt;/td&gt;
&lt;/tr&gt;&lt;tr bgcolor=""&gt;
&lt;th&gt;LONG_LOCALIDADE&lt;/th&gt;
&lt;td&gt;-52.883&lt;/td&gt;
&lt;/tr&gt;&lt;/table&gt;&lt;/center&gt;</description>
<Style>
<IconStyle>
<color>ff0000ff</color>
<scale>0.9</scale>
<Icon>
<href>http://maps.google.com/mapfiles/kml/shapes/placemark_circle.png</href>
</Icon>
</IconStyle>
<LabelStyle>
<scale>0.9</scale>
</LabelStyle>
<LineStyle>
<color>72ffffff</color>
<width>1.0</width>
<gx:labelVisibility>1</gx:labelVisibility>
</LineStyle>
<PolyStyle>
<color>66ff54ff</color>
</PolyStyle>
</Style>
<ExtendedData>
<SchemaData schemaUrl="#kml_schema_ft_Núcleos_Urbanos">
<SimpleData name="CD_UF">42</SimpleData>
<SimpleData name="NM_UF">Santa Catarina</SimpleData>
<SimpleData name="SIGLA_UF">SC</SimpleData>
<SimpleData name="CD_MUN">4213153</SimpleData>
<SimpleData name="NM_MUN">Planalto Alegre</SimpleData>
<SimpleData name="CD_RGINT">4204</SimpleData>
<SimpleData name="NM_RGINT">Chapecó</SimpleData>
<SimpleData name="CD_RGI">420007</SimpleData>
<SimpleData name="NM_RGI">Chapecó</SimpleData>
<SimpleData name="CT_LOCALIDADE">Núcleo Urbano</SimpleData>
<SimpleData name="CD_LOCALIDADE">4213153001</SimpleData>
<SimpleData name="NM_LOCALIDADE">Tarumã</SimpleData>
<SimpleData name="LAT_LOCALIDADE">-27.0356</SimpleData>
<SimpleData name="LONG_LOCALIDADE">-52.883</SimpleData>
</SchemaData>
</ExtendedData>
<Point>
<extrude>0</extrude>
<coordinates>-52.8829759791666,-27.035640770068,0.0</coordinates>
</Point>
</Placemark>
</Folder>
<Folder id="13. Referência">
<name>13. Referência</name>
<Placemark id="13. Referência">
<name>Planalto Alegre [4213153]</name>
<visibility>1</visibility>
<snippet> </snippet>
<description>&lt;center&gt;&lt;table&gt;&lt;tr&gt;&lt;th colspan='2' align='center'&gt;&lt;em&gt;Attributes&lt;/em&gt;&lt;/th&gt;&lt;/tr&gt;&lt;tr bgcolor="#E3E3F3"&gt;
&lt;th&gt;CD_UF&lt;/th&gt;
&lt;td&gt;42&lt;/td&gt;
&lt;/tr&gt;&lt;tr bgcolor=""&gt;
&lt;th&gt;NM_UF&lt;/th&gt;
&lt;td&gt;Santa Catarina&lt;/td&gt;
&lt;/tr&gt;&lt;tr bgcolor="#E3E3F3"&gt;
&lt;th&gt;CD_MUN&lt;/th&gt;
&lt;td&gt;4213153&lt;/td&gt;
&lt;/tr&gt;&lt;tr bgcolor=""&gt;
&lt;th&gt;NM_MUN&lt;/th&gt;
&lt;td&gt;Planalto Alegre&lt;/td&gt;
&lt;/tr&gt;&lt;tr bgcolor="#E3E3F3"&gt;
&lt;th&gt;CD_RGINT&lt;/th&gt;
&lt;td&gt;4204&lt;/td&gt;
&lt;/tr&gt;&lt;tr bgcolor=""&gt;
&lt;th&gt;NM_RGINT&lt;/th&gt;
&lt;td&gt;Chapecó&lt;/td&gt;
&lt;/tr&gt;&lt;tr bgcolor="#E3E3F3"&gt;
&lt;th&gt;CD_RGI&lt;/th&gt;
&lt;td&gt;420007&lt;/td&gt;
&lt;/tr&gt;&lt;tr bgcolor=""&gt;
&lt;th&gt;NM_RGI&lt;/th&gt;
&lt;td&gt;Chapecó&lt;/td&gt;
&lt;/tr&gt;&lt;/table&gt;&lt;/center&gt;</description>
<Style>
<IconStyle>
<scale>0.7</scale>
</IconStyle>
<LabelStyle>
<scale>0.7</scale>
</LabelStyle>
<LineStyle>
<color>ffffffff</color>
<width>3</width>
<gx:labelVisibility>1</gx:labelVisibility>
</LineStyle>
<PolyStyle>
<color>00ffffff</color>
</PolyStyle>
</Style>
<ExtendedData>
<SchemaData schemaUrl="#kml_schema_ft_Município">
<SimpleData name="CD_UF">42</SimpleData>
<SimpleData name="NM_UF">Santa Catarina</SimpleData>
<SimpleData name="CD_MUN">4213153</SimpleData>
<SimpleData name="NM_MUN">Planalto Alegre</SimpleData>
<SimpleData name="CD_RGINT">4204</SimpleData>
<SimpleData name="NM_RGINT">Chapecó</SimpleData>
<SimpleData name="CD_RGI">420007</SimpleData>
<SimpleData name="NM_RGI">Chapecó</SimpleData>
</SchemaData>
</ExtendedData>
<MultiGeometry>
<Polygon>
<extrude>0</extrude>
<tessellate>1</tessellate>
<outerBoundaryIs>
<LinearRing>
<coordinates>-52.8800202,-27.0918872992337,0.0 -52.8801989,-27.0917946992337,0.0 -52.8812167,-27.0912672992337,0.0 -52.8817444,-27.0909655992337,0.0 -52.8821757,-27.0906703992337,0.0 -52.8826034,-27.0904275992337,0.0 -52.8829719,-27.0902263992337,0.0 -52.8834413,-27.0900138992337,0.0 -52.8844503,-27.0895180992337,0.0 -52.885754,-27.0887950992337,0.0 -52.8864957,-27.0880661992337,0.0 -52.8872983,-27.0876135992337,0.0 -52.8883017,-27.0870369992338,0.0 -52.8889933,-27.0866170992338,0.0 -52.8896398,-27.0863412992338,0.0 -52.8900775,-27.0861622992338,0.0 -52.8904832,-27.0859203992338,0.0 -52.8907176,-27.0858635992338,0.0 -52.890952,-27.0858068992338,0.0 -52.891376,-27.0857887992338,0.0 -52.8918496,-27.0859734992338,0.0 -52.8922561,-27.0859841992338,0.0 -52.8924313,-27.0859243992338,0.0 -52.8925644,-27.0858713992338,0.0 -52.8931671,-27.0857728992338,0.0 -52.8932311,-27.0858600992338,0.0 -52.8933616,-27.0859530992338,0.0 -52.8937053,-27.0860955992338,0.0 -52.8941681,-27.0862644992338,0.0 -52.8944223,-27.0863344992338,0.0 -52.8945536,-27.0863874992338,0.0 -52.8947445,-27.0863861992338,0.0 -52.8949323,-27.0864253992338,0.0 -52.8950506,-27.0865039992338,0.0 -52.8951763,-27.0866078992338,0.0 -52.8952728,-27.0866576992338,0.0 -52.8953367,-27.0866701992338,0.0 -52.8954656,-27.0866696992338,0.0 -52.8955884,-27.0866271992338,0.0 -52.8957884,-27.0864852992338,0.0 -52.8959712,-27.0864065992338,0.0 -52.8962715,-27.0863265992338,0.0 -52.8964957,-27.0862481992338,0.0 -52.8966439,-27.0861340992338,0.0 -52.8968155,-27.0859238992338,0.0 -52.89683,-27.0859061992338,0.0 -52.8969639,-27.0858280992338,0.0 -52.8970899,-27.0858134992338,0.0 -52.8972711,-27.0858285992338,0.0 -52.897412,-27.0858673992338,0.0 -52.8976055,-27.0859492992338,0.0 -52.8980196,-27.0861208992338,0.0 -52.8981308,-27.0861527992338,0.0 -52.8982545,-27.0861674992338,0.0 -52.8984033,-27.0861686992338,0.0 -52.8991677,-27.0669859992341,0.0 -52.8992354,-27.0661834992342,0.0 -52.899303,-27.0653809992342,0.0 -52.896734,-27.0654099992342,0.0 -52.8989626,-27.0446581992346,0.0 -52.9000477,-27.0337525992348,0.0 -52.9000558,-27.0336706992348,0.0 -52.9001179,-27.0330467992348,0.0 -52.9001646,-27.0325271992348,0.0 -52.9002387,-27.0317034992348,0.0 -52.9007918,-27.0255559992349,0.0 -52.9008374,-27.025048499235,0.0 -52.9021316,-27.0096585992353,0.0 -52.9030689,-27.0007061992354,0.0 -52.9032048,-26.9993615992355,0.0 -52.9041229,-26.9869601992357,0.0 -52.9043718,-26.9845142992357,0.0 -52.9052357,-26.9735546992359,0.0 -52.9047794,-26.9739412992359,0.0 -52.903883,-26.9747009992359,0.0 -52.9018632,-26.9759611992359,0.0 -52.900294,-26.9767128992359,0.0 -52.8980883,-26.9770318992359,0.0 -52.8965025,-26.9767944992359,0.0 -52.8956426,-26.9762275992359,0.0 -52.8942873,-26.9756175992359,0.0 -52.8940069,-26.9753058992359,0.0 -52.8916969,-27.0105996992352,0.0 -52.8493979,-27.0100098992352,0.0 -52.8477041,-27.0099622992352,0.0 -52.840239,-27.0097524992352,0.0 -52.8404695,-27.0179523992351,0.0 -52.8398781,-27.0366851992347,0.0 -52.8396299,-27.0440566992346,0.0 -52.839678,-27.0441036992346,0.0 -52.8397303,-27.0441590992346,0.0 -52.8397889,-27.0442183992346,0.0 -52.8398131,-27.0442416992346,0.0 -52.8398321,-27.0442586992346,0.0 -52.8398882,-27.0442979992346,0.0 -52.8399749,-27.0443399992346,0.0 -52.840076,-27.0443712992346,0.0 -52.8401743,-27.0444009992346,0.0 -52.8402121,-27.0444129992346,0.0 -52.8402358,-27.0444226992346,0.0 -52.8402736,-27.0444445992346,0.0 -52.8403106,-27.0444718992346,0.0 -52.8403433,-27.0445054992346,0.0 -52.8403749,-27.0445404992346,0.0 -52.8404074,-27.0445696992346,0.0 -52.8404388,-27.0445913992346,0.0 -52.8404701,-27.0446110992346,0.0 -52.8404998,-27.0446301992346,0.0 -52.8405215,-27.0446556992346,0.0 -52.8405388,-27.0446944992346,0.0 -52.840559,-27.0447547992346,0.0 -52.8405869,-27.0448367992346,0.0 -52.8406013,-27.0448951992346,0.0 -52.8406145,-27.0449273992346,0.0 -52.8406395,-27.0449761992346,0.0 -52.8406578,-27.0450279992346,0.0 -52.840668,-27.0450789992346,0.0 -52.8406754,-27.0451256992346,0.0 -52.8406818,-27.0451666992346,0.0 -52.8409349,-27.0453673992346,0.0 -52.8409565,-27.0453750992346,0.0 -52.8411335,-27.0454623992346,0.0 -52.8413827,-27.0456696992346,0.0 -52.8414262,-27.0457076992346,0.0 -52.8414988,-27.0457660992346,0.0 -52.8415947,-27.0458356992346,0.0 -52.8417091,-27.0459195992346,0.0 -52.8418163,-27.0460023992345,0.0 -52.8418776,-27.0460560992346,0.0 -52.8419009,-27.0460760992346,0.0 -52.8419525,-27.0461147992345,0.0 -52.8420092,-27.0461584992346,0.0 -52.8420732,-27.0462114992345,0.0 -52.8422626,-27.0464261992345,0.0 -52.8422753,-27.0464386992345,0.0 -52.8423174,-27.0464777992345,0.0 -52.8423578,-27.0465159992345,0.0 -52.8423805,-27.0465374992345,0.0 -52.8424557,-27.0466108992345,0.0 -52.8425145,-27.0466768992345,0.0 -52.8425603,-27.0467409992345,0.0 -52.8426208,-27.0468273992345,0.0 -52.8426662,-27.0468976992345,0.0 -52.8427042,-27.0469310992345,0.0 -52.8427665,-27.0469823992345,0.0 -52.8428579,-27.0470429992345,0.0 -52.8429453,-27.0470930992345,0.0 -52.8429692,-27.0471082992345,0.0 -52.8430224,-27.0471411992345,0.0 -52.8430909,-27.0471854992345,0.0 -52.8431639,-27.0472370992345,0.0 -52.843196,-27.0472747992345,0.0 -52.8432381,-27.0473403992345,0.0 -52.8432712,-27.0474086992345,0.0 -52.8432721,-27.0474120992345,0.0 -52.8432774,-27.0474295992345,0.0 -52.8432865,-27.0474615992345,0.0 -52.8433017,-27.0475144992345,0.0 -52.8433192,-27.0475818992345,0.0 -52.8433309,-27.0476396992345,0.0 -52.8433287,-27.0476778992345,0.0 -52.8433351,-27.0477534992345,0.0 -52.843345,-27.0478303992345,0.0 -52.8433462,-27.0478497992345,0.0 -52.8433497,-27.0478757992345,0.0 -52.8433531,-27.0479018992345,0.0 -52.8433573,-27.0479275992345,0.0 -52.8433665,-27.0479816992345,0.0 -52.843368,-27.0479908992345,0.0 -52.8433799,-27.0480088992345,0.0 -52.8433909,-27.0480254992345,0.0 -52.8434118,-27.0480603992345,0.0 -52.8434347,-27.0480971992345,0.0 -52.8434629,-27.0481307992345,0.0 -52.8434947,-27.0481573992345,0.0 -52.8435327,-27.0481772992345,0.0 -52.8435768,-27.0481938992345,0.0 -52.8437002,-27.0482334992345,0.0 -52.8437849,-27.0482680992345,0.0 -52.8438766,-27.0483052992345,0.0 -52.8439441,-27.0483307992345,0.0 -52.8439638,-27.0483428992345,0.0 -52.8439958,-27.0483653992345,0.0 -52.8440279,-27.0483912992345,0.0 -52.8440585,-27.0484181992345,0.0 -52.8440879,-27.0484438992345,0.0 -52.8441138,-27.0484674992345,0.0 -52.8441389,-27.0484905992345,0.0 -52.8441644,-27.0485128992345,0.0 -52.8441894,-27.0485334992345,0.0 -52.8442143,-27.0485533992345,0.0 -52.8442366,-27.0485719992345,0.0 -52.8442565,-27.0485899992345,0.0 -52.8443431,-27.0486438992345,0.0 -52.8443624,-27.0486552992345,0.0 -52.8444052,-27.0486815992345,0.0 -52.8444744,-27.0487217992345,0.0 -52.8445621,-27.0487742992345,0.0 -52.8446256,-27.0488160992345,0.0 -52.8446423,-27.0488389992345,0.0 -52.8446809,-27.0489064992345,0.0 -52.844723,-27.0490026992345,0.0 -52.844763,-27.0490931992345,0.0 -52.8447796,-27.0491267992345,0.0 -52.8447989,-27.0491692992345,0.0 -52.8448276,-27.0492169992345,0.0 -52.8448547,-27.0492619992345,0.0 -52.8448757,-27.0492988992345,0.0 -52.8448943,-27.0493341992345,0.0 -52.8449134,-27.0494032992345,0.0 -52.8449169,-27.0494451992345,0.0 -52.8449139,-27.0494969992345,0.0 -52.8449009,-27.0495704992345,0.0 -52.8448807,-27.0496462992345,0.0 -52.8448511,-27.0496981992345,0.0 -52.8448154,-27.0497495992345,0.0 -52.8447726,-27.0497967992345,0.0 -52.8447288,-27.0498381992345,0.0 -52.8446812,-27.0498812992345,0.0 -52.8446304,-27.0499321992345,0.0 -52.8445743,-27.0499942992345,0.0 -52.8445149,-27.0500698992345,0.0 -52.8444611,-27.0501314992345,0.0 -52.8444304,-27.0501641992345,0.0 -52.8443872,-27.0502016992345,0.0 -52.8443386,-27.0502369992345,0.0 -52.8442895,-27.0502701992345,0.0 -52.844243,-27.0503029992345,0.0 -52.8441647,-27.0503557992345,0.0 -52.8441299,-27.0503723992345,0.0 -52.8441015,-27.0503835992345,0.0 -52.8440795,-27.0503910992345,0.0 -52.8440617,-27.0503981992345,0.0 -52.8440446,-27.0504038992345,0.0 -52.8440295,-27.0504098992345,0.0 -52.8440125,-27.0504172992345,0.0 -52.8439913,-27.0504269992345,0.0 -52.8439625,-27.0504384992345,0.0 -52.8438721,-27.0504771992345,0.0 -52.843814,-27.0505061992345,0.0 -52.8437457,-27.0505413992345,0.0 -52.8436835,-27.0505753992345,0.0 -52.8436474,-27.0505954992345,0.0 -52.843599,-27.0506279992345,0.0 -52.8435424,-27.0506751992345,0.0 -52.8434793,-27.0507457992345,0.0 -52.8434224,-27.0508281992345,0.0 -52.8433888,-27.0509057992345,0.0 -52.8433829,-27.0509520992345,0.0 -52.8433817,-27.0510431992344,0.0 -52.8433861,-27.0511602992344,0.0 -52.8433918,-27.0512606992344,0.0 -52.8433875,-27.0512887992344,0.0 -52.8433813,-27.0513378992345,0.0 -52.8433722,-27.0513926992344,0.0 -52.8433648,-27.0514625992344,0.0 -52.8433595,-27.0515440992344,0.0 -52.8433486,-27.0516229992344,0.0 -52.8433319,-27.0516889992344,0.0 -52.8433074,-27.0517431992344,0.0 -52.8432739,-27.0517945992344,0.0 -52.8432422,-27.0518406992344,0.0 -52.8432254,-27.0518639992344,0.0 -52.8432163,-27.0518856992344,0.0 -52.8432015,-27.0519086992344,0.0 -52.8431795,-27.0519377992344,0.0 -52.8431503,-27.0519723992344,0.0 -52.8431177,-27.0520083992344,0.0 -52.8430778,-27.0520516992344,0.0 -52.8430374,-27.0521008992344,0.0 -52.843,-27.0521626992344,0.0 -52.8429711,-27.0522331992344,0.0 -52.842954,-27.0522878992344,0.0 -52.8429531,-27.0522912992344,0.0 -52.8429512,-27.0522982992344,0.0 -52.8429398,-27.0523440992344,0.0 -52.8429271,-27.0524040992344,0.0 -52.8429059,-27.0524800992344,0.0 -52.8429038,-27.0524861992344,0.0 -52.8428768,-27.0525641992344,0.0 -52.8428509,-27.0526433992344,0.0 -52.8428394,-27.0526914992344,0.0 -52.8428333,-27.0527188992344,0.0 -52.842831,-27.0527863992344,0.0 -52.8428354,-27.0528683992344,0.0 -52.8428507,-27.0529600992344,0.0 -52.8428722,-27.0530235992344,0.0 -52.8428783,-27.0530307992344,0.0 -52.842887,-27.0530504992344,0.0 -52.8429015,-27.0530877992344,0.0 -52.8429126,-27.0531372992344,0.0 -52.8429106,-27.0532718992344,0.0 -52.8428957,-27.0533494992344,0.0 -52.8428824,-27.0533953992344,0.0 -52.8428775,-27.0534129992344,0.0 -52.8428717,-27.0534341992344,0.0 -52.8428522,-27.0534959992344,0.0 -52.842832,-27.0535704992344,0.0 -52.8428114,-27.0536644992344,0.0 -52.8427992,-27.0537532992344,0.0 -52.842797,-27.0537954992344,0.0 -52.8427891,-27.0538272992344,0.0 -52.842776,-27.0538879992344,0.0 -52.8427534,-27.0539746992344,0.0 -52.842707,-27.0541390992344,0.0 -52.8426972,-27.0541764992344,0.0 -52.8426828,-27.0542374992344,0.0 -52.8426686,-27.0543077992344,0.0 -52.8426578,-27.0543542992344,0.0 -52.8426422,-27.0544247992344,0.0 -52.8426195,-27.0545178992344,0.0 -52.8426005,-27.0546068992344,0.0 -52.8425928,-27.0546529992344,0.0 -52.8425824,-27.0546851992344,0.0 -52.8425623,-27.0547456992344,0.0 -52.8425296,-27.0548199992344,0.0 -52.8424876,-27.0548896992344,0.0 -52.8424507,-27.0549441992344,0.0 -52.8424351,-27.0549706992344,0.0 -52.8424084,-27.0550131992344,0.0 -52.8423734,-27.0550692992344,0.0 -52.8423361,-27.0551366992344,0.0 -52.8423066,-27.0552033992344,0.0 -52.8422946,-27.0552704992344,0.0 -52.8422893,-27.0553570992344,0.0 -52.8422942,-27.0554425992344,0.0 -52.8423022,-27.0554834992344,0.0 -52.8423048,-27.0555032992344,0.0 -52.8423105,-27.0555510992344,0.0 -52.8423147,-27.0556205992344,0.0 -52.8423142,-27.0557028992344,0.0 -52.842312,-27.0557928992344,0.0 -52.8423135,-27.0558544992344,0.0 -52.8423225,-27.0558908992344,0.0 -52.8423426,-27.0559450992344,0.0 -52.8423735,-27.0560057992344,0.0 -52.8424141,-27.0560701992344,0.0 -52.8424578,-27.0561263992344,0.0 -52.8424892,-27.0561593992344,0.0 -52.8424997,-27.0561721992344,0.0 -52.8425208,-27.0562010992344,0.0 -52.8425434,-27.0562464992344,0.0 -52.8425633,-27.0562969992344,0.0 -52.8425775,-27.0563371992343,0.0 -52.8425868,-27.0563484992343,0.0 -52.8426001,-27.0563600992343,0.0 -52.8426162,-27.0563707992343,0.0 -52.8426382,-27.0563821992343,0.0 -52.8426648,-27.0563934992343,0.0 -52.842693,-27.0564023992343,0.0 -52.8427289,-27.0564094992343,0.0 -52.8427684,-27.0564144992344,0.0 -52.842812,-27.0564169992344,0.0 -52.8428272,-27.0564184992344,0.0 -52.842844,-27.0564201992343,0.0 -52.8428546,-27.0564211992343,0.0 -52.8428675,-27.0564217992344,0.0 -52.8428814,-27.0564220992344,0.0 -52.8428963,-27.0564219992344,0.0 -52.8429109,-27.0564215992344,0.0 -52.8429261,-27.0564210992344,0.0 -52.8429415,-27.0564204992344,0.0 -52.8429569,-27.0564195992344,0.0 -52.8429723,-27.0564188992343,0.0 -52.8430052,-27.0564162992343,0.0 -52.8430231,-27.0564145992343,0.0 -52.8430436,-27.0564134992344,0.0 -52.8430678,-27.0564132992343,0.0 -52.8430946,-27.0564150992343,0.0 -52.8431258,-27.0564188992343,0.0 -52.8431601,-27.0564253992343,0.0 -52.8432025,-27.0564384992343,0.0 -52.8432443,-27.0564530992343,0.0 -52.8432638,-27.0564591992343,0.0 -52.8432865,-27.0564661992343,0.0 -52.8433209,-27.0564742992343,0.0 -52.8433608,-27.0564808992344,0.0 -52.8434043,-27.0564836992343,0.0 -52.8434465,-27.0564836992343,0.0 -52.8434834,-27.0564837992343,0.0 -52.8435143,-27.0564846992343,0.0 -52.8435406,-27.0564872992343,0.0 -52.8435597,-27.0564910992343,0.0 -52.8435762,-27.0564983992343,0.0 -52.8435907,-27.0565111992343,0.0 -52.8436081,-27.0565374992343,0.0 -52.843636,-27.0566168992343,0.0 -52.843637,-27.0566438992343,0.0 -52.8436385,-27.0566777992343,0.0 -52.8436403,-27.0567099992343,0.0 -52.8436434,-27.0567373992343,0.0 -52.8436471,-27.0567583992343,0.0 -52.8436501,-27.0567767992343,0.0 -52.8436512,-27.0567943992343,0.0 -52.8436496,-27.0568138992343,0.0 -52.843644,-27.0568332992343,0.0 -52.8436348,-27.0568545992343,0.0 -52.8436238,-27.0568752992343,0.0 -52.8436099,-27.0568975992343,0.0 -52.8435997,-27.0569140992343,0.0 -52.8435928,-27.0569252992343,0.0 -52.8435746,-27.0569600992343,0.0 -52.8435617,-27.0569823992343,0.0 -52.8435468,-27.0570001992343,0.0 -52.8435258,-27.0570156992343,0.0 -52.843501,-27.0570277992343,0.0 -52.843473,-27.0570357992343,0.0 -52.843444,-27.0570418992343,0.0 -52.8434158,-27.0570449992343,0.0 -52.8433841,-27.0570445992343,0.0 -52.8433471,-27.0570411992343,0.0 -52.8433012,-27.0570366992343,0.0 -52.843242,-27.0570281992343,0.0 -52.8431794,-27.0570173992343,0.0 -52.8431354,-27.0570112992343,0.0 -52.8431101,-27.0570084992343,0.0 -52.8430791,-27.0570057992343,0.0 -52.8430464,-27.0570042992343,0.0 -52.8430142,-27.0570044992343,0.0 -52.84295,-27.0570065992343,0.0 -52.8429167,-27.0570077992343,0.0 -52.8428814,-27.0570086992343,0.0 -52.8428447,-27.0570094992343,0.0 -52.8428039,-27.0570107992343,0.0 -52.8427629,-27.0570117992343,0.0 -52.8427235,-27.0570135992343,0.0 -52.8426421,-27.0570189992343,0.0 -52.842603,-27.0570225992343,0.0 -52.8425654,-27.0570276992343,0.0 -52.842527,-27.0570342992343,0.0 -52.8424817,-27.0570479992343,0.0 -52.84244,-27.0570646992343,0.0 -52.8424134,-27.0570846992343,0.0 -52.8423806,-27.0571162992343,0.0 -52.8423387,-27.0571677992343,0.0 -52.8422942,-27.0572396992343,0.0 -52.8422566,-27.0573247992343,0.0 -52.8422287,-27.0573916992343,0.0 -52.8422109,-27.0574277992343,0.0 -52.8421842,-27.0574692992343,0.0 -52.8421504,-27.0575124992343,0.0 -52.842117,-27.0575526992343,0.0 -52.8420222,-27.0577018992343,0.0 -52.8419978,-27.0577584992343,0.0 -52.8419786,-27.0577935992343,0.0 -52.8419529,-27.0578438992343,0.0 -52.8419221,-27.0579071992343,0.0 -52.8418745,-27.0580499992343,0.0 -52.8418637,-27.0580925992343,0.0 -52.8418537,-27.0581576992343,0.0 -52.8418495,-27.0582359992343,0.0 -52.8418572,-27.0583614992343,0.0 -52.8418626,-27.0584079992343,0.0 -52.8418748,-27.0584856992343,0.0 -52.8418967,-27.0585750992343,0.0 -52.8419231,-27.0586555992343,0.0 -52.8419394,-27.0586913992343,0.0 -52.8419606,-27.0587382992343,0.0 -52.8419854,-27.0587957992343,0.0 -52.8420403,-27.0589341992343,0.0 -52.8420482,-27.0589495992343,0.0 -52.8420679,-27.0589832992343,0.0 -52.8420951,-27.0590300992343,0.0 -52.8421281,-27.0590854992343,0.0 -52.8421485,-27.0591273992343,0.0 -52.8421537,-27.0591444992343,0.0 -52.8421594,-27.0591657992343,0.0 -52.8421636,-27.0591872992343,0.0 -52.8421664,-27.0592067992343,0.0 -52.8421688,-27.0592239992343,0.0 -52.8421705,-27.0592499992343,0.0 -52.8421707,-27.0592597992343,0.0 -52.8421697,-27.0592769992343,0.0 -52.8421678,-27.0592942992343,0.0 -52.842166,-27.0593067992343,0.0 -52.8421593,-27.0593177992343,0.0 -52.8421547,-27.0593418992343,0.0 -52.8421502,-27.0593677992343,0.0 -52.842145,-27.0593993992343,0.0 -52.8421394,-27.0594319992343,0.0 -52.8421328,-27.0594623992343,0.0 -52.8421237,-27.0594908992343,0.0 -52.8421105,-27.0595174992343,0.0 -52.842095,-27.0595406992343,0.0 -52.8420785,-27.0595607992343,0.0 -52.8420616,-27.0595812992343,0.0 -52.8420446,-27.0596013992343,0.0 -52.8420281,-27.0596231992343,0.0 -52.8420132,-27.0596447992343,0.0 -52.8419981,-27.0596669992343,0.0 -52.8419821,-27.0596884992343,0.0 -52.841965,-27.0597097992343,0.0 -52.841946,-27.0597302992343,0.0 -52.8419256,-27.0597491992343,0.0 -52.8419023,-27.0597664992343,0.0 -52.8418776,-27.0597833992343,0.0 -52.8418523,-27.0597996992343,0.0 -52.8418249,-27.0598174992343,0.0 -52.8417981,-27.0598377992343,0.0 -52.8417745,-27.0598619992343,0.0 -52.8417557,-27.0598994992343,0.0 -52.8417449,-27.0599434992343,0.0 -52.8417446,-27.0599598992343,0.0 -52.8417493,-27.0599811992343,0.0 -52.8417579,-27.0600025992343,0.0 -52.8417709,-27.0600240992343,0.0 -52.8417883,-27.0600461992343,0.0 -52.8418079,-27.0600672992343,0.0 -52.8418261,-27.0600829992343,0.0 -52.841842,-27.0600951992343,0.0 -52.8418537,-27.0601062992343,0.0 -52.8418621,-27.0601165992343,0.0 -52.8418674,-27.0601284992343,0.0 -52.8418732,-27.0601483992343,0.0 -52.8418806,-27.0601786992343,0.0 -52.8418879,-27.0602136992343,0.0 -52.8418895,-27.0602268992343,0.0 -52.8418918,-27.0602545992343,0.0 -52.8419027,-27.0602870992343,0.0 -52.8419172,-27.0603191992343,0.0 -52.8419364,-27.0603496992343,0.0 -52.8419616,-27.0603790992343,0.0 -52.8419981,-27.0604158992343,0.0 -52.8420439,-27.0604574992343,0.0 -52.8420736,-27.0604853992343,0.0 -52.8420867,-27.0605007992343,0.0 -52.8421037,-27.0605249992343,0.0 -52.8421159,-27.0605517992343,0.0 -52.8421235,-27.0605856992343,0.0 -52.8421331,-27.0606292992343,0.0 -52.8421429,-27.0606614992343,0.0 -52.8421477,-27.0606798992343,0.0 -52.8421625,-27.0607082992343,0.0 -52.8421819,-27.0607381992343,0.0 -52.8422119,-27.0607745992343,0.0 -52.8422567,-27.0608172992343,0.0 -52.8423072,-27.0608592992343,0.0 -52.8423346,-27.0608815992343,0.0 -52.8423422,-27.0608905992343,0.0 -52.8423599,-27.0609056992343,0.0 -52.8423811,-27.0609237992343,0.0 -52.8424038,-27.0609424992343,0.0 -52.8424294,-27.0609613992343,0.0 -52.8424548,-27.0609800992343,0.0 -52.8424784,-27.0609973992343,0.0 -52.8425064,-27.0610181992343,0.0 -52.8425423,-27.0610468992343,0.0 -52.8425841,-27.0610828992343,0.0 -52.8426043,-27.0611023992343,0.0 -52.8426162,-27.0611123992343,0.0 -52.8426375,-27.0611288992343,0.0 -52.8426553,-27.0611454992342,0.0 -52.8426694,-27.0611632992343,0.0 -52.8426811,-27.0611858992343,0.0 -52.8426882,-27.0612114992343,0.0 -52.84269,-27.0612498992343,0.0 -52.8426869,-27.0613030992343,0.0 -52.8426801,-27.0613517992342,0.0 -52.8426751,-27.0613611992343,0.0 -52.8426723,-27.0613843992343,0.0 -52.8426725,-27.0614149992342,0.0 -52.8426744,-27.0614442992343,0.0 -52.8426758,-27.0614722992342,0.0 -52.8426741,-27.0614974992342,0.0 -52.8426644,-27.0615252992342,0.0 -52.8426445,-27.0615586992342,0.0 -52.842617,-27.0615940992343,0.0 -52.8425791,-27.0616399992342,0.0 -52.8425391,-27.0616882992342,0.0 -52.8425129,-27.0617180992342,0.0 -52.8424985,-27.0617447992342,0.0 -52.8424756,-27.0617828992342,0.0 -52.8424434,-27.0618329992342,0.0 -52.8424083,-27.0618950992342,0.0 -52.8423819,-27.0619507992342,0.0 -52.842372,-27.0619827992342,0.0 -52.8423557,-27.0620214992342,0.0 -52.8423328,-27.0620593992342,0.0 -52.8423063,-27.0620953992342,0.0 -52.8422809,-27.0621343992342,0.0 -52.8422604,-27.0621854992342,0.0 -52.8422497,-27.0622462992342,0.0 -52.8422496,-27.0622951992342,0.0 -52.8422502,-27.0623154992342,0.0 -52.842256,-27.0623435992342,0.0 -52.8422633,-27.0623691992342,0.0 -52.8422716,-27.0623903992342,0.0 -52.8422817,-27.0624088992342,0.0 -52.8422946,-27.0624235992342,0.0 -52.8423102,-27.0624335992342,0.0 -52.8423297,-27.0624408992342,0.0 -52.8423543,-27.0624477992342,0.0 -52.8423792,-27.0624514992342,0.0 -52.8424021,-27.0624517992342,0.0 -52.8424244,-27.0624495992342,0.0 -52.8424462,-27.0624439992342,0.0 -52.8424705,-27.0624363992342,0.0 -52.8424992,-27.0624242992342,0.0 -52.8425304,-27.0624089992342,0.0 -52.8425632,-27.0623930992342,0.0 -52.8425979,-27.0623775992342,0.0 -52.8426319,-27.0623635992342,0.0 -52.8426643,-27.0623503992342,0.0 -52.8426934,-27.0623375992342,0.0 -52.8427208,-27.0623227992342,0.0 -52.8427424,-27.0623062992342,0.0 -52.8427613,-27.0622892992342,0.0 -52.8427795,-27.0622758992342,0.0 -52.8428058,-27.0622639992342,0.0 -52.8428469,-27.0622507992342,0.0 -52.8428983,-27.0622365992342,0.0 -52.8429411,-27.0622243992342,0.0 -52.8429765,-27.0622164992342,0.0 -52.8430212,-27.0622100992342,0.0 -52.8430797,-27.0622037992342,0.0 -52.8431462,-27.0622011992342,0.0 -52.8432194,-27.0622018992342,0.0 -52.8432925,-27.0622070992342,0.0 -52.8433437,-27.0622141992342,0.0 -52.8433649,-27.0622183992342,0.0 -52.8433963,-27.0622254992342,0.0 -52.8434304,-27.0622332992342,0.0 -52.8434716,-27.0622429992342,0.0 -52.8435118,-27.0622551992342,0.0 -52.8435496,-27.0622697992342,0.0 -52.8435827,-27.0622848992342,0.0 -52.8436142,-27.0622970992342,0.0 -52.8436541,-27.0623057992342,0.0 -52.8436997,-27.0623107992342,0.0 -52.8437579,-27.0623137992342,0.0 -52.8438147,-27.0623170992342,0.0 -52.8438478,-27.0623212992342,0.0 -52.8438921,-27.0623244992342,0.0 -52.8439411,-27.0623285992342,0.0 -52.8439898,-27.0623363992342,0.0 -52.8440349,-27.0623486992342,0.0 -52.8440781,-27.0623665992342,0.0 -52.8441202,-27.0623948992342,0.0 -52.8441573,-27.0624322992342,0.0 -52.8441754,-27.0624564992342,0.0 -52.8441839,-27.0624712992342,0.0 -52.844203,-27.0624980992342,0.0 -52.8442245,-27.0625257992342,0.0 -52.8442493,-27.0625503992342,0.0 -52.844276,-27.0625738992342,0.0 -52.8442994,-27.0626002992342,0.0 -52.8443185,-27.0626325992342,0.0 -52.8443317,-27.0626739992342,0.0 -52.8443358,-27.0627244992342,0.0 -52.8443357,-27.0627878992342,0.0 -52.844327,-27.0628486992342,0.0 -52.84432,-27.0628844992342,0.0 -52.8443067,-27.0629260992342,0.0 -52.8442836,-27.0629679992342,0.0 -52.8442547,-27.0630062992342,0.0 -52.8442142,-27.0630480992342,0.0 -52.8441642,-27.0630929992342,0.0 -52.8441056,-27.0631429992342,0.0 -52.8440495,-27.0631915992342,0.0 -52.8440366,-27.0632040992342,0.0 -52.8440228,-27.0632173992342,0.0 -52.8440086,-27.0632318992342,0.0 -52.8439907,-27.0632507992342,0.0 -52.84397,-27.0632747992342,0.0 -52.8439458,-27.0633064992342,0.0 -52.8439193,-27.0633494992342,0.0 -52.8438932,-27.0634013992342,0.0 -52.8438743,-27.0634509992342,0.0 -52.8438688,-27.0634662992342,0.0 -52.8438562,-27.0634848992342,0.0 -52.8438449,-27.0634982992342,0.0 -52.8438288,-27.0635151992342,0.0 -52.8438101,-27.0635305992342,0.0 -52.8437895,-27.0635452992342,0.0 -52.8437686,-27.0635601992342,0.0 -52.8437445,-27.0635770992342,0.0 -52.8437203,-27.0635960992342,0.0 -52.8436935,-27.0636256992342,0.0 -52.8436714,-27.0636740992342,0.0 -52.8436606,-27.0637234992342,0.0 -52.8436596,-27.0637399992342,0.0 -52.8436614,-27.0637727992342,0.0 -52.8436653,-27.0638109992342,0.0 -52.8436704,-27.0638504992342,0.0 -52.8436791,-27.0638962992342,0.0 -52.8436906,-27.0639490992342,0.0 -52.8436994,-27.0639988992342,0.0 -52.8436991,-27.0640134992342,0.0 -52.8436998,-27.0640506992342,0.0 -52.8436969,-27.0640917992342,0.0 -52.8436857,-27.0641290992342,0.0 -52.8436678,-27.0641647992342,0.0 -52.8436488,-27.0642007992342,0.0 -52.8436316,-27.0642423992342,0.0 -52.8436214,-27.0642907992342,0.0 -52.8436195,-27.0643355992342,0.0 -52.8436181,-27.0643536992342,0.0 -52.8436212,-27.0643891992342,0.0 -52.8436252,-27.0644327992342,0.0 -52.8436236,-27.0644831992342,0.0 -52.8436144,-27.0645390992342,0.0 -52.8436009,-27.0646008992342,0.0 -52.8435914,-27.0646655992342,0.0 -52.843589,-27.0647190992342,0.0 -52.8435874,-27.0647303992342,0.0 -52.8435899,-27.0647663992342,0.0 -52.8436045,-27.0648213992342,0.0 -52.8436288,-27.0648892992342,0.0 -52.8436658,-27.0649675992342,0.0 -52.8436999,-27.0650360992342,0.0 -52.8437143,-27.0650712992342,0.0 -52.8437379,-27.0651162992342,0.0 -52.843774,-27.0651780992342,0.0 -52.8438194,-27.0652488992342,0.0 -52.8438603,-27.0653146992342,0.0 -52.8438811,-27.0653558992342,0.0 -52.8438904,-27.0653699992342,0.0 -52.8439074,-27.0653950992342,0.0 -52.8439378,-27.0654463992342,0.0 -52.8439489,-27.0654668992342,0.0 -52.8439593,-27.0654841992342,0.0 -52.8439702,-27.0655012992342,0.0 -52.8439849,-27.0655202992342,0.0 -52.8440031,-27.0655395992342,0.0 -52.8440295,-27.0655589992342,0.0 -52.8440591,-27.0655781992342,0.0 -52.8440839,-27.0655964992342,0.0 -52.8441042,-27.0656134992342,0.0 -52.8441374,-27.0656448992342,0.0 -52.8441727,-27.0656853992342,0.0 -52.8442086,-27.0657401992342,0.0 -52.8442437,-27.0657993992342,0.0 -52.8442607,-27.0658360992342,0.0 -52.8442647,-27.0658530992342,0.0 -52.8442799,-27.0658888992342,0.0 -52.844329,-27.0659929992342,0.0 -52.8443628,-27.0660569992342,0.0 -52.8443842,-27.0660982992342,0.0 -52.8443926,-27.0661176992342,0.0 -52.8444177,-27.0661596992342,0.0 -52.844452,-27.0662174992342,0.0 -52.8444859,-27.0662874992342,0.0 -52.84451,-27.0663468992342,0.0 -52.8445322,-27.0663801992342,0.0 -52.8445701,-27.0664264992342,0.0 -52.8446236,-27.0664785992341,0.0 -52.8446832,-27.0665291992342,0.0 -52.8447352,-27.0665736992342,0.0 -52.8447497,-27.0665918992342,0.0 -52.8447766,-27.0666236992342,0.0 -52.8448084,-27.0666662992342,0.0 -52.8448416,-27.0667222992341,0.0 -52.8448929,-27.0668404992341,0.0 -52.8448938,-27.0668672992341,0.0 -52.8448935,-27.0668979992341,0.0 -52.8448871,-27.0669311992341,0.0 -52.844876,-27.0669659992341,0.0 -52.8448605,-27.0670005992342,0.0 -52.8448405,-27.0670335992341,0.0 -52.8448192,-27.0670633992342,0.0 -52.844795,-27.0670893992341,0.0 -52.84477,-27.0671115992341,0.0 -52.8447412,-27.0671300992341,0.0 -52.8447116,-27.0671459992341,0.0 -52.8446811,-27.0671585992341,0.0 -52.8446505,-27.0671678992341,0.0 -52.8446208,-27.0671725992341,0.0 -52.8445919,-27.0671739992341,0.0 -52.844563,-27.0671728992341,0.0 -52.8445377,-27.0671695992341,0.0 -52.8445149,-27.0671641992341,0.0 -52.8444916,-27.0671561992341,0.0 -52.8444667,-27.0671465992341,0.0 -52.8444425,-27.0671372992341,0.0 -52.844417,-27.0671284992341,0.0 -52.8443903,-27.0671222992341,0.0 -52.8443616,-27.0671183992341,0.0 -52.8443299,-27.0671176992341,0.0 -52.8442844,-27.0671167992341,0.0 -52.8442385,-27.0671156992341,0.0 -52.8442099,-27.0671155992341,0.0 -52.8441645,-27.0671147992341,0.0 -52.8441102,-27.0671124992341,0.0 -52.8440496,-27.0671085992341,0.0 -52.8439905,-27.0671030992341,0.0 -52.8439342,-27.0670956992341,0.0 -52.8438799,-27.0670875992341,0.0 -52.8438236,-27.0670785992341,0.0 -52.8437627,-27.0670721992341,0.0 -52.8436952,-27.0670666992341,0.0 -52.8436241,-27.0670642992341,0.0 -52.8435508,-27.0670630992341,0.0 -52.8434872,-27.0670637992341,0.0 -52.8434658,-27.0670625992341,0.0 -52.843424,-27.0670581992341,0.0 -52.843368,-27.0670499992341,0.0 -52.8433067,-27.0670422992342,0.0 -52.843239,-27.0670343992341,0.0 -52.8431686,-27.0670290992341,0.0 -52.8430967,-27.0670286992341,0.0 -52.84302,-27.0670329992341,0.0 -52.8429443,-27.0670391992341,0.0 -52.8428867,-27.0670479992341,0.0 -52.8428567,-27.0670539992341,0.0 -52.842843,-27.0670573992341,0.0 -52.8428163,-27.0670640992341,0.0 -52.8427602,-27.0670851992341,0.0 -52.8426967,-27.0671158992341,0.0 -52.8426277,-27.0671597992341,0.0 -52.8425666,-27.0672030992341,0.0 -52.8425259,-27.0672319992341,0.0 -52.8425074,-27.0672552992341,0.0 -52.8424763,-27.0672884992341,0.0 -52.842428,-27.0673319992341,0.0 -52.8423586,-27.0673876992341,0.0 -52.8422727,-27.0674510992341,0.0 -52.8421756,-27.0675108992341,0.0 -52.842092,-27.0675522992341,0.0 -52.8420748,-27.0675628992341,0.0 -52.8420349,-27.0675861992341,0.0 -52.8419733,-27.0676198992341,0.0 -52.8418981,-27.0676710992341,0.0 -52.8418161,-27.0677357992341,0.0 -52.8417416,-27.0677974992341,0.0 -52.8416991,-27.0678370992341,0.0 -52.8416664,-27.0678699992341,0.0 -52.8415483,-27.0679799992341,0.0 -52.8414751,-27.0680405992341,0.0 -52.8414162,-27.0680836992341,0.0 -52.8413896,-27.0681023992341,0.0 -52.8413642,-27.0681181992341,0.0 -52.841341,-27.0681318992341,0.0 -52.8413254,-27.0681422992341,0.0 -52.8413138,-27.0681500992341,0.0 -52.841285,-27.0681708992341,0.0 -52.8412574,-27.0681936992341,0.0 -52.8412334,-27.0682159992341,0.0 -52.8412127,-27.0682390992341,0.0 -52.8412027,-27.0682503992341,0.0 -52.8411932,-27.0682611992341,0.0 -52.8411711,-27.0682829992341,0.0 -52.8411443,-27.0683052992341,0.0 -52.841114,-27.0683289992341,0.0 -52.8410734,-27.0683550992341,0.0 -52.8410226,-27.0683830992341,0.0 -52.840966,-27.0684101992341,0.0 -52.8409155,-27.0684314992341,0.0 -52.8408917,-27.0684489992341,0.0 -52.840854,-27.0684718992341,0.0 -52.8408012,-27.0685060992341,0.0 -52.8407371,-27.0685519992341,0.0 -52.8406766,-27.0686010992341,0.0 -52.8406273,-27.0686435992341,0.0 -52.8405889,-27.0686717992341,0.0 -52.8405285,-27.0687083992341,0.0 -52.8404497,-27.0687577992341,0.0 -52.8403646,-27.0688120992341,0.0 -52.8402958,-27.0688565992341,0.0 -52.8402699,-27.0688745992341,0.0 -52.8402245,-27.0689035992341,0.0 -52.8401616,-27.0689427992341,0.0 -52.840088,-27.0689931992341,0.0 -52.8400146,-27.0690469992341,0.0 -52.8399606,-27.0690874992341,0.0 -52.8399417,-27.0691025992341,0.0 -52.8399287,-27.0691115992341,0.0 -52.8399023,-27.0691298992341,0.0 -52.8398621,-27.0691589992341,0.0 -52.8398106,-27.0691999992341,0.0 -52.8397139,-27.0692885992341,0.0 -52.8397051,-27.0692997992341,0.0 -52.8396909,-27.0693162992341,0.0 -52.8396756,-27.0693351992341,0.0 -52.8396605,-27.0693544992341,0.0 -52.839646,-27.0693733992341,0.0 -52.8396336,-27.0693915992341,0.0 -52.8396226,-27.0694080992341,0.0 -52.8396125,-27.0694222992341,0.0 -52.839603,-27.0694359992341,0.0 -52.8395942,-27.0694480992341,0.0 -52.8395862,-27.0694581992341,0.0 -52.8395807,-27.0694664992341,0.0 -52.8395727,-27.0694790992341,0.0 -52.8395656,-27.0694870992341,0.0 -52.8395546,-27.0695064992341,0.0 -52.83954,-27.0695254992341,0.0 -52.839512,-27.0695540992341,0.0 -52.8394738,-27.0695965992341,0.0 -52.8394266,-27.0696591992341,0.0 -52.8393731,-27.0697371992341,0.0 -52.8393237,-27.0698165992341,0.0 -52.8392899,-27.0698693992341,0.0 -52.839268,-27.0699049992341,0.0 -52.8392336,-27.0699658992341,0.0 -52.8391868,-27.0700504992341,0.0 -52.8391378,-27.0701549992341,0.0 -52.8391005,-27.0702527992341,0.0 -52.8390886,-27.0703044992341,0.0 -52.8390683,-27.0703493992341,0.0 -52.8390381,-27.0704196992341,0.0 -52.8390009,-27.0705063992341,0.0 -52.8389603,-27.0706102992341,0.0 -52.8389244,-27.0707035992341,0.0 -52.8389082,-27.0707508992341,0.0 -52.8388946,-27.0708069992341,0.0 -52.8388829,-27.0708800992341,0.0 -52.8388738,-27.0709776992341,0.0 -52.8388727,-27.0710805992341,0.0 -52.8388778,-27.0711501992341,0.0 -52.8388843,-27.0711941992341,0.0 -52.8389024,-27.0712576992341,0.0 -52.8389304,-27.0713355992341,0.0 -52.838967,-27.0714172992341,0.0 -52.8389957,-27.0714726992341,0.0 -52.839023,-27.0715089992341,0.0 -52.83906,-27.0715577992341,0.0 -52.8391024,-27.0716195992341,0.0 -52.8391385,-27.0716780992341,0.0 -52.8391476,-27.0716910992341,0.0 -52.8391582,-27.0717087992341,0.0 -52.8391717,-27.0717327992341,0.0 -52.8391881,-27.0717636992341,0.0 -52.8392034,-27.0717993992341,0.0 -52.8392154,-27.0718421992341,0.0 -52.8392214,-27.0718970992341,0.0 -52.8392238,-27.071966399234,0.0 -52.8392238,-27.072030299234,0.0 -52.8392243,-27.072058999234,0.0 -52.8392216,-27.072086599234,0.0 -52.8392168,-27.072121199234,0.0 -52.8392044,-27.072157999234,0.0 -52.839187,-27.072194099234,0.0 -52.8391626,-27.0722283992341,0.0 -52.839134,-27.072257499234,0.0 -52.8390953,-27.072282699234,0.0 -52.8390521,-27.072301399234,0.0 -52.8390051,-27.072314799234,0.0 -52.8389547,-27.072323599234,0.0 -52.8389014,-27.072327899234,0.0 -52.8388466,-27.072329099234,0.0 -52.8387907,-27.072329299234,0.0 -52.8387327,-27.072328499234,0.0 -52.838667,-27.072325299234,0.0 -52.8385937,-27.072321699234,0.0 -52.8385161,-27.072321699234,0.0 -52.8384548,-27.072324299234,0.0 -52.8384144,-27.072329699234,0.0 -52.8383581,-27.072344399234,0.0 -52.8382882,-27.072371699234,0.0 -52.8382114,-27.072417399234,0.0 -52.8381328,-27.072475999234,0.0 -52.8380689,-27.072530399234,0.0 -52.8380527,-27.072549699234,0.0 -52.8380268,-27.072579399234,0.0 -52.8379925,-27.072616499234,0.0 -52.8379479,-27.072663799234,0.0 -52.8378951,-27.072723699234,0.0 -52.8378321,-27.072794799234,0.0 -52.8377722,-27.072864099234,0.0 -52.8377354,-27.072903299234,0.0 -52.8377236,-27.072915999234,0.0 -52.8377065,-27.072930999234,0.0 -52.8376827,-27.072950899234,0.0 -52.8376535,-27.072970799234,0.0 -52.8376234,-27.072988899234,0.0 -52.8375988,-27.073002899234,0.0 -52.8375685,-27.073018099234,0.0 -52.8375311,-27.073032799234,0.0 -52.8374848,-27.073044999234,0.0 -52.8374333,-27.073056799234,0.0 -52.8373794,-27.073073899234,0.0 -52.8373266,-27.073092999234,0.0 -52.8372749,-27.073116399234,0.0 -52.837225,-27.073144999234,0.0 -52.8371763,-27.073177799234,0.0 -52.8371394,-27.073212999234,0.0 -52.8371262,-27.073225799234,0.0 -52.8371022,-27.073251999234,0.0 -52.8370742,-27.073285299234,0.0 -52.837045,-27.073333199234,0.0 -52.837019,-27.073396299234,0.0 -52.8370003,-27.073474599234,0.0 -52.8369928,-27.073554399234,0.0 -52.8369933,-27.073603399234,0.0 -52.8369929,-27.073620899234,0.0 -52.836994,-27.073668699234,0.0 -52.8369935,-27.073733699234,0.0 -52.8369843,-27.073820499234,0.0 -52.8369737,-27.073879499234,0.0 -52.8369662,-27.073921399234,0.0 -52.8369463,-27.074009199234,0.0 -52.8369369,-27.074041199234,0.0 -52.8369291,-27.074090099234,0.0 -52.8369311,-27.074170699234,0.0 -52.8369364,-27.074273299234,0.0 -52.8369464,-27.074376099234,0.0 -52.8369518,-27.074431399234,0.0 -52.8369523,-27.074476899234,0.0 -52.8369531,-27.074565999234,0.0 -52.8369465,-27.074675899234,0.0 -52.8369314,-27.074792999234,0.0 -52.8369236,-27.074871299234,0.0 -52.8369234,-27.074895499234,0.0 -52.8369304,-27.074962899234,0.0 -52.8369504,-27.075058999234,0.0 -52.8369813,-27.075170399234,0.0 -52.8370096,-27.075264099234,0.0 -52.8370118,-27.075276899234,0.0 -52.8370208,-27.075337099234,0.0 -52.8370358,-27.075434099234,0.0 -52.8370504,-27.075547399234,0.0 -52.8370613,-27.075648899234,0.0 -52.8370641,-27.075693699234,0.0 -52.8370628,-27.075710499234,0.0 -52.8370603,-27.075762299234,0.0 -52.8370513,-27.075839599234,0.0 -52.8370244,-27.075937299234,0.0 -52.8369834,-27.076045499234,0.0 -52.8369424,-27.076132399234,0.0 -52.8369285,-27.076153599234,0.0 -52.8368997,-27.076204099234,0.0 -52.8368643,-27.076276299234,0.0 -52.8368293,-27.076372099234,0.0 -52.8368046,-27.076471499234,0.0 -52.8367955,-27.076533199234,0.0 -52.8367929,-27.076570099234,0.0 -52.8367945,-27.076642099234,0.0 -52.8367984,-27.076746799234,0.0 -52.8368068,-27.076861999234,0.0 -52.8368121,-27.076939899234,0.0 -52.836815,-27.076980899234,0.0 -52.8368298,-27.0770567992339,0.0 -52.8368558,-27.077156899234,0.0 -52.8368849,-27.0772612992339,0.0 -52.8369007,-27.0773309992339,0.0 -52.8369228,-27.0773842992339,0.0 -52.8369486,-27.0774513992339,0.0 -52.8369732,-27.0775315992339,0.0 -52.8369909,-27.077624699234,0.0 -52.836996,-27.0777065992339,0.0 -52.836997,-27.0777310992339,0.0 -52.8369918,-27.0778101992339,0.0 -52.8369836,-27.0778690992339,0.0 -52.8369585,-27.0779637992339,0.0 -52.8369224,-27.0780701992339,0.0 -52.8368944,-27.0781449992339,0.0 -52.8368791,-27.0781833992339,0.0 -52.8368464,-27.0782478992339,0.0 -52.8367988,-27.0783266992339,0.0 -52.8367375,-27.0784141992339,0.0 -52.8366801,-27.0785013992339,0.0 -52.8366681,-27.0785231992339,0.0 -52.8366423,-27.0785779992339,0.0 -52.8366043,-27.0786611992339,0.0 -52.8365621,-27.0787635992339,0.0 -52.8365308,-27.0788507992339,0.0 -52.8365132,-27.0788829992339,0.0 -52.8364884,-27.0789391992339,0.0 -52.8364652,-27.0790168992339,0.0 -52.8364511,-27.0791079992339,0.0 -52.8364515,-27.0791848992339,0.0 -52.8364589,-27.0792263992339,0.0 -52.8364788,-27.0792936992339,0.0 -52.8365113,-27.0793760992339,0.0 -52.8365543,-27.0794634992339,0.0 -52.8365985,-27.0795339992339,0.0 -52.8366294,-27.0795762992339,0.0 -52.8366853,-27.0796392992339,0.0 -52.8367622,-27.0797144992339,0.0 -52.8368485,-27.0797901992339,0.0 -52.8369194,-27.0798483992339,0.0 -52.8369501,-27.0798727992339,0.0 -52.8370025,-27.0799099992339,0.0 -52.8371605,-27.0800272992339,0.0 -52.83725,-27.0800953992339,0.0 -52.8373105,-27.0801461992339,0.0 -52.8373353,-27.0801638992339,0.0 -52.8373961,-27.0802039992339,0.0 -52.837466,-27.0802592992339,0.0 -52.8375442,-27.0803327992339,0.0 -52.8376115,-27.0804038992339,0.0 -52.8376396,-27.0804392992339,0.0 -52.8376595,-27.0804647992339,0.0 -52.8376814,-27.0804948992339,0.0 -52.8376982,-27.0805276992339,0.0 -52.8377102,-27.0805642992339,0.0 -52.8377166,-27.0806057992339,0.0 -52.8377159,-27.0806486992339,0.0 -52.8377044,-27.0806875992339,0.0 -52.8376827,-27.0807207992339,0.0 -52.8376517,-27.0807493992339,0.0 -52.8376109,-27.0807754992339,0.0 -52.8375578,-27.0808032992339,0.0 -52.8374901,-27.0808337992339,0.0 -52.8374108,-27.0808632992339,0.0 -52.837336,-27.0808905992339,0.0 -52.8372972,-27.0808975992339,0.0 -52.8372362,-27.0809034992339,0.0 -52.8371631,-27.0809103992339,0.0 -52.8370808,-27.0809191992339,0.0 -52.8369933,-27.0809315992339,0.0 -52.8368971,-27.0809509992339,0.0 -52.8367967,-27.0809753992339,0.0 -52.8367014,-27.0809964992339,0.0 -52.8366341,-27.0810109992339,0.0 -52.8365792,-27.0810169992339,0.0 -52.8364904,-27.0810244992339,0.0 -52.8363738,-27.0810347992339,0.0 -52.8362498,-27.0810416992339,0.0 -52.836147,-27.0810443992339,0.0 -52.8361023,-27.0810398992339,0.0 -52.8360481,-27.0810327992339,0.0 -52.8359917,-27.0810254992339,0.0 -52.8359449,-27.0810158992339,0.0 -52.8359029,-27.0810045992339,0.0 -52.8358613,-27.0809922992339,0.0 -52.8358174,-27.0809813992339,0.0 -52.8357711,-27.0809740992339,0.0 -52.8357164,-27.0809706992339,0.0 -52.8356554,-27.0809746992339,0.0 -52.8355892,-27.0809873992339,0.0 -52.8355262,-27.0810085992339,0.0 -52.8354659,-27.0810345992339,0.0 -52.835416,-27.0810601992339,0.0 -52.8353794,-27.0810801992339,0.0 -52.8353232,-27.0811133992339,0.0 -52.8352539,-27.0811637992339,0.0 -52.8351776,-27.0812325992339,0.0 -52.8351045,-27.0813116992339,0.0 -52.8350766,-27.0813565992339,0.0 -52.8350413,-27.0814327992339,0.0 -52.8349999,-27.0815333992339,0.0 -52.8349554,-27.0816362992339,0.0 -52.8349274,-27.0817034992339,0.0 -52.8349094,-27.0817651992339,0.0 -52.8348857,-27.0818592992339,0.0 -52.834869,-27.0819154992339,0.0 -52.8348529,-27.0819695992339,0.0 -52.8348267,-27.0820582992339,0.0 -52.8347792,-27.0823041992338,0.0 -52.8347704,-27.0824258992339,0.0 -52.8347705,-27.0825249992339,0.0 -52.8347665,-27.0825651992338,0.0 -52.8347634,-27.0826372992338,0.0 -52.8347641,-27.0827365992338,0.0 -52.8347685,-27.0828449992338,0.0 -52.8347741,-27.0829286992338,0.0 -52.8347788,-27.0829645992338,0.0 -52.8347857,-27.0830093992338,0.0 -52.8347957,-27.0830532992338,0.0 -52.8348092,-27.0830939992338,0.0 -52.8348237,-27.0831276992338,0.0 -52.8348418,-27.0831577992338,0.0 -52.8348613,-27.0831826992338,0.0 -52.8348839,-27.0832068992338,0.0 -52.8349112,-27.0832282992338,0.0 -52.8349353,-27.0832433992338,0.0 -52.834962,-27.0832552992338,0.0 -52.8349998,-27.0832703992338,0.0 -52.8350497,-27.0832884992338,0.0 -52.8351165,-27.0833080992338,0.0 -52.8351937,-27.0833266992338,0.0 -52.8352651,-27.0833365992338,0.0 -52.8352799,-27.0833385992338,0.0 -52.8353787,-27.0833442992338,0.0 -52.8354618,-27.0833433992338,0.0 -52.8354935,-27.0833416992338,0.0 -52.8355401,-27.0833423992338,0.0 -52.8356074,-27.0833432992338,0.0 -52.8356763,-27.0833438992338,0.0 -52.8357487,-27.0833472992338,0.0 -52.8358206,-27.0833576992338,0.0 -52.8358864,-27.0833770992338,0.0 -52.8359558,-27.0834128992338,0.0 -52.8359933,-27.0834396992338,0.0 -52.8360168,-27.0834809992338,0.0 -52.8360396,-27.0835528992338,0.0 -52.8360541,-27.0836522992338,0.0 -52.836059,-27.0837850992338,0.0 -52.8360592,-27.0838983992338,0.0 -52.8360546,-27.0839688992338,0.0 -52.8360512,-27.0840734992338,0.0 -52.8360417,-27.0842414992338,0.0 -52.8360275,-27.0843987992338,0.0 -52.8360175,-27.0844796992338,0.0 -52.8359981,-27.0845427992338,0.0 -52.8359638,-27.0846553992338,0.0 -52.835925,-27.0847930992338,0.0 -52.8358892,-27.0849203992338,0.0 -52.8358733,-27.0850110992338,0.0 -52.8358648,-27.0851517992338,0.0 -52.8358678,-27.0852979992338,0.0 -52.8358652,-27.0853627992338,0.0 -52.8358565,-27.0854722992338,0.0 -52.8358282,-27.0855960992338,0.0 -52.8357802,-27.0857455992338,0.0 -52.8357339,-27.0858722992338,0.0 -52.8357127,-27.0859533992338,0.0 -52.8356842,-27.0860845992338,0.0 -52.8356527,-27.0862200992338,0.0 -52.8356305,-27.0862954992338,0.0 -52.8356161,-27.0863312992338,0.0 -52.8355939,-27.0863666992338,0.0 -52.8355644,-27.0863944992338,0.0 -52.8355305,-27.0864193992338,0.0 -52.8354918,-27.0864467992338,0.0 -52.8354488,-27.0864786992338,0.0 -52.8354006,-27.0865179992338,0.0 -52.8353397,-27.0865699992338,0.0 -52.8352826,-27.0866333992338,0.0 -52.8352304,-27.0867031992338,0.0 -52.8352142,-27.0867383992338,0.0 -52.8351788,-27.0867958992338,0.0 -52.8351342,-27.0868504992338,0.0 -52.8350798,-27.0869094992338,0.0 -52.8350258,-27.0869835992338,0.0 -52.8349708,-27.0870667992338,0.0 -52.8349228,-27.0871543992338,0.0 -52.8348972,-27.0871945992338,0.0 -52.834865,-27.0872296992338,0.0 -52.8348318,-27.0872561992338,0.0 -52.8347958,-27.0872772992338,0.0 -52.8347598,-27.0872947992338,0.0 -52.8347243,-27.0873113992338,0.0 -52.8346879,-27.0873268992338,0.0 -52.8346531,-27.0873415992337,0.0 -52.8346248,-27.0873525992337,0.0 -52.8345997,-27.0873627992338,0.0 -52.8345751,-27.0873712992338,0.0 -52.8345521,-27.0873779992337,0.0 -52.8345291,-27.0873826992337,0.0 -52.8345082,-27.0873844992337,0.0 -52.8344901,-27.0873845992337,0.0 -52.8344733,-27.0873815992338,0.0 -52.8344611,-27.0873772992338,0.0 -52.834452,-27.0873697992338,0.0 -52.8344442,-27.0873593992338,0.0 -52.8344372,-27.0873456992338,0.0 -52.8344323,-27.0873281992338,0.0 -52.8344282,-27.0873040992338,0.0 -52.8344255,-27.0872708992338,0.0 -52.8344241,-27.0872288992338,0.0 -52.8344206,-27.0871786992338,0.0 -52.834417,-27.0871350992338,0.0 -52.8344131,-27.0871033992338,0.0 -52.8344023,-27.0870666992338,0.0 -52.8343859,-27.0870305992338,0.0 -52.8343656,-27.0869938992338,0.0 -52.8343454,-27.0869573992338,0.0 -52.8343264,-27.0869204992338,0.0 -52.8343125,-27.0868835992338,0.0 -52.8343017,-27.0868471992338,0.0 -52.8342948,-27.0868129992338,0.0 -52.8342909,-27.0867826992338,0.0 -52.8342871,-27.0867565992338,0.0 -52.8342814,-27.0867322992338,0.0 -52.8342723,-27.0867103992338,0.0 -52.8342568,-27.0866850992338,0.0 -52.8342363,-27.0866653992338,0.0 -52.8342122,-27.0866507992338,0.0 -52.8341825,-27.0866445992338,0.0 -52.8341486,-27.0866475992338,0.0 -52.8341102,-27.0866573992338,0.0 -52.8340653,-27.0866750992338,0.0 -52.8340233,-27.0866983992338,0.0 -52.8339885,-27.0867277992338,0.0 -52.8339577,-27.0867624992338,0.0 -52.8339275,-27.0867999992338,0.0 -52.8338955,-27.0868380992338,0.0 -52.8338535,-27.0868840992338,0.0 -52.8338168,-27.0869164992338,0.0 -52.8337995,-27.0869317992338,0.0 -52.833732,-27.0869754992338,0.0 -52.8336524,-27.0870122992338,0.0 -52.8335834,-27.0870326992338,0.0 -52.8335362,-27.0870483992338,0.0 -52.833475,-27.0870606992338,0.0 -52.8334039,-27.0870743992338,0.0 -52.8333342,-27.0870871992338,0.0 -52.8332701,-27.0871020992338,0.0 -52.8332065,-27.0871200992338,0.0 -52.8331497,-27.0871447992338,0.0 -52.8330947,-27.0871805992338,0.0 -52.8330563,-27.0872176992338,0.0 -52.8330195,-27.0872803992338,0.0 -52.8329885,-27.0873593992338,0.0 -52.8329715,-27.0874283992337,0.0 -52.8329669,-27.0874736992337,0.0 -52.8329597,-27.0875694992338,0.0 -52.8329529,-27.0877030992337,0.0 -52.8329497,-27.0878439992337,0.0 -52.8329498,-27.0879254992337,0.0 -52.832944,-27.0879579992337,0.0 -52.8329321,-27.0880150992337,0.0 -52.8329107,-27.0880884992337,0.0 -52.8328892,-27.0881458992337,0.0 -52.8328368,-27.0882676992337,0.0 -52.8327913,-27.0883498992337,0.0 -52.8327655,-27.0883849992337,0.0 -52.832742,-27.0884235992337,0.0 -52.8327186,-27.0884776992337,0.0 -52.8326995,-27.0885504992337,0.0 -52.8326879,-27.0886452992337,0.0 -52.8326887,-27.0887434992337,0.0 -52.8326904,-27.0888107992337,0.0 -52.8326974,-27.0889383992337,0.0 -52.8327036,-27.0890756992337,0.0 -52.8327091,-27.0891352992337,0.0 -52.8327145,-27.0891947992337,0.0 -52.8327269,-27.0892475992337,0.0 -52.8327475,-27.0893246992337,0.0 -52.8327729,-27.0894266992337,0.0 -52.8328035,-27.0895487992337,0.0 -52.8328216,-27.0896520992337,0.0 -52.8328222,-27.0896741992337,0.0 -52.832829,-27.0897569992337,0.0 -52.8328365,-27.0898797992337,0.0 -52.8328406,-27.0900091992337,0.0 -52.8328437,-27.0901204992337,0.0 -52.8328445,-27.0901666992337,0.0 -52.8328509,-27.0902437992337,0.0 -52.8328617,-27.0903361992337,0.0 -52.8328724,-27.0904205992337,0.0 -52.8328803,-27.0904595992337,0.0 -52.8329128,-27.0905421992337,0.0 -52.832958,-27.0906391992337,0.0 -52.8330015,-27.0907280992337,0.0 -52.8330258,-27.0907732992337,0.0 -52.8330364,-27.0907798992337,0.0 -52.8330702,-27.0908013992337,0.0 -52.8331158,-27.0908219992337,0.0 -52.8331735,-27.0908330992337,0.0 -52.8332341,-27.0908354992337,0.0 -52.8332943,-27.0908319992337,0.0 -52.8333513,-27.0908282992337,0.0 -52.8334106,-27.0908273992337,0.0 -52.8334688,-27.0908332992337,0.0 -52.8335375,-27.0908509992337,0.0 -52.8336123,-27.0908772992337,0.0 -52.8336818,-27.0909039992337,0.0 -52.8337294,-27.0909268992337,0.0 -52.8338015,-27.0909591992337,0.0 -52.8338951,-27.0909964992337,0.0 -52.8339991,-27.0910343992337,0.0 -52.8341088,-27.0910696992337,0.0 -52.8341862,-27.0910936992337,0.0 -52.8342082,-27.0911014992337,0.0 -52.8342534,-27.0911183992337,0.0 -52.8343073,-27.0911414992337,0.0 -52.8343668,-27.0911649992337,0.0 -52.8344311,-27.0911849992337,0.0 -52.834495,-27.0912023992337,0.0 -52.8345515,-27.0912185992337,0.0 -52.8346009,-27.0912377992337,0.0 -52.8346509,-27.0912613992337,0.0 -52.834698,-27.0912899992337,0.0 -52.8347247,-27.0913192992337,0.0 -52.8347287,-27.0913404992337,0.0 -52.8347307,-27.0913618992337,0.0 -52.8347326,-27.0913832992337,0.0 -52.8347259,-27.0914328992337,0.0 -52.834702,-27.0914790992337,0.0 -52.8346671,-27.0915172992337,0.0 -52.8346232,-27.0915618992337,0.0 -52.8345767,-27.0916215992337,0.0 -52.8345402,-27.0916949992337,0.0 -52.8345225,-27.0917507992337,0.0 -52.834523,-27.0917955992337,0.0 -52.8345227,-27.0918458992337,0.0 -52.8345172,-27.0918942992337,0.0 -52.8345026,-27.0919433992337,0.0 -52.8344807,-27.0919969992337,0.0 -52.8344563,-27.0920595992337,0.0 -52.8344335,-27.0921381992337,0.0 -52.8344183,-27.0922188992337,0.0 -52.834403,-27.0922671992337,0.0 -52.8343768,-27.0923230992337,0.0 -52.8343407,-27.0923759992337,0.0 -52.834295,-27.0924263992337,0.0 -52.8342438,-27.0924852992337,0.0 -52.8341895,-27.0925596992337,0.0 -52.8341416,-27.0926486992337,0.0 -52.8341364,-27.0926814992337,0.0 -52.8341291,-27.0927582992336,0.0 -52.8341242,-27.0928554992337,0.0 -52.8341212,-27.0929654992336,0.0 -52.8341184,-27.0930310992336,0.0 -52.8341153,-27.0930722992336,0.0 -52.83411,-27.0931144992336,0.0 -52.8340992,-27.0931640992336,0.0 -52.8340813,-27.0932237992336,0.0 -52.8340559,-27.0932890992336,0.0 -52.8340293,-27.0933528992336,0.0 -52.8340158,-27.0933824992336,0.0 -52.8339999,-27.0934205992336,0.0 -52.8339838,-27.0934625992336,0.0 -52.8339699,-27.0935037992336,0.0 -52.8339566,-27.0935412992336,0.0 -52.83394,-27.0935784992336,0.0 -52.8339158,-27.0936124992336,0.0 -52.8338817,-27.0936426992336,0.0 -52.8338351,-27.0936717992336,0.0 -52.8337746,-27.0937007992336,0.0 -52.8337,-27.0937352992336,0.0 -52.8336234,-27.0937671992336,0.0 -52.8335915,-27.0937860992336,0.0 -52.8335573,-27.0938043992336,0.0 -52.8335249,-27.0938271992336,0.0 -52.8334983,-27.0938546992336,0.0 -52.8334848,-27.0938864992336,0.0 -52.8334826,-27.0939262992336,0.0 -52.8334935,-27.0939788992336,0.0 -52.8335151,-27.0940462992336,0.0 -52.8335324,-27.0941035992336,0.0 -52.8335374,-27.0941403992336,0.0 -52.8335378,-27.0941815992336,0.0 -52.8335302,-27.0942339992336,0.0 -52.8335171,-27.0942932992336,0.0 -52.8335038,-27.0943576992336,0.0 -52.833498,-27.0944168992336,0.0 -52.8334988,-27.0944378992336,0.0 -52.8335063,-27.0944695992336,0.0 -52.8335162,-27.0944991992336,0.0 -52.8335292,-27.0945238992336,0.0 -52.8335431,-27.0945488992336,0.0 -52.8335524,-27.0945776992336,0.0 -52.8335581,-27.0946039992336,0.0 -52.8335583,-27.0946348992336,0.0 -52.8335498,-27.0946762992336,0.0 -52.8335341,-27.0947242992336,0.0 -52.8335155,-27.0947643992336,0.0 -52.8334915,-27.0947966992336,0.0 -52.8334618,-27.0948270992336,0.0 -52.8334287,-27.0948595992336,0.0 -52.8333978,-27.0948936992336,0.0 -52.8333737,-27.0949319992336,0.0 -52.8333517,-27.0949775992336,0.0 -52.8333377,-27.0950297992336,0.0 -52.8333303,-27.0950890992336,0.0 -52.8333276,-27.0951572992336,0.0 -52.8333265,-27.0951915992336,0.0 -52.8333277,-27.0952401992336,0.0 -52.8333295,-27.0952883992336,0.0 -52.8333325,-27.0953320992336,0.0 -52.8333341,-27.0953717992336,0.0 -52.833334,-27.0954058992336,0.0 -52.8333307,-27.0954365992336,0.0 -52.8333226,-27.0954679992336,0.0 -52.8333085,-27.0955003992336,0.0 -52.8332819,-27.0955292992336,0.0 -52.8332413,-27.0955567992336,0.0 -52.8331962,-27.0955804992336,0.0 -52.8331845,-27.0955908992336,0.0 -52.8331676,-27.0956020992336,0.0 -52.833146,-27.0956143992336,0.0 -52.8331229,-27.0956281992336,0.0 -52.8331001,-27.0956420992336,0.0 -52.833077,-27.0956566992336,0.0 -52.833057,-27.0956698992336,0.0 -52.8330388,-27.0956807992336,0.0 -52.8330229,-27.0956909992336,0.0 -52.8330079,-27.0957003992336,0.0 -52.8329938,-27.0957080992336,0.0 -52.8329816,-27.0957142992336,0.0 -52.8329744,-27.0957180992336,0.0 -52.8329672,-27.0957219992336,0.0 -52.8329543,-27.0957265992336,0.0 -52.8329449,-27.0957286992336,0.0 -52.8329359,-27.0957321992336,0.0 -52.8328995,-27.0957631992336,0.0 -52.8328614,-27.0958109992336,0.0 -52.8328464,-27.0958575992336,0.0 -52.8328482,-27.0958837992336,0.0 -52.8328781,-27.0959016992336,0.0 -52.8329758,-27.0960059992336,0.0 -52.8330792,-27.0962208992336,0.0 -52.8331925,-27.0963803992336,0.0 -52.8332403,-27.0964602992336,0.0 -52.8332434,-27.0965326992336,0.0 -52.8332151,-27.0966209992336,0.0 -52.8330054,-27.0968619992336,0.0 -52.8327833,-27.0971412992336,0.0 -52.8325356,-27.0974862992336,0.0 -52.8323233,-27.0977521992336,0.0 -52.8321423,-27.0979323992335,0.0 -52.8321093,-27.0980286992336,0.0 -52.832134,-27.0983295992335,0.0 -52.8322021,-27.0985091992335,0.0 -52.8322704,-27.0986904992335,0.0 -52.8322805,-27.0988261992335,0.0 -52.8322792,-27.0990468992335,0.0 -52.8323496,-27.0993661992335,0.0 -52.8323745,-27.0994985992335,0.0 -52.8323694,-27.0995512992335,0.0 -52.8323616,-27.0996159992335,0.0 -52.8323885,-27.0996907992335,0.0 -52.8324294,-27.0997482992335,0.0 -52.8326691,-27.1000109992335,0.0 -52.8328285,-27.1002087992335,0.0 -52.8330029,-27.1004732992335,0.0 -52.8330533,-27.1006240992335,0.0 -52.833051,-27.1007574992335,0.0 -52.8330366,-27.1008509992335,0.0 -52.8330099,-27.1010273992335,0.0 -52.8330409,-27.1012953992335,0.0 -52.8330491,-27.1014319992335,0.0 -52.8330858,-27.1018867992335,0.0 -52.8330883,-27.1020946992335,0.0 -52.8331043,-27.1023051992335,0.0 -52.8330856,-27.1024109992335,0.0 -52.8330576,-27.1025253992335,0.0 -52.8329996,-27.1026373992335,0.0 -52.8329107,-27.1027334992335,0.0 -52.8327463,-27.1028019992335,0.0 -52.83244,-27.1029583992335,0.0 -52.8320177,-27.1032282992335,0.0 -52.8317853,-27.1034036992334,0.0 -52.8315367,-27.1035290992334,0.0 -52.831321,-27.1037249992334,0.0 -52.8311628,-27.1038614992334,0.0 -52.8308674,-27.1040585992334,0.0 -52.8305009,-27.1042882992334,0.0 -52.8302946,-27.1044176992334,0.0 -52.8300987,-27.1045172992334,0.0 -52.8298735,-27.1045975992334,0.0 -52.82967,-27.1046504992334,0.0 -52.829582,-27.1046918992334,0.0 -52.829494,-27.1047333992334,0.0 -52.8294273,-27.1047751992334,0.0 -52.8294,-27.1048237992334,0.0 -52.8293656,-27.1049155992334,0.0 -52.8293131,-27.1051787992334,0.0 -52.8293216,-27.1055930992334,0.0 -52.8293209,-27.1057664992334,0.0 -52.8293113,-27.1058964992334,0.0 -52.829262,-27.1059961992334,0.0 -52.829219,-27.1061006992334,0.0 -52.8292202,-27.1062320992334,0.0 -52.8291777,-27.1064743992334,0.0 -52.8291402,-27.1067513992334,0.0 -52.8291517,-27.1068507992334,0.0 -52.82919,-27.1069549992334,0.0 -52.8292427,-27.1070125992334,0.0 -52.8292788,-27.1070308992334,0.0 -52.8294027,-27.1070586992334,0.0 -52.8295466,-27.1070615992334,0.0 -52.8296028,-27.1070575992334,0.0 -52.8296249,-27.1070405992334,0.0 -52.8296825,-27.1069393992334,0.0 -52.8297367,-27.1068683992334,0.0 -52.8297746,-27.1068350992334,0.0 -52.8298234,-27.1068176992334,0.0 -52.8298725,-27.1068186992334,0.0 -52.8299227,-27.1068267992334,0.0 -52.8300034,-27.1068772992334,0.0 -52.8302275,-27.1070333992334,0.0 -52.830343,-27.1071409992334,0.0 -52.8307275,-27.1075334992334,0.0 -52.830909,-27.1076896992334,0.0 -52.8311025,-27.1077789992334,0.0 -52.831442,-27.1078554992334,0.0 -52.8320193,-27.1080007992334,0.0 -52.832507,-27.1080743992333,0.0 -52.8327504,-27.1080975992334,0.0 -52.8330876,-27.1080986992334,0.0 -52.8334646,-27.1080258992334,0.0 -52.8337059,-27.1079584992334,0.0 -52.8341288,-27.1078459992334,0.0 -52.834533,-27.1077183992334,0.0 -52.8346988,-27.1076458992334,0.0 -52.8348645,-27.1075733992334,0.0 -52.8349271,-27.1075528992334,0.0 -52.8349897,-27.1075322992334,0.0 -52.8350934,-27.1075277992334,0.0 -52.8352561,-27.1075486992334,0.0 -52.835379,-27.1075883992334,0.0 -52.8355328,-27.1076824992334,0.0 -52.8356115,-27.1077486992334,0.0 -52.8356703,-27.1078623992334,0.0 -52.8357167,-27.1081431992334,0.0 -52.8357298,-27.1084257992333,0.0 -52.8357119,-27.1085925992333,0.0 -52.8356413,-27.1088076992333,0.0 -52.8354827,-27.1091121992333,0.0 -52.8352523,-27.1094645992333,0.0 -52.8351123,-27.1096518992333,0.0 -52.8347961,-27.1099799992333,0.0 -52.8346354,-27.1101079992333,0.0 -52.8345896,-27.1101757992333,0.0 -52.8345613,-27.1102759992333,0.0 -52.8345735,-27.1103653992333,0.0 -52.8346186,-27.1104656992333,0.0 -52.8347201,-27.1105908992333,0.0 -52.8349592,-27.1108219992333,0.0 -52.8350801,-27.1109088992333,0.0 -52.8352418,-27.1109972992333,0.0 -52.8354707,-27.1110598992333,0.0 -52.8356374,-27.1110856992333,0.0 -52.8358505,-27.1110771992333,0.0 -52.8361667,-27.1110359992333,0.0 -52.8365569,-27.1109576992333,0.0 -52.8368694,-27.1109052992333,0.0 -52.8370178,-27.1108578992333,0.0 -52.8372371,-27.1107520992333,0.0 -52.8376355,-27.1105889992333,0.0 -52.8378669,-27.1104597992333,0.0 -52.8380109,-27.1103580992333,0.0 -52.8381012,-27.1102904992333,0.0 -52.8381908,-27.1102498992333,0.0 -52.838292,-27.1102107992333,0.0 -52.8385313,-27.1100957992333,0.0 -52.838925,-27.1099007992333,0.0 -52.8391068,-27.1098029992333,0.0 -52.8393096,-27.1096971992333,0.0 -52.8395998,-27.1095756992333,0.0 -52.8398165,-27.1094237992333,0.0 -52.8400234,-27.1091930992333,0.0 -52.8401079,-27.1091035992333,0.0 -52.8405005,-27.1087784992333,0.0 -52.8406986,-27.1086251992334,0.0 -52.840885,-27.1085082992333,0.0 -52.841103,-27.1084257992333,0.0 -52.8412285,-27.1084069992334,0.0 -52.8413969,-27.1084053992334,0.0 -52.8416233,-27.1084336992333,0.0 -52.8419469,-27.1085349992333,0.0 -52.8420863,-27.1086014992333,0.0 -52.8423532,-27.1088284992333,0.0 -52.8426209,-27.1090085992333,0.0 -52.8429739,-27.1092304992333,0.0 -52.8433453,-27.1094452992333,0.0 -52.8436238,-27.1096396992333,0.0 -52.8438682,-27.1099266992333,0.0 -52.8440332,-27.1100461992333,0.0 -52.8441473,-27.1101094992333,0.0 -52.844247,-27.1101240992333,0.0 -52.8443066,-27.1101201992333,0.0 -52.8443779,-27.1100880992333,0.0 -52.8444617,-27.1100619992333,0.0 -52.8445817,-27.1100565992333,0.0 -52.844675,-27.1100674992333,0.0 -52.8448035,-27.1101007992333,0.0 -52.8449311,-27.1101764992333,0.0 -52.8452933,-27.1104434992333,0.0 -52.8455875,-27.1105944992333,0.0 -52.845831,-27.1108293992333,0.0 -52.8459669,-27.1109254992333,0.0 -52.8460456,-27.1109574992333,0.0 -52.8461299,-27.1109601992333,0.0 -52.8461851,-27.1109479992333,0.0 -52.8462578,-27.1109171992333,0.0 -52.8463839,-27.1107936992333,0.0 -52.8464755,-27.1106595992333,0.0 -52.8466318,-27.1104650992333,0.0 -52.8469175,-27.1101818992333,0.0 -52.8471662,-27.1098548992333,0.0 -52.8472402,-27.1097353992333,0.0 -52.8473714,-27.1095729992333,0.0 -52.8474346,-27.1094398992333,0.0 -52.8474938,-27.1093166992333,0.0 -52.8476428,-27.1090293992333,0.0 -52.8477466,-27.1088044992333,0.0 -52.84782,-27.1086864992333,0.0 -52.8478934,-27.1085400992333,0.0 -52.8480035,-27.1082605992334,0.0 -52.8480394,-27.1081611992334,0.0 -52.8480871,-27.1080997992334,0.0 -52.8481333,-27.1080682992334,0.0 -52.848196,-27.1080583992334,0.0 -52.8482398,-27.1080695992333,0.0 -52.848295,-27.1080979992334,0.0 -52.8483439,-27.1081557992334,0.0 -52.8484457,-27.1083005992334,0.0 -52.8486086,-27.1084447992334,0.0 -52.8489293,-27.1086769992333,0.0 -52.8492286,-27.1090344992333,0.0 -52.8495639,-27.1094234992333,0.0 -52.8497592,-27.1096883992333,0.0 -52.849892,-27.1099759992333,0.0 -52.8499704,-27.1101197992333,0.0 -52.8502714,-27.1104422992333,0.0 -52.8505755,-27.1108129992333,0.0 -52.8509119,-27.1112560992333,0.0 -52.8512326,-27.1116584992333,0.0 -52.8513774,-27.1118352992333,0.0 -52.8516506,-27.1120539992333,0.0 -52.8519037,-27.1123018992333,0.0 -52.8519558,-27.1123905992333,0.0 -52.8519559,-27.1125428992333,0.0 -52.8520148,-27.1125197992333,0.0 -52.8521148,-27.1124630992333,0.0 -52.8522315,-27.1124081992333,0.0 -52.8523724,-27.1123345992333,0.0 -52.8525479,-27.1122089992333,0.0 -52.8526773,-27.1121347992333,0.0 -52.852793,-27.1120468992333,0.0 -52.8528863,-27.1119110992333,0.0 -52.852951,-27.1116528992333,0.0 -52.8529971,-27.1113429992333,0.0 -52.8530339,-27.1111569992333,0.0 -52.8530588,-27.1110937992333,0.0 -52.8530872,-27.1110544992333,0.0 -52.8531464,-27.1110205992333,0.0 -52.8532079,-27.1109985992333,0.0 -52.8532613,-27.1109951992333,0.0 -52.8534393,-27.1109941992333,0.0 -52.853829,-27.1110189992333,0.0 -52.8540309,-27.1110313992333,0.0 -52.8543368,-27.1110562992333,0.0 -52.8545276,-27.1110734992333,0.0 -52.8546515,-27.1110827992333,0.0 -52.8547514,-27.1110773992333,0.0 -52.8548298,-27.1110578992333,0.0 -52.8549462,-27.1110124992333,0.0 -52.8550596,-27.1109412992333,0.0 -52.8552428,-27.1107732992333,0.0 -52.8553485,-27.1106084992333,0.0 -52.8554083,-27.1104276992333,0.0 -52.8554318,-27.1101338992333,0.0 -52.8554971,-27.1099173992333,0.0 -52.8555407,-27.1097333992333,0.0 -52.855545,-27.1095601992333,0.0 -52.855545,-27.1094375992333,0.0 -52.8555436,-27.1092565992333,0.0 -52.8555385,-27.1090375992333,0.0 -52.855557,-27.1089077992333,0.0 -52.8555911,-27.1087986992333,0.0 -52.8556677,-27.1086660992333,0.0 -52.8557262,-27.1085538992333,0.0 -52.8557693,-27.1084299992333,0.0 -52.855794,-27.1082933992334,0.0 -52.855831,-27.1081799992334,0.0 -52.8558667,-27.1081248992334,0.0 -52.8559037,-27.1080862992334,0.0 -52.8559735,-27.1080374992334,0.0 -52.8560379,-27.1079777992334,0.0 -52.8560886,-27.1079090992334,0.0 -52.8561285,-27.1078751992334,0.0 -52.8561713,-27.1078444992334,0.0 -52.8562315,-27.1078273992334,0.0 -52.8563036,-27.1078154992334,0.0 -52.8563878,-27.1077821992334,0.0 -52.8564431,-27.1077583992334,0.0 -52.856509,-27.1077507992334,0.0 -52.8565707,-27.1077566992334,0.0 -52.8566245,-27.1077736992334,0.0 -52.8567035,-27.1078143992334,0.0 -52.8567481,-27.1078247992334,0.0 -52.8567946,-27.1078232992334,0.0 -52.8568627,-27.1077983992334,0.0 -52.8569109,-27.1077666992334,0.0 -52.8570215,-27.1076462992334,0.0 -52.8570517,-27.1075936992334,0.0 -52.8571356,-27.1073874992334,0.0 -52.8571571,-27.1072916992334,0.0 -52.8571559,-27.1072188992334,0.0 -52.8571425,-27.1071874992334,0.0 -52.857115,-27.1071710992334,0.0 -52.8570287,-27.1071240992334,0.0 -52.8569254,-27.1070895992334,0.0 -52.8568838,-27.1070706992334,0.0 -52.8568694,-27.1070584992334,0.0 -52.8568642,-27.1070413992334,0.0 -52.8568649,-27.1070281992334,0.0 -52.8568738,-27.1070095992334,0.0 -52.8568883,-27.1070013992334,0.0 -52.8569542,-27.1069961992334,0.0 -52.8570887,-27.1070074992334,0.0 -52.857194,-27.1070160992334,0.0 -52.857305,-27.1070112992334,0.0 -52.8574221,-27.1069831992334,0.0 -52.8575014,-27.1069210992334,0.0 -52.8575763,-27.1068611992334,0.0 -52.8576764,-27.1068105992334,0.0 -52.8578189,-27.1067192992334,0.0 -52.8579596,-27.1065922992334,0.0 -52.8580865,-27.1064845992334,0.0 -52.8583231,-27.1063134992334,0.0 -52.8584627,-27.1061824992334,0.0 -52.8586716,-27.1059549992334,0.0 -52.8587993,-27.1057929992334,0.0 -52.8588988,-27.1056087992334,0.0 -52.8589484,-27.1055303992334,0.0 -52.8589927,-27.1054961992334,0.0 -52.8590422,-27.1054813992334,0.0 -52.8590996,-27.1054696992334,0.0 -52.8592156,-27.1054732992334,0.0 -52.8593649,-27.1054883992334,0.0 -52.8595653,-27.1054786992334,0.0 -52.8597113,-27.1054525992334,0.0 -52.859949,-27.1053944992334,0.0 -52.8602176,-27.1053482992334,0.0 -52.8602954,-27.1053245992334,0.0 -52.8605022,-27.1052276992334,0.0 -52.8605491,-27.1051901992334,0.0 -52.8606902,-27.1050197992334,0.0 -52.8607642,-27.1049490992334,0.0 -52.8608163,-27.1049174992334,0.0 -52.8608823,-27.1048681992334,0.0 -52.8609126,-27.1048056992334,0.0 -52.8609571,-27.1046805992334,0.0 -52.8610155,-27.1045306992334,0.0 -52.8610188,-27.1043460992334,0.0 -52.8610111,-27.1041327992334,0.0 -52.8609894,-27.1039402992334,0.0 -52.8609917,-27.1037570992334,0.0 -52.8609876,-27.1034764992334,0.0 -52.8609689,-27.1033369992334,0.0 -52.860954,-27.1032676992334,0.0 -52.8608432,-27.1030286992334,0.0 -52.8607941,-27.1029069992335,0.0 -52.8607861,-27.1028058992335,0.0 -52.8607809,-27.1025569992335,0.0 -52.8608115,-27.1023004992335,0.0 -52.8608202,-27.1021817992335,0.0 -52.8608288,-27.1020629992335,0.0 -52.8608138,-27.1019112992335,0.0 -52.8611352,-27.1017082992335,0.0 -52.8614566,-27.1015053992335,0.0 -52.8800202,-27.0918872992337,0.0</coordinates>
</LinearRing>
</outerBoundaryIs>
</Polygon>
</MultiGeometry>
</Placemark>
</Folder>
</Document></kml>
