<?xml version='1.0' encoding='UTF-8'?>
<kml xmlns:xsd="http://www.w3.org/2001/XMLSchema" xmlns:gx="http://www.google.com/kml/ext/2.2" xmlns:atom="http://www.w3.org/2005/Atom" xmlns="http://www.opengis.net/kml/2.2">
<Document>
<name>pomerode_4213203_localidades_2022</name>
<visibility>1</visibility>
<Schema name="01. Cidade" id="kml_schema_ft_01._Cidade">
<SimpleField type="xsd:string" name="CD_UF">
<displayName>CD_UF</displayName>
</SimpleField>
<SimpleField type="xsd:string" name="NM_UF">
<displayName>NM_UF</displayName>
</SimpleField>
<SimpleField type="xsd:string" name="SIGLA_UF">
<displayName>SIGLA_UF</displayName>
</SimpleField>
<SimpleField type="xsd:string" name="CD_MUN">
<displayName>CD_MUN</displayName>
</SimpleField>
<SimpleField type="xsd:string" name="NM_MUN">
<displayName>NM_MUN</displayName>
</SimpleField>
<SimpleField type="xsd:string" name="CD_RGINT">
<displayName>CD_RGINT</displayName>
</SimpleField>
<SimpleField type="xsd:string" name="NM_RGINT">
<displayName>NM_RGINT</displayName>
</SimpleField>
<SimpleField type="xsd:string" name="CD_RGI">
<displayName>CD_RGI</displayName>
</SimpleField>
<SimpleField type="xsd:string" name="NM_RGI">
<displayName>NM_RGI</displayName>
</SimpleField>
<SimpleField type="xsd:string" name="CT_LOCALIDADE">
<displayName>CT_LOCALIDADE</displayName>
</SimpleField>
<SimpleField type="xsd:string" name="SCT_LOCALIDADE">
<displayName>SCT_LOCALIDADE</displayName>
</SimpleField>
<SimpleField type="xsd:string" name="CD_LOCALIDADE">
<displayName>CD_LOCALIDADE</displayName>
</SimpleField>
<SimpleField type="xsd:string" name="NM_LOCALIDADE">
<displayName>NM_LOCALIDADE</displayName>
</SimpleField>
<SimpleField type="xsd:string" name="LAT_LOCALIDADE">
<displayName>LAT_LOCALIDADE</displayName>
</SimpleField>
<SimpleField type="xsd:string" name="LONG_LOCALIDADE">
<displayName>LONG_LOCALIDADE</displayName>
</SimpleField>
</Schema>
<Schema name="Município" id="kml_schema_ft_Município">
<SimpleField type="xsd:string" name="CD_UF">
<displayName>CD_UF</displayName>
</SimpleField>
<SimpleField type="xsd:string" name="NM_UF">
<displayName>NM_UF</displayName>
</SimpleField>
<SimpleField type="xsd:string" name="CD_MUN">
<displayName>CD_MUN</displayName>
</SimpleField>
<SimpleField type="xsd:string" name="NM_MUN">
<displayName>NM_MUN</displayName>
</SimpleField>
<SimpleField type="xsd:string" name="CD_RGINT">
<displayName>CD_RGINT</displayName>
</SimpleField>
<SimpleField type="xsd:string" name="NM_RGINT">
<displayName>NM_RGINT</displayName>
</SimpleField>
<SimpleField type="xsd:string" name="CD_RGI">
<displayName>CD_RGI</displayName>
</SimpleField>
<SimpleField type="xsd:string" name="NM_RGI">
<displayName>NM_RGI</displayName>
</SimpleField>
</Schema>
<Folder id="01. Cidade">
<name>01. Cidade</name>
<Folder id="01.03. Sede Municipal">
<name>01.03. Sede Municipal</name>
<Placemark id="01.03. Sede Municipal">
<name>Pomerode [4213203]</name>
<visibility>1</visibility>
<snippet> </snippet>
<description>&lt;center&gt;&lt;table&gt;&lt;tr&gt;&lt;th colspan='2' align='center'&gt;&lt;em&gt;Atributos&lt;/em&gt;&lt;/th&gt;&lt;/tr&gt;&lt;tr bgcolor="#E3E3F3"&gt;
&lt;th&gt;CD_UF&lt;/th&gt;
&lt;td&gt;42&lt;/td&gt;
&lt;/tr&gt;&lt;tr bgcolor=""&gt;
&lt;th&gt;NM_UF&lt;/th&gt;
&lt;td&gt;Santa Catarina&lt;/td&gt;
&lt;/tr&gt;&lt;tr bgcolor="#E3E3F3"&gt;
&lt;th&gt;SIGLA_UF&lt;/th&gt;
&lt;td&gt;SC&lt;/td&gt;
&lt;/tr&gt;&lt;tr bgcolor=""&gt;
&lt;th&gt;CD_MUN&lt;/th&gt;
&lt;td&gt;4213203&lt;/td&gt;
&lt;/tr&gt;&lt;tr bgcolor="#E3E3F3"&gt;
&lt;th&gt;NM_MUN&lt;/th&gt;
&lt;td&gt;Pomerode&lt;/td&gt;
&lt;/tr&gt;&lt;tr bgcolor=""&gt;
&lt;th&gt;CD_RGINT&lt;/th&gt;
&lt;td&gt;4207&lt;/td&gt;
&lt;/tr&gt;&lt;tr bgcolor="#E3E3F3"&gt;
&lt;th&gt;NM_RGINT&lt;/th&gt;
&lt;td&gt;Blumenau&lt;/td&gt;
&lt;/tr&gt;&lt;tr bgcolor=""&gt;
&lt;th&gt;CD_RGI&lt;/th&gt;
&lt;td&gt;420019&lt;/td&gt;
&lt;/tr&gt;&lt;tr bgcolor="#E3E3F3"&gt;
&lt;th&gt;NM_RGI&lt;/th&gt;
&lt;td&gt;Blumenau&lt;/td&gt;
&lt;/tr&gt;&lt;tr bgcolor=""&gt;
&lt;th&gt;CT_LOCALIDADE&lt;/th&gt;
&lt;td&gt;Cidade&lt;/td&gt;
&lt;/tr&gt;&lt;tr bgcolor="#E3E3F3"&gt;
&lt;th&gt;SCT_LOCALIDADE&lt;/th&gt;
&lt;td&gt;Sede Municipal&lt;/td&gt;
&lt;/tr&gt;&lt;tr bgcolor=""&gt;
&lt;th&gt;CD_LOCALIDADE&lt;/th&gt;
&lt;td&gt;4213203&lt;/td&gt;
&lt;/tr&gt;&lt;tr bgcolor="#E3E3F3"&gt;
&lt;th&gt;NM_LOCALIDADE&lt;/th&gt;
&lt;td&gt;Pomerode&lt;/td&gt;
&lt;/tr&gt;&lt;tr bgcolor=""&gt;
&lt;th&gt;LAT_LOCALIDADE&lt;/th&gt;
&lt;td&gt;-26.7416&lt;/td&gt;
&lt;/tr&gt;&lt;tr bgcolor="#E3E3F3"&gt;
&lt;th&gt;LONG_LOCALIDADE&lt;/th&gt;
&lt;td&gt;-49.1754&lt;/td&gt;
&lt;/tr&gt;&lt;/table&gt;&lt;/center&gt;</description>
<Style>
<IconStyle>
<color>ff00aaff</color>
<scale>1.0</scale>
<Icon>
<href>http://maps.google.com/mapfiles/kml/shapes/placemark_circle.png</href>
</Icon>
</IconStyle>
<LabelStyle>
<scale>1.0</scale>
</LabelStyle>
<LineStyle>
<color>ffffffff</color>
<width>3</width>
<gx:labelVisibility>1</gx:labelVisibility>
</LineStyle>
<PolyStyle>
<color>00ffffff</color>
</PolyStyle>
</Style>
<ExtendedData>
<SchemaData schemaUrl="#kml_schema_ft_01._Cidade">
<SimpleData name="CD_UF">42</SimpleData>
<SimpleData name="NM_UF">Santa Catarina</SimpleData>
<SimpleData name="SIGLA_UF">SC</SimpleData>
<SimpleData name="CD_MUN">4213203</SimpleData>
<SimpleData name="NM_MUN">Pomerode</SimpleData>
<SimpleData name="CD_RGINT">4207</SimpleData>
<SimpleData name="NM_RGINT">Blumenau</SimpleData>
<SimpleData name="CD_RGI">420019</SimpleData>
<SimpleData name="NM_RGI">Blumenau</SimpleData>
<SimpleData name="CT_LOCALIDADE">Cidade</SimpleData>
<SimpleData name="SCT_LOCALIDADE">Sede Municipal</SimpleData>
<SimpleData name="CD_LOCALIDADE">4213203</SimpleData>
<SimpleData name="NM_LOCALIDADE">Pomerode</SimpleData>
<SimpleData name="LAT_LOCALIDADE">-26.7416</SimpleData>
<SimpleData name="LONG_LOCALIDADE">-49.1754</SimpleData>
</SchemaData>
</ExtendedData>
<Point>
<extrude>0</extrude>
<coordinates>-49.1754,-26.7415999992404,0.0</coordinates>
</Point>
</Placemark>
</Folder>
</Folder>
<Folder id="13. Referência">
<name>13. Referência</name>
<Placemark id="13. Referência">
<name>Pomerode [4213203]</name>
<visibility>1</visibility>
<snippet> </snippet>
<description>&lt;center&gt;&lt;table&gt;&lt;tr&gt;&lt;th colspan='2' align='center'&gt;&lt;em&gt;Attributes&lt;/em&gt;&lt;/th&gt;&lt;/tr&gt;&lt;tr bgcolor="#E3E3F3"&gt;
&lt;th&gt;CD_UF&lt;/th&gt;
&lt;td&gt;42&lt;/td&gt;
&lt;/tr&gt;&lt;tr bgcolor=""&gt;
&lt;th&gt;NM_UF&lt;/th&gt;
&lt;td&gt;Santa Catarina&lt;/td&gt;
&lt;/tr&gt;&lt;tr bgcolor="#E3E3F3"&gt;
&lt;th&gt;CD_MUN&lt;/th&gt;
&lt;td&gt;4213203&lt;/td&gt;
&lt;/tr&gt;&lt;tr bgcolor=""&gt;
&lt;th&gt;NM_MUN&lt;/th&gt;
&lt;td&gt;Pomerode&lt;/td&gt;
&lt;/tr&gt;&lt;tr bgcolor="#E3E3F3"&gt;
&lt;th&gt;CD_RGINT&lt;/th&gt;
&lt;td&gt;4207&lt;/td&gt;
&lt;/tr&gt;&lt;tr bgcolor=""&gt;
&lt;th&gt;NM_RGINT&lt;/th&gt;
&lt;td&gt;Blumenau&lt;/td&gt;
&lt;/tr&gt;&lt;tr bgcolor="#E3E3F3"&gt;
&lt;th&gt;CD_RGI&lt;/th&gt;
&lt;td&gt;420019&lt;/td&gt;
&lt;/tr&gt;&lt;tr bgcolor=""&gt;
&lt;th&gt;NM_RGI&lt;/th&gt;
&lt;td&gt;Blumenau&lt;/td&gt;
&lt;/tr&gt;&lt;/table&gt;&lt;/center&gt;</description>
<Style>
<IconStyle>
<scale>0.7</scale>
</IconStyle>
<LabelStyle>
<scale>0.7</scale>
</LabelStyle>
<LineStyle>
<color>ffffffff</color>
<width>3</width>
<gx:labelVisibility>1</gx:labelVisibility>
</LineStyle>
<PolyStyle>
<color>00ffffff</color>
</PolyStyle>
</Style>
<ExtendedData>
<SchemaData schemaUrl="#kml_schema_ft_Município">
<SimpleData name="CD_UF">42</SimpleData>
<SimpleData name="NM_UF">Santa Catarina</SimpleData>
<SimpleData name="CD_MUN">4213203</SimpleData>
<SimpleData name="NM_MUN">Pomerode</SimpleData>
<SimpleData name="CD_RGINT">4207</SimpleData>
<SimpleData name="NM_RGINT">Blumenau</SimpleData>
<SimpleData name="CD_RGI">420019</SimpleData>
<SimpleData name="NM_RGI">Blumenau</SimpleData>
</SchemaData>
</ExtendedData>
<MultiGeometry>
<Polygon>
<extrude>0</extrude>
<tessellate>1</tessellate>
<outerBoundaryIs>
<LinearRing>
<coordinates>-49.1233856,-26.6825652992416,0.0 -49.12347,-26.6827899992416,0.0 -49.1234733,-26.6827986992416,0.0 -49.123434,-26.6832354992416,0.0 -49.1233907,-26.6836623992416,0.0 -49.1233815,-26.6839280992416,0.0 -49.1232225,-26.6841897992416,0.0 -49.1227735,-26.6844968992416,0.0 -49.1225334,-26.6848359992416,0.0 -49.1224581,-26.6851367992416,0.0 -49.122374,-26.6855741992415,0.0 -49.122417,-26.6858956992415,0.0 -49.1224661,-26.6864517992415,0.0 -49.1225783,-26.6866867992415,0.0 -49.1227634,-26.6868397992415,0.0 -49.1229854,-26.6869040992415,0.0 -49.1232037,-26.6868982992415,0.0 -49.1234052,-26.6868172992415,0.0 -49.1235915,-26.6866176992415,0.0 -49.1237245,-26.6865430992415,0.0 -49.1238684,-26.6865591992415,0.0 -49.1239823,-26.6866816992415,0.0 -49.1239903,-26.6868233992415,0.0 -49.1236632,-26.6871871992415,0.0 -49.1235315,-26.6874082992415,0.0 -49.1234084,-26.6879596992415,0.0 -49.123283,-26.6883302992415,0.0 -49.1228307,-26.6891507992415,0.0 -49.1228304,-26.6892251992415,0.0 -49.1228555,-26.6893001992415,0.0 -49.1229334,-26.6893331992415,0.0 -49.1231309,-26.6892701992415,0.0 -49.1233193,-26.6891529992415,0.0 -49.1239282,-26.6887773992415,0.0 -49.1241187,-26.6886413992415,0.0 -49.1243556,-26.6885865992415,0.0 -49.1246377,-26.6886256992415,0.0 -49.1248841,-26.6887567992415,0.0 -49.1252196,-26.6890350992415,0.0 -49.125543,-26.6892680992415,0.0 -49.125701,-26.6893521992415,0.0 -49.1258558,-26.6893857992415,0.0 -49.126077,-26.6894044992415,0.0 -49.1264218,-26.6893583992415,0.0 -49.1266646,-26.6893954992415,0.0 -49.12699,-26.6894867992415,0.0 -49.1272929,-26.6896419992415,0.0 -49.1281066,-26.6899233992415,0.0 -49.1289248,-26.6902041992415,0.0 -49.1293301,-26.6903215992415,0.0 -49.1297445,-26.6905292992415,0.0 -49.1301324,-26.6907387992414,0.0 -49.1304031,-26.6910040992414,0.0 -49.1306629,-26.6912434992414,0.0 -49.1307413,-26.6913925992414,0.0 -49.1307727,-26.6915783992414,0.0 -49.1307272,-26.6917716992414,0.0 -49.1305459,-26.6921226992414,0.0 -49.1304849,-26.6923652992414,0.0 -49.1304981,-26.6924192992414,0.0 -49.1305358,-26.6924592992414,0.0 -49.1306693,-26.6925207992414,0.0 -49.1309232,-26.6926296992414,0.0 -49.1311745,-26.6927398992414,0.0 -49.1316272,-26.6929185992414,0.0 -49.131928,-26.6930359992414,0.0 -49.1322435,-26.6931842992414,0.0 -49.1324747,-26.6934028992414,0.0 -49.1327761,-26.6937729992414,0.0 -49.1330644,-26.6942621992414,0.0 -49.1331227,-26.6947133992414,0.0 -49.1330881,-26.6949387992414,0.0 -49.1329444,-26.6952829992414,0.0 -49.1325513,-26.6961402992413,0.0 -49.1324517,-26.6966045992413,0.0 -49.1324406,-26.6968804992413,0.0 -49.1324454,-26.6974477992413,0.0 -49.1324989,-26.6977562992413,0.0 -49.1325847,-26.6980750992413,0.0 -49.1325808,-26.6983111992413,0.0 -49.1324997,-26.6985694992413,0.0 -49.1322981,-26.6988392992413,0.0 -49.1319131,-26.6991742992413,0.0 -49.1314586,-26.6993913992413,0.0 -49.1310145,-26.6994941992413,0.0 -49.130912,-26.6996052992413,0.0 -49.1308931,-26.6997392992413,0.0 -49.1309209,-26.6998209992413,0.0 -49.1309876,-26.6998861992413,0.0 -49.1315041,-26.7000793992413,0.0 -49.1317195,-26.7001971992413,0.0 -49.1318191,-26.7003449992413,0.0 -49.1318273,-26.7004933992413,0.0 -49.1317152,-26.7008271992412,0.0 -49.1315973,-26.7010463992412,0.0 -49.1315363,-26.7012497992412,0.0 -49.1314073,-26.7016983992412,0.0 -49.1313912,-26.7019010992412,0.0 -49.1314116,-26.7020027992412,0.0 -49.1314527,-26.7020852992412,0.0 -49.1316443,-26.7023186992412,0.0 -49.1321041,-26.7027928992412,0.0 -49.1321895,-26.7029332992412,0.0 -49.1322306,-26.7030778992412,0.0 -49.1322347,-26.7032342992412,0.0 -49.1321652,-26.7038758992412,0.0 -49.1321506,-26.7040859992412,0.0 -49.132203,-26.7052571992412,0.0 -49.1322577,-26.7059833992411,0.0 -49.1323309,-26.7063956992411,0.0 -49.1327827,-26.7078832992411,0.0 -49.1328432,-26.7082457992411,0.0 -49.1328298,-26.7085263992411,0.0 -49.1328027,-26.7086793992411,0.0 -49.1327385,-26.7088077992411,0.0 -49.1326804,-26.7089217992411,0.0 -49.1325622,-26.7089935992411,0.0 -49.1323747,-26.7090334992411,0.0 -49.1318413,-26.7090574992411,0.0 -49.1317351,-26.7090806992411,0.0 -49.13164,-26.7091408992411,0.0 -49.1315198,-26.7092923992411,0.0 -49.13123,-26.7096700992411,0.0 -49.1310871,-26.7097682992411,0.0 -49.1308878,-26.7098121992411,0.0 -49.1296776,-26.7098649992411,0.0 -49.1293938,-26.7097829992411,0.0 -49.1291153,-26.7096406992411,0.0 -49.1289627,-26.7094685992411,0.0 -49.1288547,-26.7092882992411,0.0 -49.1286964,-26.7091056992411,0.0 -49.1284873,-26.7089393992411,0.0 -49.1283051,-26.7088343992411,0.0 -49.128049,-26.7087651992411,0.0 -49.1274207,-26.7086939992411,0.0 -49.1272273,-26.7086645992411,0.0 -49.1268845,-26.7086629992411,0.0 -49.1266938,-26.7086467992411,0.0 -49.1265849,-26.7086656992411,0.0 -49.1264801,-26.7087143992411,0.0 -49.1263701,-26.7087969992411,0.0 -49.1262126,-26.7088918992411,0.0 -49.1259873,-26.7089705992411,0.0 -49.1256692,-26.7090324992411,0.0 -49.1255464,-26.7090623992411,0.0 -49.1254068,-26.7090309992411,0.0 -49.1252566,-26.7089448992411,0.0 -49.1251352,-26.7088178992411,0.0 -49.1249661,-26.7086892992411,0.0 -49.1243971,-26.7084082992411,0.0 -49.1238455,-26.7082197992411,0.0 -49.123572,-26.7082612992411,0.0 -49.1233909,-26.7083428992411,0.0 -49.1232781,-26.7085030992411,0.0 -49.1229902,-26.7089481992411,0.0 -49.1227288,-26.7095875992411,0.0 -49.1225811,-26.7100162992411,0.0 -49.1225668,-26.7104856992411,0.0 -49.1225749,-26.7106263992411,0.0 -49.1226234,-26.710752099241,0.0 -49.122901,-26.7109196992411,0.0 -49.1231373,-26.7110341992411,0.0 -49.1233183,-26.711194199241,0.0 -49.1234049,-26.711316499241,0.0 -49.1234417,-26.711434799241,0.0 -49.1234514,-26.711707999241,0.0 -49.1235267,-26.712281699241,0.0 -49.1236124,-26.712586099241,0.0 -49.1237002,-26.712701399241,0.0 -49.1238125,-26.712816299241,0.0 -49.1238336,-26.712928899241,0.0 -49.1237925,-26.713000299241,0.0 -49.123679,-26.713005399241,0.0 -49.1235217,-26.712988799241,0.0 -49.123439,-26.712998599241,0.0 -49.1233325,-26.713011299241,0.0 -49.1231531,-26.713020999241,0.0 -49.122988,-26.713015799241,0.0 -49.122805,-26.712951299241,0.0 -49.1225631,-26.712845199241,0.0 -49.1224286,-26.712844499241,0.0 -49.1223381,-26.712872899241,0.0 -49.1222677,-26.712925299241,0.0 -49.122049,-26.713067999241,0.0 -49.1219829,-26.713102899241,0.0 -49.1218803,-26.713110799241,0.0 -49.1216963,-26.713096299241,0.0 -49.1215124,-26.713081899241,0.0 -49.1213964,-26.713101899241,0.0 -49.1212439,-26.713192199241,0.0 -49.121142,-26.713314099241,0.0 -49.1207,-26.714218099241,0.0 -49.1206115,-26.714343599241,0.0 -49.1205033,-26.714435899241,0.0 -49.1203265,-26.714566199241,0.0 -49.1202722,-26.714646299241,0.0 -49.1202144,-26.714725499241,0.0 -49.1201686,-26.714841499241,0.0 -49.1201239,-26.715001499241,0.0 -49.1199828,-26.716086299241,0.0 -49.1198721,-26.7165576992409,0.0 -49.1198604,-26.7166505992409,0.0 -49.119899,-26.7167324992409,0.0 -49.1199774,-26.7168288992409,0.0 -49.1201419,-26.7169418992409,0.0 -49.1201994,-26.7170327992409,0.0 -49.1202551,-26.7171082992409,0.0 -49.120288,-26.7171529992409,0.0 -49.1203252,-26.7172660992409,0.0 -49.1203152,-26.7174266992409,0.0 -49.1202672,-26.7176079992409,0.0 -49.1201839,-26.7177796992409,0.0 -49.1200955,-26.7179270992409,0.0 -49.1200329,-26.7179878992409,0.0 -49.1199076,-26.7180880992409,0.0 -49.1198305,-26.7181776992409,0.0 -49.1197853,-26.7182804992409,0.0 -49.1197843,-26.7185221992409,0.0 -49.1197636,-26.7188549992409,0.0 -49.1197624,-26.7189981992409,0.0 -49.119804,-26.7191567992409,0.0 -49.1198744,-26.7193040992409,0.0 -49.1200613,-26.7194838992409,0.0 -49.1201572,-26.7195881992409,0.0 -49.120202,-26.7197112992409,0.0 -49.120351,-26.7201182992409,0.0 -49.1204234,-26.7203990992409,0.0 -49.1204447,-26.7206996992409,0.0 -49.1204277,-26.7209333992409,0.0 -49.1203285,-26.7211563992409,0.0 -49.1199242,-26.7218734992408,0.0 -49.1197356,-26.7221939992408,0.0 -49.1195516,-26.7223998992408,0.0 -49.1193103,-26.7227564992408,0.0 -49.1190522,-26.7231803992408,0.0 -49.1189254,-26.7232329992408,0.0 -49.1187424,-26.7231928992408,0.0 -49.1185828,-26.7231141992408,0.0 -49.1184249,-26.7229668992408,0.0 -49.1179061,-26.7224575992408,0.0 -49.1175092,-26.7219722992408,0.0 -49.1172459,-26.7216804992408,0.0 -49.1168508,-26.7211483992409,0.0 -49.115974,-26.7201359992409,0.0 -49.1158107,-26.7199102992409,0.0 -49.1157186,-26.7197402992409,0.0 -49.1156664,-26.7193523992409,0.0 -49.1155569,-26.7190925992409,0.0 -49.1154078,-26.7188593992409,0.0 -49.1150961,-26.7184432992409,0.0 -49.1147478,-26.7179648992409,0.0 -49.1144484,-26.7176874992409,0.0 -49.1142698,-26.7175906992409,0.0 -49.1140762,-26.7175365992409,0.0 -49.1137813,-26.7175344992409,0.0 -49.1135528,-26.7176106992409,0.0 -49.1133293,-26.7177571992409,0.0 -49.1131508,-26.7179911992409,0.0 -49.1130377,-26.7181868992409,0.0 -49.1128072,-26.7184995992409,0.0 -49.1126529,-26.7188428992409,0.0 -49.1121741,-26.7196124992409,0.0 -49.1120131,-26.7198372992409,0.0 -49.1118521,-26.7200620992409,0.0 -49.1116899,-26.7203661992409,0.0 -49.111553,-26.7206549992409,0.0 -49.1114544,-26.7208935992409,0.0 -49.111048,-26.7220106992408,0.0 -49.1109317,-26.7225489992408,0.0 -49.1108858,-26.7231329992408,0.0 -49.1109298,-26.7237126992408,0.0 -49.1111527,-26.7242537992408,0.0 -49.1114513,-26.7247743992408,0.0 -49.1115456,-26.7249020992408,0.0 -49.111675,-26.7249666992408,0.0 -49.1119263,-26.7250690992408,0.0 -49.112232,-26.7251487992408,0.0 -49.112352,-26.7251973992408,0.0 -49.1124484,-26.7253096992408,0.0 -49.112426,-26.7254629992408,0.0 -49.112324,-26.7255817992408,0.0 -49.1122034,-26.7257127992408,0.0 -49.1121176,-26.7258858992408,0.0 -49.1120883,-26.7260411992408,0.0 -49.1120307,-26.7263607992407,0.0 -49.11196,-26.7267058992407,0.0 -49.1118105,-26.7272283992407,0.0 -49.1116841,-26.7275953992407,0.0 -49.1116563,-26.7278083992407,0.0 -49.1117473,-26.7280317992407,0.0 -49.1119213,-26.7282447992407,0.0 -49.112059,-26.7283779992407,0.0 -49.1121428,-26.7285490992407,0.0 -49.1121114,-26.7288615992407,0.0 -49.112032,-26.7290793992407,0.0 -49.111952,-26.7292940992407,0.0 -49.111812,-26.7295055992407,0.0 -49.1116677,-26.7297108992407,0.0 -49.1114952,-26.7298706992407,0.0 -49.1113788,-26.7300446992407,0.0 -49.1113116,-26.7302690992407,0.0 -49.1113058,-26.7305377992407,0.0 -49.1113334,-26.7310552992407,0.0 -49.1113972,-26.7315127992406,0.0 -49.1115117,-26.7318406992406,0.0 -49.1119294,-26.7323769992406,0.0 -49.1122996,-26.7328756992406,0.0 -49.1126865,-26.7332226992406,0.0 -49.1132323,-26.7336148992406,0.0 -49.1137361,-26.7340797992406,0.0 -49.113871,-26.7342432992406,0.0 -49.1139264,-26.7344927992406,0.0 -49.1138594,-26.7347362992406,0.0 -49.1137363,-26.7349927992406,0.0 -49.1135577,-26.7352247992406,0.0 -49.1133038,-26.7354384992406,0.0 -49.1129149,-26.7356382992406,0.0 -49.1126976,-26.7357234992406,0.0 -49.112529,-26.7358896992406,0.0 -49.1124575,-26.7360936992406,0.0 -49.1123919,-26.7365513992406,0.0 -49.1124006,-26.7368019992406,0.0 -49.1124716,-26.7370890992405,0.0 -49.1124484,-26.7373785992405,0.0 -49.1123456,-26.7376907992405,0.0 -49.1121475,-26.7380465992405,0.0 -49.1119833,-26.7382880992405,0.0 -49.1118312,-26.7385904992405,0.0 -49.1117046,-26.7390151992405,0.0 -49.1116347,-26.7393257992405,0.0 -49.111595,-26.7395770992405,0.0 -49.1115362,-26.7397711992405,0.0 -49.111439,-26.7398509992405,0.0 -49.1113298,-26.7398891992405,0.0 -49.1112083,-26.7398879992405,0.0 -49.1110869,-26.7398868992405,0.0 -49.1106522,-26.7398529992405,0.0 -49.1102101,-26.7398659992405,0.0 -49.1099042,-26.7399139992405,0.0 -49.1096021,-26.7399774992405,0.0 -49.10931,-26.7400574992405,0.0 -49.1090366,-26.7400592992405,0.0 -49.10891,-26.7400015992405,0.0 -49.1087319,-26.7398729992405,0.0 -49.1085824,-26.7396691992405,0.0 -49.1084157,-26.7395118992405,0.0 -49.1082591,-26.7393799992405,0.0 -49.1080055,-26.7392600992405,0.0 -49.1079841,-26.7392499992405,0.0 -49.1077289,-26.7391113992405,0.0 -49.1074398,-26.7389977992405,0.0 -49.1071008,-26.7388872992405,0.0 -49.1068569,-26.7388226992405,0.0 -49.1067231,-26.7388345992405,0.0 -49.1066388,-26.7389428992405,0.0 -49.1066313,-26.7390900992405,0.0 -49.1066716,-26.7392775992405,0.0 -49.106748,-26.7394109992405,0.0 -49.1068249,-26.7395644992405,0.0 -49.1068412,-26.7396824992405,0.0 -49.106824,-26.7397812992405,0.0 -49.1068151,-26.7398323992405,0.0 -49.1066684,-26.7400522992405,0.0 -49.10651,-26.7401962992405,0.0 -49.1063427,-26.7402322992405,0.0 -49.1062536,-26.7403176992405,0.0 -49.1061172,-26.7405153992405,0.0 -49.1059481,-26.7408822992405,0.0 -49.1059151,-26.7409709992405,0.0 -49.1059117,-26.7410508992405,0.0 -49.1059492,-26.7411085992405,0.0 -49.1060098,-26.7411430992405,0.0 -49.1062317,-26.7412032992405,0.0 -49.1063928,-26.7412534992405,0.0 -49.1065689,-26.7413427992405,0.0 -49.107367,-26.7419014992404,0.0 -49.1079142,-26.7422069992404,0.0 -49.1088118,-26.7427362992404,0.0 -49.1093617,-26.7431810992404,0.0 -49.1097451,-26.7435168992404,0.0 -49.1102608,-26.7438494992404,0.0 -49.1105483,-26.7438711992404,0.0 -49.1108277,-26.7438026992404,0.0 -49.1111628,-26.7436181992404,0.0 -49.1113625,-26.7435996992404,0.0 -49.1116623,-26.7436163992404,0.0 -49.111887,-26.7437050992404,0.0 -49.1122076,-26.7440520992404,0.0 -49.1122537,-26.7441795992404,0.0 -49.1123334,-26.7443229992404,0.0 -49.1124402,-26.7444343992404,0.0 -49.1126301,-26.7445147992404,0.0 -49.1130539,-26.7445507992404,0.0 -49.1133037,-26.7445406992404,0.0 -49.113574,-26.7444906992404,0.0 -49.1145212,-26.7441346992404,0.0 -49.1148025,-26.7440986992404,0.0 -49.1159757,-26.7444466992404,0.0 -49.1164326,-26.7445607992404,0.0 -49.1168936,-26.7447483992404,0.0 -49.1175726,-26.7450994992404,0.0 -49.1179049,-26.7452821992404,0.0 -49.1181202,-26.7455049992404,0.0 -49.118367,-26.7459295992404,0.0 -49.1185921,-26.7461820992404,0.0 -49.1198266,-26.7472450992403,0.0 -49.1200018,-26.7474715992403,0.0 -49.1204366,-26.7479807992403,0.0 -49.1208137,-26.7483228992403,0.0 -49.1209661,-26.7484981992403,0.0 -49.1210893,-26.7486932992403,0.0 -49.1212445,-26.7488152992403,0.0 -49.1213502,-26.7488406992403,0.0 -49.1214481,-26.7488054992403,0.0 -49.1215654,-26.7486680992403,0.0 -49.1216522,-26.7485266992403,0.0 -49.1217792,-26.7484266992403,0.0 -49.1220152,-26.7482972992403,0.0 -49.1222474,-26.7482549992403,0.0 -49.1230156,-26.7481418992403,0.0 -49.1233889,-26.7481326992403,0.0 -49.1237865,-26.7481079992403,0.0 -49.1239243,-26.7480993992403,0.0 -49.1242199,-26.7480802992403,0.0 -49.124463,-26.7481276992403,0.0 -49.1246434,-26.7481729992403,0.0 -49.1248455,-26.7482956992403,0.0 -49.1250298,-26.7484417992403,0.0 -49.1251094,-26.7486767992403,0.0 -49.1251628,-26.7490473992403,0.0 -49.1251771,-26.7494370992403,0.0 -49.1251731,-26.7497212992403,0.0 -49.1251666,-26.7501990992403,0.0 -49.1250285,-26.7505161992403,0.0 -49.1248984,-26.7509535992403,0.0 -49.1248787,-26.7511182992403,0.0 -49.1248953,-26.7511998992403,0.0 -49.1249427,-26.7512604992403,0.0 -49.1250234,-26.7512807992403,0.0 -49.1251043,-26.7512727992403,0.0 -49.1255525,-26.7511950992403,0.0 -49.1257159,-26.7511885992403,0.0 -49.1259013,-26.7512109992403,0.0 -49.1260874,-26.7512692992403,0.0 -49.1262523,-26.7513475992403,0.0 -49.1266388,-26.7515713992403,0.0 -49.1269701,-26.7519235992403,0.0 -49.1272976,-26.7525182992402,0.0 -49.1275238,-26.7528950992402,0.0 -49.1276163,-26.7532289992402,0.0 -49.1276474,-26.7534490992402,0.0 -49.127635,-26.7536132992402,0.0 -49.1275847,-26.7537688992402,0.0 -49.1274523,-26.7538680992402,0.0 -49.127184,-26.7539029992402,0.0 -49.1269869,-26.7538825992402,0.0 -49.1267743,-26.7538818992402,0.0 -49.1264889,-26.7539567992402,0.0 -49.1262472,-26.7540828992402,0.0 -49.1261451,-26.7541932992402,0.0 -49.126063,-26.7543778992402,0.0 -49.1260695,-26.7546411992402,0.0 -49.1260646,-26.7548216992402,0.0 -49.1260989,-26.7549357992402,0.0 -49.1262033,-26.7553059992402,0.0 -49.1263324,-26.7555115992402,0.0 -49.1265057,-26.7557120992402,0.0 -49.1267115,-26.7562515992402,0.0 -49.1267807,-26.7565261992402,0.0 -49.1267956,-26.7567859992402,0.0 -49.1268327,-26.7570420992401,0.0 -49.1268162,-26.7572463992401,0.0 -49.1267566,-26.7574495992401,0.0 -49.1266618,-26.7577376992401,0.0 -49.126616,-26.7578951992401,0.0 -49.1265942,-26.7580019992401,0.0 -49.1266012,-26.7580546992401,0.0 -49.12662,-26.7580972992401,0.0 -49.1266809,-26.7581490992401,0.0 -49.1270799,-26.7583541992401,0.0 -49.1271499,-26.7584249992401,0.0 -49.1271975,-26.7585046992401,0.0 -49.1272422,-26.7586070992401,0.0 -49.1272618,-26.7587303992401,0.0 -49.127235,-26.7589116992401,0.0 -49.1271739,-26.7590602992401,0.0 -49.1269682,-26.7592772992401,0.0 -49.1267052,-26.7594736992401,0.0 -49.1264186,-26.7597287992401,0.0 -49.126218,-26.7599076992401,0.0 -49.1260608,-26.7600333992401,0.0 -49.1258943,-26.7601374992401,0.0 -49.1256741,-26.7601839992401,0.0 -49.1253937,-26.7601874992401,0.0 -49.1251999,-26.7602212992401,0.0 -49.1245225,-26.7605020992401,0.0 -49.1240765,-26.7607148992401,0.0 -49.1239605,-26.7608026992401,0.0 -49.1238421,-26.7609243992401,0.0 -49.1237399,-26.7610588992401,0.0 -49.1236289,-26.7611729992401,0.0 -49.1235379,-26.7613024992401,0.0 -49.123518,-26.7613789992401,0.0 -49.1235112,-26.7614638992401,0.0 -49.1235383,-26.7616606992401,0.0 -49.1235753,-26.7618268992401,0.0 -49.1235841,-26.7619568992401,0.0 -49.1236181,-26.76207559924,0.0 -49.1236621,-26.7621620992401,0.0 -49.1237354,-26.7622334992401,0.0 -49.1240323,-26.7624660992401,0.0 -49.1241339,-26.76258829924,0.0 -49.1241958,-26.76276049924,0.0 -49.1242771,-26.76317019924,0.0 -49.1243608,-26.76382969924,0.0 -49.1243869,-26.76401969924,0.0 -49.1243936,-26.76421249924,0.0 -49.1243222,-26.76507319924,0.0 -49.1242965,-26.76564569924,0.0 -49.1242359,-26.76622089924,0.0 -49.1242595,-26.76657159924,0.0 -49.1242255,-26.76729379924,0.0 -49.1241803,-26.7677864992399,0.0 -49.1242629,-26.7682623992399,0.0 -49.1244007,-26.7686982992399,0.0 -49.1247941,-26.7693680992399,0.0 -49.1253397,-26.7700957992399,0.0 -49.1254701,-26.7703168992399,0.0 -49.125529,-26.7704941992399,0.0 -49.1255504,-26.7708695992399,0.0 -49.1256364,-26.7711692992399,0.0 -49.1257175,-26.7714516992399,0.0 -49.1258324,-26.7719660992399,0.0 -49.1256356,-26.7733091992398,0.0 -49.1256389,-26.7738231992398,0.0 -49.1255377,-26.7743489992398,0.0 -49.1252694,-26.7751060992398,0.0 -49.1250226,-26.7755070992398,0.0 -49.1244075,-26.7764131992398,0.0 -49.1244154,-26.7767408992398,0.0 -49.1244304,-26.7769365992398,0.0 -49.1244801,-26.7771085992397,0.0 -49.1245308,-26.7772840992398,0.0 -49.1245388,-26.7774824992397,0.0 -49.1244901,-26.7776757992397,0.0 -49.1242349,-26.7784518992397,0.0 -49.1241799,-26.7786191992397,0.0 -49.1240457,-26.7790467992397,0.0 -49.1239107,-26.7792450992397,0.0 -49.1237226,-26.7794075992397,0.0 -49.1235113,-26.7796379992397,0.0 -49.1233462,-26.7799865992397,0.0 -49.1232237,-26.7803309992397,0.0 -49.1229714,-26.7812685992397,0.0 -49.1228851,-26.7814360992397,0.0 -49.1227484,-26.7815791992397,0.0 -49.1225629,-26.7816952992397,0.0 -49.1223537,-26.7817879992397,0.0 -49.1220017,-26.7818649992397,0.0 -49.1217788,-26.7818858992397,0.0 -49.121606,-26.7818560992397,0.0 -49.121374,-26.7817756992397,0.0 -49.1211516,-26.7817197992397,0.0 -49.1210304,-26.7817523992397,0.0 -49.1209415,-26.7818569992397,0.0 -49.1208619,-26.7820312992397,0.0 -49.1205308,-26.7825104992397,0.0 -49.1199301,-26.7833771992396,0.0 -49.1197079,-26.7838176992396,0.0 -49.1194698,-26.7842608992396,0.0 -49.1193638,-26.7846163992396,0.0 -49.1193332,-26.7847737992396,0.0 -49.1193445,-26.7849400992396,0.0 -49.1193966,-26.7850679992396,0.0 -49.1194897,-26.7851963992396,0.0 -49.1197186,-26.7854892992396,0.0 -49.1199142,-26.7856763992396,0.0 -49.1201333,-26.7858371992396,0.0 -49.1202094,-26.7859094992396,0.0 -49.1202441,-26.7859918992396,0.0 -49.1202576,-26.7863023992396,0.0 -49.1202656,-26.7865437992396,0.0 -49.1202751,-26.7873532992396,0.0 -49.1202891,-26.7875261992396,0.0 -49.1203345,-26.7876271992396,0.0 -49.1204434,-26.7877836992396,0.0 -49.1205875,-26.7878802992396,0.0 -49.1208198,-26.7880067992396,0.0 -49.1210885,-26.7880948992395,0.0 -49.1212064,-26.7881711992395,0.0 -49.1212578,-26.7883219992395,0.0 -49.1212522,-26.7885942992395,0.0 -49.1211437,-26.7892145992395,0.0 -49.1210216,-26.7895407992395,0.0 -49.1209269,-26.7897522992395,0.0 -49.1207181,-26.7901310992395,0.0 -49.1205198,-26.7906366992395,0.0 -49.120347,-26.7908203992395,0.0 -49.1202125,-26.7910483992395,0.0 -49.1201628,-26.7912091992395,0.0 -49.1201517,-26.7913964992395,0.0 -49.1201377,-26.7924632992395,0.0 -49.1201324,-26.7932388992394,0.0 -49.120128,-26.7935227992394,0.0 -49.1201816,-26.7938099992394,0.0 -49.1203035,-26.7942798992394,0.0 -49.1203475,-26.7944017992394,0.0 -49.1204197,-26.7944877992394,0.0 -49.1205963,-26.7946452992394,0.0 -49.1208506,-26.7948138992394,0.0 -49.1210225,-26.7949802992394,0.0 -49.121156,-26.7951772992394,0.0 -49.1212991,-26.7955497992394,0.0 -49.1215168,-26.7959247992394,0.0 -49.1220736,-26.7964110992394,0.0 -49.121772,-26.7970008992394,0.0 -49.1212407,-26.7980346992393,0.0 -49.1211164,-26.7983184992393,0.0 -49.1210558,-26.7986007992393,0.0 -49.1210393,-26.7990905992393,0.0 -49.1212322,-26.7996897992393,0.0 -49.1215145,-26.8001123992393,0.0 -49.122047,-26.8009146992393,0.0 -49.1221704,-26.8010991992393,0.0 -49.1223996,-26.8016183992393,0.0 -49.1228691,-26.8025317992393,0.0 -49.1230611,-26.8027611992393,0.0 -49.1232947,-26.8029815992393,0.0 -49.1238365,-26.8033889992392,0.0 -49.1242626,-26.8036495992392,0.0 -49.1244766,-26.8037904992392,0.0 -49.1246681,-26.8039619992392,0.0 -49.1253554,-26.8048671992392,0.0 -49.1255782,-26.8051016992392,0.0 -49.126867,-26.8062178992392,0.0 -49.1272146,-26.8065981992392,0.0 -49.12743,-26.8068416992392,0.0 -49.1277461,-26.8072529992392,0.0 -49.1278699,-26.8074135992392,0.0 -49.1279822,-26.8076334992392,0.0 -49.1280337,-26.8078755992392,0.0 -49.1280403,-26.8081306992392,0.0 -49.1280681,-26.8086352992391,0.0 -49.1281153,-26.8091563992391,0.0 -49.128269,-26.8098080992391,0.0 -49.1282929,-26.8100805992391,0.0 -49.1282954,-26.8103324992391,0.0 -49.1282553,-26.8106173992391,0.0 -49.1281811,-26.8108382992391,0.0 -49.1275336,-26.8116732992391,0.0 -49.1274003,-26.8119144992391,0.0 -49.1273125,-26.8121457992391,0.0 -49.1271062,-26.8126945992391,0.0 -49.1270791,-26.8127988992391,0.0 -49.127094,-26.8129231992391,0.0 -49.1272104,-26.8130944992391,0.0 -49.1274805,-26.8134230992391,0.0 -49.1275563,-26.8136104992391,0.0 -49.1275547,-26.813727899239,0.0 -49.1275235,-26.813833199239,0.0 -49.1274236,-26.813968699239,0.0 -49.1272603,-26.814077899239,0.0 -49.1268967,-26.814265299239,0.0 -49.1265639,-26.814447399239,0.0 -49.1261709,-26.814783099239,0.0 -49.1259778,-26.814980199239,0.0 -49.1258405,-26.815254799239,0.0 -49.1257208,-26.816307199239,0.0 -49.125731,-26.816866399239,0.0 -49.1257185,-26.817027299239,0.0 -49.1256516,-26.817188699239,0.0 -49.1255157,-26.817417099239,0.0 -49.1252711,-26.817748599239,0.0 -49.1251214,-26.817892099239,0.0 -49.1248972,-26.818292499239,0.0 -49.1246392,-26.8186234992389,0.0 -49.1242162,-26.8189680992389,0.0 -49.1238602,-26.8192945992389,0.0 -49.1237924,-26.8194385992389,0.0 -49.1237617,-26.8195933992389,0.0 -49.1237623,-26.8196523992389,0.0 -49.1237819,-26.8197097992389,0.0 -49.1238663,-26.8198272992389,0.0 -49.123949,-26.8198800992389,0.0 -49.1240473,-26.8199234992389,0.0 -49.1249354,-26.8200877992389,0.0 -49.1253162,-26.8201776992389,0.0 -49.1256854,-26.8203049992389,0.0 -49.1259285,-26.8204715992389,0.0 -49.1262258,-26.8206993992389,0.0 -49.1264889,-26.8208487992389,0.0 -49.1265284,-26.8209413992389,0.0 -49.1265293,-26.8210209992389,0.0 -49.1264267,-26.8213976992389,0.0 -49.126324,-26.8217742992389,0.0 -49.1262513,-26.8219073992389,0.0 -49.1261429,-26.8220156992389,0.0 -49.1258273,-26.8226131992389,0.0 -49.1257225,-26.8228724992389,0.0 -49.1257,-26.8231901992389,0.0 -49.1258815,-26.8237960992389,0.0 -49.1260532,-26.8243027992388,0.0 -49.1261646,-26.8250023992388,0.0 -49.1261807,-26.8254016992388,0.0 -49.1262732,-26.8258364992388,0.0 -49.1263594,-26.8263667992388,0.0 -49.1265211,-26.8267598992388,0.0 -49.1267638,-26.8271801992388,0.0 -49.1273452,-26.8284415992388,0.0 -49.1276106,-26.8292576992387,0.0 -49.1277794,-26.8300346992387,0.0 -49.1278436,-26.8306511992387,0.0 -49.1278318,-26.8312572992387,0.0 -49.1278348,-26.8319031992387,0.0 -49.1278143,-26.8322184992387,0.0 -49.1277345,-26.8325925992387,0.0 -49.1383,-26.8341812992386,0.0 -49.1388115,-26.8342583992386,0.0 -49.140589,-26.8345254992386,0.0 -49.1635439,-26.8379770992386,0.0 -49.1636766,-26.8378958992386,0.0 -49.1637068,-26.8378867992386,0.0 -49.163737,-26.8378776992386,0.0 -49.1637723,-26.8378777992386,0.0 -49.1638277,-26.8378946992386,0.0 -49.1638742,-26.8378868992386,0.0 -49.1639007,-26.8378777992386,0.0 -49.1639095,-26.8378552992386,0.0 -49.1639095,-26.8378202992386,0.0 -49.1638972,-26.8376045992386,0.0 -49.1638835,-26.8374430992386,0.0 -49.1638671,-26.8373933992386,0.0 -49.1638119,-26.8372769992386,0.0 -49.1637654,-26.8372091992386,0.0 -49.1636653,-26.8370868992386,0.0 -49.1636289,-26.8370393992386,0.0 -49.1636239,-26.8369964992386,0.0 -49.1636378,-26.8369433992386,0.0 -49.1636706,-26.8368779992386,0.0 -49.1637323,-26.8368553992386,0.0 -49.1637725,-26.8368497992386,0.0 -49.1638469,-26.8368125992386,0.0 -49.1639287,-26.8367550992386,0.0 -49.1639716,-26.8367200992386,0.0 -49.1640371,-26.8366658992386,0.0 -49.164095,-26.8366535992386,0.0 -49.1641554,-26.8366535992386,0.0 -49.1642045,-26.8366592992386,0.0 -49.1642611,-26.8366863992386,0.0 -49.1643404,-26.8367157992386,0.0 -49.1643934,-26.8367158992386,0.0 -49.164397,-26.8367158992386,0.0 -49.1644197,-26.8367090992386,0.0 -49.1644398,-26.8366921992386,0.0 -49.1644575,-26.8366503992386,0.0 -49.1644538,-26.8365894992386,0.0 -49.1644287,-26.8365351992386,0.0 -49.1644048,-26.8364854992386,0.0 -49.1644023,-26.8364312992386,0.0 -49.1644263,-26.8363680992386,0.0 -49.164459,-26.8363375992386,0.0 -49.1645056,-26.8363105992386,0.0 -49.1646215,-26.8362586992386,0.0 -49.1647248,-26.8362203992386,0.0 -49.1648768,-26.8361241992386,0.0 -49.1649214,-26.8360958992386,0.0 -49.1650394,-26.8360212992386,0.0 -49.165051,-26.8360139992386,0.0 -49.1651152,-26.8359292992386,0.0 -49.1651634,-26.8358704992386,0.0 -49.1651707,-26.8358615992386,0.0 -49.165206,-26.8358266992386,0.0 -49.16525,-26.8358074992386,0.0 -49.1653395,-26.8357216992386,0.0 -49.1654504,-26.8355343992386,0.0 -49.165487,-26.8354530992386,0.0 -49.1656142,-26.8353842992386,0.0 -49.1656633,-26.8353831992386,0.0 -49.1656822,-26.8353842992386,0.0 -49.1657124,-26.8353956992386,0.0 -49.1658118,-26.8354476992386,0.0 -49.1658596,-26.8354679992386,0.0 -49.1658885,-26.8354713992386,0.0 -49.16592,-26.8354691992386,0.0 -49.1659364,-26.8354669992386,0.0 -49.1659553,-26.8354499992386,0.0 -49.1659679,-26.8354296992386,0.0 -49.1659754,-26.8354172992386,0.0 -49.1659642,-26.8353494992386,0.0 -49.1659166,-26.8350987992386,0.0 -49.1659078,-26.8350445992386,0.0 -49.16591,-26.8350237992386,0.0 -49.1659103,-26.8350208992386,0.0 -49.1659166,-26.8350016992386,0.0 -49.1659532,-26.8349429992386,0.0 -49.1659859,-26.8349204992386,0.0 -49.1660149,-26.8349091992386,0.0 -49.166028,-26.8349104992386,0.0 -49.166059,-26.8349136992386,0.0 -49.1663407,-26.8351058992386,0.0 -49.1666338,-26.8353465992386,0.0 -49.1667067,-26.8354494992386,0.0 -49.1667155,-26.8355047992386,0.0 -49.1667117,-26.8355510992386,0.0 -49.1667028,-26.8355849992386,0.0 -49.1666902,-26.8356120992386,0.0 -49.1666575,-26.8356537992386,0.0 -49.1665202,-26.8357462992386,0.0 -49.1664597,-26.8358026992386,0.0 -49.1664509,-26.8358229992386,0.0 -49.1664483,-26.8358489992386,0.0 -49.1664609,-26.8358546992386,0.0 -49.1666422,-26.8358649992386,0.0 -49.1667542,-26.8358661992386,0.0 -49.1668561,-26.8358865992386,0.0 -49.1669417,-26.8359091992386,0.0 -49.167031,-26.8359464992386,0.0 -49.1671179,-26.8359928992386,0.0 -49.1671518,-26.8359940992386,0.0 -49.1671783,-26.8359928992386,0.0 -49.1671947,-26.8359850992386,0.0 -49.1672337,-26.8359613992386,0.0 -49.1672979,-26.8359207992386,0.0 -49.1673672,-26.8358902992386,0.0 -49.1674314,-26.8358869992386,0.0 -49.1674704,-26.8358982992386,0.0 -49.1674968,-26.8359276992386,0.0 -49.1675056,-26.8359739992386,0.0 -49.1675055,-26.8360270992386,0.0 -49.1675092,-26.8361512992386,0.0 -49.1675041,-26.8362133992386,0.0 -49.1674713,-26.8363239992386,0.0 -49.1674687,-26.8363510992386,0.0 -49.1674788,-26.8363702992386,0.0 -49.1674989,-26.8363827992386,0.0 -49.1676034,-26.8363895992386,0.0 -49.1676062,-26.8363895992386,0.0 -49.1676386,-26.8363895992386,0.0 -49.1677054,-26.8363489992386,0.0 -49.167854,-26.8362418992386,0.0 -49.1678603,-26.8362316992386,0.0 -49.1678579,-26.8361706992386,0.0 -49.1678278,-26.8360204992386,0.0 -49.1677462,-26.8357053992386,0.0 -49.1677501,-26.8356500992386,0.0 -49.1677627,-26.8356150992386,0.0 -49.1677841,-26.8355845992386,0.0 -49.167832,-26.8355394992386,0.0 -49.1678711,-26.8354841992386,0.0 -49.1678887,-26.8354344992386,0.0 -49.1678913,-26.8353779992386,0.0 -49.1679052,-26.8352933992386,0.0 -49.1679355,-26.8352187992386,0.0 -49.1679821,-26.8351341992386,0.0 -49.1680514,-26.8350845992386,0.0 -49.1680728,-26.8350811992386,0.0 -49.1680872,-26.8350811992386,0.0 -49.1680955,-26.8350811992386,0.0 -49.1681836,-26.8350834992386,0.0 -49.1682843,-26.8350869992386,0.0 -49.1683649,-26.8350621992386,0.0 -49.1683774,-26.8350576992386,0.0 -49.168448,-26.8350158992386,0.0 -49.1685122,-26.8349798992386,0.0 -49.1686658,-26.8349618992386,0.0 -49.1689629,-26.8349372992386,0.0 -49.1690044,-26.8349349992386,0.0 -49.1690824,-26.8349463992386,0.0 -49.1691517,-26.8349689992386,0.0 -49.1691921,-26.8349866992386,0.0 -49.1693404,-26.8350515992386,0.0 -49.1693869,-26.8350786992386,0.0 -49.1694687,-26.8351419992386,0.0 -49.1695165,-26.8351747992386,0.0 -49.1695467,-26.8351826992386,0.0 -49.1695656,-26.8351781992386,0.0 -49.1695732,-26.8351589992386,0.0 -49.1695782,-26.8351352992386,0.0 -49.1695757,-26.8351036992386,0.0 -49.169577,-26.8350494992386,0.0 -49.1695934,-26.8350133992386,0.0 -49.1696237,-26.8349817992386,0.0 -49.1696552,-26.8349614992386,0.0 -49.1697105,-26.8349569992386,0.0 -49.1697621,-26.8349671992386,0.0 -49.1698553,-26.8350123992386,0.0 -49.1698817,-26.8350202992386,0.0 -49.1699169,-26.8350112992386,0.0 -49.1699208,-26.8350078992386,0.0 -49.1699472,-26.8349842992386,0.0 -49.1699824,-26.8349480992386,0.0 -49.1701349,-26.8348183992386,0.0 -49.170223,-26.8347393992386,0.0 -49.1703124,-26.8347078992386,0.0 -49.1705101,-26.8346661992386,0.0 -49.1706222,-26.8346641992386,0.0 -49.1706914,-26.8346628992386,0.0 -49.1710136,-26.8346540992386,0.0 -49.1710917,-26.8346552992386,0.0 -49.1711332,-26.8346665992386,0.0 -49.1711533,-26.8346778992386,0.0 -49.1712288,-26.8347547992386,0.0 -49.1713231,-26.8348214992386,0.0 -49.171381,-26.8348463992386,0.0 -49.1714288,-26.8348485992386,0.0 -49.1714893,-26.8348475992386,0.0 -49.1715459,-26.8348351992386,0.0 -49.1716278,-26.8348046992386,0.0 -49.1719367,-26.8346066992386,0.0 -49.1719762,-26.8345528992386,0.0 -49.1719894,-26.8344975992386,0.0 -49.1719945,-26.8344762992386,0.0 -49.1719966,-26.8343927992386,0.0 -49.1719972,-26.8343216992386,0.0 -49.1720004,-26.8342540992386,0.0 -49.1720235,-26.8341955992387,0.0 -49.1720503,-26.8341618992387,0.0 -49.1721438,-26.8341050992386,0.0 -49.1721791,-26.8341019992386,0.0 -49.1722344,-26.8341046992386,0.0 -49.1723627,-26.8341665992386,0.0 -49.1723721,-26.8341710992386,0.0 -49.1724083,-26.8341950992386,0.0 -49.1724133,-26.8342052992386,0.0 -49.1724132,-26.8342176992387,0.0 -49.172414,-26.8342638992386,0.0 -49.172441,-26.8343385992386,0.0 -49.1724707,-26.8343861992386,0.0 -49.1725119,-26.8344180992386,0.0 -49.1725757,-26.8344501992386,0.0 -49.1726873,-26.8344926992386,0.0 -49.1728215,-26.8345320992386,0.0 -49.1729395,-26.8345520992386,0.0 -49.173098,-26.8345453992386,0.0 -49.1734041,-26.8344935992386,0.0 -49.1735264,-26.8344504992386,0.0 -49.1736964,-26.8344280992386,0.0 -49.174036,-26.8344192992386,0.0 -49.1744425,-26.8344074992386,0.0 -49.17447,-26.8344066992386,0.0 -49.1747367,-26.8343973992386,0.0 -49.1747832,-26.8343977992386,0.0 -49.174802,-26.8344014992386,0.0 -49.1748183,-26.8344047992386,0.0 -49.1749336,-26.8344563992386,0.0 -49.1750828,-26.8345003992386,0.0 -49.1751983,-26.8345159992386,0.0 -49.1753363,-26.8345552992386,0.0 -49.1754978,-26.8346332992386,0.0 -49.1755077,-26.8346502992386,0.0 -49.17552,-26.8346796992386,0.0 -49.1755518,-26.8347757992386,0.0 -49.1756236,-26.8350380992386,0.0 -49.1756428,-26.8351363992386,0.0 -49.1756587,-26.8351517992386,0.0 -49.1756893,-26.8351616992386,0.0 -49.1757432,-26.8351550992386,0.0 -49.1757823,-26.8351487992386,0.0 -49.1757898,-26.8351475992386,0.0 -49.1758454,-26.8351265992386,0.0 -49.1760385,-26.8350501992386,0.0 -49.1761131,-26.8349987992386,0.0 -49.1761513,-26.8349494992386,0.0 -49.1762112,-26.8348899992386,0.0 -49.1762855,-26.8348511992386,0.0 -49.176362,-26.8348325992386,0.0 -49.1764204,-26.8348183992386,0.0 -49.1767239,-26.8348085992386,0.0 -49.1768481,-26.8348045992386,0.0 -49.1768744,-26.8348045992386,0.0 -49.1770782,-26.8348040992386,0.0 -49.1772065,-26.8348049992386,0.0 -49.1772392,-26.8347973992386,0.0 -49.1772885,-26.8347728992386,0.0 -49.1773214,-26.8347460992386,0.0 -49.1773569,-26.8347203992386,0.0 -49.1774373,-26.8347243992386,0.0 -49.1774806,-26.8347441992386,0.0 -49.1775294,-26.8347735992386,0.0 -49.1776011,-26.8348293992386,0.0 -49.177686,-26.8349105992386,0.0 -49.1778891,-26.8351044992386,0.0 -49.1779053,-26.8351167992386,0.0 -49.1782,-26.8353403992386,0.0 -49.1782386,-26.8353846992386,0.0 -49.1782546,-26.8354208992386,0.0 -49.1782715,-26.8355021992386,0.0 -49.1782811,-26.8355451992386,0.0 -49.1782948,-26.8355598992386,0.0 -49.1783037,-26.8355599992386,0.0 -49.178325,-26.8355601992386,0.0 -49.1783867,-26.8355560992386,0.0 -49.1784437,-26.8355471992386,0.0 -49.1784836,-26.8355409992386,0.0 -49.1785467,-26.8355188992386,0.0 -49.1786503,-26.8354722992386,0.0 -49.1787284,-26.8354536992386,0.0 -49.1788453,-26.8354624992386,0.0 -49.1788779,-26.8354739992386,0.0 -49.1789429,-26.8355094992386,0.0 -49.1789731,-26.8355141992386,0.0 -49.1790059,-26.8354952992386,0.0 -49.1790327,-26.8354525992386,0.0 -49.1790519,-26.8354222992386,0.0 -49.1790847,-26.8354078992386,0.0 -49.1792784,-26.8354002992386,0.0 -49.1794156,-26.8353865992386,0.0 -49.1796224,-26.8353339992386,0.0 -49.1798628,-26.8352212992386,0.0 -49.1800478,-26.8351345992386,0.0 -49.1801612,-26.8351059992386,0.0 -49.18029,-26.8351072992386,0.0 -49.18036,-26.8351285992386,0.0 -49.180471,-26.8351723992386,0.0 -49.1805135,-26.8351837992386,0.0 -49.1806032,-26.8351862992386,0.0 -49.1806815,-26.8351861992386,0.0 -49.1807685,-26.8351557992386,0.0 -49.1808634,-26.8351141992386,0.0 -49.1810147,-26.8350854992386,0.0 -49.1812864,-26.8350839992386,0.0 -49.1814158,-26.8351167992386,0.0 -49.1814367,-26.8351220992386,0.0 -49.1814715,-26.8351389992386,0.0 -49.181518,-26.8351844992386,0.0 -49.1815544,-26.8352647992386,0.0 -49.1816171,-26.8353866992386,0.0 -49.1816497,-26.8354317992386,0.0 -49.1816971,-26.8354874992386,0.0 -49.1817592,-26.8355186992386,0.0 -49.1818068,-26.8355290992386,0.0 -49.1818765,-26.8355230992386,0.0 -49.1820276,-26.8355023992386,0.0 -49.1822687,-26.8354353992386,0.0 -49.1825359,-26.8353803992386,0.0 -49.1826624,-26.8353748992386,0.0 -49.1827133,-26.8353660992386,0.0 -49.1827998,-26.8353117992386,0.0 -49.1828638,-26.8352523992386,0.0 -49.1829184,-26.8351711992386,0.0 -49.182938,-26.8351149992386,0.0 -49.1829527,-26.8350530992386,0.0 -49.1829566,-26.8349783992386,0.0 -49.1829588,-26.8349138992386,0.0 -49.1829701,-26.8348789992386,0.0 -49.1830099,-26.8348234992386,0.0 -49.1830764,-26.8347651992386,0.0 -49.1831381,-26.8347328992386,0.0 -49.1832671,-26.8346945992386,0.0 -49.1833771,-26.8346544992386,0.0 -49.1834354,-26.8346130992386,0.0 -49.1834697,-26.8345709992386,0.0 -49.1834944,-26.8345489992386,0.0 -49.1835731,-26.8345023992386,0.0 -49.1836253,-26.8344902992386,0.0 -49.1836975,-26.8344854992386,0.0 -49.1838205,-26.8344740992386,0.0 -49.1840674,-26.8344208992386,0.0 -49.1841785,-26.8344101992386,0.0 -49.184219,-26.8344062992386,0.0 -49.1842551,-26.8344185992386,0.0 -49.1843034,-26.8344436992386,0.0 -49.1845572,-26.8346496992386,0.0 -49.1846802,-26.8347740992386,0.0 -49.1846833,-26.8347933992386,0.0 -49.1846828,-26.8348080992386,0.0 -49.1846286,-26.8348472992386,0.0 -49.1845457,-26.8349105992386,0.0 -49.1845179,-26.8349854992386,0.0 -49.1845164,-26.8350306992386,0.0 -49.1845195,-26.8350488992386,0.0 -49.1845418,-26.8350980992386,0.0 -49.1845835,-26.8351620992386,0.0 -49.1846364,-26.8352431992386,0.0 -49.1846895,-26.8353113992386,0.0 -49.1847662,-26.8354627992386,0.0 -49.1848197,-26.8355919992386,0.0 -49.1848289,-26.8356555992386,0.0 -49.1848249,-26.8357019992386,0.0 -49.1848226,-26.8357288992386,0.0 -49.1847827,-26.8359708992386,0.0 -49.1847781,-26.8360317992386,0.0 -49.1847636,-26.8360494992386,0.0 -49.1847366,-26.8360645992386,0.0 -49.1846729,-26.8360853992386,0.0 -49.1846451,-26.8361252992386,0.0 -49.1846247,-26.8362050992386,0.0 -49.1846235,-26.8362400992386,0.0 -49.1846437,-26.8362744992386,0.0 -49.184647,-26.8362771992386,0.0 -49.1847161,-26.8363319992386,0.0 -49.1847658,-26.8363525992386,0.0 -49.1848203,-26.8363800992386,0.0 -49.1848722,-26.8364459992386,0.0 -49.1849484,-26.8365384992386,0.0 -49.1850588,-26.8365923992386,0.0 -49.1852282,-26.8366502992386,0.0 -49.1853655,-26.8366879992386,0.0 -49.1854663,-26.8367187992386,0.0 -49.185691,-26.8367874992386,0.0 -49.1859211,-26.8368401992386,0.0 -49.1859932,-26.8368704992386,0.0 -49.1861011,-26.8369570992386,0.0 -49.1861035,-26.8369598992386,0.0 -49.186158,-26.8370242992386,0.0 -49.1862449,-26.8370682992386,0.0 -49.1862596,-26.8370756992386,0.0 -49.1863327,-26.8371138992386,0.0 -49.1863357,-26.8371178992386,0.0 -49.1863616,-26.8371519992386,0.0 -49.1863972,-26.8372151992386,0.0 -49.1864181,-26.8372665992386,0.0 -49.1864981,-26.8374327992386,0.0 -49.1866298,-26.8375992992386,0.0 -49.1867018,-26.8376667992386,0.0 -49.1867793,-26.8377593992386,0.0 -49.1868283,-26.8378364992386,0.0 -49.1868353,-26.8378484992386,0.0 -49.1868771,-26.8379203992386,0.0 -49.1869009,-26.8379617992386,0.0 -49.1869214,-26.8379894992386,0.0 -49.1869599,-26.8380052992386,0.0 -49.1870462,-26.8380183992386,0.0 -49.1872164,-26.8380423992386,0.0 -49.1872431,-26.8381060992386,0.0 -49.1872906,-26.8381827992386,0.0 -49.1873651,-26.8382343992386,0.0 -49.1873671,-26.8382797992386,0.0 -49.1873908,-26.8383228992386,0.0 -49.1874373,-26.8383695992386,0.0 -49.1875001,-26.8384035992386,0.0 -49.1875278,-26.8384186992386,0.0 -49.1875643,-26.8384414992386,0.0 -49.1875745,-26.8384558992386,0.0 -49.1875681,-26.8385047992386,0.0 -49.187548,-26.8385360992386,0.0 -49.1875418,-26.8385738992386,0.0 -49.1875538,-26.8385914992386,0.0 -49.1876353,-26.8386467992386,0.0 -49.1876939,-26.8387015992386,0.0 -49.1877721,-26.8387488992386,0.0 -49.1878485,-26.8387977992386,0.0 -49.1879204,-26.8388891992386,0.0 -49.1879512,-26.8389292992386,0.0 -49.1880089,-26.8389477992386,0.0 -49.1880944,-26.8389856992385,0.0 -49.1882147,-26.8390400992385,0.0 -49.1882374,-26.8390443992386,0.0 -49.1882966,-26.8390691992386,0.0 -49.1883707,-26.8391399992386,0.0 -49.1884241,-26.8391915992385,0.0 -49.1884574,-26.8391952992386,0.0 -49.1885549,-26.8391671992385,0.0 -49.1886094,-26.8391712992386,0.0 -49.1886285,-26.8391811992386,0.0 -49.1886776,-26.8392688992385,0.0 -49.1887917,-26.8393578992385,0.0 -49.188894,-26.8395761992385,0.0 -49.1889266,-26.8397662992385,0.0 -49.1889328,-26.8398830992385,0.0 -49.188934,-26.8399037992385,0.0 -49.1889363,-26.8400317992385,0.0 -49.1889374,-26.8402086992385,0.0 -49.1889836,-26.8402663992385,0.0 -49.1890498,-26.8402991992385,0.0 -49.1890739,-26.8403201992385,0.0 -49.1891161,-26.8403225992385,0.0 -49.1891569,-26.8403106992385,0.0 -49.1891878,-26.8402670992385,0.0 -49.1891928,-26.8402055992385,0.0 -49.1891814,-26.8401642992385,0.0 -49.1891663,-26.8401323992385,0.0 -49.1891425,-26.8400971992385,0.0 -49.189148,-26.8400878992385,0.0 -49.1891572,-26.8400706992385,0.0 -49.1891785,-26.8400615992385,0.0 -49.1892031,-26.8400635992385,0.0 -49.1892276,-26.8400687992385,0.0 -49.1892645,-26.8400742992385,0.0 -49.1893191,-26.8400736992385,0.0 -49.1893663,-26.8400871992385,0.0 -49.1893886,-26.8401144992385,0.0 -49.1894727,-26.8401302992385,0.0 -49.1895568,-26.8401475992385,0.0 -49.189698,-26.8402070992385,0.0 -49.1898167,-26.8402519992385,0.0 -49.1898712,-26.8402560992385,0.0 -49.1899857,-26.8402503992385,0.0 -49.1900651,-26.8402454992385,0.0 -49.1901355,-26.8402467992385,0.0 -49.1902267,-26.8402579992385,0.0 -49.1903454,-26.8403028992385,0.0 -49.1904888,-26.8403449992385,0.0 -49.1905147,-26.8403675992385,0.0 -49.1905314,-26.8404042992385,0.0 -49.1905464,-26.8404439992385,0.0 -49.1905932,-26.8404716992385,0.0 -49.1907574,-26.8405284992385,0.0 -49.1908796,-26.8405717992385,0.0 -49.1909764,-26.8405735992385,0.0 -49.1910246,-26.8405444992385,0.0 -49.1910892,-26.8404919992385,0.0 -49.1911853,-26.8404495992385,0.0 -49.191256,-26.8404350992385,0.0 -49.1913331,-26.8404523992385,0.0 -49.1914066,-26.8404710992385,0.0 -49.1914985,-26.8404553992385,0.0 -49.1915394,-26.8404387992385,0.0 -49.1916607,-26.8403715992385,0.0 -49.1917455,-26.8403557992385,0.0 -49.1918911,-26.8402891992385,0.0 -49.1920509,-26.8402289992385,0.0 -49.1922428,-26.8401551992385,0.0 -49.1924433,-26.8400862992385,0.0 -49.1927743,-26.8400118992385,0.0 -49.1929568,-26.8399615992385,0.0 -49.1930138,-26.8399357992385,0.0 -49.1930535,-26.8398922992385,0.0 -49.1931004,-26.8398441992385,0.0 -49.1931899,-26.8397810992385,0.0 -49.1932344,-26.8397613992385,0.0 -49.1933016,-26.8397452992385,0.0 -49.1933568,-26.8397210992385,0.0 -49.1934086,-26.8396903992385,0.0 -49.193514,-26.8396244992385,0.0 -49.1936333,-26.8395650992385,0.0 -49.1937873,-26.8395300992385,0.0 -49.1939132,-26.8394928992386,0.0 -49.194139,-26.8393713992385,0.0 -49.1944238,-26.8392575992386,0.0 -49.194666,-26.8391553992386,0.0 -49.1947853,-26.8391706992386,0.0 -49.1948686,-26.8392166992385,0.0 -49.1950276,-26.8393275992385,0.0 -49.1950767,-26.8393349992385,0.0 -49.1952252,-26.8393129992385,0.0 -49.1954221,-26.8393235992385,0.0 -49.1955964,-26.8393904992385,0.0 -49.1957981,-26.8394833992385,0.0 -49.1960018,-26.8395067992385,0.0 -49.1961566,-26.8395101992385,0.0 -49.1963774,-26.8394201992385,0.0 -49.1965626,-26.8393420992386,0.0 -49.1968399,-26.8392469992385,0.0 -49.1970585,-26.8392390992386,0.0 -49.1970936,-26.8392398992385,0.0 -49.1971484,-26.8392979992385,0.0 -49.1971469,-26.8393547992385,0.0 -49.1971727,-26.8394437992385,0.0 -49.1972772,-26.8394839992385,0.0 -49.1974043,-26.8394740992385,0.0 -49.1976014,-26.8394783992385,0.0 -49.1977488,-26.8394942992385,0.0 -49.19789,-26.8394846992385,0.0 -49.1981032,-26.8394134992385,0.0 -49.1983217,-26.8394055992385,0.0 -49.1984625,-26.8394086992386,0.0 -49.1986807,-26.8394134992385,0.0 -49.198872,-26.8393733992385,0.0 -49.1990018,-26.8392624992385,0.0 -49.1990771,-26.8390808992385,0.0 -49.1990899,-26.8390289992386,0.0 -49.1991483,-26.8387917992386,0.0 -49.1991606,-26.8385961992386,0.0 -49.1991055,-26.8385507992386,0.0 -49.1990356,-26.8385334992386,0.0 -49.1989656,-26.8385160992386,0.0 -49.1988459,-26.8385134992386,0.0 -49.1987958,-26.8385439992386,0.0 -49.1986398,-26.8385848992386,0.0 -49.1985206,-26.8385632992386,0.0 -49.1984655,-26.8385178992386,0.0 -49.1983985,-26.8383900992386,0.0 -49.1984041,-26.8381816992386,0.0 -49.198504,-26.8378742992386,0.0 -49.198562,-26.8375532992386,0.0 -49.1985508,-26.8371865992386,0.0 -49.1984161,-26.8369561992386,0.0 -49.1983182,-26.8366697992386,0.0 -49.1982384,-26.8364973992386,0.0 -49.1982267,-26.8364758992386,0.0 -49.1981532,-26.8363528992386,0.0 -49.1981053,-26.8363294992386,0.0 -49.198048,-26.8363115992386,0.0 -49.2015344,-26.8340304992387,0.0 -49.2070694,-26.8304099992387,0.0 -49.207128,-26.8294289992387,0.0 -49.207035,-26.8289979992387,0.0 -49.206929,-26.8285669992388,0.0 -49.206732,-26.8282699992388,0.0 -49.206409,-26.8280049992388,0.0 -49.206013,-26.8276149992388,0.0 -49.205691,-26.8272939992388,0.0 -49.205357,-26.8269389992388,0.0 -49.2049346,-26.8266326992388,0.0 -49.2044673,-26.8263917992388,0.0 -49.2040349,-26.8259559992388,0.0 -49.2036779,-26.8255016992388,0.0 -49.2034714,-26.8251062992388,0.0 -49.203202,-26.8244093992388,0.0 -49.2030138,-26.8240280992388,0.0 -49.2027802,-26.8235548992389,0.0 -49.2026288,-26.8233601992389,0.0 -49.2021746,-26.8228951992389,0.0 -49.2018284,-26.8225057992389,0.0 -49.2014932,-26.8220082992389,0.0 -49.201493,-26.8216169992389,0.0 -49.201493,-26.8216039992389,0.0 -49.2016662,-26.8213268992389,0.0 -49.2020556,-26.8210888992389,0.0 -49.2024325,-26.8208176992389,0.0 -49.2026665,-26.8206492992389,0.0 -49.2027694,-26.8202993992389,0.0 -49.2027262,-26.8199315992389,0.0 -49.2028559,-26.8194448992389,0.0 -49.2031696,-26.8186877992389,0.0 -49.2037428,-26.817854999239,0.0 -49.204143,-26.817584599239,0.0 -49.2048785,-26.817324999239,0.0 -49.2053328,-26.817032999239,0.0 -49.2054245,-26.816954899239,0.0 -49.2061331,-26.816351599239,0.0 -49.2067712,-26.815918999239,0.0 -49.2069767,-26.815680999239,0.0 -49.2070731,-26.815506599239,0.0 -49.2073769,-26.814956399239,0.0 -49.2075392,-26.814220899239,0.0 -49.2076041,-26.813593599239,0.0 -49.2076556,-26.813479699239,0.0 -49.2078096,-26.8131392992391,0.0 -49.2081881,-26.8128040992391,0.0 -49.2086316,-26.8123064992391,0.0 -49.209075,-26.8115710992391,0.0 -49.2090858,-26.8113546992391,0.0 -49.208956,-26.8108896992391,0.0 -49.2087346,-26.8104919992391,0.0 -49.2081665,-26.8101108992391,0.0 -49.2078204,-26.8097864992391,0.0 -49.2075608,-26.8095484992391,0.0 -49.2075175,-26.8093970992391,0.0 -49.2074743,-26.8092456992391,0.0 -49.20755,-26.8088995992391,0.0 -49.2078528,-26.8085317992391,0.0 -49.2083179,-26.8081207992392,0.0 -49.2088911,-26.8075908992392,0.0 -49.2093129,-26.8072771992392,0.0 -49.209605,-26.8069743992392,0.0 -49.2098488,-26.8067145992392,0.0 -49.2100052,-26.8064876992392,0.0 -49.2101241,-26.8059251992392,0.0 -49.2100809,-26.8055466992392,0.0 -49.2097888,-26.8052113992392,0.0 -49.2093132,-26.8047098992392,0.0 -49.209194,-26.8044326992392,0.0 -49.2089666,-26.8039552992392,0.0 -49.2088353,-26.8034955992392,0.0 -49.2084279,-26.8028731992393,0.0 -49.2080634,-26.8024807992393,0.0 -49.2077555,-26.8020639992393,0.0 -49.2076149,-26.8017503992393,0.0 -49.207497,-26.8010716992393,0.0 -49.2075932,-26.8004415992393,0.0 -49.2075716,-26.8000089992393,0.0 -49.2073445,-26.7995330992393,0.0 -49.2070741,-26.7991869992393,0.0 -49.2063386,-26.7989165992393,0.0 -49.2058195,-26.7986353992393,0.0 -49.20571,-26.7985441992393,0.0 -49.2054301,-26.7983108992394,0.0 -49.2049218,-26.7980837992394,0.0 -49.2045216,-26.7980188992394,0.0 -49.204143,-26.7980513992393,0.0 -49.2036563,-26.7980404992394,0.0 -49.2031372,-26.7979647992394,0.0 -49.2029426,-26.7979007992394,0.0 -49.2028207,-26.7978605992393,0.0 -49.2022503,-26.7976727992394,0.0 -49.201677,-26.7972076992394,0.0 -49.2012768,-26.7969913992394,0.0 -49.2005365,-26.7968795992394,0.0 -49.1999357,-26.7969805992394,0.0 -49.1994165,-26.7969697992394,0.0 -49.1992435,-26.7969481992394,0.0 -49.198919,-26.7967209992394,0.0 -49.1986702,-26.7962775992394,0.0 -49.1983999,-26.7952500992394,0.0 -49.1981835,-26.7947741992394,0.0 -49.197567,-26.7942549992394,0.0 -49.1970911,-26.7941143992394,0.0 -49.1964963,-26.7938223992394,0.0 -49.195923,-26.7932707992394,0.0 -49.1956418,-26.7929462992394,0.0 -49.1954039,-26.7926434992395,0.0 -49.1953768,-26.7924379992395,0.0 -49.1953498,-26.7922324992395,0.0 -49.1954702,-26.7918926992395,0.0 -49.1955337,-26.7917132992395,0.0 -49.1958582,-26.7912049992395,0.0 -49.1961934,-26.7905776992395,0.0 -49.1961934,-26.7901666992395,0.0 -49.1962151,-26.7895176992395,0.0 -49.1965179,-26.7889660992395,0.0 -49.1968316,-26.7884361992395,0.0 -49.1971236,-26.7877655992396,0.0 -49.1971777,-26.7872896992396,0.0 -49.1971993,-26.7870516992396,0.0 -49.1974156,-26.7867164992396,0.0 -49.197805,-26.7865000992396,0.0 -49.1984323,-26.7864676992396,0.0 -49.1988649,-26.7863703992396,0.0 -49.1990921,-26.7861215992396,0.0 -49.199218,-26.7859969992396,0.0 -49.1992612,-26.7858534992396,0.0 -49.1993045,-26.7857099992396,0.0 -49.199391,-26.7854229992396,0.0 -49.19956,-26.7851319992396,0.0 -49.199806,-26.7847289992396,0.0 -49.2001412,-26.7838069992396,0.0 -49.2003359,-26.7831796992396,0.0 -49.2004008,-26.7830606992396,0.0 -49.2004657,-26.7829417992396,0.0 -49.200823,-26.7826989992396,0.0 -49.2010822,-26.7824982992397,0.0 -49.2013958,-26.7821088992397,0.0 -49.2019258,-26.7813301992397,0.0 -49.2023368,-26.7809840992397,0.0 -49.202789,-26.7804229992397,0.0 -49.2034184,-26.7798592992397,0.0 -49.203851,-26.7795996992397,0.0 -49.2041646,-26.7792967992397,0.0 -49.2046189,-26.7788100992397,0.0 -49.2050624,-26.7782260992397,0.0 -49.2055383,-26.7779015992397,0.0 -49.2058195,-26.7776744992398,0.0 -49.2058735,-26.7774256992397,0.0 -49.2057978,-26.7772093992398,0.0 -49.2055941,-26.7770331992398,0.0 -49.2053976,-26.7768632992398,0.0 -49.2050732,-26.7765712992398,0.0 -49.2050083,-26.7763008992398,0.0 -49.2050948,-26.7759330992398,0.0 -49.2051501,-26.7757176992398,0.0 -49.2053003,-26.7751327992398,0.0 -49.205495,-26.7747974992398,0.0 -49.2058086,-26.7743972992398,0.0 -49.2064468,-26.7731750992398,0.0 -49.2067388,-26.7726451992399,0.0 -49.207167,-26.7717649992399,0.0 -49.2079393,-26.7711849992399,0.0 -49.2082963,-26.7707307992399,0.0 -49.2083395,-26.7704495992399,0.0 -49.2081773,-26.7700493992399,0.0 -49.2080475,-26.7698005992399,0.0 -49.2075932,-26.7692381992399,0.0 -49.206547,-26.7682409992399,0.0 -49.2059709,-26.7673021992399,0.0 -49.205787,-26.76688039924,0.0 -49.205548,-26.76631699924,0.0 -49.2055422,-26.76590079924,0.0 -49.2055363,-26.76547599924,0.0 -49.205531,-26.76509599924,0.0 -49.2058784,-26.76452289924,0.0 -49.2061604,-26.76414319924,0.0 -49.2062558,-26.76386179924,0.0 -49.2060502,-26.76376289924,0.0 -49.2056307,-26.76383799924,0.0 -49.2052211,-26.76382619924,0.0 -49.2048014,-26.76374159924,0.0 -49.2046101,-26.76329949924,0.0 -49.2044675,-26.76274179924,0.0 -49.2045119,-26.7622876992401,0.0 -49.2045862,-26.7618304992401,0.0 -49.2046405,-26.7615481992401,0.0 -49.204554,-26.7609316992401,0.0 -49.2044675,-26.7603584992401,0.0 -49.2045216,-26.7598284992401,0.0 -49.2047163,-26.7593417992401,0.0 -49.2049866,-26.7587684992401,0.0 -49.2054193,-26.7583574992401,0.0 -49.2058735,-26.7581736992401,0.0 -49.206436,-26.7580222992401,0.0 -49.2071554,-26.7579553992401,0.0 -49.2078076,-26.7576492992401,0.0 -49.2085126,-26.7574381992401,0.0 -49.2090317,-26.7573408992401,0.0 -49.2094103,-26.7572110992401,0.0 -49.2098213,-26.7569514992402,0.0 -49.2102972,-26.7568216992402,0.0 -49.2109353,-26.7567675992402,0.0 -49.2115194,-26.7566269992402,0.0 -49.2118871,-26.7565296992402,0.0 -49.212655,-26.7560970992402,0.0 -49.2133423,-26.7556368992402,0.0 -49.2136773,-26.7554282992402,0.0 -49.2140123,-26.7552195992402,0.0 -49.2147365,-26.7554618992402,0.0 -49.2151461,-26.7557061992402,0.0 -49.2156036,-26.7555914992402,0.0 -49.2160331,-26.7552724992402,0.0 -49.2167275,-26.7548439992402,0.0 -49.2168352,-26.7547991992402,0.0 -49.217947,-26.7543371992402,0.0 -49.2184231,-26.7541511992402,0.0 -49.218993,-26.7539285992402,0.0 -49.2190303,-26.7539190992402,0.0 -49.2197995,-26.7537235992402,0.0 -49.2203433,-26.7535852992402,0.0 -49.2213077,-26.7532126992402,0.0 -49.2213502,-26.7531962992402,0.0 -49.2221054,-26.7529673992402,0.0 -49.2224734,-26.7527456992402,0.0 -49.2227976,-26.7524976992402,0.0 -49.2231145,-26.7523638992402,0.0 -49.2232267,-26.7523164992402,0.0 -49.2234723,-26.7523474992402,0.0 -49.2237178,-26.7523784992402,0.0 -49.2239769,-26.7524818992402,0.0 -49.2246619,-26.7527551992402,0.0 -49.2250243,-26.7528314992402,0.0 -49.2252007,-26.7528886992402,0.0 -49.2256525,-26.7528300992402,0.0 -49.2259588,-26.7525787992402,0.0 -49.2262259,-26.7522163992402,0.0 -49.2264261,-26.7518205992403,0.0 -49.2267551,-26.7514915992403,0.0 -49.2270364,-26.7513008992403,0.0 -49.2273702,-26.7511911992403,0.0 -49.2277387,-26.7511342992403,0.0 -49.2283572,-26.7510386992403,0.0 -49.2289055,-26.7509623992403,0.0 -49.2296827,-26.7508860992403,0.0 -49.2301405,-26.7508383992403,0.0 -49.23045,-26.7508183992403,0.0 -49.2307595,-26.7507984992403,0.0 -49.2308795,-26.7507906992403,0.0 -49.2311656,-26.7507525992403,0.0 -49.2315423,-26.7503472992403,0.0 -49.2316377,-26.7499705992403,0.0 -49.2316337,-26.7497906992403,0.0 -49.2316281,-26.7495414992403,0.0 -49.2317044,-26.7490455992403,0.0 -49.231776,-26.7486402992403,0.0 -49.2318332,-26.7482874992403,0.0 -49.2319095,-26.7481348992403,0.0 -49.2320287,-26.7479965992403,0.0 -49.2321394,-26.7478278992403,0.0 -49.2322814,-26.7477104992403,0.0 -49.2323529,-26.7476007992403,0.0 -49.2324244,-26.7474577992403,0.0 -49.2324626,-26.7473337992403,0.0 -49.2324801,-26.7472451992403,0.0 -49.2324053,-26.7468092992404,0.0 -49.2323314,-26.7465613992404,0.0 -49.2322218,-26.7462704992404,0.0 -49.2321955,-26.7460749992404,0.0 -49.2322385,-26.7458985992404,0.0 -49.2326199,-26.7456220992404,0.0 -49.2328154,-26.7455934992404,0.0 -49.2329086,-26.7455669992404,0.0 -49.2332016,-26.7454837992404,0.0 -49.233626,-26.7454694992404,0.0 -49.2341934,-26.7455552992404,0.0 -49.2347656,-26.7455600992404,0.0 -49.2352281,-26.7453979992404,0.0 -49.2353759,-26.7451928992404,0.0 -49.2354617,-26.7449735992404,0.0 -49.2352641,-26.7445000992404,0.0 -49.2350326,-26.7441391992404,0.0 -49.2348943,-26.7438721992404,0.0 -49.2346082,-26.7434239992404,0.0 -49.2342125,-26.7428803992404,0.0 -49.2339788,-26.7424750992404,0.0 -49.2338501,-26.7421937992404,0.0 -49.23375,-26.7419887992404,0.0 -49.233502,-26.7418266992404,0.0 -49.2331253,-26.7416787992404,0.0 -49.2329966,-26.7415929992405,0.0 -49.2329385,-26.7414188992405,0.0 -49.232906,-26.7413211992405,0.0 -49.2329632,-26.7410064992405,0.0 -49.2331158,-26.7407060992405,0.0 -49.2333647,-26.7402663992405,0.0 -49.2334543,-26.7399956992405,0.0 -49.2334972,-26.7398049992405,0.0 -49.2334891,-26.7395967992405,0.0 -49.233248,-26.7391900992405,0.0 -49.23298,-26.7388373992405,0.0 -49.2329129,-26.7381949992405,0.0 -49.2329251,-26.7380359992405,0.0 -49.2330204,-26.7378452992405,0.0 -49.2332064,-26.7375162992405,0.0 -49.2333923,-26.7372730992405,0.0 -49.2336021,-26.7369678992405,0.0 -49.2337404,-26.7365387992406,0.0 -49.2338835,-26.7359999992406,0.0 -49.233893,-26.7356995992406,0.0 -49.2339741,-26.7353705992406,0.0 -49.2339931,-26.7350224992406,0.0 -49.2340217,-26.7347077992406,0.0 -49.2340647,-26.7344503992406,0.0 -49.2341934,-26.7341928992406,0.0 -49.2343507,-26.7340068992406,0.0 -49.2345033,-26.7338066992406,0.0 -49.2345748,-26.7335682992406,0.0 -49.2346654,-26.7333488992406,0.0 -49.2348943,-26.7331724992406,0.0 -49.235004,-26.7329578992406,0.0 -49.2350803,-26.7326670992406,0.0 -49.2351518,-26.7323189992406,0.0 -49.2352948,-26.7319565992406,0.0 -49.235395,-26.7314845992407,0.0 -49.235538,-26.7311507992407,0.0 -49.2356953,-26.7306691992407,0.0 -49.2357764,-26.7302734992407,0.0 -49.235743,-26.7300541992407,0.0 -49.2356286,-26.7296965992407,0.0 -49.2354951,-26.7288954992407,0.0 -49.2353425,-26.7282565992407,0.0 -49.2351756,-26.7278130992407,0.0 -49.2349578,-26.7274184992407,0.0 -49.234818,-26.7271121992407,0.0 -49.2345844,-26.7268213992407,0.0 -49.2344112,-26.7266737992407,0.0 -49.2342935,-26.7265733992407,0.0 -49.2341648,-26.7263826992408,0.0 -49.2338501,-26.7259058992408,0.0 -49.2335831,-26.7253956992408,0.0 -49.2334495,-26.7251202992408,0.0 -49.2332731,-26.7247567992408,0.0 -49.2332302,-26.7245278992408,0.0 -49.2332064,-26.7242417992408,0.0 -49.2332445,-26.7240129992408,0.0 -49.2332916,-26.7238062992408,0.0 -49.2333842,-26.7232769992408,0.0 -49.2333542,-26.7229114992408,0.0 -49.2332779,-26.7223392992408,0.0 -49.2333733,-26.7212903992409,0.0 -49.2334305,-26.7206799992409,0.0 -49.2336021,-26.7203271992409,0.0 -49.2338596,-26.7201364992409,0.0 -49.2340307,-26.7199083992409,0.0 -49.2340742,-26.7198503992409,0.0 -49.2341791,-26.7195404992409,0.0 -49.2341743,-26.7191780992409,0.0 -49.2340551,-26.7187155992409,0.0 -49.2339836,-26.7184055992409,0.0 -49.2337881,-26.7180241992409,0.0 -49.2335402,-26.7176951992409,0.0 -49.2334336,-26.7174286992409,0.0 -49.2333304,-26.7171706992409,0.0 -49.2332588,-26.7167939992409,0.0 -49.2332541,-26.7164792992409,0.0 -49.2332922,-26.7163266992409,0.0 -49.2333233,-26.7162704992409,0.0 -49.2334925,-26.715964399241,0.0 -49.2336164,-26.715711699241,0.0 -49.2337738,-26.715387399241,0.0 -49.2338215,-26.715148999241,0.0 -49.2338453,-26.714932899241,0.0 -49.2340512,-26.713834499241,0.0 -49.2341171,-26.713260799241,0.0 -49.2341219,-26.712702999241,0.0 -49.2341266,-26.712516999241,0.0 -49.2340599,-26.712221399241,0.0 -49.2339197,-26.711992299241,0.0 -49.2335259,-26.711348799241,0.0 -49.233396,-26.7110812992411,0.0 -49.2333685,-26.7110245992411,0.0 -49.2332101,-26.7108764992411,0.0 -49.2330014,-26.710681299241,0.0 -49.2324721,-26.7100804992411,0.0 -49.2320525,-26.7095654992411,0.0 -49.2314565,-26.7088645992411,0.0 -49.2310035,-26.7085928992411,0.0 -49.2303169,-26.7083353992411,0.0 -49.2299246,-26.7081754992411,0.0 -49.229802,-26.7081255992411,0.0 -49.2296303,-26.7079252992411,0.0 -49.2296802,-26.7077699992411,0.0 -49.2299927,-26.7075819992411,0.0 -49.2301175,-26.7074551992411,0.0 -49.2305839,-26.7069811992411,0.0 -49.2306507,-26.7066569992411,0.0 -49.2306507,-26.7062850992411,0.0 -49.2306364,-26.7059798992412,0.0 -49.2305219,-26.7056127992412,0.0 -49.2305396,-26.7053652992412,0.0 -49.2305505,-26.7052122992412,0.0 -49.2305526,-26.7050532992412,0.0 -49.2305529,-26.7050286992412,0.0 -49.2306197,-26.7047330992412,0.0 -49.2306864,-26.7044850992412,0.0 -49.2307627,-26.7042943992412,0.0 -49.2308629,-26.7041608992412,0.0 -49.2310297,-26.7040082992412,0.0 -49.2311311,-26.7039041992412,0.0 -49.2313778,-26.7036506992412,0.0 -49.2315495,-26.7034551992412,0.0 -49.2318356,-26.7031785992412,0.0 -49.2321359,-26.7029592992412,0.0 -49.232484,-26.7027733992412,0.0 -49.2327177,-26.7026207992412,0.0 -49.2328655,-26.7024252992412,0.0 -49.233018,-26.7019341992412,0.0 -49.2332135,-26.7014954992412,0.0 -49.2333995,-26.7012379992412,0.0 -49.2335187,-26.7009328992412,0.0 -49.2335616,-26.7006562992412,0.0 -49.2335282,-26.7004512992413,0.0 -49.2334329,-26.7000793992413,0.0 -49.2334043,-26.6997217992413,0.0 -49.2333041,-26.6993211992413,0.0 -49.2333173,-26.6992499992413,0.0 -49.2333614,-26.6990112992413,0.0 -49.233657,-26.6983151992413,0.0 -49.2337714,-26.6979575992413,0.0 -49.2337571,-26.6977286992413,0.0 -49.2335187,-26.6973519992413,0.0 -49.2333041,-26.6969848992413,0.0 -49.2329561,-26.6966558992413,0.0 -49.2325794,-26.6964507992413,0.0 -49.2320498,-26.6961292992413,0.0 -49.2319837,-26.6960396992413,0.0 -49.2319458,-26.6959156992413,0.0 -49.2319118,-26.6951395992414,0.0 -49.2319977,-26.6949202992414,0.0 -49.2321598,-26.6945816992414,0.0 -49.2323314,-26.6939665992414,0.0 -49.2324411,-26.6934850992414,0.0 -49.2326557,-26.6929176992414,0.0 -49.2328369,-26.6924360992414,0.0 -49.2330514,-26.6920211992414,0.0 -49.2333137,-26.6917446992414,0.0 -49.233595,-26.6914967992414,0.0 -49.2338572,-26.6913202992414,0.0 -49.2340384,-26.6910484992414,0.0 -49.2340718,-26.6906479992414,0.0 -49.2339812,-26.6904286992414,0.0 -49.2336904,-26.6900853992415,0.0 -49.2329084,-26.6892413992415,0.0 -49.2324936,-26.6888265992415,0.0 -49.2322205,-26.6885009992415,0.0 -49.2319471,-26.6881200992415,0.0 -49.2316203,-26.6877686992415,0.0 -49.2312184,-26.6873942992415,0.0 -49.2308005,-26.6870854992415,0.0 -49.2304147,-26.6867476992415,0.0 -49.2294133,-26.6860467992415,0.0 -49.2290653,-26.6856986992415,0.0 -49.2286838,-26.6854173992415,0.0 -49.228126,-26.6851217992416,0.0 -49.2275061,-26.6847307992416,0.0 -49.227015,-26.6844732992416,0.0 -49.2265859,-26.6843731992416,0.0 -49.2261567,-26.6842014992416,0.0 -49.2259851,-26.6840250992416,0.0 -49.2259469,-26.6838820992416,0.0 -49.2259279,-26.6836150992416,0.0 -49.2259349,-26.6832823992416,0.0 -49.2259374,-26.6831667992416,0.0 -49.2259231,-26.6829569992416,0.0 -49.2259183,-26.6821940992416,0.0 -49.2258945,-26.6818078992416,0.0 -49.2256894,-26.6810878992416,0.0 -49.2257276,-26.6808399992416,0.0 -49.2256751,-26.6804346992417,0.0 -49.2255845,-26.6798910992417,0.0 -49.2254701,-26.6795764992417,0.0 -49.2253223,-26.6793379992417,0.0 -49.2252744,-26.6792982992417,0.0 -49.225041,-26.6791043992417,0.0 -49.224917,-26.6788850992417,0.0 -49.2248736,-26.6786167992417,0.0 -49.224836,-26.6783843992417,0.0 -49.2247692,-26.6780315992417,0.0 -49.2246738,-26.6777645992417,0.0 -49.2243925,-26.6773401992417,0.0 -49.2241923,-26.6769682992417,0.0 -49.2239491,-26.6767155992417,0.0 -49.223601,-26.6764389992417,0.0 -49.2232196,-26.6761671992417,0.0 -49.2228047,-26.6760050992417,0.0 -49.2226907,-26.6759213992417,0.0 -49.2226164,-26.6758668992417,0.0 -49.2225473,-26.6757261992417,0.0 -49.2225663,-26.6755950992417,0.0 -49.2226808,-26.6753828992417,0.0 -49.2229216,-26.6749870992418,0.0 -49.2230241,-26.6747915992418,0.0 -49.2231552,-26.6746056992418,0.0 -49.2232744,-26.6743386992418,0.0 -49.2235533,-26.6737402992418,0.0 -49.2235962,-26.6736663992418,0.0 -49.2236161,-26.6736437992418,0.0 -49.2237035,-26.6735447992418,0.0 -49.2237727,-26.6734326992418,0.0 -49.2238561,-26.6732324992418,0.0 -49.2238683,-26.6731384992418,0.0 -49.2238823,-26.6730297992418,0.0 -49.2238704,-26.6728986992418,0.0 -49.2238013,-26.6726983992418,0.0 -49.2236892,-26.6725386992418,0.0 -49.2235605,-26.6722930992418,0.0 -49.2234913,-26.6720260992418,0.0 -49.2234913,-26.6716533992418,0.0 -49.2234913,-26.6716112992418,0.0 -49.2234758,-26.6715221992418,0.0 -49.2234198,-26.6712011992418,0.0 -49.2234389,-26.6709246992418,0.0 -49.2236105,-26.6704144992418,0.0 -49.2237059,-26.6699710992419,0.0 -49.2237774,-26.6696420992419,0.0 -49.2237822,-26.6694512992419,0.0 -49.2237297,-26.6692462992419,0.0 -49.2236105,-26.6688695992419,0.0 -49.2235014,-26.6683165992419,0.0 -49.2234675,-26.6677633992419,0.0 -49.2235629,-26.6673723992419,0.0 -49.2234961,-26.6671912992419,0.0 -49.2233578,-26.6670910992419,0.0 -49.2230952,-26.6670764992419,0.0 -49.2227571,-26.6670577992419,0.0 -49.2222564,-26.6671006992419,0.0 -49.2216175,-26.6671149992419,0.0 -49.2211597,-26.6670767992419,0.0 -49.2204922,-26.6670720992419,0.0 -49.2197293,-26.6670863992419,0.0 -49.2194477,-26.6671029992419,0.0 -49.2189214,-26.6671339992419,0.0 -49.2183322,-26.6671530992419,0.0 -49.2167111,-26.6671912992419,0.0 -49.2164536,-26.6671053992419,0.0 -49.2163582,-26.6669909992419,0.0 -49.2163734,-26.6668719992419,0.0 -49.2163916,-26.6667286992419,0.0 -49.2164897,-26.6664235992419,0.0 -49.2165633,-26.6661946992419,0.0 -49.216732,-26.6660053992419,0.0 -49.2172689,-26.6654031992419,0.0 -49.2173595,-26.6650884992419,0.0 -49.2174311,-26.664754699242,0.0 -49.2175836,-26.663705799242,0.0 -49.2175217,-26.663238499242,0.0 -49.2176075,-26.662728299242,0.0 -49.2177553,-26.662208599242,0.0 -49.217822,-26.661893899242,0.0 -49.2178316,-26.661602999242,0.0 -49.2178697,-26.661355099242,0.0 -49.2179746,-26.661054699242,0.0 -49.2180605,-26.660897299242,0.0 -49.2181081,-26.660663699242,0.0 -49.2180652,-26.660434799242,0.0 -49.2180271,-26.659986599242,0.0 -49.2179413,-26.6597338992421,0.0 -49.2177458,-26.6595002992421,0.0 -49.2176572,-26.6594193992421,0.0 -49.2174168,-26.6591998992421,0.0 -49.2172022,-26.6589852992421,0.0 -49.2169066,-26.6586658992421,0.0 -49.2167874,-26.6584750992421,0.0 -49.2167813,-26.6584042992421,0.0 -49.2167635,-26.6581985992421,0.0 -49.2166825,-26.6577741992421,0.0 -49.2165394,-26.6574260992421,0.0 -49.2162629,-26.6569540992421,0.0 -49.2159386,-26.6562722992421,0.0 -49.2157288,-26.6559002992421,0.0 -49.2156096,-26.6555569992421,0.0 -49.215576,-26.6554848992421,0.0 -49.2154141,-26.6551373992421,0.0 -49.2152663,-26.6548179992421,0.0 -49.2151996,-26.6546367992421,0.0 -49.2152473,-26.6544555992422,0.0 -49.215581,-26.6542362992422,0.0 -49.2159911,-26.6536926992422,0.0 -49.2162581,-26.6530441992422,0.0 -49.216487,-26.6519856992422,0.0 -49.216549,-26.6515708992422,0.0 -49.2166109,-26.6511560992422,0.0 -49.2167158,-26.6503263992422,0.0 -49.2168494,-26.6495062992422,0.0 -49.2172213,-26.6489054992423,0.0 -49.2173929,-26.6483332992423,0.0 -49.2175455,-26.6475894992423,0.0 -49.2175741,-26.6472843992423,0.0 -49.217679,-26.6470554992423,0.0 -49.2176313,-26.6465023992423,0.0 -49.2174311,-26.6461494992423,0.0 -49.2173214,-26.6459444992423,0.0 -49.2172117,-26.6457394992423,0.0 -49.216878,-26.6448811992423,0.0 -49.2168303,-26.6444425992424,0.0 -49.2169924,-26.6440419992424,0.0 -49.2171736,-26.6437940992424,0.0 -49.2174787,-26.6435842992424,0.0 -49.2179651,-26.6433458992424,0.0 -49.2183942,-26.6431646992424,0.0 -49.2188234,-26.6431169992424,0.0 -49.2191762,-26.6429071992424,0.0 -49.2197388,-26.6425543992424,0.0 -49.2202405,-26.6422025992424,0.0 -49.2205685,-26.6419726992424,0.0 -49.2210119,-26.6417008992424,0.0 -49.2213123,-26.6412860992424,0.0 -49.2217796,-26.6402417992424,0.0 -49.2222945,-26.6389973992425,0.0 -49.2225616,-26.6384203992425,0.0 -49.2228095,-26.6377909992425,0.0 -49.223067,-26.6371997992425,0.0 -49.2232529,-26.6363748992425,0.0 -49.2232529,-26.6358265992425,0.0 -49.2231957,-26.6354927992425,0.0 -49.2229287,-26.6350063992425,0.0 -49.2228381,-26.6347155992425,0.0 -49.2227388,-26.6345947992425,0.0 -49.222552,-26.6343674992426,0.0 -49.2223088,-26.6341362992426,0.0 -49.222111,-26.6339788992426,0.0 -49.2218606,-26.6337809992426,0.0 -49.2215507,-26.6334805992426,0.0 -49.2213218,-26.6330943992426,0.0 -49.2210906,-26.6327272992426,0.0 -49.2209285,-26.6325055992426,0.0 -49.2206996,-26.6322122992426,0.0 -49.2206041,-26.6321031992426,0.0 -49.220516,-26.6320024992426,0.0 -49.2203372,-26.6318117992426,0.0 -49.2202429,-26.6317143992426,0.0 -49.2201203,-26.6315876992426,0.0 -49.219982,-26.6314660992426,0.0 -49.2197078,-26.6312681992426,0.0 -49.2193884,-26.6310798992426,0.0 -49.2188424,-26.6307126992426,0.0 -49.2186207,-26.6305553992426,0.0 -49.2184896,-26.6303956992426,0.0 -49.2184276,-26.6302430992426,0.0 -49.2183752,-26.6299998992426,0.0 -49.2183402,-26.6297808992426,0.0 -49.2183227,-26.6296708992426,0.0 -49.2182631,-26.6293013992426,0.0 -49.2182083,-26.6291630992427,0.0 -49.2180725,-26.6288836992427,0.0 -49.2180414,-26.6288197992427,0.0 -49.2180128,-26.6287482992427,0.0 -49.2179818,-26.6286194992427,0.0 -49.2179965,-26.6285148992427,0.0 -49.2180056,-26.6284502992427,0.0 -49.2180461,-26.6283071992427,0.0 -49.2181797,-26.6280878992427,0.0 -49.2182798,-26.6278685992427,0.0 -49.2183179,-26.6277016992427,0.0 -49.2183446,-26.6274790992427,0.0 -49.2183608,-26.6273440992427,0.0 -49.2184228,-26.6270913992427,0.0 -49.218604,-26.6267861992427,0.0 -49.2187423,-26.6266001992427,0.0 -49.2189426,-26.6263760992427,0.0 -49.2191714,-26.6261424992427,0.0 -49.2193574,-26.6260470992427,0.0 -49.2195243,-26.6259708992427,0.0 -49.2195576,-26.6258563992427,0.0 -49.2194766,-26.6257657992427,0.0 -49.2191428,-26.6256561992427,0.0 -49.2187709,-26.6254129992427,0.0 -49.2185744,-26.6252120992427,0.0 -49.2183465,-26.6249027992427,0.0 -49.2181654,-26.6247072992427,0.0 -49.2179603,-26.6246071992427,0.0 -49.2178862,-26.6245629992427,0.0 -49.2173119,-26.6242209992428,0.0 -49.2172022,-26.6241350992428,0.0 -49.2168446,-26.6238156992428,0.0 -49.2165299,-26.6235152992428,0.0 -49.2163344,-26.6230241992428,0.0 -49.2162343,-26.6226855992428,0.0 -49.2162581,-26.6224233992428,0.0 -49.2163324,-26.6221694992428,0.0 -49.2167168,-26.6217317992428,0.0 -49.2173787,-26.6211872992428,0.0 -49.2177093,-26.6209470992428,0.0 -49.2180398,-26.6207068992428,0.0 -49.2183929,-26.6204399992428,0.0 -49.2185678,-26.6202943992428,0.0 -49.218831,-26.6201018992428,0.0 -49.219102,-26.6199449992428,0.0 -49.2195326,-26.6199095992428,0.0 -49.2200775,-26.6199956992428,0.0 -49.2207007,-26.6201071992428,0.0 -49.2214035,-26.6202798992428,0.0 -49.222012,-26.6205573992428,0.0 -49.2224818,-26.6207388992428,0.0 -49.2231396,-26.6205145992428,0.0 -49.2189239,-26.6192566992429,0.0 -49.2184925,-26.6191443992429,0.0 -49.2176434,-26.6189434992429,0.0 -49.21741,-26.6188882992429,0.0 -49.2169212,-26.6188829992429,0.0 -49.2158476,-26.6187118992429,0.0 -49.2150764,-26.6187004992429,0.0 -49.2145768,-26.6186230992429,0.0 -49.2140404,-26.6183565992429,0.0 -49.213551,-26.6181446992429,0.0 -49.2127377,-26.6181490992429,0.0 -49.2120821,-26.6184056992429,0.0 -49.2120181,-26.6184489992429,0.0 -49.2116915,-26.6185348992429,0.0 -49.2112206,-26.6184349992429,0.0 -49.2105389,-26.6182450992429,0.0 -49.2099094,-26.6180659992429,0.0 -49.209429,-26.6179191992429,0.0 -49.2089387,-26.6175698992429,0.0 -49.208468,-26.6173820992429,0.0 -49.2078406,-26.6171231992429,0.0 -49.207069,-26.6170617992429,0.0 -49.2062396,-26.6172069992429,0.0 -49.2056333,-26.6174244992429,0.0 -49.2051129,-26.6176188992429,0.0 -49.20421,-26.6180734992429,0.0 -49.2039099,-26.6184813992429,0.0 -49.2035105,-26.6192077992429,0.0 -49.2032253,-26.6201127992428,0.0 -49.2028227,-26.6207515992428,0.0 -49.2025726,-26.6210219992428,0.0 -49.2022253,-26.6213778992428,0.0 -49.2019446,-26.6216498992428,0.0 -49.2016621,-26.6218717992428,0.0 -49.2014537,-26.6219914992428,0.0 -49.2011531,-26.6221311992428,0.0 -49.2010342,-26.6222034992428,0.0 -49.2009154,-26.6222758992428,0.0 -49.2003552,-26.6223337992428,0.0 -49.1994631,-26.6222780992428,0.0 -49.1989938,-26.6221437992428,0.0 -49.1984946,-26.6221578992428,0.0 -49.1979184,-26.6221622992428,0.0 -49.1971585,-26.6219874992428,0.0 -49.1962812,-26.6215374992428,0.0 -49.1958951,-26.6211854992428,0.0 -49.1955611,-26.6209463992428,0.0 -49.1951813,-26.6207303992428,0.0 -49.1948781,-26.6205889992428,0.0 -49.1945441,-26.6203214992428,0.0 -49.1942965,-26.6200463992428,0.0 -49.1941617,-26.6198572992428,0.0 -49.1937186,-26.6193958992428,0.0 -49.1936233,-26.6191289992429,0.0 -49.1935556,-26.6188452992429,0.0 -49.193403,-26.6184092992429,0.0 -49.1932883,-26.6182369992429,0.0 -49.1930867,-26.6180830992429,0.0 -49.192537,-26.6178543992429,0.0 -49.1922212,-26.6178824992429,0.0 -49.1918665,-26.6179229992429,0.0 -49.1913019,-26.6179123992429,0.0 -49.1910166,-26.6177985992429,0.0 -49.1905871,-26.6176175992429,0.0 -49.1899131,-26.6174201992429,0.0 -49.1894338,-26.6175036992429,0.0 -49.1890358,-26.6175430992429,0.0 -49.1886372,-26.6174863992429,0.0 -49.188083,-26.6172242992429,0.0 -49.1867814,-26.6168092992429,0.0 -49.1861664,-26.6163342992429,0.0 -49.1856504,-26.6161192992429,0.0 -49.1846824,-26.6157002992429,0.0 -49.184226,-26.6153004992429,0.0 -49.1839044,-26.6147842992429,0.0 -49.1838476,-26.6147139992429,0.0 -49.1836034,-26.6144112992429,0.0 -49.1831764,-26.614094299243,0.0 -49.1826919,-26.6139409992429,0.0 -49.1823851,-26.613865499243,0.0 -49.1821373,-26.613839499243,0.0 -49.1820028,-26.613874899243,0.0 -49.1818671,-26.613943299243,0.0 -49.1817137,-26.613968099243,0.0 -49.1801796,-26.613807599243,0.0 -49.1797831,-26.613793499243,0.0 -49.179127,-26.613774599243,0.0 -49.177895,-26.613760399243,0.0 -49.1775457,-26.613755699243,0.0 -49.1765686,-26.613864299243,0.0 -49.1762429,-26.613864299243,0.0 -49.17587,-26.613850099243,0.0 -49.1754641,-26.613802899243,0.0 -49.1752984,-26.613785699243,0.0 -49.1751289,-26.613854799243,0.0 -49.1749648,-26.614110099243,0.0 -49.174959,-26.6141191992429,0.0 -49.1748504,-26.6143976992429,0.0 -49.1747844,-26.6148790992429,0.0 -49.1747041,-26.6153699992429,0.0 -49.1745342,-26.6156390992429,0.0 -49.1743737,-26.6157995992429,0.0 -49.1740981,-26.6159551992429,0.0 -49.1734952,-26.6167679992429,0.0 -49.1734194,-26.6168702992429,0.0 -49.1732975,-26.6170315992429,0.0 -49.1729954,-26.6173005992429,0.0 -49.1726461,-26.6175932992429,0.0 -49.1723393,-26.6177773992429,0.0 -49.1720722,-26.6178970992429,0.0 -49.1719286,-26.6179614992429,0.0 -49.1717162,-26.6180746992429,0.0 -49.1715274,-26.6182776992429,0.0 -49.1714377,-26.6185608992429,0.0 -49.1714377,-26.6191273992429,0.0 -49.1714149,-26.6194340992428,0.0 -49.1713952,-26.6196984992428,0.0 -49.1713197,-26.6199203992428,0.0 -49.1711403,-26.6200571992428,0.0 -49.1708309,-26.6202382992428,0.0 -49.1703237,-26.6207935992428,0.0 -49.1701632,-26.6210248992428,0.0 -49.1700499,-26.6212372992428,0.0 -49.1699414,-26.6217423992428,0.0 -49.1698166,-26.6220691992428,0.0 -49.1697667,-26.6223890992428,0.0 -49.1696723,-26.6226627992428,0.0 -49.1691625,-26.6233708992428,0.0 -49.1689926,-26.6237366992428,0.0 -49.1687165,-26.6243549992427,0.0 -49.1686221,-26.6245626992427,0.0 -49.1685064,-26.6249851992427,0.0 -49.1684805,-26.6251409992427,0.0 -49.1684616,-26.6252353992427,0.0 -49.1684073,-26.6253202992427,0.0 -49.1682657,-26.6254335992427,0.0 -49.1680863,-26.6255090992427,0.0 -49.1678503,-26.6255657992427,0.0 -49.167704,-26.6256223992427,0.0 -49.1675577,-26.6256790992427,0.0 -49.1674349,-26.6258678992427,0.0 -49.1674727,-26.6262076992427,0.0 -49.1676237,-26.6267363992427,0.0 -49.1676898,-26.6272272992427,0.0 -49.1676898,-26.6275387992427,0.0 -49.1675813,-26.6278880992427,0.0 -49.1673594,-26.6282751992427,0.0 -49.1671423,-26.6285819992427,0.0 -49.1670337,-26.6288604992427,0.0 -49.1669487,-26.6293136992427,0.0 -49.1668119,-26.6296251992426,0.0 -49.1666891,-26.6299083992426,0.0 -49.166472,-26.6301774992426,0.0 -49.1660519,-26.6305408992426,0.0 -49.1656035,-26.6310742992426,0.0 -49.1654241,-26.6313338992426,0.0 -49.1653911,-26.6314424992426,0.0 -49.1654524,-26.6316784992426,0.0 -49.1655043,-26.6319380992426,0.0 -49.1655563,-26.6322920992426,0.0 -49.1657828,-26.6329151992426,0.0 -49.1659622,-26.6333777992426,0.0 -49.1661746,-26.6337364992426,0.0 -49.1662737,-26.6339488992426,0.0 -49.1663162,-26.6341896992426,0.0 -49.1662501,-26.6344209992425,0.0 -49.1660944,-26.6345908992425,0.0 -49.1659056,-26.6349165992425,0.0 -49.1656951,-26.6352906992425,0.0 -49.1656507,-26.6353696992425,0.0 -49.1655752,-26.6356717992425,0.0 -49.1654949,-26.6360871992425,0.0 -49.1654005,-26.6365308992425,0.0 -49.1654005,-26.6368707992425,0.0 -49.1654571,-26.6372294992425,0.0 -49.1654666,-26.6375976992425,0.0 -49.1653816,-26.6379280992425,0.0 -49.1653344,-26.6382490992425,0.0 -49.1651739,-26.6393063992425,0.0 -49.1650323,-26.6399577992424,0.0 -49.1648246,-26.6404864992424,0.0 -49.1647585,-26.6411425992424,0.0 -49.1647349,-26.6416381992424,0.0 -49.1647727,-26.6420771992424,0.0 -49.1647491,-26.6423934992424,0.0 -49.1646655,-26.6427173992424,0.0 -49.1645904,-26.6437442992424,0.0 -49.1645367,-26.6440926992424,0.0 -49.1644989,-26.6443664992424,0.0 -49.1643479,-26.6449140992423,0.0 -49.1641591,-26.6456975992423,0.0 -49.1641166,-26.6461601992423,0.0 -49.1641213,-26.6467926992423,0.0 -49.1641591,-26.6471514992423,0.0 -49.1641921,-26.6475573992423,0.0 -49.1641827,-26.6479538992423,0.0 -49.164126,-26.6482229992423,0.0 -49.1637531,-26.6486618992423,0.0 -49.1636623,-26.6486733992423,0.0 -49.1636066,-26.6486804992423,0.0 -49.1635289,-26.6486902992423,0.0 -49.1634086,-26.6486689992423,0.0 -49.1632032,-26.6485769992423,0.0 -49.1630286,-26.6484966992423,0.0 -49.1628236,-26.6483458992423,0.0 -49.1624647,-26.6481334992423,0.0 -49.1619484,-26.6480391992423,0.0 -49.1613702,-26.6481271992423,0.0 -49.161124,-26.6481167992423,0.0 -49.1609686,-26.6480194992423,0.0 -49.1608282,-26.6477785992423,0.0 -49.1604787,-26.6472463992423,0.0 -49.1602879,-26.6469891992423,0.0 -49.1598697,-26.6464044992423,0.0 -49.1593982,-26.6459478992423,0.0 -49.1590642,-26.6456549992423,0.0 -49.158666,-26.6453204992423,0.0 -49.158564,-26.6452119992423,0.0 -49.1584621,-26.6451033992423,0.0 -49.1582481,-26.6450037992423,0.0 -49.1578654,-26.6450232992423,0.0 -49.1569594,-26.6451802992423,0.0 -49.1565499,-26.6452932992423,0.0 -49.1561282,-26.6452967992423,0.0 -49.1560532,-26.6453188992423,0.0 -49.1559884,-26.6453379992423,0.0 -49.155933,-26.6453542992423,0.0 -49.1557904,-26.6454159992423,0.0 -49.1556048,-26.6455011992423,0.0 -49.1553344,-26.6457332992423,0.0 -49.1548554,-26.6460612992423,0.0 -49.154408,-26.6462673992423,0.0 -49.1540492,-26.6462425992423,0.0 -49.1536462,-26.6461556992423,0.0 -49.1532105,-26.6454402992423,0.0 -49.152598,-26.6446964992424,0.0 -49.1521437,-26.6443827992423,0.0 -49.1517187,-26.6441305992424,0.0 -49.1514718,-26.6440553992424,0.0 -49.1512164,-26.6440035992424,0.0 -49.1508166,-26.6438945992424,0.0 -49.1500873,-26.6437455992424,0.0 -49.1494751,-26.6437023992424,0.0 -49.1489641,-26.6436840992424,0.0 -49.1485361,-26.6437247992424,0.0 -49.1479923,-26.6436415992424,0.0 -49.1477631,-26.6431411992424,0.0 -49.1476824,-26.6428308992424,0.0 -49.1477012,-26.6423760992424,0.0 -49.1474467,-26.6419056992424,0.0 -49.1472468,-26.6416908992424,0.0 -49.1467546,-26.6414831992424,0.0 -49.1461877,-26.6413863992424,0.0 -49.1450434,-26.6416308992424,0.0 -49.1443875,-26.6418353992424,0.0 -49.1437078,-26.6419507992424,0.0 -49.1431068,-26.6419371992424,0.0 -49.1425437,-26.6417719992424,0.0 -49.1422075,-26.6416358992424,0.0 -49.1418999,-26.6413304992424,0.0 -49.1414442,-26.6409392992424,0.0 -49.1412863,-26.6406547992424,0.0 -49.1411284,-26.6403702992424,0.0 -49.1409993,-26.6401376992424,0.0 -49.1404216,-26.6395595992425,0.0 -49.1399694,-26.6393030992425,0.0 -49.1389968,-26.6391359992425,0.0 -49.1381182,-26.6390116992425,0.0 -49.1369161,-26.6389205992425,0.0 -49.1366636,-26.6389193992425,0.0 -49.1357963,-26.6389240992425,0.0 -49.1347232,-26.6387107992425,0.0 -49.1341914,-26.6384872992425,0.0 -49.1338816,-26.6382164992425,0.0 -49.1335082,-26.6373338992425,0.0 -49.1334662,-26.6372434992425,0.0 -49.1333141,-26.6368493992425,0.0 -49.1330956,-26.6366888992425,0.0 -49.1327803,-26.6365217992425,0.0 -49.1326794,-26.6364682992425,0.0 -49.1310704,-26.6361282992425,0.0 -49.1306464,-26.6357976992425,0.0 -49.1305314,-26.6357079992425,0.0 -49.1304164,-26.6356182992425,0.0 -49.1300232,-26.6355216992425,0.0 -49.1295226,-26.6357517992425,0.0 -49.1291074,-26.6360127992425,0.0 -49.1289516,-26.6361417992425,0.0 -49.1288986,-26.6362176992425,0.0 -49.1288881,-26.6363209992425,0.0 -49.1289265,-26.6364515992425,0.0 -49.1290621,-26.6366112992425,0.0 -49.1292248,-26.6368838992425,0.0 -49.1292861,-26.6370266992425,0.0 -49.1293064,-26.6371126992425,0.0 -49.1293047,-26.6371924992425,0.0 -49.1292351,-26.6374023992425,0.0 -49.1290436,-26.6376637992425,0.0 -49.1288518,-26.6378392992425,0.0 -49.1285381,-26.6381663992425,0.0 -49.1281452,-26.6386889992425,0.0 -49.1278694,-26.6390825992425,0.0 -49.1276813,-26.6394509992425,0.0 -49.1274548,-26.6399299992424,0.0 -49.1272792,-26.6404256992424,0.0 -49.1271923,-26.6410016992424,0.0 -49.1271773,-26.6416434992424,0.0 -49.1272272,-26.6419681992424,0.0 -49.1274444,-26.6426016992424,0.0 -49.1276257,-26.6436307992424,0.0 -49.1276851,-26.6440150992424,0.0 -49.1276615,-26.6442133992424,0.0 -49.1275341,-26.6444850992424,0.0 -49.1274302,-26.6447022992423,0.0 -49.1273358,-26.6448202992423,0.0 -49.1271706,-26.6450184992423,0.0 -49.1269393,-26.6452686992423,0.0 -49.1268402,-26.6454574992423,0.0 -49.126793,-26.6457312992423,0.0 -49.1269063,-26.6460380992423,0.0 -49.1271612,-26.6464345992423,0.0 -49.1273406,-26.6467932992423,0.0 -49.1274869,-26.6469584992423,0.0 -49.1277135,-26.6470009992423,0.0 -49.1279282,-26.6469773992423,0.0 -49.128143,-26.6469537992423,0.0 -49.1283979,-26.6470009992423,0.0 -49.128785,-26.6471095992423,0.0 -49.1292995,-26.6472983992423,0.0 -49.1297951,-26.6473691992423,0.0 -49.1301538,-26.6474399992423,0.0 -49.1303426,-26.6475296992423,0.0 -49.1305267,-26.6476759992423,0.0 -49.1306683,-26.6479954992423,0.0 -49.1306869,-26.6480815992423,0.0 -49.1307355,-26.6485479992423,0.0 -49.1309299,-26.6490317992423,0.0 -49.1310072,-26.6492181992423,0.0 -49.1311155,-26.6494512992423,0.0 -49.131409,-26.6497896992422,0.0 -49.1317246,-26.6502274992422,0.0 -49.1318705,-26.6503909992422,0.0 -49.1320047,-26.6504866992422,0.0 -49.1323489,-26.6506843992422,0.0 -49.1327574,-26.6509907992422,0.0 -49.1330401,-26.6512235992422,0.0 -49.1332059,-26.6514235992422,0.0 -49.1332843,-26.6515863992422,0.0 -49.1333619,-26.6517961992422,0.0 -49.1333918,-26.6520190992422,0.0 -49.1332663,-26.6524432992422,0.0 -49.1330716,-26.6528320992422,0.0 -49.1327869,-26.6532306992422,0.0 -49.132683,-26.6533899992422,0.0 -49.1326411,-26.6535580992422,0.0 -49.1326354,-26.6538764992422,0.0 -49.1326975,-26.6544915992422,0.0 -49.1327545,-26.6549500992421,0.0 -49.1326869,-26.6553615992421,0.0 -49.1326629,-26.6555722992421,0.0 -49.1325739,-26.6558260992421,0.0 -49.1322717,-26.6561588992421,0.0 -49.13181,-26.6564868992421,0.0 -49.1314995,-26.6566447992421,0.0 -49.1311367,-26.6570545992421,0.0 -49.1308798,-26.6573033992421,0.0 -49.1305489,-26.6575732992421,0.0 -49.1302906,-26.6578867992421,0.0 -49.1302263,-26.6581066992421,0.0 -49.1301861,-26.6583051992421,0.0 -49.1301761,-26.6585346992421,0.0 -49.1301955,-26.6588782992421,0.0 -49.1302423,-26.6592827992421,0.0 -49.1304082,-26.6598397992421,0.0 -49.1305353,-26.660169999242,0.0 -49.1308098,-26.660802199242,0.0 -49.1310401,-26.661172599242,0.0 -49.1312363,-26.661516799242,0.0 -49.1313335,-26.661765099242,0.0 -49.1313321,-26.662012699242,0.0 -49.1312332,-26.662222199242,0.0 -49.1310875,-26.662374299242,0.0 -49.1309652,-26.662550799242,0.0 -49.1309214,-26.662654999242,0.0 -49.1308973,-26.662943899242,0.0 -49.1309333,-26.663191399242,0.0 -49.1310089,-26.663604699242,0.0 -49.1310194,-26.663976699242,0.0 -49.1310377,-26.664308899242,0.0 -49.1310278,-26.664570899242,0.0 -49.1309867,-26.664840799242,0.0 -49.1308877,-26.6651858992419,0.0 -49.1307415,-26.6656732992419,0.0 -49.13057,-26.6660147992419,0.0 -49.1304568,-26.6663172992419,0.0 -49.1302624,-26.6667252992419,0.0 -49.1300965,-26.6669250992419,0.0 -49.1299182,-26.6670813992419,0.0 -49.1294605,-26.6674305992419,0.0 -49.1288624,-26.6679142992419,0.0 -49.1287489,-26.6680668992419,0.0 -49.1286768,-26.6682319992419,0.0 -49.1286435,-26.6684155992419,0.0 -49.1286351,-26.6686193992419,0.0 -49.1286817,-26.6690061992419,0.0 -49.1287658,-26.6693706992419,0.0 -49.1287731,-26.6695203992419,0.0 -49.1287372,-26.6696835992419,0.0 -49.1286879,-26.6700939992419,0.0 -49.1286454,-26.6702949992419,0.0 -49.1285382,-26.6704855992418,0.0 -49.1284646,-26.6707257992418,0.0 -49.1284395,-26.6709956992418,0.0 -49.1284375,-26.6714615992418,0.0 -49.1286363,-26.6723627992418,0.0 -49.1289564,-26.6730062992418,0.0 -49.1290775,-26.6733471992418,0.0 -49.1291646,-26.6737644992418,0.0 -49.1292117,-26.6740535992418,0.0 -49.1291814,-26.6743535992418,0.0 -49.1290603,-26.6745324992418,0.0 -49.1288154,-26.6748807992418,0.0 -49.1285816,-26.6751547992418,0.0 -49.1284173,-26.6752528992417,0.0 -49.1281656,-26.6753610992418,0.0 -49.1279223,-26.6755364992418,0.0 -49.1277658,-26.6757118992417,0.0 -49.1273742,-26.6762365992417,0.0 -49.1271122,-26.6766869992417,0.0 -49.127108,-26.6771222992417,0.0 -49.1272121,-26.6775665992417,0.0 -49.1274338,-26.6781769992417,0.0 -49.1276145,-26.6786978992417,0.0 -49.1276938,-26.6793099992417,0.0 -49.1276259,-26.6797121992417,0.0 -49.1275556,-26.6799854992417,0.0 -49.1272913,-26.6805442992417,0.0 -49.1270004,-26.6807980992416,0.0 -49.1268133,-26.6807524992416,0.0 -49.1266089,-26.6806749992416,0.0 -49.1264825,-26.6806322992416,0.0 -49.1263474,-26.6806161992416,0.0 -49.1261319,-26.6806854992416,0.0 -49.1257551,-26.6808289992416,0.0 -49.1249135,-26.6812821992416,0.0 -49.1244275,-26.6814642992416,0.0 -49.1239186,-26.6816912992416,0.0 -49.123694,-26.6818648992416,0.0 -49.1235394,-26.6820625992416,0.0 -49.1234267,-26.6822977992416,0.0 -49.1233856,-26.6825652992416,0.0</coordinates>
</LinearRing>
</outerBoundaryIs>
</Polygon>
</MultiGeometry>
</Placemark>
</Folder>
</Document></kml>
