<?xml version='1.0' encoding='UTF-8'?>
<kml xmlns:xsd="http://www.w3.org/2001/XMLSchema" xmlns:gx="http://www.google.com/kml/ext/2.2" xmlns:atom="http://www.w3.org/2005/Atom" xmlns="http://www.opengis.net/kml/2.2">
<Document>
<name>princesa_4214151_localidades_2022</name>
<visibility>1</visibility>
<Schema name="01. Cidade" id="kml_schema_ft_01._Cidade">
<SimpleField type="xsd:string" name="CD_UF">
<displayName>CD_UF</displayName>
</SimpleField>
<SimpleField type="xsd:string" name="NM_UF">
<displayName>NM_UF</displayName>
</SimpleField>
<SimpleField type="xsd:string" name="SIGLA_UF">
<displayName>SIGLA_UF</displayName>
</SimpleField>
<SimpleField type="xsd:string" name="CD_MUN">
<displayName>CD_MUN</displayName>
</SimpleField>
<SimpleField type="xsd:string" name="NM_MUN">
<displayName>NM_MUN</displayName>
</SimpleField>
<SimpleField type="xsd:string" name="CD_RGINT">
<displayName>CD_RGINT</displayName>
</SimpleField>
<SimpleField type="xsd:string" name="NM_RGINT">
<displayName>NM_RGINT</displayName>
</SimpleField>
<SimpleField type="xsd:string" name="CD_RGI">
<displayName>CD_RGI</displayName>
</SimpleField>
<SimpleField type="xsd:string" name="NM_RGI">
<displayName>NM_RGI</displayName>
</SimpleField>
<SimpleField type="xsd:string" name="CT_LOCALIDADE">
<displayName>CT_LOCALIDADE</displayName>
</SimpleField>
<SimpleField type="xsd:string" name="SCT_LOCALIDADE">
<displayName>SCT_LOCALIDADE</displayName>
</SimpleField>
<SimpleField type="xsd:string" name="CD_LOCALIDADE">
<displayName>CD_LOCALIDADE</displayName>
</SimpleField>
<SimpleField type="xsd:string" name="NM_LOCALIDADE">
<displayName>NM_LOCALIDADE</displayName>
</SimpleField>
<SimpleField type="xsd:string" name="LAT_LOCALIDADE">
<displayName>LAT_LOCALIDADE</displayName>
</SimpleField>
<SimpleField type="xsd:string" name="LONG_LOCALIDADE">
<displayName>LONG_LOCALIDADE</displayName>
</SimpleField>
</Schema>
<Schema name="Município" id="kml_schema_ft_Município">
<SimpleField type="xsd:string" name="CD_UF">
<displayName>CD_UF</displayName>
</SimpleField>
<SimpleField type="xsd:string" name="NM_UF">
<displayName>NM_UF</displayName>
</SimpleField>
<SimpleField type="xsd:string" name="CD_MUN">
<displayName>CD_MUN</displayName>
</SimpleField>
<SimpleField type="xsd:string" name="NM_MUN">
<displayName>NM_MUN</displayName>
</SimpleField>
<SimpleField type="xsd:string" name="CD_RGINT">
<displayName>CD_RGINT</displayName>
</SimpleField>
<SimpleField type="xsd:string" name="NM_RGINT">
<displayName>NM_RGINT</displayName>
</SimpleField>
<SimpleField type="xsd:string" name="CD_RGI">
<displayName>CD_RGI</displayName>
</SimpleField>
<SimpleField type="xsd:string" name="NM_RGI">
<displayName>NM_RGI</displayName>
</SimpleField>
</Schema>
<Folder id="01. Cidade">
<name>01. Cidade</name>
<Folder id="01.03. Sede Municipal">
<name>01.03. Sede Municipal</name>
<Placemark id="01.03. Sede Municipal">
<name>Princesa [4214151]</name>
<visibility>1</visibility>
<snippet> </snippet>
<description>&lt;center&gt;&lt;table&gt;&lt;tr&gt;&lt;th colspan='2' align='center'&gt;&lt;em&gt;Atributos&lt;/em&gt;&lt;/th&gt;&lt;/tr&gt;&lt;tr bgcolor="#E3E3F3"&gt;
&lt;th&gt;CD_UF&lt;/th&gt;
&lt;td&gt;42&lt;/td&gt;
&lt;/tr&gt;&lt;tr bgcolor=""&gt;
&lt;th&gt;NM_UF&lt;/th&gt;
&lt;td&gt;Santa Catarina&lt;/td&gt;
&lt;/tr&gt;&lt;tr bgcolor="#E3E3F3"&gt;
&lt;th&gt;SIGLA_UF&lt;/th&gt;
&lt;td&gt;SC&lt;/td&gt;
&lt;/tr&gt;&lt;tr bgcolor=""&gt;
&lt;th&gt;CD_MUN&lt;/th&gt;
&lt;td&gt;4214151&lt;/td&gt;
&lt;/tr&gt;&lt;tr bgcolor="#E3E3F3"&gt;
&lt;th&gt;NM_MUN&lt;/th&gt;
&lt;td&gt;Princesa&lt;/td&gt;
&lt;/tr&gt;&lt;tr bgcolor=""&gt;
&lt;th&gt;CD_RGINT&lt;/th&gt;
&lt;td&gt;4204&lt;/td&gt;
&lt;/tr&gt;&lt;tr bgcolor="#E3E3F3"&gt;
&lt;th&gt;NM_RGINT&lt;/th&gt;
&lt;td&gt;Chapecó&lt;/td&gt;
&lt;/tr&gt;&lt;tr bgcolor=""&gt;
&lt;th&gt;CD_RGI&lt;/th&gt;
&lt;td&gt;420009&lt;/td&gt;
&lt;/tr&gt;&lt;tr bgcolor="#E3E3F3"&gt;
&lt;th&gt;NM_RGI&lt;/th&gt;
&lt;td&gt;São Miguel do Oeste&lt;/td&gt;
&lt;/tr&gt;&lt;tr bgcolor=""&gt;
&lt;th&gt;CT_LOCALIDADE&lt;/th&gt;
&lt;td&gt;Cidade&lt;/td&gt;
&lt;/tr&gt;&lt;tr bgcolor="#E3E3F3"&gt;
&lt;th&gt;SCT_LOCALIDADE&lt;/th&gt;
&lt;td&gt;Sede Municipal&lt;/td&gt;
&lt;/tr&gt;&lt;tr bgcolor=""&gt;
&lt;th&gt;CD_LOCALIDADE&lt;/th&gt;
&lt;td&gt;4214151&lt;/td&gt;
&lt;/tr&gt;&lt;tr bgcolor="#E3E3F3"&gt;
&lt;th&gt;NM_LOCALIDADE&lt;/th&gt;
&lt;td&gt;Princesa&lt;/td&gt;
&lt;/tr&gt;&lt;tr bgcolor=""&gt;
&lt;th&gt;LAT_LOCALIDADE&lt;/th&gt;
&lt;td&gt;-26.4446&lt;/td&gt;
&lt;/tr&gt;&lt;tr bgcolor="#E3E3F3"&gt;
&lt;th&gt;LONG_LOCALIDADE&lt;/th&gt;
&lt;td&gt;-53.5999&lt;/td&gt;
&lt;/tr&gt;&lt;/table&gt;&lt;/center&gt;</description>
<Style>
<IconStyle>
<color>ff00aaff</color>
<scale>1.0</scale>
<Icon>
<href>http://maps.google.com/mapfiles/kml/shapes/placemark_circle.png</href>
</Icon>
</IconStyle>
<LabelStyle>
<scale>1.0</scale>
</LabelStyle>
<LineStyle>
<color>ffffffff</color>
<width>3</width>
<gx:labelVisibility>1</gx:labelVisibility>
</LineStyle>
<PolyStyle>
<color>00ffffff</color>
</PolyStyle>
</Style>
<ExtendedData>
<SchemaData schemaUrl="#kml_schema_ft_01._Cidade">
<SimpleData name="CD_UF">42</SimpleData>
<SimpleData name="NM_UF">Santa Catarina</SimpleData>
<SimpleData name="SIGLA_UF">SC</SimpleData>
<SimpleData name="CD_MUN">4214151</SimpleData>
<SimpleData name="NM_MUN">Princesa</SimpleData>
<SimpleData name="CD_RGINT">4204</SimpleData>
<SimpleData name="NM_RGINT">Chapecó</SimpleData>
<SimpleData name="CD_RGI">420009</SimpleData>
<SimpleData name="NM_RGI">São Miguel do Oeste</SimpleData>
<SimpleData name="CT_LOCALIDADE">Cidade</SimpleData>
<SimpleData name="SCT_LOCALIDADE">Sede Municipal</SimpleData>
<SimpleData name="CD_LOCALIDADE">4214151</SimpleData>
<SimpleData name="NM_LOCALIDADE">Princesa</SimpleData>
<SimpleData name="LAT_LOCALIDADE">-26.4446</SimpleData>
<SimpleData name="LONG_LOCALIDADE">-53.5999</SimpleData>
</SchemaData>
</ExtendedData>
<Point>
<extrude>0</extrude>
<coordinates>-53.599945,-26.4446099992463,0.0</coordinates>
</Point>
</Placemark>
</Folder>
</Folder>
<Folder id="13. Referência">
<name>13. Referência</name>
<Placemark id="13. Referência">
<name>Princesa [4214151]</name>
<visibility>1</visibility>
<snippet> </snippet>
<description>&lt;center&gt;&lt;table&gt;&lt;tr&gt;&lt;th colspan='2' align='center'&gt;&lt;em&gt;Attributes&lt;/em&gt;&lt;/th&gt;&lt;/tr&gt;&lt;tr bgcolor="#E3E3F3"&gt;
&lt;th&gt;CD_UF&lt;/th&gt;
&lt;td&gt;42&lt;/td&gt;
&lt;/tr&gt;&lt;tr bgcolor=""&gt;
&lt;th&gt;NM_UF&lt;/th&gt;
&lt;td&gt;Santa Catarina&lt;/td&gt;
&lt;/tr&gt;&lt;tr bgcolor="#E3E3F3"&gt;
&lt;th&gt;CD_MUN&lt;/th&gt;
&lt;td&gt;4214151&lt;/td&gt;
&lt;/tr&gt;&lt;tr bgcolor=""&gt;
&lt;th&gt;NM_MUN&lt;/th&gt;
&lt;td&gt;Princesa&lt;/td&gt;
&lt;/tr&gt;&lt;tr bgcolor="#E3E3F3"&gt;
&lt;th&gt;CD_RGINT&lt;/th&gt;
&lt;td&gt;4204&lt;/td&gt;
&lt;/tr&gt;&lt;tr bgcolor=""&gt;
&lt;th&gt;NM_RGINT&lt;/th&gt;
&lt;td&gt;Chapecó&lt;/td&gt;
&lt;/tr&gt;&lt;tr bgcolor="#E3E3F3"&gt;
&lt;th&gt;CD_RGI&lt;/th&gt;
&lt;td&gt;420009&lt;/td&gt;
&lt;/tr&gt;&lt;tr bgcolor=""&gt;
&lt;th&gt;NM_RGI&lt;/th&gt;
&lt;td&gt;São Miguel do Oeste&lt;/td&gt;
&lt;/tr&gt;&lt;/table&gt;&lt;/center&gt;</description>
<Style>
<IconStyle>
<scale>0.7</scale>
</IconStyle>
<LabelStyle>
<scale>0.7</scale>
</LabelStyle>
<LineStyle>
<color>ffffffff</color>
<width>3</width>
<gx:labelVisibility>1</gx:labelVisibility>
</LineStyle>
<PolyStyle>
<color>00ffffff</color>
</PolyStyle>
</Style>
<ExtendedData>
<SchemaData schemaUrl="#kml_schema_ft_Município">
<SimpleData name="CD_UF">42</SimpleData>
<SimpleData name="NM_UF">Santa Catarina</SimpleData>
<SimpleData name="CD_MUN">4214151</SimpleData>
<SimpleData name="NM_MUN">Princesa</SimpleData>
<SimpleData name="CD_RGINT">4204</SimpleData>
<SimpleData name="NM_RGINT">Chapecó</SimpleData>
<SimpleData name="CD_RGI">420009</SimpleData>
<SimpleData name="NM_RGI">São Miguel do Oeste</SimpleData>
</SchemaData>
</ExtendedData>
<MultiGeometry>
<Polygon>
<extrude>0</extrude>
<tessellate>1</tessellate>
<outerBoundaryIs>
<LinearRing>
<coordinates>-53.6312034,-26.4667032992459,0.0 -53.6313318,-26.4667480992459,0.0 -53.631528,-26.4667651992459,0.0 -53.6316793,-26.4667810992459,0.0 -53.6318158,-26.4668075992459,0.0 -53.6320466,-26.4668788992459,0.0 -53.6322523,-26.4669245992458,0.0 -53.632358,-26.4669552992458,0.0 -53.6324522,-26.4670138992459,0.0 -53.6324913,-26.4670966992459,0.0 -53.6325169,-26.4671895992458,0.0 -53.6325258,-26.4673317992458,0.0 -53.6325487,-26.4674957992458,0.0 -53.6326007,-26.4676794992458,0.0 -53.6326663,-26.4678403992458,0.0 -53.6327108,-26.4680324992458,0.0 -53.6327463,-26.4682254992458,0.0 -53.6327452,-26.4684032992458,0.0 -53.6327273,-26.4685255992458,0.0 -53.6326906,-26.4687291992458,0.0 -53.6326591,-26.4689342992458,0.0 -53.6326383,-26.4690979992458,0.0 -53.6325783,-26.4693011992458,0.0 -53.6325772,-26.4694297992458,0.0 -53.6326036,-26.4695082992458,0.0 -53.632618,-26.4695304992458,0.0 -53.632629,-26.4695472992458,0.0 -53.6327115,-26.4695957992458,0.0 -53.6328585,-26.4696360992458,0.0 -53.6330399,-26.4696582992458,0.0 -53.6332358,-26.4696917992458,0.0 -53.633355,-26.4697330992458,0.0 -53.6335599,-26.4697629992458,0.0 -53.6337953,-26.4697725992458,0.0 -53.6339465,-26.4697744992458,0.0 -53.6340213,-26.4697683992458,0.0 -53.6340942,-26.4697321992458,0.0 -53.6341794,-26.4696748992458,0.0 -53.6342796,-26.4695905992458,0.0 -53.6343673,-26.4695001992458,0.0 -53.6345006,-26.4693978992458,0.0 -53.6346241,-26.4693176992458,0.0 -53.6347858,-26.4692089992458,0.0 -53.6349395,-26.4690774992458,0.0 -53.6350627,-26.4689264992458,0.0 -53.6351445,-26.4687727992458,0.0 -53.6352076,-26.4686419992458,0.0 -53.6352599,-26.4684980992458,0.0 -53.6353039,-26.4683903992458,0.0 -53.6353472,-26.4683047992458,0.0 -53.6354309,-26.4681131992458,0.0 -53.6354649,-26.4680144992458,0.0 -53.6355113,-26.4678393992458,0.0 -53.6355195,-26.4676839992458,0.0 -53.6355289,-26.4675408992458,0.0 -53.6355336,-26.4675236992458,0.0 -53.635568,-26.4673978992458,0.0 -53.6356092,-26.4672289992458,0.0 -53.6356553,-26.4670832992459,0.0 -53.6356938,-26.4669232992459,0.0 -53.6357339,-26.4667016992459,0.0 -53.6357709,-26.4665340992459,0.0 -53.6358475,-26.4664281992459,0.0 -53.6358945,-26.4663905992459,0.0 -53.6359235,-26.4663685992459,0.0 -53.6360018,-26.4663468992459,0.0 -53.6360454,-26.4663460992459,0.0 -53.6361171,-26.4663434992459,0.0 -53.636224,-26.4663414992459,0.0 -53.6364631,-26.4662750992459,0.0 -53.6366512,-26.4661969992459,0.0 -53.6368111,-26.4661118992459,0.0 -53.6370141,-26.4659782992459,0.0 -53.6371456,-26.4658873992459,0.0 -53.6372843,-26.4657962992459,0.0 -53.6374548,-26.4656842992459,0.0 -53.637659,-26.4655559992459,0.0 -53.6378175,-26.4654708992459,0.0 -53.6380092,-26.4653661992459,0.0 -53.6382913,-26.4652541992459,0.0 -53.6385625,-26.4651201992459,0.0 -53.6388266,-26.4650213992459,0.0 -53.6391395,-26.4649206992459,0.0 -53.6393162,-26.4648741992459,0.0 -53.6394233,-26.4648570992459,0.0 -53.6395551,-26.4648409992459,0.0 -53.6396835,-26.4648267992459,0.0 -53.6398148,-26.4648224992459,0.0 -53.6398963,-26.4648322992459,0.0 -53.6398902,-26.4648184992459,0.0 -53.6398874,-26.4648076992459,0.0 -53.6398858,-26.4647929992459,0.0 -53.6398852,-26.4647862992459,0.0 -53.639886,-26.4647808992459,0.0 -53.6398868,-26.4647758992459,0.0 -53.6398875,-26.4647716992459,0.0 -53.6398887,-26.4647626992459,0.0 -53.6398894,-26.4647528992459,0.0 -53.6398897,-26.4647391992459,0.0 -53.6398891,-26.4647182992459,0.0 -53.6398857,-26.4646915992459,0.0 -53.6398827,-26.4646655992459,0.0 -53.6398824,-26.4646359992459,0.0 -53.6398881,-26.4646012992459,0.0 -53.6398938,-26.4645600992459,0.0 -53.639891,-26.4645095992459,0.0 -53.6398709,-26.4644540992459,0.0 -53.6398436,-26.4644029992459,0.0 -53.6398277,-26.4643774992459,0.0 -53.6397961,-26.4643364992459,0.0 -53.6397313,-26.4642607992459,0.0 -53.6396625,-26.4641828992459,0.0 -53.6396123,-26.4641318992459,0.0 -53.6395977,-26.4641167992459,0.0 -53.6395462,-26.4640466992459,0.0 -53.6394869,-26.4639607992459,0.0 -53.6394462,-26.4638873992459,0.0 -53.6394306,-26.4638434992459,0.0 -53.6394289,-26.4638322992459,0.0 -53.6394262,-26.4637478992459,0.0 -53.6394378,-26.4636481992459,0.0 -53.6394592,-26.4635674992459,0.0 -53.6394753,-26.4635219992459,0.0 -53.6394792,-26.4635092992459,0.0 -53.6395129,-26.4634102992459,0.0 -53.6395301,-26.4633519992459,0.0 -53.6395419,-26.4632825992459,0.0 -53.6395439,-26.4632291992459,0.0 -53.6395431,-26.4631851992459,0.0 -53.6395396,-26.4631421992459,0.0 -53.6395373,-26.4631024992459,0.0 -53.6395318,-26.4630245992459,0.0 -53.6395295,-26.4629419992459,0.0 -53.6395346,-26.4628794992459,0.0 -53.6395435,-26.4628360992459,0.0 -53.6395454,-26.4628255992459,0.0 -53.6395543,-26.4627313992459,0.0 -53.6395726,-26.4626167992459,0.0 -53.6395868,-26.4625452992459,0.0 -53.6395895,-26.4625304992459,0.0 -53.6395924,-26.4624910992459,0.0 -53.6395878,-26.4624250992459,0.0 -53.6395709,-26.4623688992459,0.0 -53.6395497,-26.4623198992459,0.0 -53.6395301,-26.462278199246,0.0 -53.6395197,-26.4622348992459,0.0 -53.6395201,-26.4621864992459,0.0 -53.639525,-26.462148999246,0.0 -53.6395387,-26.4621069992459,0.0 -53.6395726,-26.462032499246,0.0 -53.6396113,-26.461963599246,0.0 -53.6396343,-26.4619262992459,0.0 -53.6396951,-26.461859199246,0.0 -53.6397587,-26.461791999246,0.0 -53.6398305,-26.461690199246,0.0 -53.6398369,-26.461679699246,0.0 -53.6398475,-26.461655399246,0.0 -53.6398586,-26.461637299246,0.0 -53.6398825,-26.461575099246,0.0 -53.6398972,-26.461506799246,0.0 -53.6399003,-26.461448299246,0.0 -53.6399003,-26.461394899246,0.0 -53.6398951,-26.461346499246,0.0 -53.6398896,-26.461315499246,0.0 -53.6398846,-26.461294599246,0.0 -53.6398608,-26.461220399246,0.0 -53.6398357,-26.461143299246,0.0 -53.6398229,-26.461098999246,0.0 -53.6398151,-26.461028299246,0.0 -53.6398188,-26.460950999246,0.0 -53.6398242,-26.460915999246,0.0 -53.6398269,-26.460905099246,0.0 -53.6398378,-26.460868599246,0.0 -53.639846,-26.460836399246,0.0 -53.6398478,-26.460810799246,0.0 -53.6398424,-26.460786699246,0.0 -53.6398301,-26.460762899246,0.0 -53.6398115,-26.460740299246,0.0 -53.6397949,-26.460721199246,0.0 -53.6397859,-26.460700699246,0.0 -53.6397869,-26.460673299246,0.0 -53.6397963,-26.460643999246,0.0 -53.6398053,-26.460621199246,0.0 -53.6398263,-26.460591499246,0.0 -53.6398482,-26.460567899246,0.0 -53.6398668,-26.460544999246,0.0 -53.6398819,-26.460519299246,0.0 -53.6398933,-26.460491499246,0.0 -53.639903,-26.460458499246,0.0 -53.639916,-26.460423099246,0.0 -53.6399325,-26.460387999246,0.0 -53.6399527,-26.460352099246,0.0 -53.6399741,-26.460319199246,0.0 -53.6399959,-26.460282199246,0.0 -53.6400128,-26.460245699246,0.0 -53.6400237,-26.460208099246,0.0 -53.6400306,-26.460166499246,0.0 -53.6400347,-26.460126399246,0.0 -53.640038,-26.460091399246,0.0 -53.6400387,-26.460076599246,0.0 -53.6400442,-26.460068199246,0.0 -53.6400439,-26.460055199246,0.0 -53.6400427,-26.460046199246,0.0 -53.640039,-26.460037699246,0.0 -53.6400306,-26.460022499246,0.0 -53.6400227,-26.460006499246,0.0 -53.6400142,-26.459987699246,0.0 -53.6400068,-26.459970299246,0.0 -53.6399993,-26.459949299246,0.0 -53.6399921,-26.459925099246,0.0 -53.6399913,-26.459912999246,0.0 -53.6399909,-26.459873299246,0.0 -53.6399876,-26.459823399246,0.0 -53.6399763,-26.459771999246,0.0 -53.6399753,-26.459768699246,0.0 -53.6399667,-26.459744499246,0.0 -53.6399107,-26.459668199246,0.0 -53.6398812,-26.459629599246,0.0 -53.6398517,-26.459587799246,0.0 -53.6398255,-26.459542399246,0.0 -53.6397956,-26.459484499246,0.0 -53.6397496,-26.459406599246,0.0 -53.6397173,-26.459354499246,0.0 -53.6397111,-26.459345199246,0.0 -53.639664,-26.459262299246,0.0 -53.6396159,-26.459179099246,0.0 -53.6395876,-26.459127399246,0.0 -53.63955,-26.459065099246,0.0 -53.6394965,-26.458985099246,0.0 -53.6394528,-26.458917499246,0.0 -53.6394223,-26.458859499246,0.0 -53.6394082,-26.458814699246,0.0 -53.6394048,-26.458778799246,0.0 -53.6394046,-26.458772299246,0.0 -53.6394023,-26.458699999246,0.0 -53.6394099,-26.458623299246,0.0 -53.639422,-26.458563999246,0.0 -53.6394296,-26.458527799246,0.0 -53.6394634,-26.458316299246,0.0 -53.639462,-26.458260099246,0.0 -53.6394622,-26.458210099246,0.0 -53.6394651,-26.458103199246,0.0 -53.6394708,-26.458011699246,0.0 -53.6394746,-26.457982299246,0.0 -53.6394871,-26.457940199246,0.0 -53.6395356,-26.457757699246,0.0 -53.6395412,-26.457662099246,0.0 -53.6395391,-26.457554899246,0.0 -53.639537,-26.457493199246,0.0 -53.6395373,-26.457482899246,0.0 -53.6395497,-26.457416899246,0.0 -53.6395759,-26.457323499246,0.0 -53.6396011,-26.457250499246,0.0 -53.6396148,-26.457219599246,0.0 -53.6396628,-26.457178099246,0.0 -53.6397207,-26.457129199246,0.0 -53.6397676,-26.457083699246,0.0 -53.639804,-26.4570400992461,0.0 -53.6398312,-26.4570039992461,0.0 -53.6398474,-26.4569729992461,0.0 -53.639854,-26.4569557992461,0.0 -53.6398707,-26.456925699246,0.0 -53.6399099,-26.456851499246,0.0 -53.6399357,-26.4567927992461,0.0 -53.6399558,-26.4567442992461,0.0 -53.6399813,-26.4567018992461,0.0 -53.6400277,-26.4560853992461,0.0 -53.6400382,-26.4557968992461,0.0 -53.6400128,-26.4546396992461,0.0 -53.6400121,-26.4546087992461,0.0 -53.6400665,-26.4539477992461,0.0 -53.6401125,-26.4535435992461,0.0 -53.6401447,-26.4532611992461,0.0 -53.6402966,-26.4524666992461,0.0 -53.6402615,-26.4520810992461,0.0 -53.6401096,-26.4515902992462,0.0 -53.6398759,-26.4511695992462,0.0 -53.639502,-26.4507255992462,0.0 -53.6391514,-26.4503399992462,0.0 -53.6387436,-26.4499561992462,0.0 -53.6383637,-26.4496854992462,0.0 -53.6380702,-26.4494179992462,0.0 -53.6380671,-26.4492322992462,0.0 -53.6383164,-26.4490490992462,0.0 -53.6659139,-26.4439291992463,0.0 -53.66683,-26.4437639992463,0.0 -53.687229,-26.4431589992463,0.0 -53.687892,-26.4432199992463,0.0 -53.6883913,-26.4432658992463,0.0 -53.6879706,-26.4429907992463,0.0 -53.6874734,-26.4421556992463,0.0 -53.6874603,-26.4421336992463,0.0 -53.6874506,-26.4419563992464,0.0 -53.6874005,-26.4410381992464,0.0 -53.6875882,-26.4401045992464,0.0 -53.6879819,-26.4391597992464,0.0 -53.6885069,-26.4378266992464,0.0 -53.6890613,-26.4364132992465,0.0 -53.6889672,-26.4355834992465,0.0 -53.6889354,-26.4353028992465,0.0 -53.6888277,-26.4346471992465,0.0 -53.6888099,-26.4345387992465,0.0 -53.6887593,-26.4344419992465,0.0 -53.6884666,-26.4338821992465,0.0 -53.6883442,-26.4335534992465,0.0 -53.6881183,-26.4329467992465,0.0 -53.6877837,-26.4322423992465,0.0 -53.6877198,-26.4314331992466,0.0 -53.6879068,-26.4306755992466,0.0 -53.6883741,-26.4301696992466,0.0 -53.6886958,-26.4292900992466,0.0 -53.6888418,-26.4286453992466,0.0 -53.6888457,-26.4286417992466,0.0 -53.6885488,-26.4284927992466,0.0 -53.6883815,-26.4285643992466,0.0 -53.6883419,-26.4285812992466,0.0 -53.6883233,-26.4284230992466,0.0 -53.6883116,-26.4283938992466,0.0 -53.6882438,-26.4282248992466,0.0 -53.6880792,-26.4280828992466,0.0 -53.6879744,-26.4280184992466,0.0 -53.6878067,-26.4279406992466,0.0 -53.6876749,-26.4278879992466,0.0 -53.6874999,-26.4278508992466,0.0 -53.6873805,-26.4278180992466,0.0 -53.687286,-26.4278017992466,0.0 -53.6872053,-26.4277971992466,0.0 -53.6871078,-26.4277990992466,0.0 -53.6869855,-26.4278149992466,0.0 -53.6868502,-26.4278507992466,0.0 -53.6866831,-26.4279656992466,0.0 -53.6864948,-26.4280780992466,0.0 -53.6864077,-26.4281299992466,0.0 -53.6861477,-26.4283169992466,0.0 -53.685797,-26.4285593992466,0.0 -53.6855804,-26.4287330992466,0.0 -53.6852808,-26.4289321992466,0.0 -53.6849632,-26.4291063992466,0.0 -53.6845213,-26.4292552992466,0.0 -53.6841328,-26.4292428992466,0.0 -53.6839137,-26.4291457992466,0.0 -53.6837569,-26.4290474992466,0.0 -53.6836519,-26.4288809992466,0.0 -53.6835827,-26.4285784992466,0.0 -53.6835751,-26.4283979992466,0.0 -53.6836811,-26.4281280992466,0.0 -53.6837855,-26.4278657992466,0.0 -53.6839155,-26.4275558992466,0.0 -53.6839982,-26.4273785992466,0.0 -53.6840661,-26.4272328992466,0.0 -53.6841754,-26.4269335992466,0.0 -53.6842759,-26.4266679992466,0.0 -53.6843695,-26.4264268992467,0.0 -53.6844682,-26.4261629992467,0.0 -53.684574,-26.4258801992467,0.0 -53.684589,-26.4257108992467,0.0 -53.6845397,-26.4255542992467,0.0 -53.6844685,-26.4254391992467,0.0 -53.6843288,-26.4253554992467,0.0 -53.68402,-26.4252602992467,0.0 -53.6836786,-26.4252341992467,0.0 -53.6834102,-26.4252391992467,0.0 -53.6830082,-26.4252706992467,0.0 -53.6826622,-26.4252925992467,0.0 -53.682394,-26.4253044992467,0.0 -53.6821575,-26.4252900992467,0.0 -53.682004,-26.4252398992467,0.0 -53.6818047,-26.4251853992467,0.0 -53.6816266,-26.4250838992467,0.0 -53.6814725,-26.4249257992467,0.0 -53.6813931,-26.4247926992467,0.0 -53.6813641,-26.4246117992467,0.0 -53.6813698,-26.4244454992467,0.0 -53.6814016,-26.4242547992467,0.0 -53.6814629,-26.4241034992467,0.0 -53.6815396,-26.4238776992467,0.0 -53.681621,-26.4236945992467,0.0 -53.6816916,-26.4234421992467,0.0 -53.6816875,-26.4232675992467,0.0 -53.681665,-26.4231189992467,0.0 -53.6816352,-26.4229012992467,0.0 -53.6816237,-26.4227318992467,0.0 -53.6816374,-26.4224997992467,0.0 -53.6816465,-26.4223180992467,0.0 -53.6816338,-26.4220965992467,0.0 -53.681641,-26.4219166992467,0.0 -53.6816081,-26.4217254992467,0.0 -53.6815342,-26.4215906992467,0.0 -53.6814536,-26.4213985992468,0.0 -53.6813802,-26.4212776992468,0.0 -53.6812962,-26.4211867992468,0.0 -53.6811793,-26.4210724992468,0.0 -53.6810858,-26.4209817992468,0.0 -53.6809799,-26.4208501992468,0.0 -53.6808237,-26.4206121992468,0.0 -53.6807018,-26.4204466992468,0.0 -53.6805541,-26.4202483992468,0.0 -53.6804774,-26.4201435992468,0.0 -53.6803969,-26.4200371992468,0.0 -53.6803178,-26.4198772992468,0.0 -53.6802862,-26.4197504992468,0.0 -53.6802659,-26.4196086992468,0.0 -53.6802759,-26.4194891992468,0.0 -53.6802867,-26.4193546992468,0.0 -53.6803252,-26.4191859992468,0.0 -53.6803633,-26.4190845992468,0.0 -53.6804144,-26.4189566992468,0.0 -53.6804878,-26.4188254992468,0.0 -53.6805574,-26.4187099992468,0.0 -53.6806299,-26.4185864992468,0.0 -53.6806934,-26.4184392992468,0.0 -53.6807449,-26.4183211992468,0.0 -53.6807935,-26.4182219992468,0.0 -53.6808534,-26.4181063992468,0.0 -53.6808912,-26.4180426992468,0.0 -53.6809438,-26.4179786992468,0.0 -53.6810023,-26.4179292992468,0.0 -53.6810916,-26.4178445992468,0.0 -53.6811705,-26.4177676992468,0.0 -53.6812309,-26.4176748992468,0.0 -53.6812808,-26.4175788992468,0.0 -53.681333,-26.4174471992468,0.0 -53.681378,-26.4173298992468,0.0 -53.6814323,-26.4172282992468,0.0 -53.6814949,-26.4171566992468,0.0 -53.681575,-26.4170880992468,0.0 -53.6816669,-26.4170170992468,0.0 -53.681772,-26.4169371992468,0.0 -53.6818695,-26.4168500992469,0.0 -53.6819386,-26.4167699992468,0.0 -53.6819982,-26.4166677992468,0.0 -53.6820403,-26.4164897992469,0.0 -53.6820362,-26.4163142992469,0.0 -53.6819563,-26.4161580992469,0.0 -53.6818695,-26.4159537992469,0.0 -53.6818271,-26.4158372992469,0.0 -53.6817544,-26.4157546992469,0.0 -53.6816941,-26.4157151992469,0.0 -53.6816059,-26.4156887992469,0.0 -53.681425,-26.4156921992469,0.0 -53.6813347,-26.4157015992469,0.0 -53.6811262,-26.4157334992469,0.0 -53.6809041,-26.4157909992469,0.0 -53.6807528,-26.4158523992469,0.0 -53.6805881,-26.4159418992469,0.0 -53.6804886,-26.4160429992469,0.0 -53.6804231,-26.4161433992469,0.0 -53.6803554,-26.4162743992469,0.0 -53.6803471,-26.4163431992469,0.0 -53.6803388,-26.4164120992469,0.0 -53.680339,-26.4165417992469,0.0 -53.6803406,-26.4166680992468,0.0 -53.6803395,-26.4167524992468,0.0 -53.6803144,-26.4168118992468,0.0 -53.6802128,-26.4169343992468,0.0 -53.6801169,-26.4171029992468,0.0 -53.6800179,-26.4172811992468,0.0 -53.6799475,-26.4174703992468,0.0 -53.6798468,-26.4176306992468,0.0 -53.6797336,-26.4177415992468,0.0 -53.6796197,-26.4178684992468,0.0 -53.6794729,-26.4180605992468,0.0 -53.6793149,-26.4182493992468,0.0 -53.6790822,-26.4185018992468,0.0 -53.6789284,-26.4186779992468,0.0 -53.6788578,-26.4187578992468,0.0 -53.6787872,-26.4188376992468,0.0 -53.6786763,-26.4189631992468,0.0 -53.6785256,-26.4191349992468,0.0 -53.678381,-26.4192895992468,0.0 -53.6782521,-26.4194489992468,0.0 -53.6781035,-26.4196374992468,0.0 -53.6779593,-26.4198097992468,0.0 -53.6778052,-26.4199659992468,0.0 -53.6776309,-26.4201122992468,0.0 -53.6774316,-26.4202590992468,0.0 -53.6773086,-26.4203545992468,0.0 -53.6771858,-26.4204367992468,0.0 -53.6770273,-26.4205252992468,0.0 -53.6768883,-26.4205811992468,0.0 -53.6767447,-26.4206398992468,0.0 -53.6766598,-26.4206793992468,0.0 -53.6764458,-26.4207510992468,0.0 -53.6762433,-26.4208263992468,0.0 -53.6760064,-26.4208953992468,0.0 -53.6756676,-26.4209708992468,0.0 -53.675475,-26.4210010992468,0.0 -53.6753877,-26.4210027992468,0.0 -53.6752834,-26.4210060992468,0.0 -53.6751578,-26.4210392992468,0.0 -53.6750281,-26.4210893992468,0.0 -53.6748508,-26.4211754992468,0.0 -53.6747309,-26.4212737992468,0.0 -53.6745364,-26.4214259992468,0.0 -53.6743768,-26.4215530992468,0.0 -53.6741116,-26.4217473992467,0.0 -53.6738467,-26.4218882992467,0.0 -53.6736012,-26.4219567992467,0.0 -53.6733891,-26.4220099992467,0.0 -53.6732597,-26.4220590992467,0.0 -53.6731534,-26.4221380992467,0.0 -53.6729935,-26.4222816992467,0.0 -53.6728654,-26.4224443992467,0.0 -53.6728463,-26.4224726992467,0.0 -53.6727756,-26.4225778992467,0.0 -53.6726766,-26.4227353992467,0.0 -53.672569,-26.4228787992467,0.0 -53.6724429,-26.4230192992467,0.0 -53.6723102,-26.4231682992467,0.0 -53.6722768,-26.4232036992467,0.0 -53.6722416,-26.4232410992467,0.0 -53.672173,-26.4233138992467,0.0 -53.6720317,-26.4234553992467,0.0 -53.6719259,-26.4235533992467,0.0 -53.6717435,-26.4236963992467,0.0 -53.6714919,-26.4238601992467,0.0 -53.6713241,-26.4239478992467,0.0 -53.6711348,-26.4240403992467,0.0 -53.6708484,-26.4241580992467,0.0 -53.670566,-26.4242681992467,0.0 -53.6703809,-26.4243579992467,0.0 -53.6702107,-26.4244646992467,0.0 -53.6700542,-26.4245559992467,0.0 -53.6698645,-26.4246863992467,0.0 -53.6695884,-26.4248858992467,0.0 -53.6693691,-26.4250153992467,0.0 -53.6690913,-26.4251417992467,0.0 -53.6688616,-26.4252410992467,0.0 -53.6685623,-26.4253513992467,0.0 -53.6682528,-26.4254392992467,0.0 -53.6680218,-26.4254879992467,0.0 -53.6677451,-26.4255436992467,0.0 -53.6674749,-26.4255714992467,0.0 -53.6672204,-26.4255761992467,0.0 -53.6669958,-26.4255727992467,0.0 -53.6668034,-26.4255687992467,0.0 -53.6666497,-26.4255388992467,0.0 -53.6665419,-26.4254903992467,0.0 -53.6664276,-26.4254213992467,0.0 -53.6662907,-26.4253292992467,0.0 -53.666213,-26.4252506992467,0.0 -53.6661452,-26.4251724992467,0.0 -53.6661119,-26.4251263992467,0.0 -53.6660893,-26.4250585992467,0.0 -53.6660789,-26.4249741992467,0.0 -53.6661179,-26.4248396992467,0.0 -53.666173,-26.4247214992467,0.0 -53.6662527,-26.4245874992467,0.0 -53.666354,-26.4244163992467,0.0 -53.6665124,-26.4242105992467,0.0 -53.6666441,-26.4240187992467,0.0 -53.6668225,-26.4237759992467,0.0 -53.6668817,-26.4236650992467,0.0 -53.6669409,-26.4235541992467,0.0 -53.6670343,-26.4233357992467,0.0 -53.6670774,-26.4231960992467,0.0 -53.667124,-26.4230260992467,0.0 -53.6671483,-26.4228606992467,0.0 -53.6671403,-26.4226954992467,0.0 -53.6670649,-26.4225327992467,0.0 -53.6669783,-26.4224439992467,0.0 -53.6668673,-26.4223766992467,0.0 -53.6667255,-26.4223148992467,0.0 -53.6666129,-26.4222399992467,0.0 -53.666536,-26.4221315992467,0.0 -53.6664879,-26.4219948992467,0.0 -53.6664646,-26.4218351992467,0.0 -53.6664292,-26.4215770992468,0.0 -53.666413,-26.4213669992468,0.0 -53.6663994,-26.4212031992468,0.0 -53.6663607,-26.4210479992468,0.0 -53.6663184,-26.4208530992468,0.0 -53.6662617,-26.4206526992468,0.0 -53.6662416,-26.4204485992468,0.0 -53.6662316,-26.4202599992468,0.0 -53.6662226,-26.4200518992468,0.0 -53.6662006,-26.4198304992468,0.0 -53.6661851,-26.4195858992468,0.0 -53.6661822,-26.4193944992468,0.0 -53.6661632,-26.4192420992468,0.0 -53.6661405,-26.4190455992468,0.0 -53.6661215,-26.4188291992468,0.0 -53.6660982,-26.4186112992468,0.0 -53.666098,-26.4184193992468,0.0 -53.6661115,-26.4182715992468,0.0 -53.6661622,-26.4180939992468,0.0 -53.6662314,-26.4179310992468,0.0 -53.6663122,-26.4178264992468,0.0 -53.6664389,-26.4177205992468,0.0 -53.6665747,-26.4176448992468,0.0 -53.6667816,-26.4175500992468,0.0 -53.6669946,-26.4174419992468,0.0 -53.6672382,-26.4172934992468,0.0 -53.6675398,-26.4171628992468,0.0 -53.6678005,-26.4170613992468,0.0 -53.6680171,-26.4169601992468,0.0 -53.6682949,-26.4168362992468,0.0 -53.6685077,-26.4167489992468,0.0 -53.6686551,-26.4166694992468,0.0 -53.6689958,-26.4165373992468,0.0 -53.6692502,-26.4164310992469,0.0 -53.6695751,-26.4163020992469,0.0 -53.6698704,-26.4161540992469,0.0 -53.6702783,-26.4158845992469,0.0 -53.6705134,-26.4157327992469,0.0 -53.6707233,-26.4155158992469,0.0 -53.6708604,-26.4152909992469,0.0 -53.6709645,-26.4150662992469,0.0 -53.6710325,-26.4148535992469,0.0 -53.6710513,-26.4146424992469,0.0 -53.6710142,-26.4144547992469,0.0 -53.6708988,-26.4142717992469,0.0 -53.6707826,-26.4141418992469,0.0 -53.6705893,-26.4139718992469,0.0 -53.670355,-26.4137665992469,0.0 -53.6701634,-26.4136150992469,0.0 -53.6699836,-26.4134791992469,0.0 -53.6696938,-26.4133109992469,0.0 -53.6694696,-26.4132250992469,0.0 -53.6693018,-26.4131619992469,0.0 -53.6690443,-26.4130504992469,0.0 -53.6688727,-26.4129536992469,0.0 -53.6687245,-26.4128466992469,0.0 -53.6686003,-26.4127817992469,0.0 -53.6683878,-26.4127283992469,0.0 -53.668265,-26.4127165992469,0.0 -53.6681596,-26.4127063992469,0.0 -53.6678896,-26.4126852992469,0.0 -53.6676524,-26.4126683992469,0.0 -53.6673819,-26.4126684992469,0.0 -53.6671506,-26.4126711992469,0.0 -53.666865,-26.4126863992469,0.0 -53.66641,-26.4127767992469,0.0 -53.6659496,-26.4129105992469,0.0 -53.6656063,-26.4130300992469,0.0 -53.6653638,-26.4131770992469,0.0 -53.6653116,-26.4132239992469,0.0 -53.6652029,-26.4133215992469,0.0 -53.6650169,-26.4135494992469,0.0 -53.6647805,-26.4137465992469,0.0 -53.664618,-26.4138904992469,0.0 -53.6645041,-26.4140023992469,0.0 -53.6643198,-26.4141482992469,0.0 -53.6641489,-26.4142604992469,0.0 -53.6639337,-26.4144069992469,0.0 -53.6636462,-26.4145777992469,0.0 -53.6634788,-26.4146831992469,0.0 -53.6632331,-26.4148531992469,0.0 -53.663059,-26.4149612992469,0.0 -53.6629352,-26.4150609992469,0.0 -53.6627819,-26.4152095992469,0.0 -53.6626204,-26.4154017992469,0.0 -53.6624799,-26.4155485992469,0.0 -53.6623575,-26.4156933992469,0.0 -53.6622488,-26.4157985992469,0.0 -53.6621311,-26.4159072992469,0.0 -53.6620184,-26.4159843992469,0.0 -53.6618531,-26.4161257992469,0.0 -53.6617548,-26.4162094992469,0.0 -53.6616775,-26.4163199992469,0.0 -53.6615404,-26.4164505992469,0.0 -53.6614254,-26.4165489992469,0.0 -53.6612691,-26.4166699992468,0.0 -53.6611525,-26.4167478992468,0.0 -53.6610134,-26.4168355992468,0.0 -53.6609044,-26.4169510992468,0.0 -53.6607602,-26.4171077992468,0.0 -53.6606318,-26.4172462992468,0.0 -53.660498,-26.4173969992468,0.0 -53.6603695,-26.4175274992468,0.0 -53.6602234,-26.4176808992468,0.0 -53.6601101,-26.4177894992468,0.0 -53.6599814,-26.4179117992468,0.0 -53.6598399,-26.4180261992468,0.0 -53.6597159,-26.4181192992468,0.0 -53.6595442,-26.4182569992468,0.0 -53.659426,-26.4183800992468,0.0 -53.6592476,-26.4185340992468,0.0 -53.6590543,-26.4186689992468,0.0 -53.6589309,-26.4187101992468,0.0 -53.6587653,-26.4187212992468,0.0 -53.6586139,-26.4187176992468,0.0 -53.6584559,-26.4187324992468,0.0 -53.658344,-26.4187659992468,0.0 -53.6582091,-26.4188231992468,0.0 -53.6581658,-26.4188543992468,0.0 -53.6581375,-26.4188726992468,0.0 -53.6581092,-26.4188909992468,0.0 -53.6580714,-26.4189098992468,0.0 -53.6580253,-26.4189147992468,0.0 -53.6579857,-26.4189083992468,0.0 -53.6578925,-26.4188716992468,0.0 -53.6577881,-26.4188128992468,0.0 -53.6577409,-26.4187461992468,0.0 -53.6577253,-26.4187044992468,0.0 -53.6576887,-26.4186060992468,0.0 -53.6576622,-26.4184508992468,0.0 -53.6576995,-26.4182240992468,0.0 -53.6577672,-26.4180435992468,0.0 -53.6578413,-26.4178541992468,0.0 -53.6579057,-26.4176571992468,0.0 -53.6579963,-26.4173352992468,0.0 -53.6580933,-26.4170073992468,0.0 -53.65818,-26.4167757992468,0.0 -53.6582165,-26.4166700992468,0.0 -53.6582757,-26.4165883992468,0.0 -53.6583095,-26.4164240992468,0.0 -53.6583959,-26.4161766992469,0.0 -53.6584534,-26.4159831992469,0.0 -53.6585372,-26.4157942992469,0.0 -53.6586165,-26.4156433992469,0.0 -53.6586886,-26.4154344992469,0.0 -53.6587028,-26.4152333992469,0.0 -53.6586555,-26.4150596992469,0.0 -53.658597,-26.4149628992469,0.0 -53.6584965,-26.4148364992469,0.0 -53.658351,-26.4147270992469,0.0 -53.6581638,-26.4146646992469,0.0 -53.6580317,-26.4146299992469,0.0 -53.6578455,-26.4146148992469,0.0 -53.6576664,-26.4146076992469,0.0 -53.6574709,-26.4145960992469,0.0 -53.6573058,-26.4145957992469,0.0 -53.6571479,-26.4145868992469,0.0 -53.6570347,-26.4145602992469,0.0 -53.6569162,-26.4144662992469,0.0 -53.6568098,-26.4143264992469,0.0 -53.6567112,-26.4141298992469,0.0 -53.6566492,-26.4139622992469,0.0 -53.656585,-26.4137345992469,0.0 -53.6565694,-26.4136792992469,0.0 -53.6564946,-26.4133650992469,0.0 -53.6564093,-26.4131665992469,0.0 -53.6562568,-26.4129786992469,0.0 -53.6561063,-26.4128151992469,0.0 -53.6559692,-26.4126471992469,0.0 -53.6557675,-26.4123701992469,0.0 -53.6556602,-26.4121088992469,0.0 -53.6555748,-26.4118310992469,0.0 -53.6555222,-26.411580599247,0.0 -53.6554816,-26.411277999247,0.0 -53.6554623,-26.411006599247,0.0 -53.6554963,-26.410763599247,0.0 -53.6555288,-26.410708999247,0.0 -53.6555804,-26.410669199247,0.0 -53.6556269,-26.410648099247,0.0 -53.6557318,-26.410642799247,0.0 -53.6558088,-26.410642999247,0.0 -53.655946,-26.410652299247,0.0 -53.6561117,-26.410709899247,0.0 -53.6562405,-26.410761499247,0.0 -53.656428,-26.410754699247,0.0 -53.6565194,-26.410730999247,0.0 -53.6566235,-26.410686899247,0.0 -53.6568482,-26.410584799247,0.0 -53.6572136,-26.410397399247,0.0 -53.657514,-26.410239899247,0.0 -53.65772,-26.410113599247,0.0 -53.6579328,-26.409982999247,0.0 -53.6580523,-26.409876099247,0.0 -53.6581891,-26.409704799247,0.0 -53.6583023,-26.409475199247,0.0 -53.6584125,-26.409209799247,0.0 -53.6585273,-26.408970599247,0.0 -53.6585778,-26.408800899247,0.0 -53.6585942,-26.408620899247,0.0 -53.6585669,-26.408496499247,0.0 -53.6584681,-26.408359899247,0.0 -53.6583434,-26.408242399247,0.0 -53.6581529,-26.408104699247,0.0 -53.6581351,-26.408091799247,0.0 -53.6579495,-26.407936599247,0.0 -53.6577248,-26.407792199247,0.0 -53.6574911,-26.407666599247,0.0 -53.6573291,-26.407577799247,0.0 -53.657118,-26.407451799247,0.0 -53.6569156,-26.407243399247,0.0 -53.6566964,-26.407093799247,0.0 -53.6565029,-26.406920199247,0.0 -53.6563717,-26.406790099247,0.0 -53.6561316,-26.406715299247,0.0 -53.6558958,-26.406662299247,0.0 -53.6556415,-26.4066196992471,0.0 -53.6554249,-26.406581499247,0.0 -53.6552356,-26.406554699247,0.0 -53.6550042,-26.406526899247,0.0 -53.6547961,-26.4065374992471,0.0 -53.654678,-26.406539699247,0.0 -53.6546197,-26.406535699247,0.0 -53.6545572,-26.4065115992471,0.0 -53.6544799,-26.4064943992471,0.0 -53.6544067,-26.4064957992471,0.0 -53.6543281,-26.4065039992471,0.0 -53.6542891,-26.4065232992471,0.0 -53.6541933,-26.406600999247,0.0 -53.6540797,-26.406739399247,0.0 -53.6540104,-26.406825099247,0.0 -53.6538704,-26.406942499247,0.0 -53.6537713,-26.407037199247,0.0 -53.6536502,-26.407160999247,0.0 -53.6534703,-26.407349199247,0.0 -53.6532889,-26.407541699247,0.0 -53.6531528,-26.407660699247,0.0 -53.653,-26.407802399247,0.0 -53.652811,-26.407989899247,0.0 -53.6526825,-26.408128199247,0.0 -53.6525144,-26.408244399247,0.0 -53.6523447,-26.408369099247,0.0 -53.6521723,-26.408465099247,0.0 -53.6520441,-26.408539199247,0.0 -53.6518785,-26.408680699247,0.0 -53.6516754,-26.408826199247,0.0 -53.6514715,-26.408939699247,0.0 -53.6513651,-26.409011699247,0.0 -53.6512619,-26.409122599247,0.0 -53.651158,-26.409245499247,0.0 -53.6509202,-26.409483799247,0.0 -53.6507263,-26.409663299247,0.0 -53.6504829,-26.409869499247,0.0 -53.6502772,-26.410051399247,0.0 -53.6500158,-26.410189899247,0.0 -53.6498622,-26.410256699247,0.0 -53.6497788,-26.410285399247,0.0 -53.6497175,-26.410290399247,0.0 -53.6495526,-26.410285699247,0.0 -53.6494407,-26.410245099247,0.0 -53.6493552,-26.410180799247,0.0 -53.6492639,-26.410101099247,0.0 -53.6491856,-26.410020199247,0.0 -53.6491716,-26.410006499247,0.0 -53.649074,-26.409910999247,0.0 -53.6489599,-26.409820099247,0.0 -53.6488692,-26.409765499247,0.0 -53.6487304,-26.409696899247,0.0 -53.648583,-26.409611499247,0.0 -53.6484294,-26.409536799247,0.0 -53.6483003,-26.409452899247,0.0 -53.6481887,-26.409346799247,0.0 -53.6480937,-26.409245899247,0.0 -53.6480135,-26.409129099247,0.0 -53.6479507,-26.409025999247,0.0 -53.6478341,-26.408874099247,0.0 -53.6477725,-26.408776799247,0.0 -53.6476886,-26.408639799247,0.0 -53.6475884,-26.408504399247,0.0 -53.6475091,-26.408384699247,0.0 -53.6474331,-26.408262099247,0.0 -53.6473668,-26.408148299247,0.0 -53.6472749,-26.407992099247,0.0 -53.647203,-26.407870799247,0.0 -53.6471799,-26.407754899247,0.0 -53.6471744,-26.407671399247,0.0 -53.6471683,-26.407577299247,0.0 -53.6471546,-26.407400199247,0.0 -53.6471374,-26.407264299247,0.0 -53.647123,-26.407103599247,0.0 -53.6471137,-26.406933799247,0.0 -53.6471144,-26.406775799247,0.0 -53.647087,-26.4066175992471,0.0 -53.6470672,-26.4064541992471,0.0 -53.6470509,-26.4063095992471,0.0 -53.6470512,-26.4061815992471,0.0 -53.6470672,-26.4060790992471,0.0 -53.647064,-26.4059889992471,0.0 -53.6470122,-26.4058900992471,0.0 -53.6469393,-26.4058162992471,0.0 -53.646845,-26.4057423992471,0.0 -53.6467543,-26.4056849992471,0.0 -53.6466557,-26.4056150992471,0.0 -53.646564,-26.4055251992471,0.0 -53.6464862,-26.4054200992471,0.0 -53.6464339,-26.4053027992471,0.0 -53.6463748,-26.4051677992471,0.0 -53.6463242,-26.4050287992471,0.0 -53.6462972,-26.4049343992471,0.0 -53.6462633,-26.4048704992471,0.0 -53.646221,-26.4048121992471,0.0 -53.6461763,-26.4047422992471,0.0 -53.6461719,-26.4046909992471,0.0 -53.6461734,-26.4046589992471,0.0 -53.6461498,-26.4046375992471,0.0 -53.6461371,-26.4046284992471,0.0 -53.646114,-26.4046165992471,0.0 -53.6460458,-26.4045922992471,0.0 -53.6460345,-26.4045899992471,0.0 -53.646022,-26.4045872992471,0.0 -53.6460082,-26.4045839992471,0.0 -53.6459931,-26.4045799992471,0.0 -53.6459744,-26.4045743992471,0.0 -53.6459514,-26.4045672992471,0.0 -53.6459235,-26.4045602992471,0.0 -53.6458936,-26.4045544992471,0.0 -53.645869,-26.4045513992471,0.0 -53.6458227,-26.4045467992471,0.0 -53.6457717,-26.4045401992471,0.0 -53.6457323,-26.4045330992471,0.0 -53.6456978,-26.4045238992471,0.0 -53.6456694,-26.4045121992471,0.0 -53.6456364,-26.4044995992471,0.0 -53.6455952,-26.4044833992471,0.0 -53.6455492,-26.4044635992471,0.0 -53.6454996,-26.4044404992471,0.0 -53.6454485,-26.4044174992471,0.0 -53.6453969,-26.4043953992471,0.0 -53.6453423,-26.4043760992471,0.0 -53.6452846,-26.4043591992471,0.0 -53.6452192,-26.4043408992471,0.0 -53.6451537,-26.4043203992471,0.0 -53.6450903,-26.4042956992471,0.0 -53.645038,-26.4042652992471,0.0 -53.6450079,-26.4042401992471,0.0 -53.6449777,-26.4042085992471,0.0 -53.644924,-26.4041481992471,0.0 -53.6448697,-26.4040836992471,0.0 -53.6448182,-26.4040333992471,0.0 -53.6447663,-26.4039918992471,0.0 -53.6447285,-26.4039677992471,0.0 -53.6447171,-26.4039586992471,0.0 -53.6446713,-26.4039106992471,0.0 -53.6446308,-26.4038427992471,0.0 -53.6446104,-26.4037810992471,0.0 -53.6446022,-26.4037473992471,0.0 -53.6445932,-26.4036597992471,0.0 -53.644591,-26.4035766992471,0.0 -53.6445925,-26.4035387992471,0.0 -53.6446017,-26.4034651992471,0.0 -53.6446053,-26.4033954992471,0.0 -53.6446009,-26.4033395992471,0.0 -53.6445936,-26.4032957992471,0.0 -53.6445922,-26.4032717992471,0.0 -53.6445451,-26.4032094992471,0.0 -53.6444801,-26.4031436992471,0.0 -53.6444379,-26.4031020992471,0.0 -53.6443432,-26.4030452992471,0.0 -53.6442289,-26.4029758992471,0.0 -53.6441512,-26.4029235992471,0.0 -53.644118,-26.4029007992471,0.0 -53.644029,-26.4028472992471,0.0 -53.6439331,-26.4027784992471,0.0 -53.6438779,-26.4027180992471,0.0 -53.64386,-26.4026854992471,0.0 -53.6438376,-26.4026284992471,0.0 -53.6437995,-26.4025457992471,0.0 -53.6437573,-26.4024703992471,0.0 -53.6437253,-26.4024190992471,0.0 -53.6436784,-26.4023659992471,0.0 -53.6436227,-26.4023120992471,0.0 -53.6435878,-26.4022777992471,0.0 -53.6435826,-26.4022699992471,0.0 -53.6435708,-26.4022617992471,0.0 -53.6435577,-26.4022574992471,0.0 -53.6435511,-26.4022529992471,0.0 -53.643544,-26.4022472992471,0.0 -53.6435378,-26.4022426992471,0.0 -53.6435245,-26.4022255992471,0.0 -53.643513,-26.4022085992471,0.0 -53.6435066,-26.4021899992471,0.0 -53.6435035,-26.4021627992471,0.0 -53.6435155,-26.4021121992471,0.0 -53.6435335,-26.4020521992471,0.0 -53.6435459,-26.4020072992471,0.0 -53.6435519,-26.4019738992471,0.0 -53.6435536,-26.4019608992471,0.0 -53.6435604,-26.4019059992471,0.0 -53.6435612,-26.4017019992471,0.0 -53.6435557,-26.4016693992471,0.0 -53.643541,-26.4015929992471,0.0 -53.6435312,-26.4015107992471,0.0 -53.6435323,-26.4014672992472,0.0 -53.6435468,-26.4013994992472,0.0 -53.6435572,-26.4013220992472,0.0 -53.6435586,-26.4012527992472,0.0 -53.6435577,-26.4012183992471,0.0 -53.6435333,-26.4011793992472,0.0 -53.6434922,-26.4011410992472,0.0 -53.6433187,-26.4010299992472,0.0 -53.6432372,-26.4009777992472,0.0 -53.6431894,-26.4009372992472,0.0 -53.6431705,-26.4009131992472,0.0 -53.6431385,-26.4008711992472,0.0 -53.6430792,-26.4007847992472,0.0 -53.6430331,-26.4007058992472,0.0 -53.6430115,-26.4006490992472,0.0 -53.6429777,-26.4005853992472,0.0 -53.6429265,-26.4004883992472,0.0 -53.6428845,-26.4004015992472,0.0 -53.6428775,-26.4003689992472,0.0 -53.6428574,-26.4003219992472,0.0 -53.6428223,-26.4002236992472,0.0 -53.6427945,-26.4001266992472,0.0 -53.6427828,-26.4000746992472,0.0 -53.6427436,-26.3999771992472,0.0 -53.6426969,-26.3998670992472,0.0 -53.6426647,-26.3997892992472,0.0 -53.6426577,-26.3997668992472,0.0 -53.6426234,-26.3997218992472,0.0 -53.6425614,-26.3996447992472,0.0 -53.642505,-26.3995815992472,0.0 -53.642477,-26.3995530992472,0.0 -53.6423996,-26.3995268992472,0.0 -53.6423054,-26.3994959992472,0.0 -53.642218,-26.3994730992472,0.0 -53.6422064,-26.3994697992472,0.0 -53.642158,-26.3994561992472,0.0 -53.6420841,-26.3994270992472,0.0 -53.6420155,-26.3993775992472,0.0 -53.6419718,-26.3993282992472,0.0 -53.6419462,-26.3992844992472,0.0 -53.641936,-26.3992502992472,0.0 -53.6419251,-26.3991899992472,0.0 -53.6419188,-26.3991397992472,0.0 -53.6419175,-26.3991192992472,0.0 -53.6419106,-26.3990579992472,0.0 -53.6419147,-26.3989933992472,0.0 -53.641925,-26.3989469992472,0.0 -53.6419284,-26.3989337992472,0.0 -53.641959,-26.3988808992472,0.0 -53.6419897,-26.3988295992472,0.0 -53.6420096,-26.3987909992472,0.0 -53.6420145,-26.3987647992472,0.0 -53.6420112,-26.3987461992472,0.0 -53.6420038,-26.3987307992472,0.0 -53.6419919,-26.3987172992472,0.0 -53.6419718,-26.3987054992472,0.0 -53.6419479,-26.3986939992472,0.0 -53.6419222,-26.3986825992472,0.0 -53.6418998,-26.3986724992472,0.0 -53.641879,-26.3986608992472,0.0 -53.6418617,-26.3986574992472,0.0 -53.6418508,-26.3986521992472,0.0 -53.641839,-26.3986477992472,0.0 -53.6418154,-26.3986431992472,0.0 -53.6417954,-26.3986394992472,0.0 -53.6417796,-26.3986369992472,0.0 -53.6417653,-26.3986354992472,0.0 -53.6417535,-26.3986347992472,0.0 -53.6417356,-26.3986323992472,0.0 -53.6417131,-26.3986299992472,0.0 -53.6416911,-26.3986267992472,0.0 -53.6416736,-26.3986229992472,0.0 -53.6416583,-26.3986200992472,0.0 -53.6416424,-26.3986157992472,0.0 -53.6416305,-26.3986127992472,0.0 -53.6416182,-26.3986088992472,0.0 -53.6416053,-26.3986003992472,0.0 -53.6415871,-26.3985892992472,0.0 -53.6415659,-26.3985745992472,0.0 -53.6415419,-26.3985538992472,0.0 -53.6415173,-26.3985276992472,0.0 -53.6414952,-26.3984986992472,0.0 -53.6414765,-26.3984654992472,0.0 -53.6414588,-26.3984295992472,0.0 -53.6414446,-26.3983907992472,0.0 -53.6414401,-26.3983706992472,0.0 -53.6414102,-26.3982958992472,0.0 -53.6413602,-26.3981906992472,0.0 -53.6412948,-26.3980995992472,0.0 -53.641243,-26.3980477992472,0.0 -53.6412213,-26.3980325992472,0.0 -53.6411618,-26.3980015992472,0.0 -53.64108,-26.3979709992472,0.0 -53.6410098,-26.3979598992472,0.0 -53.6409385,-26.3979612992472,0.0 -53.6408758,-26.3979666992472,0.0 -53.640826,-26.3979717992472,0.0 -53.6407884,-26.3979788992472,0.0 -53.6407692,-26.3979857992472,0.0 -53.6407269,-26.3979897992472,0.0 -53.6405985,-26.3979954992472,0.0 -53.6404578,-26.3979963992472,0.0 -53.6403546,-26.3979919992472,0.0 -53.6403117,-26.3979877992472,0.0 -53.6402039,-26.3979833992472,0.0 -53.6400429,-26.3979704992472,0.0 -53.6399027,-26.3979520992472,0.0 -53.6398202,-26.3979370992472,0.0 -53.6397986,-26.3979306992472,0.0 -53.6397151,-26.3978913992472,0.0 -53.6395954,-26.3978385992472,0.0 -53.6394858,-26.3977965992472,0.0 -53.6394144,-26.3977781992472,0.0 -53.6393486,-26.3977757992472,0.0 -53.6392416,-26.3977765992472,0.0 -53.6390407,-26.3977840992472,0.0 -53.6389318,-26.3977976992472,0.0 -53.6388937,-26.3978043992472,0.0 -53.6387321,-26.3978291992472,0.0 -53.6385486,-26.3978552992472,0.0 -53.6383975,-26.3978746992472,0.0 -53.6383161,-26.3978836992472,0.0 -53.6383013,-26.3978834992472,0.0 -53.638155,-26.3978853992472,0.0 -53.6380644,-26.3978844992472,0.0 -53.6378477,-26.3978784992472,0.0 -53.6377721,-26.3978735992472,0.0 -53.6376909,-26.3978677992472,0.0 -53.6375506,-26.3978451992472,0.0 -53.6374837,-26.3978275992472,0.0 -53.6373965,-26.3978045992472,0.0 -53.6372777,-26.3977622992472,0.0 -53.6372142,-26.3977331992472,0.0 -53.6371572,-26.3977136992472,0.0 -53.6370242,-26.3976569992472,0.0 -53.6368873,-26.3975874992472,0.0 -53.6367887,-26.3975153992472,0.0 -53.6367479,-26.3974733992472,0.0 -53.6367217,-26.3974458992472,0.0 -53.6366462,-26.3973614992472,0.0 -53.6365629,-26.3972674992472,0.0 -53.6365047,-26.3972010992472,0.0 -53.6364401,-26.3971452992472,0.0 -53.6363332,-26.3970517992472,0.0 -53.6362408,-26.3969639992472,0.0 -53.6361842,-26.3968988992472,0.0 -53.6361787,-26.3968881992472,0.0 -53.6361703,-26.3968715992472,0.0 -53.6361139,-26.3967954992472,0.0 -53.6360484,-26.3967039992472,0.0 -53.6359956,-26.3966304992472,0.0 -53.635945,-26.3965804992472,0.0 -53.6358914,-26.3965392992472,0.0 -53.6358536,-26.3965128992472,0.0 -53.6358432,-26.3965061992473,0.0 -53.6357769,-26.3964647992473,0.0 -53.6357093,-26.3964315992473,0.0 -53.6356405,-26.3964117992473,0.0 -53.6355795,-26.3964028992472,0.0 -53.6355262,-26.3963896992473,0.0 -53.6354752,-26.3963713992473,0.0 -53.6354309,-26.3963514992473,0.0 -53.6353891,-26.3963325992473,0.0 -53.635353,-26.3963139992473,0.0 -53.635327,-26.3962969992473,0.0 -53.6353202,-26.3962879992473,0.0 -53.635271,-26.3962792992473,0.0 -53.6351869,-26.3962794992472,0.0 -53.6351075,-26.3962883992473,0.0 -53.6350364,-26.3963030992472,0.0 -53.6349782,-26.3963212992473,0.0 -53.6349286,-26.3963378992472,0.0 -53.6348812,-26.3963584992473,0.0 -53.6348352,-26.3963782992473,0.0 -53.6347913,-26.3963983992473,0.0 -53.6347504,-26.3964171992473,0.0 -53.634711,-26.3964330992473,0.0 -53.6346746,-26.3964447992473,0.0 -53.6346493,-26.3964526992472,0.0 -53.6346336,-26.3964575992473,0.0 -53.6346224,-26.3964604992473,0.0 -53.6345548,-26.3964714992472,0.0 -53.6344848,-26.3964843992472,0.0 -53.6344314,-26.3964926992472,0.0 -53.6343901,-26.3964930992473,0.0 -53.6343609,-26.3964880992472,0.0 -53.6343516,-26.3964841992473,0.0 -53.6343141,-26.3964706992472,0.0 -53.6342499,-26.3964539992472,0.0 -53.6341777,-26.3964447992473,0.0 -53.6341053,-26.3964429992473,0.0 -53.6340353,-26.3964397992473,0.0 -53.6339723,-26.3964303992472,0.0 -53.6339153,-26.3964121992472,0.0 -53.6338729,-26.3963914992472,0.0 -53.6338469,-26.3963680992472,0.0 -53.6338383,-26.3963525992473,0.0 -53.6338109,-26.3963135992473,0.0 -53.6337704,-26.3962628992473,0.0 -53.6337275,-26.3962163992473,0.0 -53.6336826,-26.3961772992473,0.0 -53.6336386,-26.3961473992473,0.0 -53.6335921,-26.3961238992473,0.0 -53.6335499,-26.3961090992473,0.0 -53.6335165,-26.3961000992473,0.0 -53.633495,-26.3960940992473,0.0 -53.6334832,-26.3960906992473,0.0 -53.6334585,-26.3960947992473,0.0 -53.6334484,-26.3960963992473,0.0 -53.6334302,-26.3960993992473,0.0 -53.6334156,-26.3961018992473,0.0 -53.6334035,-26.3961043992473,0.0 -53.6333935,-26.3961068992473,0.0 -53.6333738,-26.3961112992473,0.0 -53.6333632,-26.3961127992473,0.0 -53.6333496,-26.3961130992473,0.0 -53.6333328,-26.3961114992473,0.0 -53.633312,-26.3961081992473,0.0 -53.6332906,-26.3961016992473,0.0 -53.6332692,-26.3960938992473,0.0 -53.6332457,-26.3960833992473,0.0 -53.6332217,-26.3960700992473,0.0 -53.6331976,-26.3960549992473,0.0 -53.6331749,-26.3960384992473,0.0 -53.6331458,-26.3960159992473,0.0 -53.6331307,-26.3960041992473,0.0 -53.6331147,-26.3959893992473,0.0 -53.6330987,-26.3959741992473,0.0 -53.6330884,-26.3959638992473,0.0 -53.6330641,-26.3959387992473,0.0 -53.6330186,-26.3958939992473,0.0 -53.6329884,-26.3958539992473,0.0 -53.6329767,-26.3958240992473,0.0 -53.63297,-26.3957981992473,0.0 -53.6329634,-26.3957709992473,0.0 -53.6329552,-26.3957405992473,0.0 -53.632947,-26.3957106992473,0.0 -53.6329388,-26.3956816992473,0.0 -53.6329331,-26.3956530992473,0.0 -53.632925,-26.3956066992473,0.0 -53.6329221,-26.3955379992473,0.0 -53.632925,-26.3954845992473,0.0 -53.6329369,-26.3954497992473,0.0 -53.632956,-26.3954188992473,0.0 -53.6329791,-26.3953866992473,0.0 -53.6330027,-26.3953520992473,0.0 -53.6330247,-26.3953161992473,0.0 -53.6330382,-26.3952853992473,0.0 -53.6330727,-26.3952410992473,0.0 -53.6331195,-26.3952029992473,0.0 -53.6331616,-26.3951848992473,0.0 -53.6331954,-26.3951788992473,0.0 -53.6332242,-26.3951756992473,0.0 -53.6332484,-26.3951743992473,0.0 -53.6332717,-26.3951721992473,0.0 -53.6332954,-26.3951685992473,0.0 -53.6333216,-26.3951626992473,0.0 -53.6333533,-26.3951547992473,0.0 -53.6333899,-26.3951418992473,0.0 -53.6334285,-26.3951239992473,0.0 -53.6334686,-26.3951040992473,0.0 -53.6335066,-26.3950820992473,0.0 -53.6335375,-26.3950605992473,0.0 -53.6335529,-26.3950461992473,0.0 -53.6335783,-26.3950247992473,0.0 -53.6336136,-26.3949986992473,0.0 -53.6336522,-26.3949798992473,0.0 -53.633691,-26.3949695992473,0.0 -53.6337297,-26.3949611992473,0.0 -53.6337716,-26.3949532992473,0.0 -53.6338219,-26.3949423992473,0.0 -53.6338734,-26.3949323992473,0.0 -53.6339277,-26.3949191992473,0.0 -53.63398,-26.3949023992473,0.0 -53.6340241,-26.3948842992473,0.0 -53.6340547,-26.3948668992473,0.0 -53.634115,-26.3948234992473,0.0 -53.634192,-26.3947584992473,0.0 -53.6342586,-26.3946989992473,0.0 -53.6343115,-26.3946415992473,0.0 -53.6343434,-26.3945936992473,0.0 -53.6343618,-26.3945550992473,0.0 -53.6343963,-26.3945089992473,0.0 -53.6344302,-26.3944350992473,0.0 -53.6344454,-26.3943668992473,0.0 -53.6344479,-26.3943167992473,0.0 -53.634446,-26.3942734992473,0.0 -53.6344442,-26.3942329992473,0.0 -53.6344428,-26.3941942992473,0.0 -53.634443,-26.3941541992473,0.0 -53.6344442,-26.3941131992473,0.0 -53.6344455,-26.3940775992473,0.0 -53.6344461,-26.3940625992473,0.0 -53.6344528,-26.3940409992473,0.0 -53.6344534,-26.3939758992473,0.0 -53.6344409,-26.3939072992473,0.0 -53.63442,-26.3938547992473,0.0 -53.6344057,-26.3938235992473,0.0 -53.6343808,-26.3937934992473,0.0 -53.6343404,-26.3937494992473,0.0 -53.6343012,-26.3937123992473,0.0 -53.634263,-26.3936774992473,0.0 -53.6342309,-26.3936433992473,0.0 -53.6342074,-26.3936081992473,0.0 -53.634193,-26.3935733992473,0.0 -53.6341827,-26.3935411992473,0.0 -53.6341804,-26.3935270992473,0.0 -53.6341837,-26.3934687992473,0.0 -53.6341781,-26.3934150992473,0.0 -53.6341574,-26.3933725992473,0.0 -53.6341289,-26.3933379992473,0.0 -53.6341139,-26.3933208992473,0.0 -53.6340768,-26.3932914992473,0.0 -53.6340328,-26.3932675992473,0.0 -53.6339867,-26.3932437992473,0.0 -53.6339427,-26.3932180992473,0.0 -53.6339043,-26.3931954992473,0.0 -53.6338714,-26.3931741992473,0.0 -53.6338478,-26.3931549992473,0.0 -53.6338389,-26.3931446992473,0.0 -53.633772,-26.3931156992473,0.0 -53.6336871,-26.3930957992473,0.0 -53.6336087,-26.3930952992473,0.0 -53.6335355,-26.3931023992473,0.0 -53.6334658,-26.3931112992473,0.0 -53.6334053,-26.3931204992473,0.0 -53.6333599,-26.3931280992473,0.0 -53.6333312,-26.3931331992473,0.0 -53.633226,-26.3931376992473,0.0 -53.6331151,-26.3931340992473,0.0 -53.6330284,-26.3931254992473,0.0 -53.6329706,-26.3931177992473,0.0 -53.6329517,-26.3931121992473,0.0 -53.6329095,-26.3930996992473,0.0 -53.632834,-26.3930727992473,0.0 -53.6327672,-26.3930446992473,0.0 -53.6327149,-26.3930154992473,0.0 -53.6326748,-26.3929819992473,0.0 -53.6326417,-26.3929488992473,0.0 -53.6326121,-26.3929142992473,0.0 -53.6325883,-26.3928868992473,0.0 -53.6325732,-26.3928684992473,0.0 -53.632568,-26.3928593992473,0.0 -53.6325254,-26.3928090992473,0.0 -53.6324146,-26.3926387992473,0.0 -53.6324002,-26.3926025992473,0.0 -53.6323876,-26.3925352992473,0.0 -53.632368,-26.3924198992473,0.0 -53.6323543,-26.3923212992473,0.0 -53.6323513,-26.3922748992473,0.0 -53.6323467,-26.3922001992473,0.0 -53.6323296,-26.3921307992473,0.0 -53.6323032,-26.3920815992473,0.0 -53.632268,-26.3920411992473,0.0 -53.6322303,-26.3920057992473,0.0 -53.6321942,-26.3919731992473,0.0 -53.632174,-26.3919525992473,0.0 -53.6320941,-26.3919069992473,0.0 -53.6320122,-26.3918577992473,0.0 -53.6319729,-26.3918328992473,0.0 -53.6319547,-26.3918213992473,0.0 -53.6319439,-26.3918137992473,0.0 -53.631902,-26.3917935992473,0.0 -53.6318131,-26.3917517992473,0.0 -53.6317308,-26.3917093992473,0.0 -53.6316707,-26.3916707992473,0.0 -53.6316475,-26.3916501992473,0.0 -53.6316325,-26.3916344992473,0.0 -53.6315957,-26.3915918992473,0.0 -53.6315645,-26.3915508992474,0.0 -53.6315534,-26.3915361992473,0.0 -53.6315479,-26.3915288992473,0.0 -53.6315159,-26.3914988992473,0.0 -53.6314691,-26.3914654992474,0.0 -53.6314256,-26.3914397992473,0.0 -53.6313861,-26.3914176992474,0.0 -53.6313518,-26.3913977992474,0.0 -53.6313231,-26.3913772992474,0.0 -53.6312989,-26.3913589992474,0.0 -53.6312782,-26.3913392992473,0.0 -53.6312632,-26.3913222992474,0.0 -53.6312481,-26.3913010992474,0.0 -53.6311837,-26.3912470992473,0.0 -53.6311,-26.3911868992474,0.0 -53.6310349,-26.3911460992474,0.0 -53.6309862,-26.3911200992474,0.0 -53.6308983,-26.3910759992474,0.0 -53.6307837,-26.3910181992474,0.0 -53.6306973,-26.3909731992474,0.0 -53.6306583,-26.3909482992474,0.0 -53.6305681,-26.3908814992474,0.0 -53.6305024,-26.3908219992474,0.0 -53.6304432,-26.3907509992474,0.0 -53.6304195,-26.3907062992474,0.0 -53.630408,-26.3906882992474,0.0 -53.6303603,-26.3906093992474,0.0 -53.6303134,-26.3905226992474,0.0 -53.6302801,-26.3904548992474,0.0 -53.6302726,-26.3904312992474,0.0 -53.6302392,-26.3903867992474,0.0 -53.6302,-26.3903468992474,0.0 -53.6301594,-26.3903169992474,0.0 -53.6301215,-26.3902952992474,0.0 -53.6300912,-26.3902775992474,0.0 -53.6300687,-26.3902661992474,0.0 -53.6300483,-26.3902577992474,0.0 -53.630031,-26.3902507992474,0.0 -53.6300211,-26.3902400992474,0.0 -53.6299379,-26.3902058992474,0.0 -53.6298446,-26.3901719992474,0.0 -53.6297689,-26.3901540992474,0.0 -53.6296954,-26.3901516992474,0.0 -53.6295811,-26.3901499992474,0.0 -53.6294748,-26.3901517992474,0.0 -53.6294026,-26.3901551992474,0.0 -53.6293849,-26.3901568992474,0.0 -53.6292829,-26.3901676992474,0.0 -53.6291991,-26.3901777992474,0.0 -53.629148,-26.3901795992474,0.0 -53.6291323,-26.3901788992474,0.0 -53.6290962,-26.3901835992474,0.0 -53.6290475,-26.3901906992474,0.0 -53.6290053,-26.3901941992474,0.0 -53.6289656,-26.3901934992474,0.0 -53.6289292,-26.3901890992474,0.0 -53.6289014,-26.3901827992474,0.0 -53.6288791,-26.3901753992474,0.0 -53.6288598,-26.3901670992474,0.0 -53.6288492,-26.3901622992474,0.0 -53.6286142,-26.3899727992474,0.0 -53.628608,-26.3899642992474,0.0 -53.6285671,-26.3898824992474,0.0 -53.6285193,-26.3898134992474,0.0 -53.6284793,-26.3897756992474,0.0 -53.6284511,-26.3897511992474,0.0 -53.6284387,-26.3897377992474,0.0 -53.6283814,-26.3896911992474,0.0 -53.6283163,-26.3896328992474,0.0 -53.6282627,-26.3895744992474,0.0 -53.6282291,-26.3895310992474,0.0 -53.6282145,-26.3895068992474,0.0 -53.6282026,-26.3894902992474,0.0 -53.6281877,-26.3894510992474,0.0 -53.6281621,-26.3893821992474,0.0 -53.6281052,-26.3892630992474,0.0 -53.6280727,-26.3892228992474,0.0 -53.628045,-26.3891988992474,0.0 -53.6280069,-26.3891817992474,0.0 -53.6278605,-26.3890995992474,0.0 -53.6278392,-26.3890808992474,0.0 -53.6278194,-26.3890458992474,0.0 -53.6278075,-26.3890065992474,0.0 -53.6277986,-26.3889655992474,0.0 -53.6277851,-26.3889226992474,0.0 -53.6277682,-26.3888853992474,0.0 -53.627754,-26.3888565992474,0.0 -53.6277409,-26.3888305992474,0.0 -53.6277176,-26.3887489992474,0.0 -53.6277079,-26.3886475992474,0.0 -53.6277078,-26.3885714992474,0.0 -53.627714,-26.3885301992474,0.0 -53.6277825,-26.3884116992474,0.0 -53.6278396,-26.3883513992474,0.0 -53.627888,-26.3883074992474,0.0 -53.6280717,-26.3881657992474,0.0 -53.6281482,-26.3880933992474,0.0 -53.6281934,-26.3880396992474,0.0 -53.628236,-26.3879813992474,0.0 -53.6282988,-26.3878820992474,0.0 -53.6283403,-26.3877952992474,0.0 -53.6283623,-26.3877400992474,0.0 -53.6283665,-26.3877250992474,0.0 -53.6283806,-26.3876319992474,0.0 -53.6283792,-26.3875408992474,0.0 -53.6283638,-26.3874740992474,0.0 -53.6283489,-26.3874371992474,0.0 -53.6282175,-26.3872880992474,0.0 -53.628167,-26.3872358992474,0.0 -53.6281536,-26.3872165992474,0.0 -53.6280412,-26.3871245992474,0.0 -53.6280066,-26.3870962992474,0.0 -53.6279076,-26.3870267992474,0.0 -53.6278411,-26.3869752992474,0.0 -53.6278205,-26.3869529992474,0.0 -53.6277356,-26.3868905992474,0.0 -53.6276413,-26.3868059992474,0.0 -53.6275656,-26.3867229992474,0.0 -53.6275343,-26.3866709992474,0.0 -53.6275305,-26.3866583992474,0.0 -53.6275231,-26.3866172992474,0.0 -53.6274925,-26.3865262992474,0.0 -53.6274769,-26.3864842992474,0.0 -53.6274616,-26.3864428992475,0.0 -53.6274522,-26.3864013992475,0.0 -53.6273847,-26.3863286992474,0.0 -53.6273052,-26.3862565992475,0.0 -53.62723,-26.3861961992475,0.0 -53.627186,-26.3861638992475,0.0 -53.6271742,-26.3861522992475,0.0 -53.6271233,-26.3861213992475,0.0 -53.6270011,-26.3860550992475,0.0 -53.6268765,-26.3859918992475,0.0 -53.6267742,-26.3859359992475,0.0 -53.6267283,-26.3859068992475,0.0 -53.6266188,-26.3858466992475,0.0 -53.626499,-26.3857706992475,0.0 -53.6263821,-26.3856915992475,0.0 -53.6263035,-26.3856366992475,0.0 -53.6262805,-26.3856197992475,0.0 -53.626184,-26.3855770992475,0.0 -53.6260714,-26.3855376992475,0.0 -53.6259621,-26.3855072992475,0.0 -53.6258707,-26.3854934992475,0.0 -53.6257926,-26.3854888992475,0.0 -53.6257393,-26.3854910992475,0.0 -53.625641,-26.3855058992475,0.0 -53.6255512,-26.3855181992475,0.0 -53.6254724,-26.3855276992475,0.0 -53.6254121,-26.3855318992475,0.0 -53.6253598,-26.3855327992475,0.0 -53.6253115,-26.3855321992475,0.0 -53.6252686,-26.3855274992475,0.0 -53.6252301,-26.3855144992475,0.0 -53.6251914,-26.3854933992475,0.0 -53.6251617,-26.3854707992475,0.0 -53.6251443,-26.3854529992475,0.0 -53.6249938,-26.3853614992475,0.0 -53.6249082,-26.3852534992475,0.0 -53.6248138,-26.3851848992475,0.0 -53.624724,-26.3851211992475,0.0 -53.6246742,-26.3850930992475,0.0 -53.6245722,-26.3850476992475,0.0 -53.6244388,-26.3850159992475,0.0 -53.6244158,-26.3850148992475,0.0 -53.624321,-26.3850102992475,0.0 -53.6242468,-26.3850178992475,0.0 -53.6242128,-26.3850306992475,0.0 -53.6241088,-26.3850821992475,0.0 -53.6240085,-26.3851404992475,0.0 -53.6239455,-26.3851836992475,0.0 -53.6239159,-26.3852095992475,0.0 -53.6238061,-26.3852471992475,0.0 -53.6236784,-26.3852733992475,0.0 -53.6235972,-26.3852841992475,0.0 -53.6235625,-26.3852847992475,0.0 -53.6234755,-26.3852577992475,0.0 -53.6233902,-26.3852156992475,0.0 -53.6233222,-26.3851656992475,0.0 -53.6232735,-26.3851171992475,0.0 -53.6232465,-26.3850795992475,0.0 -53.6232428,-26.3850696992475,0.0 -53.6231632,-26.3849632992475,0.0 -53.6230806,-26.3848618992475,0.0 -53.6230332,-26.3848073992475,0.0 -53.6230239,-26.3847930992475,0.0 -53.6229289,-26.3846755992475,0.0 -53.6228324,-26.3845549992475,0.0 -53.6227705,-26.3844586992475,0.0 -53.6227292,-26.3843805992475,0.0 -53.6227101,-26.3843432992475,0.0 -53.6226249,-26.3841819992475,0.0 -53.6225687,-26.3840891992475,0.0 -53.6225287,-26.3840264992475,0.0 -53.6224732,-26.3839440992475,0.0 -53.6224022,-26.3838437992475,0.0 -53.6223395,-26.3837542992475,0.0 -53.6222981,-26.3836974992475,0.0 -53.6222845,-26.3836719992475,0.0 -53.6222157,-26.3835553992475,0.0 -53.6221632,-26.3834479992475,0.0 -53.6221391,-26.3833782992475,0.0 -53.6221373,-26.3833642992475,0.0 -53.6221328,-26.3833303992475,0.0 -53.6221303,-26.3833118992475,0.0 -53.6221293,-26.3832897992475,0.0 -53.6221293,-26.3832658992475,0.0 -53.6221303,-26.3832419992475,0.0 -53.6221313,-26.3832167992475,0.0 -53.6221323,-26.3831851992475,0.0 -53.6221332,-26.3831540992475,0.0 -53.6221357,-26.3831229992475,0.0 -53.6221372,-26.3830918992475,0.0 -53.6221352,-26.3830562992475,0.0 -53.6221337,-26.3830323992475,0.0 -53.6221262,-26.3829651992475,0.0 -53.6221036,-26.3828686992475,0.0 -53.6220961,-26.3828321992475,0.0 -53.6219788,-26.3826577992475,0.0 -53.6219513,-26.3826253992475,0.0 -53.6218491,-26.3825545992475,0.0 -53.6217745,-26.3825045992475,0.0 -53.6217504,-26.3824906992475,0.0 -53.6216728,-26.3824501992475,0.0 -53.621543,-26.3823771992475,0.0 -53.6214549,-26.3823113992475,0.0 -53.6214218,-26.3822748992475,0.0 -53.6213647,-26.3821793992475,0.0 -53.6213111,-26.3820914992475,0.0 -53.621285,-26.3820527992475,0.0 -53.6212244,-26.3819909992475,0.0 -53.6211257,-26.3819121992475,0.0 -53.6210426,-26.3818504992475,0.0 -53.620996,-26.3818080992475,0.0 -53.6209855,-26.3817868992475,0.0 -53.6209043,-26.3817039992475,0.0 -53.6208026,-26.3816364992475,0.0 -53.620743,-26.3816048992475,0.0 -53.6207255,-26.3815990992475,0.0 -53.6206248,-26.3815878992475,0.0 -53.6205242,-26.3815851992475,0.0 -53.6204365,-26.3815843992476,0.0 -53.620381,-26.3815785992475,0.0 -53.6203574,-26.3815717992475,0.0 -53.6203028,-26.3815456992475,0.0 -53.6202417,-26.3815222992475,0.0 -53.6201866,-26.3815051992475,0.0 -53.620135,-26.3814961992476,0.0 -53.6200925,-26.3814889992475,0.0 -53.6200704,-26.3814822992475,0.0 -53.6200584,-26.3814768992476,0.0 -53.6200499,-26.3814628992475,0.0 -53.6200414,-26.3814448992476,0.0 -53.6200354,-26.3814267992475,0.0 -53.6200319,-26.3814078992475,0.0 -53.6200303,-26.3813889992476,0.0 -53.6200303,-26.3813690992476,0.0 -53.6200308,-26.3813492992475,0.0 -53.6200328,-26.3813302992476,0.0 -53.6200363,-26.3813091992475,0.0 -53.6200428,-26.3812888992475,0.0 -53.6200508,-26.3812676992476,0.0 -53.6200583,-26.3812500992476,0.0 -53.6200648,-26.3812328992476,0.0 -53.6200714,-26.3812135992476,0.0 -53.6200799,-26.3811878992476,0.0 -53.6200899,-26.3811530992476,0.0 -53.6200974,-26.3811192992476,0.0 -53.6201004,-26.3810849992476,0.0 -53.6201013,-26.3810647992476,0.0 -53.6200798,-26.3809447992476,0.0 -53.6200557,-26.3808289992476,0.0 -53.6200497,-26.3807996992476,0.0 -53.6200166,-26.3806910992476,0.0 -53.619962,-26.3805607992476,0.0 -53.6199224,-26.3804760992476,0.0 -53.6199108,-26.3804539992476,0.0 -53.6198542,-26.3803750992476,0.0 -53.6197856,-26.3802759992476,0.0 -53.61975,-26.3802019992476,0.0 -53.6197445,-26.3801821992476,0.0 -53.6197214,-26.3801217992476,0.0 -53.6196813,-26.3800433992476,0.0 -53.6196518,-26.3799964992476,0.0 -53.6196428,-26.3799865992476,0.0 -53.6195907,-26.3799027992476,0.0 -53.6195451,-26.3797995992476,0.0 -53.6195305,-26.3797183992476,0.0 -53.6195335,-26.3796904992476,0.0 -53.619551,-26.3796151992476,0.0 -53.6195825,-26.3795082992476,0.0 -53.619607,-26.3794527992476,0.0 -53.6196571,-26.3793359992476,0.0 -53.6196916,-26.3792277992476,0.0 -53.6197151,-26.3791821992476,0.0 -53.6197326,-26.3790866992476,0.0 -53.6197341,-26.3789653992476,0.0 -53.6197335,-26.3789600992476,0.0 -53.6197004,-26.3787291992476,0.0 -53.6196548,-26.3786051992476,0.0 -53.6196017,-26.3785177992476,0.0 -53.6195626,-26.3784780992476,0.0 -53.6195531,-26.3784695992476,0.0 -53.619481,-26.3784122992476,0.0 -53.6193983,-26.3783374992476,0.0 -53.6193382,-26.3782676992476,0.0 -53.6192971,-26.3782140992476,0.0 -53.6192811,-26.3781829992476,0.0 -53.6192724,-26.3781515992476,0.0 -53.6192496,-26.3780989992476,0.0 -53.6192174,-26.3780415992476,0.0 -53.6191888,-26.3779921992476,0.0 -53.6191782,-26.3779750992476,0.0 -53.6191704,-26.3779438992476,0.0 -53.6191356,-26.3778433992476,0.0 -53.6191043,-26.3777480992476,0.0 -53.6190617,-26.3776524992476,0.0 -53.6190212,-26.3775617992476,0.0 -53.6190095,-26.3775327992476,0.0 -53.6189462,-26.3773320992476,0.0 -53.6189408,-26.3772973992476,0.0 -53.618912,-26.3772055992476,0.0 -53.6188599,-26.3770906992476,0.0 -53.6187991,-26.3769886992476,0.0 -53.618759,-26.3769270992476,0.0 -53.6187504,-26.3769107992476,0.0 -53.6187255,-26.3768520992476,0.0 -53.6184407,-26.3768440992476,0.0 -53.6176981,-26.3768230992476,0.0 -53.60429,-26.3764453992477,0.0 -53.5911153,-26.409672699247,0.0 -53.5910875,-26.409742899247,0.0 -53.5909999,-26.409776599247,0.0 -53.5909239,-26.409805799247,0.0 -53.5908614,-26.409844199247,0.0 -53.5908147,-26.409876099247,0.0 -53.5907806,-26.409906599247,0.0 -53.590683,-26.409985299247,0.0 -53.5905636,-26.410092599247,0.0 -53.5904474,-26.410193199247,0.0 -53.5903412,-26.410291199247,0.0 -53.5902465,-26.410368099247,0.0 -53.5902119,-26.410400299247,0.0 -53.590195,-26.410414099247,0.0 -53.5901222,-26.410462099247,0.0 -53.5900798,-26.410487499247,0.0 -53.5899665,-26.410560699247,0.0 -53.5898869,-26.410604399247,0.0 -53.58974,-26.410675299247,0.0 -53.5896839,-26.410707899247,0.0 -53.5896402,-26.410743399247,0.0 -53.5896263,-26.410756899247,0.0 -53.5895803,-26.410807399247,0.0 -53.5894709,-26.410939699247,0.0 -53.5894304,-26.410984799247,0.0 -53.5893585,-26.411053399247,0.0 -53.5892438,-26.411154099247,0.0 -53.589212,-26.411178599247,0.0 -53.5891322,-26.411234599247,0.0 -53.5890931,-26.411259899247,0.0 -53.5890235,-26.411310799247,0.0 -53.5889357,-26.411363999247,0.0 -53.5888606,-26.411411599247,0.0 -53.5887892,-26.4114612992469,0.0 -53.5887421,-26.4114989992469,0.0 -53.5886578,-26.411577899247,0.0 -53.5885297,-26.4117014992469,0.0 -53.5884847,-26.4117396992469,0.0 -53.5884254,-26.4117823992469,0.0 -53.5883438,-26.4118364992469,0.0 -53.5882592,-26.4118820992469,0.0 -53.5882288,-26.4118969992469,0.0 -53.5881518,-26.4119274992469,0.0 -53.5880118,-26.4119677992469,0.0 -53.5879675,-26.4119821992469,0.0 -53.5878974,-26.4120114992469,0.0 -53.5878404,-26.4120460992469,0.0 -53.5877782,-26.4120993992469,0.0 -53.5877467,-26.4121345992469,0.0 -53.5877244,-26.4121630992469,0.0 -53.5876994,-26.4121987992469,0.0 -53.587677,-26.4122377992469,0.0 -53.5876686,-26.4122595992469,0.0 -53.5876553,-26.4123048992469,0.0 -53.5876404,-26.4124083992469,0.0 -53.5876342,-26.4124941992469,0.0 -53.587636,-26.4127657992469,0.0 -53.5876329,-26.4128887992469,0.0 -53.5876206,-26.4129906992469,0.0 -53.5876113,-26.4130834992469,0.0 -53.5876018,-26.4131460992469,0.0 -53.5875952,-26.4131739992469,0.0 -53.5875798,-26.4132172992469,0.0 -53.5875378,-26.4133181992469,0.0 -53.5875136,-26.4133613992469,0.0 -53.5874807,-26.4134135992469,0.0 -53.5874454,-26.4134623992469,0.0 -53.5873791,-26.4135431992469,0.0 -53.5873121,-26.4136138992469,0.0 -53.5871798,-26.4137408992469,0.0 -53.5870152,-26.4139113992469,0.0 -53.5869844,-26.4139475992469,0.0 -53.5869248,-26.4140314992469,0.0 -53.5868766,-26.4140947992469,0.0 -53.5868641,-26.4141086992469,0.0 -53.5868353,-26.4141338992469,0.0 -53.5868163,-26.4141551992469,0.0 -53.5867562,-26.4142042992469,0.0 -53.5866552,-26.4142824992469,0.0 -53.5866018,-26.4143307992469,0.0 -53.5865684,-26.4143566992469,0.0 -53.5865308,-26.4143893992469,0.0 -53.586485,-26.4144264992469,0.0 -53.5863869,-26.4144974992469,0.0 -53.5862565,-26.4145867992469,0.0 -53.5861967,-26.4146184992469,0.0 -53.5861505,-26.4146394992469,0.0 -53.5860565,-26.4146868992469,0.0 -53.5859654,-26.4147352992469,0.0 -53.585797,-26.4148329992469,0.0 -53.5857588,-26.4148535992469,0.0 -53.5857121,-26.4148858992469,0.0 -53.5856633,-26.4149148992469,0.0 -53.5855496,-26.4149874992469,0.0 -53.5854495,-26.4150544992469,0.0 -53.5854174,-26.4150800992469,0.0 -53.5853754,-26.4151183992469,0.0 -53.5853207,-26.4151740992469,0.0 -53.5852993,-26.4151985992469,0.0 -53.5852195,-26.4152979992469,0.0 -53.5851676,-26.4153477992469,0.0 -53.5849938,-26.4154725992469,0.0 -53.5849269,-26.4155222992469,0.0 -53.5848881,-26.4155545992469,0.0 -53.5847885,-26.4156354992469,0.0 -53.584603,-26.4157593992469,0.0 -53.5843973,-26.4159110992469,0.0 -53.5843406,-26.4159474992469,0.0 -53.5843089,-26.4159698992469,0.0 -53.5842304,-26.4160162992469,0.0 -53.5841231,-26.4160770992469,0.0 -53.5840813,-26.4161058992469,0.0 -53.5839986,-26.4161548992469,0.0 -53.5839345,-26.4161880992469,0.0 -53.5838314,-26.4162485992469,0.0 -53.5836968,-26.4163251992469,0.0 -53.5835934,-26.4163798992468,0.0 -53.5835635,-26.4163901992469,0.0 -53.5835141,-26.4164027992468,0.0 -53.5834816,-26.4164079992469,0.0 -53.5834427,-26.4164110992469,0.0 -53.583415,-26.4164101992469,0.0 -53.5833832,-26.4164052992469,0.0 -53.5833638,-26.4163987992468,0.0 -53.5833459,-26.4163887992469,0.0 -53.5833179,-26.4163652992469,0.0 -53.5832634,-26.4163079992469,0.0 -53.5832348,-26.4162669992469,0.0 -53.583217,-26.4162306992469,0.0 -53.5831997,-26.4161762992469,0.0 -53.5831759,-26.4160620992469,0.0 -53.5831668,-26.4160089992469,0.0 -53.5831488,-26.4159258992469,0.0 -53.5831077,-26.4157761992469,0.0 -53.5830867,-26.4156733992469,0.0 -53.5830738,-26.4155764992469,0.0 -53.5830599,-26.4154347992469,0.0 -53.5830506,-26.4152784992469,0.0 -53.5830452,-26.4151160992469,0.0 -53.5830371,-26.4150287992469,0.0 -53.5830246,-26.4149694992469,0.0 -53.5829926,-26.4148446992469,0.0 -53.5829782,-26.4147928992469,0.0 -53.5829458,-26.4146956992469,0.0 -53.5829262,-26.4146171992469,0.0 -53.582913,-26.4145345992469,0.0 -53.5829102,-26.4144634992469,0.0 -53.5829107,-26.4144439992469,0.0 -53.5829142,-26.4144186992469,0.0 -53.5829293,-26.4143639992469,0.0 -53.5829721,-26.4142506992469,0.0 -53.5829981,-26.4141728992469,0.0 -53.5830496,-26.4139805992469,0.0 -53.5830791,-26.4138803992469,0.0 -53.5831172,-26.4137787992469,0.0 -53.5831502,-26.4137054992469,0.0 -53.583167,-26.4136730992469,0.0 -53.583175,-26.4136495992469,0.0 -53.5832088,-26.4134322992469,0.0 -53.5832228,-26.4133514992469,0.0 -53.5832276,-26.4132897992469,0.0 -53.5832404,-26.4131920992469,0.0 -53.5832534,-26.4131109992469,0.0 -53.5832576,-26.4130888992469,0.0 -53.5827654,-26.4132118992469,0.0 -53.5821984,-26.4133534992469,0.0 -53.5683975,-26.4168766992468,0.0 -53.5628013,-26.4183353992468,0.0 -53.5594632,-26.4191884992468,0.0 -53.5534214,-26.4207386992468,0.0 -53.5505383,-26.4217773992467,0.0 -53.5414817,-26.4250400992467,0.0 -53.5401257,-26.4254764992467,0.0 -53.5402215,-26.4254657992467,0.0 -53.5402511,-26.4254639992467,0.0 -53.5402732,-26.4254645992467,0.0 -53.5402892,-26.4254670992467,0.0 -53.5403103,-26.4254733992467,0.0 -53.5403578,-26.4254926992467,0.0 -53.5403926,-26.4255113992467,0.0 -53.5404179,-26.4255292992467,0.0 -53.54044,-26.4255400992467,0.0 -53.5404591,-26.4255527992467,0.0 -53.5404853,-26.4255646992467,0.0 -53.5405045,-26.4255769992467,0.0 -53.5405965,-26.4256486992467,0.0 -53.5406112,-26.4256650992467,0.0 -53.5406304,-26.4256936992467,0.0 -53.5406521,-26.4257185992467,0.0 -53.5406826,-26.4257656992467,0.0 -53.5407076,-26.4258087992467,0.0 -53.5407298,-26.4258404992467,0.0 -53.540779,-26.4258993992467,0.0 -53.5408006,-26.4259277992467,0.0 -53.5408182,-26.4259538992467,0.0 -53.5408348,-26.4259838992467,0.0 -53.5408457,-26.4260093992467,0.0 -53.5408552,-26.4260520992467,0.0 -53.5408601,-26.4261145992467,0.0 -53.5408567,-26.4261849992467,0.0 -53.5408528,-26.4262171992467,0.0 -53.5408458,-26.4262757992467,0.0 -53.5408405,-26.4264003992467,0.0 -53.5408394,-26.4264843992467,0.0 -53.540836,-26.4265283992467,0.0 -53.5408352,-26.4265701992467,0.0 -53.5408246,-26.4266637992467,0.0 -53.5408173,-26.4267128992466,0.0 -53.5408144,-26.4267617992466,0.0 -53.5408078,-26.4268154992466,0.0 -53.5408095,-26.4269902992466,0.0 -53.5408153,-26.4270899992466,0.0 -53.5408236,-26.4271749992466,0.0 -53.5408288,-26.4272690992466,0.0 -53.5409665,-26.4272568992466,0.0 -53.5409892,-26.4272577992466,0.0 -53.5410168,-26.4272571992466,0.0 -53.5410497,-26.4272546992466,0.0 -53.5410885,-26.4272494992466,0.0 -53.5411317,-26.4272431992466,0.0 -53.5411843,-26.4272380992466,0.0 -53.541241,-26.4272373992466,0.0 -53.5413066,-26.4272416992466,0.0 -53.541371,-26.4272536992466,0.0 -53.5414355,-26.4272709992466,0.0 -53.5415006,-26.4272926992466,0.0 -53.5415593,-26.4273122992466,0.0 -53.5416184,-26.4273318992466,0.0 -53.541675,-26.4273488992466,0.0 -53.5417346,-26.4273644992466,0.0 -53.5417945,-26.4273782992466,0.0 -53.541855,-26.4273902992466,0.0 -53.5419123,-26.4273979992466,0.0 -53.5419651,-26.4274016992466,0.0 -53.5420208,-26.4273991992466,0.0 -53.5420723,-26.4273896992466,0.0 -53.5421255,-26.4273712992466,0.0 -53.5421775,-26.4273435992466,0.0 -53.5422303,-26.4273091992466,0.0 -53.542285,-26.4272689992466,0.0 -53.5423324,-26.4272333992466,0.0 -53.5423662,-26.4272086992466,0.0 -53.5423755,-26.4272048992466,0.0 -53.542459,-26.4271747992466,0.0 -53.5425712,-26.4271501992466,0.0 -53.5426709,-26.4271369992466,0.0 -53.5427627,-26.4271248992466,0.0 -53.5428412,-26.4271085992466,0.0 -53.5429211,-26.4270753992466,0.0 -53.5429964,-26.4270333992466,0.0 -53.5430711,-26.4269860992466,0.0 -53.5431374,-26.4269376992467,0.0 -53.5431879,-26.4268917992466,0.0 -53.5432096,-26.4268713992466,0.0 -53.5432371,-26.4268477992467,0.0 -53.5433033,-26.4267966992466,0.0 -53.5433745,-26.4267485992466,0.0 -53.5434333,-26.4267175992467,0.0 -53.5434871,-26.4267008992467,0.0 -53.5435424,-26.4266881992467,0.0 -53.5436489,-26.4266517992467,0.0 -53.5437007,-26.4266169992467,0.0 -53.5437432,-26.4265801992467,0.0 -53.5437802,-26.4265438992466,0.0 -53.5438002,-26.4265199992467,0.0 -53.5438565,-26.4264827992467,0.0 -53.5439425,-26.4264379992467,0.0 -53.5440254,-26.4264037992467,0.0 -53.5441037,-26.4263803992467,0.0 -53.5502571,-26.4372961992464,0.0 -53.5505728,-26.4371791992464,0.0 -53.5551967,-26.4436613992463,0.0 -53.5552213,-26.4436479992463,0.0 -53.5552465,-26.4436366992463,0.0 -53.5552799,-26.4436234992463,0.0 -53.5553114,-26.4436098992463,0.0 -53.5553331,-26.4435995992463,0.0 -53.5553656,-26.4435868992463,0.0 -53.5554014,-26.4435783992463,0.0 -53.5554162,-26.4435748992463,0.0 -53.5554621,-26.4435666992463,0.0 -53.5555006,-26.4435612992463,0.0 -53.5555319,-26.4435581992463,0.0 -53.5555608,-26.4435570992463,0.0 -53.5556107,-26.4435539992463,0.0 -53.5556362,-26.4435515992463,0.0 -53.5556606,-26.4435482992463,0.0 -53.5556864,-26.4435440992463,0.0 -53.5557118,-26.4435393992463,0.0 -53.5557376,-26.4435325992463,0.0 -53.5557619,-26.4435252992463,0.0 -53.5557832,-26.4435159992463,0.0 -53.5558034,-26.4435030992463,0.0 -53.5558353,-26.4435611992463,0.0 -53.5588328,-26.4504234992462,0.0 -53.5588417,-26.4504414992462,0.0 -53.5588101,-26.4504572992462,0.0 -53.5587737,-26.4504807992462,0.0 -53.5587498,-26.4505035992462,0.0 -53.5587293,-26.4505258992462,0.0 -53.5587073,-26.4505477992462,0.0 -53.5586853,-26.4505670992462,0.0 -53.5586631,-26.4505815992462,0.0 -53.5586417,-26.4505921992462,0.0 -53.5586226,-26.4506004992462,0.0 -53.558607,-26.4506087992462,0.0 -53.5585961,-26.4506164992462,0.0 -53.558579,-26.4506318992462,0.0 -53.5585526,-26.4506470992462,0.0 -53.5585414,-26.4506534992462,0.0 -53.5584803,-26.4506886992462,0.0 -53.558358,-26.4507576992462,0.0 -53.5583542,-26.4507590992462,0.0 -53.5582441,-26.4507982992462,0.0 -53.558207,-26.4508082992462,0.0 -53.5581904,-26.4508147992462,0.0 -53.5581639,-26.4508189992462,0.0 -53.5581238,-26.4508186992462,0.0 -53.5580716,-26.4508148992462,0.0 -53.5580449,-26.4508113992462,0.0 -53.5580202,-26.4508080992462,0.0 -53.5580028,-26.4508074992462,0.0 -53.5579638,-26.4508061992462,0.0 -53.5579612,-26.4508061992462,0.0 -53.5579548,-26.4508066992462,0.0 -53.5578923,-26.4508118992462,0.0 -53.557853,-26.4508181992462,0.0 -53.5578164,-26.4508239992462,0.0 -53.557741,-26.4508376992462,0.0 -53.5577212,-26.4508455992462,0.0 -53.5576867,-26.4508591992462,0.0 -53.5576091,-26.4508777992462,0.0 -53.5575245,-26.4508891992462,0.0 -53.5574246,-26.4509074992462,0.0 -53.5573972,-26.4509173992462,0.0 -53.5573363,-26.4509393992462,0.0 -53.5572839,-26.4509747992462,0.0 -53.5572634,-26.4509835992462,0.0 -53.5572433,-26.4509906992462,0.0 -53.5571956,-26.4510075992462,0.0 -53.5570815,-26.4510305992462,0.0 -53.5569578,-26.4510434992462,0.0 -53.5568757,-26.4510430992462,0.0 -53.5570155,-26.4542800992461,0.0 -53.5601703,-26.4542466992461,0.0 -53.5603763,-26.4542444992461,0.0 -53.5604559,-26.4683722992458,0.0 -53.5605635,-26.4683132992458,0.0 -53.5606774,-26.4682667992458,0.0 -53.560779,-26.4682336992458,0.0 -53.5608812,-26.4682095992458,0.0 -53.5609831,-26.4681927992458,0.0 -53.5610856,-26.4681772992458,0.0 -53.5611769,-26.4681570992458,0.0 -53.5612615,-26.4681346992458,0.0 -53.5613211,-26.4681159992458,0.0 -53.5613545,-26.4681017992458,0.0 -53.5614414,-26.4680901992458,0.0 -53.5615397,-26.4680777992458,0.0 -53.5616272,-26.4680647992458,0.0 -53.5617053,-26.4680552992458,0.0 -53.5617749,-26.4680513992458,0.0 -53.5618339,-26.4680491992458,0.0 -53.5618867,-26.4680476992458,0.0 -53.5619361,-26.4680449992458,0.0 -53.5619735,-26.4680416992458,0.0 -53.5620477,-26.4680381992458,0.0 -53.5621836,-26.4680255992458,0.0 -53.5623111,-26.4680064992458,0.0 -53.5623941,-26.4679870992458,0.0 -53.5624917,-26.4679701992458,0.0 -53.5626373,-26.4679447992458,0.0 -53.5627927,-26.4679085992458,0.0 -53.5629057,-26.4678703992458,0.0 -53.5629588,-26.4678425992458,0.0 -53.5630077,-26.4678246992458,0.0 -53.5631215,-26.4677718992458,0.0 -53.5632581,-26.4677057992458,0.0 -53.5633535,-26.4676603992458,0.0 -53.5634018,-26.4676376992458,0.0 -53.5635351,-26.4675985992458,0.0 -53.5636164,-26.4675698992458,0.0 -53.5637555,-26.4675064992458,0.0 -53.5637954,-26.4674775992458,0.0 -53.5638952,-26.4674139992458,0.0 -53.5640022,-26.4673324992458,0.0 -53.5640615,-26.4672702992458,0.0 -53.5640781,-26.4672495992458,0.0 -53.5641483,-26.4671703992459,0.0 -53.5642278,-26.4670758992459,0.0 -53.5642708,-26.4670178992458,0.0 -53.5643214,-26.4669804992458,0.0 -53.5644212,-26.4669300992459,0.0 -53.5645315,-26.4668836992459,0.0 -53.5646176,-26.4668500992459,0.0 -53.5646793,-26.4668191992459,0.0 -53.564703,-26.4668032992459,0.0 -53.5647911,-26.4667567992459,0.0 -53.5648774,-26.4666979992459,0.0 -53.5649487,-26.4666383992459,0.0 -53.5649979,-26.4665831992459,0.0 -53.5650286,-26.4665314992459,0.0 -53.5650382,-26.4665092992459,0.0 -53.5651113,-26.4664320992459,0.0 -53.5652133,-26.4663504992459,0.0 -53.5652815,-26.4662978992459,0.0 -53.5653113,-26.4662734992459,0.0 -53.5653703,-26.4662433992459,0.0 -53.5654614,-26.4662029992459,0.0 -53.5655535,-26.4661594992459,0.0 -53.5655867,-26.4661394992459,0.0 -53.565648,-26.4660902992459,0.0 -53.565664,-26.4660657992459,0.0 -53.5656994,-26.4660307992459,0.0 -53.565775,-26.4659585992459,0.0 -53.5658253,-26.4659070992459,0.0 -53.5658721,-26.4658743992459,0.0 -53.5659379,-26.4658450992459,0.0 -53.5660286,-26.4657970992459,0.0 -53.5661116,-26.4657411992459,0.0 -53.5661693,-26.4656927992459,0.0 -53.5662115,-26.4656492992459,0.0 -53.5663168,-26.4655875992459,0.0 -53.5664494,-26.4655340992459,0.0 -53.5665702,-26.4654968992459,0.0 -53.5666463,-26.4654791992459,0.0 -53.5667435,-26.4654743992459,0.0 -53.5668826,-26.4654575992459,0.0 -53.5670172,-26.4654201992459,0.0 -53.5671184,-26.4653685992459,0.0 -53.567184,-26.4653237992459,0.0 -53.5672317,-26.4652833992459,0.0 -53.5673169,-26.4652018992459,0.0 -53.5673939,-26.4651195992459,0.0 -53.5674297,-26.4650779992459,0.0 -53.5675147,-26.4650164992459,0.0 -53.5675269,-26.4650092992459,0.0 -53.5676353,-26.4649457992459,0.0 -53.5677189,-26.4648953992459,0.0 -53.5677696,-26.4648669992459,0.0 -53.5678777,-26.4648368992459,0.0 -53.5680244,-26.4648034992459,0.0 -53.5681595,-26.4647753992459,0.0 -53.5684271,-26.4646846992459,0.0 -53.5684899,-26.4646610992459,0.0 -53.568561,-26.4646353992459,0.0 -53.5686009,-26.4646205992459,0.0 -53.5686854,-26.4646093992459,0.0 -53.5687968,-26.4645967992459,0.0 -53.5694831,-26.4657918992459,0.0 -53.5706637,-26.4677099992458,0.0 -53.5674898,-26.4707752992458,0.0 -53.5755024,-26.4827605992455,0.0 -53.5756103,-26.4828466992455,0.0 -53.5756604,-26.4827899992455,0.0 -53.5756909,-26.4827399992455,0.0 -53.5757053,-26.4827118992455,0.0 -53.5757284,-26.4826644992455,0.0 -53.5757812,-26.4825627992455,0.0 -53.5758289,-26.4824622992456,0.0 -53.5758593,-26.4824048992455,0.0 -53.5758708,-26.4823845992455,0.0 -53.5759471,-26.4822800992455,0.0 -53.5760275,-26.4821404992456,0.0 -53.5760804,-26.4820267992456,0.0 -53.5761125,-26.4818886992456,0.0 -53.5761494,-26.4817133992456,0.0 -53.5761762,-26.4815905992456,0.0 -53.5761975,-26.4815283992456,0.0 -53.5762446,-26.4813952992456,0.0 -53.5762861,-26.4812654992456,0.0 -53.5763175,-26.4811696992456,0.0 -53.5764128,-26.4810063992456,0.0 -53.5765,-26.4808914992456,0.0 -53.5765674,-26.4808137992456,0.0 -53.576613,-26.4807591992456,0.0 -53.5766248,-26.4807435992456,0.0 -53.5767096,-26.4806600992456,0.0 -53.5767922,-26.4805550992456,0.0 -53.5768424,-26.4804723992456,0.0 -53.5768667,-26.4804262992456,0.0 -53.5769381,-26.4802624992456,0.0 -53.5769769,-26.4801346992456,0.0 -53.576989,-26.4800699992456,0.0 -53.5770168,-26.4799830992456,0.0 -53.5770731,-26.4798519992456,0.0 -53.5771167,-26.4797677992456,0.0 -53.5771385,-26.4797275992456,0.0 -53.5772138,-26.4796788992456,0.0 -53.5774237,-26.4795671992456,0.0 -53.5774841,-26.4795365992456,0.0 -53.5775665,-26.4795060992456,0.0 -53.5776966,-26.4794626992456,0.0 -53.5778197,-26.4794194992456,0.0 -53.5779154,-26.4793863992456,0.0 -53.577965,-26.4793668992456,0.0 -53.5779804,-26.4793604992456,0.0 -53.5780849,-26.4793229992456,0.0 -53.578215,-26.4792657992456,0.0 -53.5783201,-26.4792038992456,0.0 -53.5783845,-26.4791518992456,0.0 -53.57842,-26.4791101992456,0.0 -53.5784261,-26.4791021992456,0.0 -53.578487,-26.4790680992456,0.0 -53.5785764,-26.4790210992456,0.0 -53.5786673,-26.4789765992456,0.0 -53.5787445,-26.4789483992456,0.0 -53.5788124,-26.4789323992456,0.0 -53.578866,-26.4789221992456,0.0 -53.5789144,-26.4789153992456,0.0 -53.5789514,-26.4789107992456,0.0 -53.5789778,-26.4789062992456,0.0 -53.5789905,-26.4789033992456,0.0 -53.5790912,-26.4788767992456,0.0 -53.5791981,-26.4788609992456,0.0 -53.5793808,-26.4788699992456,0.0 -53.5794433,-26.4788746992456,0.0 -53.5794949,-26.4788742992456,0.0 -53.579547,-26.4788781992456,0.0 -53.5795911,-26.4788864992456,0.0 -53.5796006,-26.4788839992456,0.0 -53.5796079,-26.4788782992456,0.0 -53.5796298,-26.4788502992456,0.0 -53.5796432,-26.4788363992456,0.0 -53.5796511,-26.4788289992456,0.0 -53.5796601,-26.4788208992456,0.0 -53.5796687,-26.4788116992456,0.0 -53.5796774,-26.4788031992456,0.0 -53.5796865,-26.4787926992456,0.0 -53.5796964,-26.4787773992456,0.0 -53.5797056,-26.4787605992456,0.0 -53.5797131,-26.4787393992456,0.0 -53.5797217,-26.4787149992456,0.0 -53.5797342,-26.4786889992456,0.0 -53.5797564,-26.4786604992456,0.0 -53.5797913,-26.4786303992456,0.0 -53.5798334,-26.4786021992456,0.0 -53.5798762,-26.4785747992456,0.0 -53.5799181,-26.4785413992456,0.0 -53.5799505,-26.4785022992456,0.0 -53.579967,-26.4784715992456,0.0 -53.5799761,-26.4784447992456,0.0 -53.5800092,-26.4783580992456,0.0 -53.580034,-26.4782690992456,0.0 -53.5800418,-26.4782305992456,0.0 -53.5800459,-26.4782040992456,0.0 -53.5800632,-26.4781384992456,0.0 -53.5800856,-26.4780860992456,0.0 -53.5801074,-26.4780547992456,0.0 -53.5801275,-26.4780323992456,0.0 -53.5801438,-26.4780105992456,0.0 -53.5801571,-26.4779845992456,0.0 -53.5801649,-26.4779629992456,0.0 -53.5801712,-26.4779395992456,0.0 -53.5801992,-26.4779083992456,0.0 -53.5802396,-26.4778729992456,0.0 -53.5802747,-26.4778463992456,0.0 -53.580306,-26.4778220992456,0.0 -53.5803354,-26.4777960992456,0.0 -53.5803513,-26.4777739992456,0.0 -53.5803612,-26.4777623992456,0.0 -53.5803802,-26.4777347992456,0.0 -53.5803905,-26.4777087992456,0.0 -53.5803917,-26.4776904992456,0.0 -53.5803882,-26.4776738992456,0.0 -53.5803813,-26.4776581992456,0.0 -53.5803743,-26.4776462992456,0.0 -53.5803657,-26.4776357992456,0.0 -53.5803584,-26.4776231992456,0.0 -53.580353,-26.4776061992456,0.0 -53.580352,-26.4775833992456,0.0 -53.5803561,-26.4775588992456,0.0 -53.580364,-26.4775335992456,0.0 -53.5803689,-26.4775190992456,0.0 -53.5803936,-26.4774985992456,0.0 -53.5804247,-26.4774794992456,0.0 -53.580455,-26.4774665992457,0.0 -53.5804775,-26.4774566992456,0.0 -53.5804992,-26.4774452992456,0.0 -53.5805028,-26.4774415992456,0.0 -53.5805042,-26.4774345992456,0.0 -53.5804919,-26.4773934992457,0.0 -53.5804866,-26.4773762992456,0.0 -53.5804817,-26.4773603992456,0.0 -53.5806346,-26.4773390992456,0.0 -53.5807146,-26.4773034992457,0.0 -53.5809191,-26.4773212992456,0.0 -53.581168,-26.4773123992456,0.0 -53.5812881,-26.4772456992456,0.0 -53.5814837,-26.4770322992457,0.0 -53.5816971,-26.4768010992457,0.0 -53.5820883,-26.4765343992457,0.0 -53.6213409,-26.4730610992457,0.0 -53.6246995,-26.4727770992457,0.0 -53.6247855,-26.4726930992457,0.0 -53.624857,-26.4726216992457,0.0 -53.62488,-26.4725973992457,0.0 -53.6249022,-26.4725731992457,0.0 -53.6249387,-26.4725403992457,0.0 -53.6249726,-26.4725046992457,0.0 -53.6249767,-26.4724999992457,0.0 -53.6250925,-26.4723836992457,0.0 -53.6251018,-26.4723743992457,0.0 -53.6251144,-26.4723578992457,0.0 -53.6251268,-26.4723431992457,0.0 -53.6251385,-26.4723310992457,0.0 -53.6251499,-26.4723207992457,0.0 -53.6251622,-26.4723114992457,0.0 -53.6251764,-26.4723013992457,0.0 -53.6251906,-26.4722916992458,0.0 -53.6252057,-26.4722822992457,0.0 -53.62522,-26.4722728992457,0.0 -53.625235,-26.4722630992457,0.0 -53.6252489,-26.4722537992457,0.0 -53.6252621,-26.4722458992457,0.0 -53.6252732,-26.4722380992457,0.0 -53.625286,-26.4722302992457,0.0 -53.6252968,-26.4722235992458,0.0 -53.6253096,-26.4722164992457,0.0 -53.6253217,-26.4722093992458,0.0 -53.6253321,-26.4722037992457,0.0 -53.6253497,-26.4721949992457,0.0 -53.6253619,-26.4721918992457,0.0 -53.6253835,-26.4721808992458,0.0 -53.625402,-26.4721746992457,0.0 -53.6254475,-26.4721533992458,0.0 -53.6255119,-26.4721226992457,0.0 -53.6255971,-26.4720766992458,0.0 -53.625689,-26.4720209992458,0.0 -53.6257854,-26.4719636992458,0.0 -53.6258794,-26.4719097992458,0.0 -53.6258922,-26.4718919992458,0.0 -53.6259305,-26.4718485992458,0.0 -53.6259863,-26.4717903992458,0.0 -53.6260384,-26.4717258992458,0.0 -53.6260863,-26.4716470992458,0.0 -53.6261103,-26.4715829992458,0.0 -53.626138,-26.4715255992458,0.0 -53.6261731,-26.4714421992458,0.0 -53.6262056,-26.4713524992458,0.0 -53.6262301,-26.4712735992458,0.0 -53.6262342,-26.4712430992458,0.0 -53.6262393,-26.4712013992458,0.0 -53.6262478,-26.4711616992458,0.0 -53.6262632,-26.4711246992458,0.0 -53.6262878,-26.4710868992458,0.0 -53.6263161,-26.4710597992458,0.0 -53.62635,-26.4710460992458,0.0 -53.6263895,-26.4710405992458,0.0 -53.6264346,-26.4710358992458,0.0 -53.6264889,-26.4710296992458,0.0 -53.6265479,-26.4710204992458,0.0 -53.6266092,-26.4710031992458,0.0 -53.6266243,-26.4709823992458,0.0 -53.6266464,-26.4709522992458,0.0 -53.6266652,-26.4709179992458,0.0 -53.6266749,-26.4708789992458,0.0 -53.6266763,-26.4708359992458,0.0 -53.6266516,-26.4707506992458,0.0 -53.626631,-26.4707089992458,0.0 -53.6266174,-26.4706694992458,0.0 -53.6266131,-26.4706255992458,0.0 -53.626619,-26.4705892992458,0.0 -53.626639,-26.4705480992458,0.0 -53.6267386,-26.4704621992458,0.0 -53.62682,-26.4704188992458,0.0 -53.6269166,-26.4703672992458,0.0 -53.6270056,-26.4703164992458,0.0 -53.6270541,-26.4702838992458,0.0 -53.6270709,-26.4702651992458,0.0 -53.627099,-26.4702343992458,0.0 -53.6271307,-26.4701941992458,0.0 -53.6271683,-26.4701496992458,0.0 -53.6272085,-26.4701044992458,0.0 -53.6272656,-26.4700577992458,0.0 -53.6273387,-26.4700169992458,0.0 -53.6274259,-26.4699798992458,0.0 -53.6275067,-26.4699484992458,0.0 -53.6275318,-26.4699376992458,0.0 -53.6275575,-26.4699294992458,0.0 -53.627636,-26.4699083992458,0.0 -53.6277032,-26.4698950992458,0.0 -53.6278026,-26.4698853992458,0.0 -53.6279074,-26.4698843992458,0.0 -53.6279909,-26.4698921992458,0.0 -53.6280265,-26.4698965992458,0.0 -53.6280526,-26.4699044992458,0.0 -53.6281084,-26.4699296992458,0.0 -53.6281599,-26.4699626992458,0.0 -53.6282059,-26.4699997992458,0.0 -53.6282488,-26.4700377992458,0.0 -53.6282939,-26.4700651992458,0.0 -53.6283555,-26.4700828992458,0.0 -53.6284349,-26.4700901992458,0.0 -53.628516,-26.4700886992458,0.0 -53.6285478,-26.4700827992458,0.0 -53.6285989,-26.4700698992458,0.0 -53.6286654,-26.4700498992458,0.0 -53.6287313,-26.4700197992458,0.0 -53.6287894,-26.4699845992458,0.0 -53.6288529,-26.4699466992458,0.0 -53.6289286,-26.4699100992458,0.0 -53.6290055,-26.4698820992458,0.0 -53.6290233,-26.4698759992458,0.0 -53.629059,-26.4698608992458,0.0 -53.6291158,-26.4698314992458,0.0 -53.6291776,-26.4697903992458,0.0 -53.6293235,-26.4696509992458,0.0 -53.6293529,-26.4695953992458,0.0 -53.6293568,-26.4695856992458,0.0 -53.6293612,-26.4695680992458,0.0 -53.6293558,-26.4695165992458,0.0 -53.6293527,-26.4695028992458,0.0 -53.6293376,-26.4694605992458,0.0 -53.6293161,-26.4694195992458,0.0 -53.6292863,-26.4693734992458,0.0 -53.6292558,-26.4693225992458,0.0 -53.6292299,-26.4692580992458,0.0 -53.6292009,-26.4691009992458,0.0 -53.6291961,-26.4690690992458,0.0 -53.6291994,-26.4690147992458,0.0 -53.6292141,-26.4689533992458,0.0 -53.6292485,-26.4688882992458,0.0 -53.6293079,-26.4688142992458,0.0 -53.6293813,-26.4687439992458,0.0 -53.6294587,-26.4686804992458,0.0 -53.6294831,-26.4686590992458,0.0 -53.6295275,-26.4686245992458,0.0 -53.6295522,-26.4686090992458,0.0 -53.6295899,-26.4685853992458,0.0 -53.6296771,-26.4685403992458,0.0 -53.629779,-26.4684900992458,0.0 -53.629888,-26.4684351992458,0.0 -53.6299748,-26.4683901992458,0.0 -53.6300152,-26.4683638992458,0.0 -53.6300706,-26.4683302992458,0.0 -53.6301416,-26.4682855992458,0.0 -53.6302263,-26.4682312992458,0.0 -53.6303149,-26.4681818992458,0.0 -53.6304053,-26.4681371992458,0.0 -53.630468,-26.4681040992458,0.0 -53.6304759,-26.4680982992458,0.0 -53.6305006,-26.4680841992458,0.0 -53.630533,-26.4680672992458,0.0 -53.6305663,-26.4680455992458,0.0 -53.6306,-26.4680161992458,0.0 -53.6306282,-26.4679793992458,0.0 -53.6306505,-26.4679406992458,0.0 -53.6306749,-26.4679032992458,0.0 -53.6307001,-26.4678716992458,0.0 -53.6307273,-26.4678425992458,0.0 -53.6307565,-26.4678195992458,0.0 -53.6308406,-26.4677765992458,0.0 -53.630876,-26.4677554992458,0.0 -53.6309005,-26.4677362992458,0.0 -53.6309329,-26.4677131992458,0.0 -53.6309801,-26.4676759992458,0.0 -53.6310308,-26.4676222992458,0.0 -53.6310843,-26.4675520992458,0.0 -53.6311177,-26.4674917992458,0.0 -53.6311262,-26.4674670992459,0.0 -53.6311347,-26.4674346992458,0.0 -53.6311418,-26.4673823992458,0.0 -53.6311438,-26.4673167992458,0.0 -53.6311399,-26.4672393992458,0.0 -53.6311335,-26.4671533992459,0.0 -53.6311258,-26.4670892992458,0.0 -53.631123,-26.4670733992458,0.0 -53.6311157,-26.4670478992459,0.0 -53.6311085,-26.4670175992458,0.0 -53.6311009,-26.4669872992459,0.0 -53.6310945,-26.4669580992459,0.0 -53.6310905,-26.4669334992459,0.0 -53.6310877,-26.4669106992459,0.0 -53.6310858,-26.4668888992459,0.0 -53.6310848,-26.4668681992459,0.0 -53.631084,-26.4668445992459,0.0 -53.6310917,-26.4667641992459,0.0 -53.6310934,-26.4667491992459,0.0 -53.6310981,-26.4667407992459,0.0 -53.6311162,-26.4667261992459,0.0 -53.6311422,-26.4667166992459,0.0 -53.6311658,-26.4667087992459,0.0 -53.6312034,-26.4667032992459,0.0</coordinates>
</LinearRing>
</outerBoundaryIs>
</Polygon>
</MultiGeometry>
</Placemark>
</Folder>
</Document></kml>
