<?xml version='1.0' encoding='UTF-8'?>
<kml xmlns:xsd="http://www.w3.org/2001/XMLSchema" xmlns:gx="http://www.google.com/kml/ext/2.2" xmlns:atom="http://www.w3.org/2005/Atom" xmlns="http://www.opengis.net/kml/2.2">
<Document>
<name>rio_do_sul_4214805_localidades_2022</name>
<visibility>1</visibility>
<Schema name="Localidades" id="kml_schema_ft_Localidades">
<SimpleField type="xsd:string" name="CD_UF">
<displayName>CD_UF</displayName>
</SimpleField>
<SimpleField type="xsd:string" name="NM_UF">
<displayName>NM_UF</displayName>
</SimpleField>
<SimpleField type="xsd:string" name="SIGLA_UF">
<displayName>SIGLA_UF</displayName>
</SimpleField>
<SimpleField type="xsd:string" name="CD_MUN">
<displayName>CD_MUN</displayName>
</SimpleField>
<SimpleField type="xsd:string" name="NM_MUN">
<displayName>NM_MUN</displayName>
</SimpleField>
<SimpleField type="xsd:string" name="CD_RGINT">
<displayName>CD_RGINT</displayName>
</SimpleField>
<SimpleField type="xsd:string" name="NM_RGINT">
<displayName>NM_RGINT</displayName>
</SimpleField>
<SimpleField type="xsd:string" name="CD_RGI">
<displayName>CD_RGI</displayName>
</SimpleField>
<SimpleField type="xsd:string" name="NM_RGI">
<displayName>NM_RGI</displayName>
</SimpleField>
<SimpleField type="xsd:string" name="CT_LOCALIDADE">
<displayName>CT_LOCALIDADE</displayName>
</SimpleField>
<SimpleField type="xsd:string" name="SCT_LOCALIDADE">
<displayName>SCT_LOCALIDADE</displayName>
</SimpleField>
<SimpleField type="xsd:string" name="CD_LOCALIDADE">
<displayName>CD_LOCALIDADE</displayName>
</SimpleField>
<SimpleField type="xsd:string" name="NM_LOCALIDADE">
<displayName>NM_LOCALIDADE</displayName>
</SimpleField>
</Schema>
<Schema name="01. Cidade" id="kml_schema_ft_01._Cidade">
<SimpleField type="xsd:string" name="CD_UF">
<displayName>CD_UF</displayName>
</SimpleField>
<SimpleField type="xsd:string" name="NM_UF">
<displayName>NM_UF</displayName>
</SimpleField>
<SimpleField type="xsd:string" name="SIGLA_UF">
<displayName>SIGLA_UF</displayName>
</SimpleField>
<SimpleField type="xsd:string" name="CD_MUN">
<displayName>CD_MUN</displayName>
</SimpleField>
<SimpleField type="xsd:string" name="NM_MUN">
<displayName>NM_MUN</displayName>
</SimpleField>
<SimpleField type="xsd:string" name="CD_RGINT">
<displayName>CD_RGINT</displayName>
</SimpleField>
<SimpleField type="xsd:string" name="NM_RGINT">
<displayName>NM_RGINT</displayName>
</SimpleField>
<SimpleField type="xsd:string" name="CD_RGI">
<displayName>CD_RGI</displayName>
</SimpleField>
<SimpleField type="xsd:string" name="NM_RGI">
<displayName>NM_RGI</displayName>
</SimpleField>
<SimpleField type="xsd:string" name="CT_LOCALIDADE">
<displayName>CT_LOCALIDADE</displayName>
</SimpleField>
<SimpleField type="xsd:string" name="SCT_LOCALIDADE">
<displayName>SCT_LOCALIDADE</displayName>
</SimpleField>
<SimpleField type="xsd:string" name="CD_LOCALIDADE">
<displayName>CD_LOCALIDADE</displayName>
</SimpleField>
<SimpleField type="xsd:string" name="NM_LOCALIDADE">
<displayName>NM_LOCALIDADE</displayName>
</SimpleField>
<SimpleField type="xsd:string" name="LAT_LOCALIDADE">
<displayName>LAT_LOCALIDADE</displayName>
</SimpleField>
<SimpleField type="xsd:string" name="LONG_LOCALIDADE">
<displayName>LONG_LOCALIDADE</displayName>
</SimpleField>
</Schema>
<Schema name="Município" id="kml_schema_ft_Município">
<SimpleField type="xsd:string" name="CD_UF">
<displayName>CD_UF</displayName>
</SimpleField>
<SimpleField type="xsd:string" name="NM_UF">
<displayName>NM_UF</displayName>
</SimpleField>
<SimpleField type="xsd:string" name="CD_MUN">
<displayName>CD_MUN</displayName>
</SimpleField>
<SimpleField type="xsd:string" name="NM_MUN">
<displayName>NM_MUN</displayName>
</SimpleField>
<SimpleField type="xsd:string" name="CD_RGINT">
<displayName>CD_RGINT</displayName>
</SimpleField>
<SimpleField type="xsd:string" name="NM_RGINT">
<displayName>NM_RGINT</displayName>
</SimpleField>
<SimpleField type="xsd:string" name="CD_RGI">
<displayName>CD_RGI</displayName>
</SimpleField>
<SimpleField type="xsd:string" name="NM_RGI">
<displayName>NM_RGI</displayName>
</SimpleField>
</Schema>
<Folder id="01. Cidade">
<name>01. Cidade</name>
<Folder id="01.03. Sede Municipal">
<name>01.03. Sede Municipal</name>
<Placemark id="01.03. Sede Municipal">
<name>Rio do Sul [4214805]</name>
<visibility>1</visibility>
<snippet> </snippet>
<description>&lt;center&gt;&lt;table&gt;&lt;tr&gt;&lt;th colspan='2' align='center'&gt;&lt;em&gt;Atributos&lt;/em&gt;&lt;/th&gt;&lt;/tr&gt;&lt;tr bgcolor="#E3E3F3"&gt;
&lt;th&gt;CD_UF&lt;/th&gt;
&lt;td&gt;42&lt;/td&gt;
&lt;/tr&gt;&lt;tr bgcolor=""&gt;
&lt;th&gt;NM_UF&lt;/th&gt;
&lt;td&gt;Santa Catarina&lt;/td&gt;
&lt;/tr&gt;&lt;tr bgcolor="#E3E3F3"&gt;
&lt;th&gt;SIGLA_UF&lt;/th&gt;
&lt;td&gt;SC&lt;/td&gt;
&lt;/tr&gt;&lt;tr bgcolor=""&gt;
&lt;th&gt;CD_MUN&lt;/th&gt;
&lt;td&gt;4214805&lt;/td&gt;
&lt;/tr&gt;&lt;tr bgcolor="#E3E3F3"&gt;
&lt;th&gt;NM_MUN&lt;/th&gt;
&lt;td&gt;Rio do Sul&lt;/td&gt;
&lt;/tr&gt;&lt;tr bgcolor=""&gt;
&lt;th&gt;CD_RGINT&lt;/th&gt;
&lt;td&gt;4207&lt;/td&gt;
&lt;/tr&gt;&lt;tr bgcolor="#E3E3F3"&gt;
&lt;th&gt;NM_RGINT&lt;/th&gt;
&lt;td&gt;Blumenau&lt;/td&gt;
&lt;/tr&gt;&lt;tr bgcolor=""&gt;
&lt;th&gt;CD_RGI&lt;/th&gt;
&lt;td&gt;420022&lt;/td&gt;
&lt;/tr&gt;&lt;tr bgcolor="#E3E3F3"&gt;
&lt;th&gt;NM_RGI&lt;/th&gt;
&lt;td&gt;Rio do Sul&lt;/td&gt;
&lt;/tr&gt;&lt;tr bgcolor=""&gt;
&lt;th&gt;CT_LOCALIDADE&lt;/th&gt;
&lt;td&gt;Cidade&lt;/td&gt;
&lt;/tr&gt;&lt;tr bgcolor="#E3E3F3"&gt;
&lt;th&gt;SCT_LOCALIDADE&lt;/th&gt;
&lt;td&gt;Sede Municipal&lt;/td&gt;
&lt;/tr&gt;&lt;tr bgcolor=""&gt;
&lt;th&gt;CD_LOCALIDADE&lt;/th&gt;
&lt;td&gt;4214805&lt;/td&gt;
&lt;/tr&gt;&lt;tr bgcolor="#E3E3F3"&gt;
&lt;th&gt;NM_LOCALIDADE&lt;/th&gt;
&lt;td&gt;Rio do Sul&lt;/td&gt;
&lt;/tr&gt;&lt;tr bgcolor=""&gt;
&lt;th&gt;LAT_LOCALIDADE&lt;/th&gt;
&lt;td&gt;-27.2153&lt;/td&gt;
&lt;/tr&gt;&lt;tr bgcolor="#E3E3F3"&gt;
&lt;th&gt;LONG_LOCALIDADE&lt;/th&gt;
&lt;td&gt;-49.6432&lt;/td&gt;
&lt;/tr&gt;&lt;/table&gt;&lt;/center&gt;</description>
<Style>
<IconStyle>
<color>ff00aaff</color>
<scale>1.0</scale>
<Icon>
<href>http://maps.google.com/mapfiles/kml/shapes/placemark_circle.png</href>
</Icon>
</IconStyle>
<LabelStyle>
<scale>1.0</scale>
</LabelStyle>
<LineStyle>
<color>ffffffff</color>
<width>3</width>
<gx:labelVisibility>1</gx:labelVisibility>
</LineStyle>
<PolyStyle>
<color>00ffffff</color>
</PolyStyle>
</Style>
<ExtendedData>
<SchemaData schemaUrl="#kml_schema_ft_01._Cidade">
<SimpleData name="CD_UF">42</SimpleData>
<SimpleData name="NM_UF">Santa Catarina</SimpleData>
<SimpleData name="SIGLA_UF">SC</SimpleData>
<SimpleData name="CD_MUN">4214805</SimpleData>
<SimpleData name="NM_MUN">Rio do Sul</SimpleData>
<SimpleData name="CD_RGINT">4207</SimpleData>
<SimpleData name="NM_RGINT">Blumenau</SimpleData>
<SimpleData name="CD_RGI">420022</SimpleData>
<SimpleData name="NM_RGI">Rio do Sul</SimpleData>
<SimpleData name="CT_LOCALIDADE">Cidade</SimpleData>
<SimpleData name="SCT_LOCALIDADE">Sede Municipal</SimpleData>
<SimpleData name="CD_LOCALIDADE">4214805</SimpleData>
<SimpleData name="NM_LOCALIDADE">Rio do Sul</SimpleData>
<SimpleData name="LAT_LOCALIDADE">-27.2153</SimpleData>
<SimpleData name="LONG_LOCALIDADE">-49.6432</SimpleData>
</SchemaData>
</ExtendedData>
<Point>
<extrude>0</extrude>
<coordinates>-49.6432,-27.2152999992313,0.0</coordinates>
</Point>
</Placemark>
</Folder>
</Folder>
<Folder id="12. Outras Localidades">
<name>12. Outras Localidades</name>
<Placemark id="12. Outras Localidades">
<name>Ribeirão do Tigre [421480500001]</name>
<visibility>1</visibility>
<snippet> </snippet>
<description>&lt;center&gt;&lt;table&gt;&lt;tr&gt;&lt;th colspan='2' align='center'&gt;&lt;em&gt;Attributes&lt;/em&gt;&lt;/th&gt;&lt;/tr&gt;&lt;tr bgcolor="#E3E3F3"&gt;
&lt;th&gt;CD_UF&lt;/th&gt;
&lt;td&gt;42&lt;/td&gt;
&lt;/tr&gt;&lt;tr bgcolor=""&gt;
&lt;th&gt;NM_UF&lt;/th&gt;
&lt;td&gt;Santa Catarina&lt;/td&gt;
&lt;/tr&gt;&lt;tr bgcolor="#E3E3F3"&gt;
&lt;th&gt;SIGLA_UF&lt;/th&gt;
&lt;td&gt;SC&lt;/td&gt;
&lt;/tr&gt;&lt;tr bgcolor=""&gt;
&lt;th&gt;CD_MUN&lt;/th&gt;
&lt;td&gt;4214805&lt;/td&gt;
&lt;/tr&gt;&lt;tr bgcolor="#E3E3F3"&gt;
&lt;th&gt;NM_MUN&lt;/th&gt;
&lt;td&gt;Rio do Sul&lt;/td&gt;
&lt;/tr&gt;&lt;tr bgcolor=""&gt;
&lt;th&gt;CD_RGINT&lt;/th&gt;
&lt;td&gt;4207&lt;/td&gt;
&lt;/tr&gt;&lt;tr bgcolor="#E3E3F3"&gt;
&lt;th&gt;NM_RGINT&lt;/th&gt;
&lt;td&gt;Blumenau&lt;/td&gt;
&lt;/tr&gt;&lt;tr bgcolor=""&gt;
&lt;th&gt;CD_RGI&lt;/th&gt;
&lt;td&gt;420022&lt;/td&gt;
&lt;/tr&gt;&lt;tr bgcolor="#E3E3F3"&gt;
&lt;th&gt;NM_RGI&lt;/th&gt;
&lt;td&gt;Rio do Sul&lt;/td&gt;
&lt;/tr&gt;&lt;tr bgcolor=""&gt;
&lt;th&gt;CT_LOCALIDADE&lt;/th&gt;
&lt;td&gt;Outras Localidades&lt;/td&gt;
&lt;/tr&gt;&lt;tr bgcolor="#E3E3F3"&gt;
&lt;th&gt;SCT_LOCALIDADE&lt;/th&gt;
&lt;td&gt;&lt;/td&gt;
&lt;/tr&gt;&lt;tr bgcolor=""&gt;
&lt;th&gt;CD_LOCALIDADE&lt;/th&gt;
&lt;td&gt;421480500001&lt;/td&gt;
&lt;/tr&gt;&lt;tr bgcolor="#E3E3F3"&gt;
&lt;th&gt;NM_LOCALIDADE&lt;/th&gt;
&lt;td&gt;Ribeirão do Tigre&lt;/td&gt;
&lt;/tr&gt;&lt;/table&gt;&lt;/center&gt;</description>
<Style>
<IconStyle>
<color>ff0069d3</color>
<scale>0.6</scale>
<Icon>
<href>http://maps.google.com/mapfiles/kml/shapes/placemark_circle.png</href>
</Icon>
</IconStyle>
<LabelStyle>
<scale>0.6</scale>
</LabelStyle>
<LineStyle>
<width>1.0</width>
<gx:labelVisibility>1</gx:labelVisibility>
</LineStyle>
</Style>
<ExtendedData>
<SchemaData schemaUrl="#kml_schema_ft_Localidades">
<SimpleData name="CD_UF">42</SimpleData>
<SimpleData name="NM_UF">Santa Catarina</SimpleData>
<SimpleData name="SIGLA_UF">SC</SimpleData>
<SimpleData name="CD_MUN">4214805</SimpleData>
<SimpleData name="NM_MUN">Rio do Sul</SimpleData>
<SimpleData name="CD_RGINT">4207</SimpleData>
<SimpleData name="NM_RGINT">Blumenau</SimpleData>
<SimpleData name="CD_RGI">420022</SimpleData>
<SimpleData name="NM_RGI">Rio do Sul</SimpleData>
<SimpleData name="CT_LOCALIDADE">Outras Localidades</SimpleData>
<SimpleData name="CD_LOCALIDADE">421480500001</SimpleData>
<SimpleData name="NM_LOCALIDADE">Ribeirão do Tigre</SimpleData>
</SchemaData>
</ExtendedData>
<Point>
<extrude>0</extrude>
<coordinates>-49.6859722793168,-27.2720389888377,0.0</coordinates>
</Point>
</Placemark>
</Folder>
<Folder id="13. Referência">
<name>13. Referência</name>
<Placemark id="13. Referência">
<name>Rio do Sul [4214805]</name>
<visibility>1</visibility>
<snippet> </snippet>
<description>&lt;center&gt;&lt;table&gt;&lt;tr&gt;&lt;th colspan='2' align='center'&gt;&lt;em&gt;Attributes&lt;/em&gt;&lt;/th&gt;&lt;/tr&gt;&lt;tr bgcolor="#E3E3F3"&gt;
&lt;th&gt;CD_UF&lt;/th&gt;
&lt;td&gt;42&lt;/td&gt;
&lt;/tr&gt;&lt;tr bgcolor=""&gt;
&lt;th&gt;NM_UF&lt;/th&gt;
&lt;td&gt;Santa Catarina&lt;/td&gt;
&lt;/tr&gt;&lt;tr bgcolor="#E3E3F3"&gt;
&lt;th&gt;CD_MUN&lt;/th&gt;
&lt;td&gt;4214805&lt;/td&gt;
&lt;/tr&gt;&lt;tr bgcolor=""&gt;
&lt;th&gt;NM_MUN&lt;/th&gt;
&lt;td&gt;Rio do Sul&lt;/td&gt;
&lt;/tr&gt;&lt;tr bgcolor="#E3E3F3"&gt;
&lt;th&gt;CD_RGINT&lt;/th&gt;
&lt;td&gt;4207&lt;/td&gt;
&lt;/tr&gt;&lt;tr bgcolor=""&gt;
&lt;th&gt;NM_RGINT&lt;/th&gt;
&lt;td&gt;Blumenau&lt;/td&gt;
&lt;/tr&gt;&lt;tr bgcolor="#E3E3F3"&gt;
&lt;th&gt;CD_RGI&lt;/th&gt;
&lt;td&gt;420022&lt;/td&gt;
&lt;/tr&gt;&lt;tr bgcolor=""&gt;
&lt;th&gt;NM_RGI&lt;/th&gt;
&lt;td&gt;Rio do Sul&lt;/td&gt;
&lt;/tr&gt;&lt;/table&gt;&lt;/center&gt;</description>
<Style>
<IconStyle>
<scale>0.7</scale>
</IconStyle>
<LabelStyle>
<scale>0.7</scale>
</LabelStyle>
<LineStyle>
<color>ffffffff</color>
<width>3</width>
<gx:labelVisibility>1</gx:labelVisibility>
</LineStyle>
<PolyStyle>
<color>00ffffff</color>
</PolyStyle>
</Style>
<ExtendedData>
<SchemaData schemaUrl="#kml_schema_ft_Município">
<SimpleData name="CD_UF">42</SimpleData>
<SimpleData name="NM_UF">Santa Catarina</SimpleData>
<SimpleData name="CD_MUN">4214805</SimpleData>
<SimpleData name="NM_MUN">Rio do Sul</SimpleData>
<SimpleData name="CD_RGINT">4207</SimpleData>
<SimpleData name="NM_RGINT">Blumenau</SimpleData>
<SimpleData name="CD_RGI">420022</SimpleData>
<SimpleData name="NM_RGI">Rio do Sul</SimpleData>
</SchemaData>
</ExtendedData>
<MultiGeometry>
<Polygon>
<extrude>0</extrude>
<tessellate>1</tessellate>
<outerBoundaryIs>
<LinearRing>
<coordinates>-49.6358509,-27.1074558992334,0.0 -49.6354932,-27.1070853992334,0.0 -49.6353016,-27.1067021992334,0.0 -49.6351866,-27.1062295992334,0.0 -49.635158,-27.1057562992334,0.0 -49.6351439,-27.1053681992334,0.0 -49.6351994,-27.1049266992334,0.0 -49.6351994,-27.1044667992334,0.0 -49.6349823,-27.1038791992334,0.0 -49.6346885,-27.1032915992334,0.0 -49.6344819,-27.1024479992335,0.0 -49.6344365,-27.1022274992335,0.0 -49.6343231,-27.1016771992335,0.0 -49.6341865,-27.1010056992335,0.0 -49.6341514,-27.1007729992335,0.0 -49.6340642,-27.1001947992335,0.0 -49.6338818,-27.0997636992335,0.0 -49.6338071,-27.0995872992335,0.0 -49.6335899,-27.0992295992335,0.0 -49.6331684,-27.0988590992335,0.0 -49.6327635,-27.0984436992335,0.0 -49.6324665,-27.0981681992335,0.0 -49.6322594,-27.0980204992335,0.0 -49.6319355,-27.0979723992335,0.0 -49.6317111,-27.0979653992335,0.0 -49.6313651,-27.0979187992335,0.0 -49.6311963,-27.0977968992336,0.0 -49.6309991,-27.0975194992336,0.0 -49.6307553,-27.0966446992336,0.0 -49.6306016,-27.0961327992336,0.0 -49.6302744,-27.0957810992336,0.0 -49.6299067,-27.0954678992336,0.0 -49.6295039,-27.0953252992336,0.0 -49.6291083,-27.0951140992336,0.0 -49.6288439,-27.0948029992336,0.0 -49.6286805,-27.0942973992336,0.0 -49.6286261,-27.0941029992336,0.0 -49.6285405,-27.0936285992336,0.0 -49.6284472,-27.0933329992336,0.0 -49.6283033,-27.0930685992336,0.0 -49.6279805,-27.0927574992337,0.0 -49.6278055,-27.0925279992337,0.0 -49.6272856,-27.0920293992337,0.0 -49.6268946,-27.0917307992337,0.0 -49.6266642,-27.0915271992337,0.0 -49.6266357,-27.0914118992337,0.0 -49.6266517,-27.0912547992337,0.0 -49.6267002,-27.0910847992337,0.0 -49.6269037,-27.0908180992337,0.0 -49.6272342,-27.0905823992337,0.0 -49.6273449,-27.0903098992337,0.0 -49.6273482,-27.0899817992337,0.0 -49.6272018,-27.0896891992337,0.0 -49.6269451,-27.0893002992337,0.0 -49.6267118,-27.0889502992337,0.0 -49.6264552,-27.0886080992337,0.0 -49.6262063,-27.0884524992337,0.0 -49.6258252,-27.0882735992337,0.0 -49.6252205,-27.0879819992337,0.0 -49.6248899,-27.0878302992337,0.0 -49.6246021,-27.0877291992338,0.0 -49.624256,-27.0876474992337,0.0 -49.6237155,-27.0875152992338,0.0 -49.6232605,-27.0874025992338,0.0 -49.622614,-27.0872177992338,0.0 -49.6222724,-27.0870944992338,0.0 -49.6215826,-27.0868517992338,0.0 -49.6209406,-27.0866085992338,0.0 -49.620318,-27.0863535992338,0.0 -49.6196027,-27.0861875992338,0.0 -49.6192194,-27.0859964992338,0.0 -49.6190412,-27.0857154992338,0.0 -49.6188362,-27.0853700992338,0.0 -49.6186446,-27.0849740992338,0.0 -49.618287,-27.0843608992338,0.0 -49.6177249,-27.0837732992338,0.0 -49.6174183,-27.0832623992338,0.0 -49.6171646,-27.0829664992338,0.0 -49.6166163,-27.0823303992338,0.0 -49.6165319,-27.0819262992339,0.0 -49.6164348,-27.0809375992339,0.0 -49.6161793,-27.0805287992339,0.0 -49.6158216,-27.0802221992339,0.0 -49.6156753,-27.0801984992339,0.0 -49.6155431,-27.0801984992339,0.0 -49.6153399,-27.0802373992339,0.0 -49.615056,-27.0802995992339,0.0 -49.6147955,-27.0802840992339,0.0 -49.6145116,-27.0802101992339,0.0 -49.6142433,-27.0801206992339,0.0 -49.6139633,-27.0800545992339,0.0 -49.6136561,-27.0800390992339,0.0 -49.6134927,-27.0800428992339,0.0 -49.6132788,-27.0800973992339,0.0 -49.6130056,-27.0801906992339,0.0 -49.6128618,-27.0803073992339,0.0 -49.6127995,-27.0804317992339,0.0 -49.6127062,-27.0805990992339,0.0 -49.6125973,-27.0807312992339,0.0 -49.6123134,-27.0808789992339,0.0 -49.6117923,-27.0809995992339,0.0 -49.6113315,-27.0810345992339,0.0 -49.6109913,-27.0810803992339,0.0 -49.6106354,-27.0811473992339,0.0 -49.6102932,-27.0812639992339,0.0 -49.6094386,-27.0814612992339,0.0 -49.6088782,-27.0816250992339,0.0 -49.6080407,-27.0818016992339,0.0 -49.607276,-27.0820999992339,0.0 -49.6066501,-27.0822276992339,0.0 -49.6060753,-27.0822787992339,0.0 -49.6055121,-27.0822237992339,0.0 -49.60489,-27.0822109992338,0.0 -49.6041142,-27.0821715992338,0.0 -49.6033978,-27.0822276992339,0.0 -49.6026863,-27.0822615992338,0.0 -49.602017,-27.0824203992338,0.0 -49.6013745,-27.0827219992338,0.0 -49.6008852,-27.0830275992338,0.0 -49.6004963,-27.0833386992338,0.0 -49.6000374,-27.0837742992338,0.0 -49.5997263,-27.0840931992338,0.0 -49.5994463,-27.0844353992338,0.0 -49.5993607,-27.0847464992338,0.0 -49.5993246,-27.0851390992338,0.0 -49.5991274,-27.0855319992338,0.0 -49.5988396,-27.0856953992338,0.0 -49.5983185,-27.0857730992338,0.0 -49.5970722,-27.0858858992338,0.0 -49.5964422,-27.0859014992338,0.0 -49.5956955,-27.0859247992338,0.0 -49.595088,-27.0860875992338,0.0 -49.5941857,-27.0864970992338,0.0 -49.593055,-27.0869980992338,0.0 -49.5919272,-27.0873947992337,0.0 -49.5914761,-27.0875036992338,0.0 -49.5910017,-27.0875580992338,0.0 -49.5905564,-27.0874647992338,0.0 -49.5897087,-27.0871847992338,0.0 -49.5891487,-27.0869436992338,0.0 -49.5887987,-27.0867958992338,0.0 -49.5884913,-27.0867720992338,0.0 -49.5880909,-27.0866714992338,0.0 -49.5876398,-27.0867336992338,0.0 -49.5874259,-27.0868561992338,0.0 -49.5871926,-27.0870505992338,0.0 -49.5869748,-27.0871516992338,0.0 -49.5867726,-27.0872450992338,0.0 -49.5866163,-27.0873303992337,0.0 -49.5864183,-27.0873573992338,0.0 -49.5863293,-27.0873694992338,0.0 -49.5859616,-27.0873660992337,0.0 -49.5857687,-27.0873631992337,0.0 -49.5856443,-27.0873951992338,0.0 -49.5855821,-27.0874110992338,0.0 -49.58552,-27.0874270992338,0.0 -49.5857116,-27.0876442992337,0.0 -49.5859334,-27.0878321992337,0.0 -49.5861445,-27.0879997992337,0.0 -49.5862872,-27.0881735992337,0.0 -49.5863758,-27.0885383992337,0.0 -49.5863741,-27.0887290992337,0.0 -49.586312,-27.0891572992337,0.0 -49.586312,-27.0895358992337,0.0 -49.5863741,-27.0898027992337,0.0 -49.5865231,-27.0899889992337,0.0 -49.5867279,-27.0901130992337,0.0 -49.5869575,-27.0902185992337,0.0 -49.5872554,-27.0903365992337,0.0 -49.5874665,-27.0904544992337,0.0 -49.5877395,-27.0907088992337,0.0 -49.5878388,-27.0909509992337,0.0 -49.5879319,-27.0912643992337,0.0 -49.5880933,-27.0918353992337,0.0 -49.5881864,-27.0923691992337,0.0 -49.588205,-27.0928035992337,0.0 -49.5882174,-27.0930270992336,0.0 -49.5883043,-27.0932318992336,0.0 -49.5885402,-27.0935421992336,0.0 -49.5888753,-27.0938152992336,0.0 -49.5890307,-27.0939138992336,0.0 -49.5893843,-27.0941379992336,0.0 -49.5896511,-27.0943303992336,0.0 -49.5899118,-27.0945972992336,0.0 -49.5901787,-27.0949199992336,0.0 -49.590458,-27.0951806992336,0.0 -49.5909545,-27.0956151992336,0.0 -49.5914883,-27.0960185992336,0.0 -49.5919056,-27.0963319992336,0.0 -49.5921539,-27.0965057992336,0.0 -49.5924704,-27.0967353992336,0.0 -49.5927932,-27.0968967992336,0.0 -49.5931035,-27.0970146992336,0.0 -49.5934076,-27.0971015992336,0.0 -49.5938545,-27.0971946992336,0.0 -49.5942346,-27.0972691992336,0.0 -49.5943836,-27.0973436992336,0.0 -49.5945077,-27.0974553992336,0.0 -49.5945884,-27.0975608992336,0.0 -49.5946877,-27.0978153992336,0.0 -49.5947001,-27.0980325992335,0.0 -49.5947249,-27.0982435992335,0.0 -49.5948242,-27.0986345992335,0.0 -49.5950849,-27.0992490992335,0.0 -49.5952292,-27.0996555992335,0.0 -49.5952603,-27.0998231992335,0.0 -49.5952851,-27.1001272992335,0.0 -49.5952354,-27.1005430992335,0.0 -49.5951937,-27.1007844992335,0.0 -49.5951485,-27.1010458992335,0.0 -49.5951672,-27.1015174992335,0.0 -49.5951547,-27.1019333992335,0.0 -49.5951485,-27.1021629992335,0.0 -49.5952106,-27.1025415992335,0.0 -49.5953285,-27.1031498992334,0.0 -49.595434,-27.1035718992334,0.0 -49.5954829,-27.1037522992334,0.0 -49.5955147,-27.1038697992334,0.0 -49.5955147,-27.1040745992334,0.0 -49.5954527,-27.1043476992334,0.0 -49.5953471,-27.1045835992334,0.0 -49.5953223,-27.1047914992334,0.0 -49.5953409,-27.1050893992334,0.0 -49.5954092,-27.1054244992334,0.0 -49.5955209,-27.1061072992334,0.0 -49.5956699,-27.1068519992334,0.0 -49.5957319,-27.1074726992334,0.0 -49.5956699,-27.1081181992333,0.0 -49.595434,-27.1088380992333,0.0 -49.5952354,-27.1096200992333,0.0 -49.595161,-27.1098124992333,0.0 -49.5950896,-27.1100017992333,0.0 -49.5949589,-27.1102748992333,0.0 -49.5948099,-27.1105913992333,0.0 -49.5946423,-27.1108768992333,0.0 -49.5945616,-27.1111127992333,0.0 -49.5945492,-27.1112120992333,0.0 -49.5945492,-27.1113237992333,0.0 -49.5946113,-27.1115161992333,0.0 -49.594754,-27.1117085992333,0.0 -49.5950768,-27.1119257992333,0.0 -49.5950892,-27.1119444992333,0.0 -49.5951575,-27.1120437992333,0.0 -49.5951885,-27.1121864992333,0.0 -49.5952133,-27.1123354992333,0.0 -49.5952195,-27.1124657992333,0.0 -49.5951885,-27.1126085992333,0.0 -49.5951683,-27.1126581992333,0.0 -49.5951233,-27.1127419992333,0.0 -49.5948939,-27.1129529992333,0.0 -49.5946644,-27.1131639992333,0.0 -49.5942787,-27.1133283992333,0.0 -49.5941039,-27.1133654992333,0.0 -49.5939072,-27.1133874992333,0.0 -49.5936031,-27.1134308992333,0.0 -49.593299,-27.1134743992333,0.0 -49.5929266,-27.1135115992332,0.0 -49.5928211,-27.1135425992332,0.0 -49.5926008,-27.1136853992332,0.0 -49.5924828,-27.1138684992332,0.0 -49.592396,-27.1140515992332,0.0 -49.5922749,-27.1142159992332,0.0 -49.5921989,-27.1142749992332,0.0 -49.5921229,-27.1143339992332,0.0 -49.5918684,-27.1144301992332,0.0 -49.5916636,-27.1144704992332,0.0 -49.5914898,-27.1145232992332,0.0 -49.5912881,-27.1146225992332,0.0 -49.5911795,-27.1147249992332,0.0 -49.5911081,-27.1148164992332,0.0 -49.5910336,-27.1149806992332,0.0 -49.5909871,-27.1150833992332,0.0 -49.5909033,-27.1153021992332,0.0 -49.5907978,-27.1155317992332,0.0 -49.5906612,-27.1156869992332,0.0 -49.5904564,-27.1157986992332,0.0 -49.5901958,-27.1158607992332,0.0 -49.589842,-27.1159538992332,0.0 -49.5896186,-27.1160282992332,0.0 -49.5892201,-27.1161252992332,0.0 -49.5890832,-27.1161586992332,0.0 -49.588835,-27.1162144992332,0.0 -49.5885991,-27.1163386992332,0.0 -49.5883571,-27.1165620992332,0.0 -49.5881709,-27.1168785992332,0.0 -49.588043,-27.1171619992332,0.0 -49.588084,-27.1173130992332,0.0 -49.5881274,-27.1174495992332,0.0 -49.588264,-27.1175736992332,0.0 -49.5884378,-27.1176109992332,0.0 -49.5886364,-27.1175861992332,0.0 -49.5888226,-27.1174247992332,0.0 -49.5890336,-27.1172819992332,0.0 -49.589195,-27.1172199992332,0.0 -49.5894867,-27.1172509992332,0.0 -49.5896977,-27.1173626992332,0.0 -49.5898963,-27.1174868992332,0.0 -49.5900949,-27.1176109992332,0.0 -49.5909467,-27.1181850992332,0.0 -49.5914557,-27.1185263992332,0.0 -49.5914767,-27.1185444992332,0.0 -49.5915534,-27.1186101992331,0.0 -49.5915928,-27.1186533992331,0.0 -49.5916341,-27.1186986992331,0.0 -49.5917132,-27.1187762992331,0.0 -49.5917644,-27.1188646992331,0.0 -49.5917846,-27.1189360992331,0.0 -49.5917893,-27.1189934992331,0.0 -49.5917877,-27.1190764992331,0.0 -49.5917319,-27.1191943992331,0.0 -49.5917117,-27.1192300992331,0.0 -49.5916589,-27.1192781992331,0.0 -49.5915763,-27.1193342992331,0.0 -49.5915333,-27.1193634992331,0.0 -49.5913921,-27.1194581992331,0.0 -49.5911686,-27.1196039992331,0.0 -49.590908,-27.1197591992331,0.0 -49.5907218,-27.1199019992331,0.0 -49.59061,-27.1202122992331,0.0 -49.5905542,-27.1206032992331,0.0 -49.5905604,-27.1208515992331,0.0 -49.5905871,-27.1210161992331,0.0 -49.5905976,-27.1210811992331,0.0 -49.5907962,-27.1215124992331,0.0 -49.5909824,-27.1218538992331,0.0 -49.5910817,-27.1221827992331,0.0 -49.5911624,-27.1225800992331,0.0 -49.5911624,-27.1229027992331,0.0 -49.5911562,-27.1233558992331,0.0 -49.5911066,-27.123877199233,0.0 -49.5911314,-27.124131699233,0.0 -49.5912679,-27.124392399233,0.0 -49.5914727,-27.124566099233,0.0 -49.5917955,-27.124702699233,0.0 -49.5920686,-27.124777199233,0.0 -49.5923168,-27.124814399233,0.0 -49.5926147,-27.124901299233,0.0 -49.5926659,-27.124927699233,0.0 -49.5927218,-27.124977299233,0.0 -49.5927808,-27.125073499233,0.0 -49.592804,-27.125182099233,0.0 -49.5928118,-27.125259699233,0.0 -49.592818,-27.125425699233,0.0 -49.5928242,-27.125636799233,0.0 -49.5928242,-27.125726799233,0.0 -49.5928397,-27.125788799233,0.0 -49.5928708,-27.125853999233,0.0 -49.5929634,-27.125976699233,0.0 -49.593119,-27.126182899233,0.0 -49.5932276,-27.126303999233,0.0 -49.5933248,-27.126372699233,0.0 -49.5933549,-27.126393899233,0.0 -49.5934604,-27.126455999233,0.0 -49.5935969,-27.126573899233,0.0 -49.5937024,-27.126654599233,0.0 -49.59378,-27.126725999233,0.0 -49.5938141,-27.126819099233,0.0 -49.5938266,-27.126927699233,0.0 -49.5937893,-27.127023899233,0.0 -49.5937366,-27.127129399233,0.0 -49.5936754,-27.127167299233,0.0 -49.5936142,-27.127205099233,0.0 -49.5934697,-27.127234899233,0.0 -49.5932028,-27.127275299233,0.0 -49.5930073,-27.127340399233,0.0 -49.5928035,-27.127430699233,0.0 -49.5925152,-27.127613699233,0.0 -49.5920286,-27.128012099233,0.0 -49.5903104,-27.1427170992327,0.0 -49.572159,-27.1431224992327,0.0 -49.5747211,-27.1618111992323,0.0 -49.5748914,-27.1630536992323,0.0 -49.575492,-27.1674348992322,0.0 -49.5759224,-27.1705738992322,0.0 -49.5750516,-27.1721794992321,0.0 -49.5746406,-27.1729375992321,0.0 -49.5737875,-27.1744655992321,0.0 -49.5736549,-27.1747068992321,0.0 -49.571869,-27.178048499232,0.0 -49.5714051,-27.178903999232,0.0 -49.5699036,-27.181672799232,0.0 -49.5694517,-27.1825062992319,0.0 -49.5641365,-27.1923077992317,0.0 -49.5645172,-27.1923251992317,0.0 -49.5648711,-27.1923688992317,0.0 -49.5650578,-27.1924349992317,0.0 -49.5652094,-27.1925010992317,0.0 -49.5653086,-27.1925632992317,0.0 -49.5653825,-27.1926235992317,0.0 -49.565468,-27.1927460992317,0.0 -49.565575,-27.1929093992317,0.0 -49.5656528,-27.1930513992317,0.0 -49.565715,-27.1931679992317,0.0 -49.5657466,-27.1932200992317,0.0 -49.5657757,-27.1932608992317,0.0 -49.5657932,-27.1933094992317,0.0 -49.5657991,-27.1933677992317,0.0 -49.5657893,-27.1934300992317,0.0 -49.5657582,-27.1935000992317,0.0 -49.5657019,-27.1935719992317,0.0 -49.5656416,-27.1936341992317,0.0 -49.5655527,-27.1937112992317,0.0 -49.5653813,-27.1939711992317,0.0 -49.5651594,-27.1942748992317,0.0 -49.5648306,-27.1945926992317,0.0 -49.5646284,-27.1948493992317,0.0 -49.5643246,-27.1951067992317,0.0 -49.5638857,-27.1954664992317,0.0 -49.5635695,-27.1956978992317,0.0 -49.5634119,-27.1959414992317,0.0 -49.5633881,-27.1963429992317,0.0 -49.5632658,-27.1967516992317,0.0 -49.5630283,-27.1970525992316,0.0 -49.5627193,-27.1973642992316,0.0 -49.5621828,-27.1978496992316,0.0 -49.5618246,-27.1982007992316,0.0 -49.5612691,-27.1986266992316,0.0 -49.5610254,-27.1987954992316,0.0 -49.5608038,-27.1990482992316,0.0 -49.5605821,-27.1992815992316,0.0 -49.5604032,-27.1994682992316,0.0 -49.5602671,-27.1996160992316,0.0 -49.5600493,-27.1998649992316,0.0 -49.5598199,-27.2001487992316,0.0 -49.5596799,-27.2003549992316,0.0 -49.5595088,-27.2005474992316,0.0 -49.5592526,-27.2007213992316,0.0 -49.5590071,-27.2008196992316,0.0 -49.5587155,-27.2011229992316,0.0 -49.5585551,-27.2013879992316,0.0 -49.5582824,-27.2018733992316,0.0 -49.5579186,-27.2023309992316,0.0 -49.5576664,-27.2028230992315,0.0 -49.5574543,-27.2032105992315,0.0 -49.5572265,-27.2036354992315,0.0 -49.5570732,-27.2044935992315,0.0 -49.5571024,-27.2055942992315,0.0 -49.5571024,-27.2065109992315,0.0 -49.5568246,-27.2071760992315,0.0 -49.5566262,-27.2076726992314,0.0 -49.5562302,-27.2079536992314,0.0 -49.5559038,-27.2082740992314,0.0 -49.5553644,-27.2083946992314,0.0 -49.5548551,-27.2083196992314,0.0 -49.5544036,-27.2083113992314,0.0 -49.5542366,-27.2083721992314,0.0 -49.5541373,-27.2084556992314,0.0 -49.5540482,-27.2087192992314,0.0 -49.5540469,-27.2089997992314,0.0 -49.5540362,-27.2091105992314,0.0 -49.5539701,-27.2091844992314,0.0 -49.5538534,-27.2092311992314,0.0 -49.5536357,-27.2092817992314,0.0 -49.5533323,-27.2093517992314,0.0 -49.5530679,-27.2094255992314,0.0 -49.5528229,-27.2095111992314,0.0 -49.552679,-27.2096044992314,0.0 -49.5526269,-27.2096914992314,0.0 -49.5526051,-27.2097950992314,0.0 -49.5526042,-27.2099525992314,0.0 -49.5526392,-27.2101119992314,0.0 -49.5526936,-27.2102636992314,0.0 -49.5526975,-27.2103608992314,0.0 -49.5526703,-27.2104541992314,0.0 -49.5525847,-27.2105669992314,0.0 -49.5524914,-27.2106914992314,0.0 -49.5523047,-27.2108352992314,0.0 -49.5520908,-27.2109986992314,0.0 -49.5519586,-27.2111658992314,0.0 -49.551702,-27.2114186992314,0.0 -49.5515308,-27.2116519992314,0.0 -49.5513597,-27.2117841992314,0.0 -49.5512071,-27.2118541992314,0.0 -49.5510632,-27.2118697992314,0.0 -49.5508804,-27.2118036992314,0.0 -49.550651,-27.2116752992314,0.0 -49.5505373,-27.2116091992314,0.0 -49.5504011,-27.2114458992314,0.0 -49.5503214,-27.2113754992314,0.0 -49.5502305,-27.2113375992314,0.0 -49.5500349,-27.2112752992314,0.0 -49.5498417,-27.2112716992314,0.0 -49.5496229,-27.2113355992314,0.0 -49.5493963,-27.2114408992314,0.0 -49.5489237,-27.2116963992314,0.0 -49.5486227,-27.2120001992314,0.0 -49.5484255,-27.2121689992314,0.0 -49.5483361,-27.2125394992314,0.0 -49.5483999,-27.2130503992313,0.0 -49.5484655,-27.2136812992313,0.0 -49.5484144,-27.2141716992313,0.0 -49.5482772,-27.2145343992313,0.0 -49.5480934,-27.2150430992313,0.0 -49.5478379,-27.2156562992313,0.0 -49.5475569,-27.2163332992313,0.0 -49.547432,-27.2164478992313,0.0 -49.5472415,-27.2165528992313,0.0 -49.547012,-27.2165722992313,0.0 -49.5467981,-27.2165995992313,0.0 -49.5466387,-27.2166267992313,0.0 -49.5464404,-27.2167200992313,0.0 -49.5462382,-27.2168483992313,0.0 -49.5461293,-27.2169844992313,0.0 -49.5460194,-27.2171983992313,0.0 -49.5459261,-27.2173811992313,0.0 -49.5458483,-27.2175289992313,0.0 -49.5456153,-27.2177766992313,0.0 -49.5454905,-27.2178886992313,0.0 -49.5453622,-27.2179742992313,0.0 -49.54523,-27.2180247992312,0.0 -49.54509,-27.2180519992312,0.0 -49.5449072,-27.2180830992313,0.0 -49.5446661,-27.2180869992313,0.0 -49.5445135,-27.2180675992312,0.0 -49.5443307,-27.2180403992312,0.0 -49.5441946,-27.2180286992313,0.0 -49.5440429,-27.2180442992312,0.0 -49.5439107,-27.2180830992313,0.0 -49.5437691,-27.2181650992313,0.0 -49.5436346,-27.2182736992313,0.0 -49.5434295,-27.2184583992312,0.0 -49.5433789,-27.2185555992312,0.0 -49.5433478,-27.2187266992312,0.0 -49.5433478,-27.2190028992312,0.0 -49.5434217,-27.2193022992312,0.0 -49.5435111,-27.2196950992312,0.0 -49.5436122,-27.2200722992312,0.0 -49.5436939,-27.2203172992312,0.0 -49.5437989,-27.2205291992312,0.0 -49.5439233,-27.2207352992312,0.0 -49.5440952,-27.2208934992312,0.0 -49.5442072,-27.2210386992312,0.0 -49.5442928,-27.2212369992312,0.0 -49.5443122,-27.2214352992312,0.0 -49.5442539,-27.2216102992312,0.0 -49.5441546,-27.2217637992312,0.0 -49.544072,-27.2218570992312,0.0 -49.5440283,-27.2219174992312,0.0 -49.5440001,-27.2220185992312,0.0 -49.5440146,-27.2221206992312,0.0 -49.5440867,-27.2222169992312,0.0 -49.544145,-27.2226116992312,0.0 -49.5441294,-27.2231735992312,0.0 -49.5441255,-27.2235974992311,0.0 -49.5441217,-27.2239046992311,0.0 -49.5441528,-27.2242274992311,0.0 -49.5441528,-27.2244491992311,0.0 -49.5441994,-27.2247038992311,0.0 -49.5442811,-27.2250265992311,0.0 -49.5443044,-27.2251899992311,0.0 -49.5443122,-27.2253882992311,0.0 -49.5443162,-27.2254836992311,0.0 -49.5443162,-27.2255176992311,0.0 -49.5443153,-27.2255351992311,0.0 -49.5443094,-27.2255585992311,0.0 -49.5443026,-27.2255711992311,0.0 -49.5442818,-27.2255996992311,0.0 -49.5442628,-27.2256255992311,0.0 -49.5442404,-27.2256635992311,0.0 -49.5442112,-27.2257053992311,0.0 -49.5441218,-27.2258491992311,0.0 -49.5440323,-27.2260630992311,0.0 -49.5439701,-27.2262458992311,0.0 -49.5439273,-27.2264053992311,0.0 -49.5439118,-27.2265025992311,0.0 -49.5439021,-27.2266007992311,0.0 -49.5438846,-27.2267329992311,0.0 -49.5438301,-27.2269059992311,0.0 -49.5437835,-27.2270245992311,0.0 -49.543694,-27.2271957992311,0.0 -49.5435587,-27.2275485992311,0.0 -49.5435371,-27.2279100992311,0.0 -49.5435782,-27.2282361992311,0.0 -49.5437037,-27.228521099231,0.0 -49.5438397,-27.228654899231,0.0 -49.5440069,-27.228755999231,0.0 -49.5441819,-27.228860999231,0.0 -49.5443919,-27.228993199231,0.0 -49.5445242,-27.229113799231,0.0 -49.544703,-27.229300499231,0.0 -49.5448469,-27.229444299231,0.0 -49.5450219,-27.229634899231,0.0 -49.5451891,-27.229918799231,0.0 -49.5453215,-27.230179999231,0.0 -49.5454438,-27.230306999231,0.0 -49.545743,-27.230448299231,0.0 -49.5463561,-27.230652699231,0.0 -49.5466611,-27.230690699231,0.0 -49.5468246,-27.230663299231,0.0 -49.5470033,-27.230647899231,0.0 -49.5471666,-27.230628499231,0.0 -49.5473802,-27.230608199231,0.0 -49.5475166,-27.230620699231,0.0 -49.5477344,-27.230651799231,0.0 -49.5480844,-27.230752899231,0.0 -49.5483021,-27.230865699231,0.0 -49.5485821,-27.231021299231,0.0 -49.5491509,-27.231334299231,0.0 -49.5495164,-27.231458799231,0.0 -49.5497575,-27.231524899231,0.0 -49.5500181,-27.231610399231,0.0 -49.5501775,-27.231657099231,0.0 -49.5503448,-27.231730999231,0.0 -49.5504614,-27.231797099231,0.0 -49.5505898,-27.231902099231,0.0 -49.5507307,-27.232102399231,0.0 -49.5507911,-27.232185099231,0.0 -49.5508086,-27.232223999231,0.0 -49.5508183,-27.232255099231,0.0 -49.5508222,-27.232301799231,0.0 -49.5508281,-27.232330899231,0.0 -49.5508293,-27.232364299231,0.0 -49.55083,-27.232383399231,0.0 -49.5508339,-27.232447599231,0.0 -49.5508397,-27.232538999231,0.0 -49.5508514,-27.232647899231,0.0 -49.550865,-27.232800499231,0.0 -49.5508747,-27.232880199231,0.0 -49.5508825,-27.232936599231,0.0 -49.5508942,-27.232975499231,0.0 -49.5509117,-27.233004699231,0.0 -49.5509331,-27.233018299231,0.0 -49.5509739,-27.233033899231,0.0 -49.5510342,-27.233041599231,0.0 -49.5511178,-27.233051399231,0.0 -49.5511798,-27.233059499231,0.0 -49.5517594,-27.233296799231,0.0 -49.5519324,-27.233438199231,0.0 -49.5520149,-27.233590599231,0.0 -49.5521171,-27.2340632992309,0.0 -49.5520916,-27.2344080992309,0.0 -49.5520149,-27.2348040992309,0.0 -49.5518744,-27.2351872992309,0.0 -49.5517594,-27.2355449992309,0.0 -49.5517978,-27.2360048992309,0.0 -49.5520265,-27.2366291992309,0.0 -49.552066,-27.2369756992309,0.0 -49.5520126,-27.2372135992309,0.0 -49.5518999,-27.2373716992309,0.0 -49.5517015,-27.2375606992309,0.0 -49.5513823,-27.2377703992309,0.0 -49.5512287,-27.2378875992309,0.0 -49.5511647,-27.2379985992309,0.0 -49.5511157,-27.2382379992309,0.0 -49.5510569,-27.2391471992308,0.0 -49.5511157,-27.2393355992308,0.0 -49.5511702,-27.2394677992308,0.0 -49.5512129,-27.2395999992308,0.0 -49.5512402,-27.2397127992308,0.0 -49.5512285,-27.2397788992308,0.0 -49.5511779,-27.2398410992308,0.0 -49.5510846,-27.2398994992308,0.0 -49.5509291,-27.2399655992308,0.0 -49.5508552,-27.2399927992308,0.0 -49.5507618,-27.2400394992308,0.0 -49.5504896,-27.2400219992308,0.0 -49.5501941,-27.2400141992308,0.0 -49.5498985,-27.2400452992308,0.0 -49.5496418,-27.2401696992308,0.0 -49.5494163,-27.2403485992308,0.0 -49.549323,-27.2406285992308,0.0 -49.5493074,-27.2408463992308,0.0 -49.5494474,-27.2411963992308,0.0 -49.5494474,-27.2414335992308,0.0 -49.5494474,-27.2416590992308,0.0 -49.549393,-27.2419079992308,0.0 -49.5491857,-27.2423303992308,0.0 -49.5490459,-27.2426081992308,0.0 -49.548693,-27.2430512992308,0.0 -49.548343,-27.2434090992308,0.0 -49.5482185,-27.2436657992308,0.0 -49.5481388,-27.2438757992308,0.0 -49.5480688,-27.2442490992307,0.0 -49.5479599,-27.2446846992307,0.0 -49.5478277,-27.2451045992307,0.0 -49.5476877,-27.2455479992307,0.0 -49.5475399,-27.2457579992307,0.0 -49.5473533,-27.2458356992307,0.0 -49.5470111,-27.2459368992307,0.0 -49.5468963,-27.2459620992307,0.0 -49.5467875,-27.2459893992307,0.0 -49.546698,-27.2460223992307,0.0 -49.546595,-27.2460612992307,0.0 -49.5465133,-27.2460943992307,0.0 -49.5464705,-27.2461293992307,0.0 -49.5464025,-27.2462168992307,0.0 -49.5462858,-27.2463704992307,0.0 -49.5461419,-27.2466387992307,0.0 -49.5460914,-27.2469070992307,0.0 -49.5461536,-27.2471598992307,0.0 -49.5462508,-27.2474826992307,0.0 -49.5463089,-27.2476700992307,0.0 -49.5463104,-27.2479313992307,0.0 -49.5462528,-27.2481788992307,0.0 -49.5461379,-27.2484309992307,0.0 -49.5457813,-27.2490723992307,0.0 -49.5453303,-27.2496777992306,0.0 -49.5450776,-27.2499406992306,0.0 -49.5446528,-27.2501864992306,0.0 -49.5443013,-27.2502684992306,0.0 -49.5439114,-27.2504144992306,0.0 -49.5437691,-27.2505248992306,0.0 -49.5435453,-27.2506771992306,0.0 -49.5434674,-27.2508335992306,0.0 -49.5434357,-27.2512192992306,0.0 -49.5433616,-27.2516323992306,0.0 -49.5432837,-27.2519968992306,0.0 -49.5432178,-27.2522200992306,0.0 -49.543151,-27.2523823992306,0.0 -49.5430844,-27.2525235992306,0.0 -49.5429355,-27.2526276992306,0.0 -49.5427184,-27.2527043992306,0.0 -49.5425048,-27.2527212992306,0.0 -49.5422453,-27.2527743992306,0.0 -49.5417487,-27.2529511992306,0.0 -49.5411579,-27.2530941992306,0.0 -49.540839,-27.2531253992306,0.0 -49.5405357,-27.2531253992306,0.0 -49.5401235,-27.2531253992306,0.0 -49.5397579,-27.2530708992306,0.0 -49.5395246,-27.2530241992306,0.0 -49.539406,-27.2530086992306,0.0 -49.5392193,-27.2530553992306,0.0 -49.5390949,-27.2531058992306,0.0 -49.5389743,-27.2531991992306,0.0 -49.5387877,-27.2533858992306,0.0 -49.5385543,-27.2537825992306,0.0 -49.5383229,-27.2541091992306,0.0 -49.5381129,-27.2543347992306,0.0 -49.5379107,-27.2545525992305,0.0 -49.5376541,-27.2548324992305,0.0 -49.537413,-27.2550969992305,0.0 -49.5371368,-27.2554103992305,0.0 -49.5368844,-27.2556188992305,0.0 -49.5366357,-27.2557590992305,0.0 -49.5363415,-27.2558552992305,0.0 -49.536157,-27.2558648992305,0.0 -49.5360236,-27.2558372992305,0.0 -49.5357595,-27.2557795992305,0.0 -49.5355553,-27.2557666992305,0.0 -49.5354724,-27.2558280992305,0.0 -49.5354338,-27.2559431992305,0.0 -49.5354591,-27.2561024992305,0.0 -49.5354314,-27.2563037992305,0.0 -49.5352745,-27.2566207992305,0.0 -49.5350319,-27.2568132992305,0.0 -49.5347685,-27.2570277992305,0.0 -49.5346378,-27.2571534992305,0.0 -49.5345043,-27.2573447992305,0.0 -49.5343499,-27.2576484992305,0.0 -49.5341882,-27.2578411992305,0.0 -49.5341831,-27.2581748992305,0.0 -49.5341857,-27.2584414992305,0.0 -49.5342947,-27.2586854992305,0.0 -49.5344681,-27.2589301992305,0.0 -49.5346426,-27.2591764992305,0.0 -49.5348076,-27.2594135992305,0.0 -49.5349042,-27.2597084992304,0.0 -49.5350119,-27.2599677992304,0.0 -49.5350392,-27.2602376992304,0.0 -49.5349785,-27.2605510992304,0.0 -49.5347642,-27.2609763992304,0.0 -49.5344282,-27.2615561992304,0.0 -49.5342759,-27.2616996992304,0.0 -49.5340678,-27.2618276992304,0.0 -49.5336935,-27.2620735992304,0.0 -49.5333443,-27.2623709992304,0.0 -49.5327481,-27.2628800992304,0.0 -49.5325199,-27.2633904992304,0.0 -49.5321949,-27.2637821992304,0.0 -49.5318311,-27.2641142992304,0.0 -49.5317652,-27.2642937992304,0.0 -49.5316921,-27.2644949992304,0.0 -49.5316509,-27.2646800992304,0.0 -49.5317302,-27.2649373992304,0.0 -49.5317201,-27.2650673992304,0.0 -49.5316563,-27.2652107992303,0.0 -49.5315382,-27.2653803992303,0.0 -49.5311385,-27.2662814992303,0.0 -49.5310839,-27.2664970992303,0.0 -49.5310217,-27.2667361992303,0.0 -49.5310528,-27.2670278992303,0.0 -49.53108,-27.2673467992303,0.0 -49.5311189,-27.2676422992303,0.0 -49.5311228,-27.2678270992303,0.0 -49.5311539,-27.2679981992303,0.0 -49.531255,-27.2681653992303,0.0 -49.5313911,-27.2683325992303,0.0 -49.531465,-27.2684667992303,0.0 -49.5315311,-27.2685717992303,0.0 -49.5315855,-27.2687272992303,0.0 -49.531605,-27.2688983992303,0.0 -49.5315855,-27.2691122992303,0.0 -49.5315505,-27.2693883992303,0.0 -49.5315428,-27.2696450992303,0.0 -49.5314689,-27.2698628992303,0.0 -49.5313017,-27.2700553992303,0.0 -49.5310839,-27.2702769992303,0.0 -49.5306209,-27.2706636992302,0.0 -49.5303567,-27.2708797992302,0.0 -49.5301933,-27.2709536992302,0.0 -49.5300347,-27.2710104992302,0.0 -49.5299328,-27.2710469992302,0.0 -49.5296013,-27.2711208992302,0.0 -49.529201,-27.2711581992302,0.0 -49.5286006,-27.2712092992302,0.0 -49.5282296,-27.2712562992302,0.0 -49.5279819,-27.2713369992302,0.0 -49.5277018,-27.2714365992302,0.0 -49.5276326,-27.2714611992302,0.0 -49.5275105,-27.2715292992302,0.0 -49.5274348,-27.2716074992302,0.0 -49.5273229,-27.2718034992302,0.0 -49.5272562,-27.2720395992302,0.0 -49.527472,-27.2721861992302,0.0 -49.5277019,-27.2723138992302,0.0 -49.5282831,-27.2725808992302,0.0 -49.5288016,-27.2729456992302,0.0 -49.529298,-27.2733070992302,0.0 -49.5296773,-27.2735710992302,0.0 -49.5301528,-27.2736621992302,0.0 -49.5303153,-27.2736842992302,0.0 -49.5304779,-27.2737063992302,0.0 -49.5311014,-27.2738131992302,0.0 -49.5315276,-27.2738786992302,0.0 -49.5318039,-27.2739525992302,0.0 -49.5322877,-27.2741341992302,0.0 -49.5330222,-27.2743446992302,0.0 -49.5342022,-27.2746384992302,0.0 -49.5351598,-27.2748213992302,0.0 -49.5358859,-27.2750300992302,0.0 -49.5361021,-27.2750957992302,0.0 -49.5365547,-27.2752206992302,0.0 -49.5369825,-27.2753295992302,0.0 -49.5373367,-27.2754615992302,0.0 -49.5376358,-27.2755356992302,0.0 -49.5383324,-27.2758185992301,0.0 -49.5386902,-27.2759274992301,0.0 -49.5390674,-27.2760071992301,0.0 -49.5402521,-27.2762162992301,0.0 -49.5409468,-27.2764145992301,0.0 -49.5414977,-27.2766046992301,0.0 -49.5419093,-27.2766960992301,0.0 -49.5422751,-27.2766308992301,0.0 -49.542808,-27.2765483992301,0.0 -49.5431992,-27.2764558992301,0.0 -49.5436925,-27.2762845992301,0.0 -49.5438755,-27.2762845992301,0.0 -49.5441853,-27.2763456992301,0.0 -49.5446024,-27.2764961992301,0.0 -49.545055,-27.2766818992301,0.0 -49.5454282,-27.2767893992301,0.0 -49.5460922,-27.2769729992301,0.0 -49.5464277,-27.2770886992301,0.0 -49.5466426,-27.2771795992301,0.0 -49.546895,-27.2771612992301,0.0 -49.5471707,-27.2770376992301,0.0 -49.547514,-27.2769635992301,0.0 -49.5476613,-27.2769533992301,0.0 -49.5478668,-27.2769949992301,0.0 -49.548044,-27.2770706992301,0.0 -49.5482365,-27.2770763992301,0.0 -49.5483264,-27.2770345992301,0.0 -49.5484163,-27.2769927992301,0.0 -49.548665,-27.2768863992301,0.0 -49.5489641,-27.2767049992301,0.0 -49.5491092,-27.2765944992301,0.0 -49.5492543,-27.2764839992301,0.0 -49.5495706,-27.2762226992301,0.0 -49.5499296,-27.2759647992301,0.0 -49.5502371,-27.2755420992302,0.0 -49.5504357,-27.2752470992302,0.0 -49.5505514,-27.2751871992302,0.0 -49.5507671,-27.2751452992302,0.0 -49.5509556,-27.2751976992302,0.0 -49.5511254,-27.2753107992302,0.0 -49.5515469,-27.2755248992301,0.0 -49.5518988,-27.2756453992302,0.0 -49.5523802,-27.2758025992302,0.0 -49.552753,-27.2759654992301,0.0 -49.5532057,-27.2761370992301,0.0 -49.5534027,-27.2762737992301,0.0 -49.5540411,-27.2765617992301,0.0 -49.5546024,-27.2766822992301,0.0 -49.5549985,-27.2766464992301,0.0 -49.5554303,-27.2767466992301,0.0 -49.5557135,-27.2769599992301,0.0 -49.5560113,-27.2772030992301,0.0 -49.5563476,-27.2772836992301,0.0 -49.5567036,-27.2773236992301,0.0 -49.5569568,-27.2772720992301,0.0 -49.5573033,-27.2771620992301,0.0 -49.5575623,-27.2770377992301,0.0 -49.5577007,-27.2768695992301,0.0 -49.5578152,-27.2767802992301,0.0 -49.5580274,-27.2766876992301,0.0 -49.558249,-27.2766604992301,0.0 -49.558459,-27.2766410992301,0.0 -49.5586924,-27.2766371992301,0.0 -49.5591474,-27.2766293992301,0.0 -49.5594429,-27.2765632992301,0.0 -49.559684,-27.2764427992301,0.0 -49.5599251,-27.2762715992301,0.0 -49.5601507,-27.2760732992301,0.0 -49.5604151,-27.2759060992301,0.0 -49.5607146,-27.2758360992302,0.0 -49.5609382,-27.2758418992302,0.0 -49.5611132,-27.2758457992301,0.0 -49.5612065,-27.2758691992301,0.0 -49.5615469,-27.2760525992301,0.0 -49.561713,-27.2761413992301,0.0 -49.5619308,-27.2762852992301,0.0 -49.5621836,-27.2764213992301,0.0 -49.5623002,-27.2764329992301,0.0 -49.5623974,-27.2764135992301,0.0 -49.5624752,-27.2763863992301,0.0 -49.5626502,-27.2762190992301,0.0 -49.5631908,-27.2758263992301,0.0 -49.5635291,-27.2756629992302,0.0 -49.5637906,-27.2755871992302,0.0 -49.5640823,-27.2755482992301,0.0 -49.5642651,-27.2755579992302,0.0 -49.5645081,-27.2756104992301,0.0 -49.5647123,-27.2756532992302,0.0 -49.5648503,-27.2757018992302,0.0 -49.5649339,-27.2757329992301,0.0 -49.5650739,-27.2757427992301,0.0 -49.5651609,-27.2757180992302,0.0 -49.5652749,-27.2755529992302,0.0 -49.5656183,-27.2746238992302,0.0 -49.5660333,-27.2739595992302,0.0 -49.5662691,-27.2733231992302,0.0 -49.5665095,-27.2726265992302,0.0 -49.5668031,-27.2721773992302,0.0 -49.5670567,-27.2718506992302,0.0 -49.567578,-27.2715236992302,0.0 -49.567927,-27.2712547992302,0.0 -49.5684648,-27.2703922992302,0.0 -49.5687088,-27.2698101992303,0.0 -49.5688244,-27.2695693992303,0.0 -49.56885,-27.2694743992303,0.0 -49.5689152,-27.2694084992303,0.0 -49.5691326,-27.2692167992303,0.0 -49.5693307,-27.2691270992303,0.0 -49.5695416,-27.2690964992303,0.0 -49.5696785,-27.2690719992303,0.0 -49.5698744,-27.2689816992303,0.0 -49.570158,-27.2687178992303,0.0 -49.5703506,-27.2684816992303,0.0 -49.5708858,-27.2681449992303,0.0 -49.5711997,-27.2680539992303,0.0 -49.5714535,-27.2680515992303,0.0 -49.5716791,-27.2680515992303,0.0 -49.5719085,-27.2680243992303,0.0 -49.5721337,-27.2679168992303,0.0 -49.5722984,-27.2678046992303,0.0 -49.5724967,-27.2676296992303,0.0 -49.5727573,-27.2673418992303,0.0 -49.5729838,-27.2670677992303,0.0 -49.5731355,-27.2667721992303,0.0 -49.5732521,-27.2664999992303,0.0 -49.5734971,-27.2661538992303,0.0 -49.5737966,-27.2658232992303,0.0 -49.5740571,-27.2655899992304,0.0 -49.5745704,-27.2652010992303,0.0 -49.5749399,-27.2648160992304,0.0 -49.5753832,-27.2642949992304,0.0 -49.5757449,-27.2639683992304,0.0 -49.5758693,-27.2637661992304,0.0 -49.5761765,-27.2630466992304,0.0 -49.576474,-27.2622533992304,0.0 -49.5766179,-27.2618780992304,0.0 -49.5766918,-27.2615786992304,0.0 -49.5767929,-27.2613453992304,0.0 -49.5769057,-27.2611780992304,0.0 -49.5772984,-27.2608592992304,0.0 -49.5775293,-27.2606464992304,0.0 -49.5776601,-27.2604975992304,0.0 -49.577758,-27.2603721992304,0.0 -49.5778896,-27.2603303992304,0.0 -49.5780218,-27.2602758992304,0.0 -49.5781491,-27.2601611992305,0.0 -49.5782444,-27.2600581992304,0.0 -49.5784213,-27.2599667992305,0.0 -49.5785944,-27.2599278992304,0.0 -49.5786683,-27.2599278992304,0.0 -49.5787675,-27.2599569992305,0.0 -49.5788375,-27.2599822992305,0.0 -49.579046,-27.2600638992304,0.0 -49.5794292,-27.2602490992304,0.0 -49.5797933,-27.2604279992304,0.0 -49.5805472,-27.2607379992304,0.0 -49.5816774,-27.2612071992304,0.0 -49.5823097,-27.2615967992304,0.0 -49.5828462,-27.2618457992304,0.0 -49.5837595,-27.2624206992304,0.0 -49.5843956,-27.2629844992304,0.0 -49.5849728,-27.2634414992304,0.0 -49.5853989,-27.2638633992304,0.0 -49.5857486,-27.2642130992304,0.0 -49.5858971,-27.2643045992304,0.0 -49.585979,-27.2644521992304,0.0 -49.5859997,-27.2644894992304,0.0 -49.5861047,-27.2648277992303,0.0 -49.586233,-27.2654285992303,0.0 -49.586408,-27.2659263992303,0.0 -49.5865278,-27.2661418992303,0.0 -49.586712,-27.2664437992303,0.0 -49.5875105,-27.2670774992303,0.0 -49.587808,-27.2672602992303,0.0 -49.5883816,-27.2676734992303,0.0 -49.5885566,-27.2678386992303,0.0 -49.5887297,-27.2680097992303,0.0 -49.5889163,-27.2681322992303,0.0 -49.5890796,-27.2682197992303,0.0 -49.5900393,-27.2686501992303,0.0 -49.5906274,-27.2689528992303,0.0 -49.5914441,-27.2694428992303,0.0 -49.5920284,-27.2699658992303,0.0 -49.5923651,-27.2703374992303,0.0 -49.592915,-27.2707105992302,0.0 -49.5933661,-27.2709127992302,0.0 -49.5938678,-27.2710761992302,0.0 -49.5942644,-27.2711733992302,0.0 -49.5948128,-27.2712938992302,0.0 -49.5953455,-27.2713522992302,0.0 -49.5961845,-27.2714066992302,0.0 -49.596554,-27.2713833992302,0.0 -49.5970595,-27.2713288992302,0.0 -49.5976195,-27.2713405992302,0.0 -49.5978762,-27.2713794992302,0.0 -49.5980706,-27.2714650992302,0.0 -49.5983039,-27.2716672992302,0.0 -49.5984972,-27.2719370992302,0.0 -49.5991478,-27.2725169992302,0.0 -49.5996495,-27.2729466992302,0.0 -49.5998898,-27.2731649992302,0.0 -49.6001356,-27.2734171992302,0.0 -49.6002464,-27.2735659992302,0.0 -49.6002838,-27.2736393992302,0.0 -49.6003096,-27.2737803992302,0.0 -49.6003459,-27.2740314992302,0.0 -49.6003913,-27.2742100992302,0.0 -49.6003718,-27.2743422992302,0.0 -49.6003563,-27.2745250992302,0.0 -49.6003563,-27.2746028992302,0.0 -49.6003796,-27.2746455992302,0.0 -49.6005157,-27.2747855992302,0.0 -49.600697,-27.2749246992302,0.0 -49.601265,-27.2754233992302,0.0 -49.6013778,-27.2755040992302,0.0 -49.6014741,-27.2756119992302,0.0 -49.6015334,-27.2756576992302,0.0 -49.601617,-27.2757636992301,0.0 -49.601685,-27.2758588992302,0.0 -49.6017903,-27.2759740992301,0.0 -49.6019983,-27.2761315992301,0.0 -49.6023524,-27.2763116992301,0.0 -49.6025316,-27.2764115992301,0.0 -49.6026094,-27.2764679992301,0.0 -49.6027163,-27.2765593992301,0.0 -49.6028174,-27.2766663992301,0.0 -49.6029438,-27.2768121992301,0.0 -49.6033016,-27.2771543992301,0.0 -49.6038888,-27.2775626992301,0.0 -49.6042678,-27.2777709992301,0.0 -49.6046327,-27.2778621992301,0.0 -49.6055053,-27.2783358992301,0.0 -49.6058061,-27.2784414992301,0.0 -49.6061429,-27.2784517992301,0.0 -49.6063484,-27.2784719992301,0.0 -49.6066876,-27.2784325992301,0.0 -49.6070251,-27.2784145992301,0.0 -49.6073871,-27.2784848992301,0.0 -49.6078473,-27.2785153992301,0.0 -49.6083587,-27.2784890992301,0.0 -49.6087812,-27.2784974992301,0.0 -49.6090845,-27.2785833992301,0.0 -49.6097828,-27.2788979992301,0.0 -49.6101052,-27.2789566992301,0.0 -49.6103332,-27.2789566992301,0.0 -49.6104852,-27.2788940992301,0.0 -49.6106039,-27.2787647992301,0.0 -49.6107436,-27.2785918992301,0.0 -49.6109913,-27.2783488992301,0.0 -49.6112909,-27.2781357992301,0.0 -49.6115702,-27.2780487992301,0.0 -49.6118268,-27.2780176992301,0.0 -49.6120213,-27.2780254992301,0.0 -49.6122818,-27.2780682992301,0.0 -49.6125968,-27.2782121992301,0.0 -49.6129507,-27.2783793992301,0.0 -49.6132135,-27.2784970992301,0.0 -49.6137991,-27.2786285992301,0.0 -49.6142551,-27.2788654992301,0.0 -49.6147413,-27.2792748992301,0.0 -49.6150304,-27.2795495992301,0.0 -49.6154357,-27.2799890992301,0.0 -49.6159913,-27.2804206992301,0.0 -49.6164759,-27.28065439923,0.0 -49.6169815,-27.28112879923,0.0 -49.6172566,-27.28167619923,0.0 -49.6172796,-27.28181839923,0.0 -49.617265,-27.28196659923,0.0 -49.6172362,-27.28213109923,0.0 -49.617263,-27.28227879923,0.0 -49.6172997,-27.28235529923,0.0 -49.6173562,-27.28242259923,0.0 -49.6174474,-27.28246819923,0.0 -49.6176298,-27.28251379923,0.0 -49.6179035,-27.28255939923,0.0 -49.6184507,-27.28287869923,0.0 -49.6188156,-27.28319789923,0.0 -49.6193508,-27.28359869923,0.0 -49.6194519,-27.28370559923,0.0 -49.6195763,-27.28387279923,0.0 -49.6196818,-27.28403909923,0.0 -49.6197654,-27.28421209923,0.0 -49.6198665,-27.28441239923,0.0 -49.6199754,-27.28454069923,0.0 -49.6203132,-27.28479869923,0.0 -49.6206134,-27.28483059923,0.0 -49.6208473,-27.28480879923,0.0 -49.621185,-27.28472979923,0.0 -49.6216682,-27.28453259923,0.0 -49.6219733,-27.28450189923,0.0 -49.6221813,-27.28450569923,0.0 -49.6223524,-27.28451739923,0.0 -49.6225663,-27.28459129923,0.0 -49.6228287,-27.28470279923,0.0 -49.6230874,-27.28485569923,0.0 -49.6233441,-27.28494319923,0.0 -49.6237135,-27.28499769923,0.0 -49.6241056,-27.28497649923,0.0 -49.6245586,-27.28486209923,0.0 -49.6247113,-27.28482029923,0.0 -49.6249971,-27.28474349923,0.0 -49.6251954,-27.28467729923,0.0 -49.6253393,-27.28460539923,0.0 -49.6254514,-27.28451769923,0.0 -49.625793,-27.28392759923,0.0 -49.6265227,-27.28319789923,0.0 -49.6267051,-27.28292429923,0.0 -49.6268419,-27.28269629923,0.0 -49.6270243,-27.28242259923,0.0 -49.6272067,-27.28219459923,0.0 -49.6273877,-27.28201449923,0.0 -49.6274694,-27.28195999923,0.0 -49.6275716,-27.28192099923,0.0 -49.6277996,-27.28192099923,0.0 -49.6279954,-27.28190169923,0.0 -49.6282598,-27.28183169923,0.0 -49.6284836,-27.28173859923,0.0 -49.6287663,-27.28149709923,0.0 -49.6288485,-27.28137369923,0.0 -49.6289397,-27.28123689923,0.0 -49.6289287,-27.2811199992301,0.0 -49.6289015,-27.2809566992301,0.0 -49.6288781,-27.2808322992301,0.0 -49.6288898,-27.2807233992301,0.0 -49.6289676,-27.2805872992301,0.0 -49.6290765,-27.2804627992301,0.0 -49.6291931,-27.2803227992301,0.0 -49.6295509,-27.2800855992301,0.0 -49.6300963,-27.2796694992301,0.0 -49.6303534,-27.2794583992301,0.0 -49.6305707,-27.2791133992301,0.0 -49.6309919,-27.2787742992301,0.0 -49.6311035,-27.2786544992301,0.0 -49.6313833,-27.2783606992301,0.0 -49.6315551,-27.2782383992301,0.0 -49.6316601,-27.2781897992301,0.0 -49.631769,-27.2781489992301,0.0 -49.6318973,-27.2781430992301,0.0 -49.6320864,-27.2781813992301,0.0 -49.6323178,-27.2782685992301,0.0 -49.6324306,-27.2783093992301,0.0 -49.632588,-27.2783638992301,0.0 -49.6326792,-27.2784094992301,0.0 -49.6327456,-27.2784435992301,0.0 -49.6328292,-27.2784960992301,0.0 -49.6328992,-27.2785348992301,0.0 -49.6329847,-27.2785757992301,0.0 -49.6332628,-27.2786554992301,0.0 -49.633674,-27.2787468992301,0.0 -49.6337926,-27.2787604992301,0.0 -49.6338996,-27.2787915992301,0.0 -49.6340474,-27.2788198992301,0.0 -49.6341524,-27.2788421992301,0.0 -49.6342632,-27.2788362992301,0.0 -49.6343487,-27.2788207992301,0.0 -49.6344265,-27.2787954992301,0.0 -49.6345004,-27.2787546992301,0.0 -49.6346987,-27.2787040992301,0.0 -49.6349138,-27.2785918992301,0.0 -49.6354323,-27.2785153992301,0.0 -49.6357519,-27.2784309992301,0.0 -49.6362564,-27.2781754992301,0.0 -49.6371484,-27.2774973992301,0.0 -49.6374982,-27.2772861992301,0.0 -49.6377093,-27.2771389992301,0.0 -49.637783,-27.2770451992301,0.0 -49.6378497,-27.2769560992301,0.0 -49.6378802,-27.2767748992301,0.0 -49.6379408,-27.2765726992301,0.0 -49.6381517,-27.2762204992301,0.0 -49.6383031,-27.2761123992301,0.0 -49.6385128,-27.2760154992301,0.0 -49.6394286,-27.2759011992301,0.0 -49.6402067,-27.2755983992302,0.0 -49.6437414,-27.2762108992301,0.0 -49.6482301,-27.2769887992301,0.0 -49.6504227,-27.2773689992301,0.0 -49.6585511,-27.2787849992301,0.0 -49.6587045,-27.2791971992301,0.0 -49.6587663,-27.2795525992301,0.0 -49.6587203,-27.2798289992301,0.0 -49.6585417,-27.2800805992301,0.0 -49.6583098,-27.2803753992301,0.0 -49.6582696,-27.2805118992301,0.0 -49.6582968,-27.2806609992301,0.0 -49.6585427,-27.28107779923,0.0 -49.6587562,-27.28171929923,0.0 -49.6588457,-27.28207689923,0.0 -49.6590181,-27.28267729923,0.0 -49.6591906,-27.28299029923,0.0 -49.6593949,-27.28325849923,0.0 -49.6596043,-27.28334219923,0.0 -49.6598137,-27.28342589923,0.0 -49.6604066,-27.28367819923,0.0 -49.6608003,-27.28387909923,0.0 -49.6611185,-27.28401459923,0.0 -49.661231,-27.28404099923,0.0 -49.6614099,-27.28406439923,0.0 -49.6618667,-27.28391639923,0.0 -49.6623219,-27.28374519923,0.0 -49.6626363,-27.28351079923,0.0 -49.6629732,-27.28334879923,0.0 -49.6632337,-27.28330219923,0.0 -49.6635215,-27.28329049923,0.0 -49.6638239,-27.28330219923,0.0 -49.6640844,-27.28330989923,0.0 -49.6643411,-27.28334099923,0.0 -49.6644966,-27.28337599923,0.0 -49.6646638,-27.28345769923,0.0 -49.6648077,-27.28363269923,0.0 -49.6648894,-27.28383879923,0.0 -49.664967,-27.28401879923,0.0 -49.6650582,-27.28438359923,0.0 -49.6650994,-27.28466909923,0.0 -49.6652705,-27.28521739923,0.0 -49.6653599,-27.28545849923,0.0 -49.6655077,-27.28563349923,0.0 -49.6656511,-27.28570609923,0.0 -49.6659355,-27.28571909923,0.0 -49.6660021,-27.28569959923,0.0 -49.6662257,-27.28565879923,0.0 -49.6664921,-27.28562769923,0.0 -49.6666807,-27.28557129923,0.0 -49.6668323,-27.28552849923,0.0 -49.6669704,-27.28552069923,0.0 -49.6670847,-27.28553539923,0.0 -49.6672016,-27.28566049923,0.0 -49.6674313,-27.28614329923,0.0 -49.6676665,-27.2870606992299,0.0 -49.6677268,-27.2871423992299,0.0 -49.6677851,-27.2871850992299,0.0 -49.6678921,-27.2872317992299,0.0 -49.6680681,-27.2872566992299,0.0 -49.6682148,-27.2871967992299,0.0 -49.6683023,-27.2871520992299,0.0 -49.6683898,-27.2871034992299,0.0 -49.6685026,-27.2869915992299,0.0 -49.6689802,-27.2866181992299,0.0 -49.6692627,-27.28642319923,0.0 -49.6694362,-27.2863901992299,0.0 -49.6696363,-27.2864774992299,0.0 -49.6697554,-27.2867549992299,0.0 -49.6701185,-27.2872502992299,0.0 -49.6704395,-27.2876214992299,0.0 -49.6708051,-27.2882625992299,0.0 -49.6709867,-27.2884879992299,0.0 -49.6714428,-27.2888983992299,0.0 -49.6717248,-27.2889906992299,0.0 -49.6722613,-27.2890417992299,0.0 -49.6727492,-27.2891150992299,0.0 -49.6731138,-27.2892403992299,0.0 -49.6733582,-27.2893544992299,0.0 -49.6735839,-27.2895525992299,0.0 -49.6739054,-27.2898104992299,0.0 -49.6745915,-27.2900258992299,0.0 -49.6748829,-27.2901081992299,0.0 -49.6754559,-27.2901752992299,0.0 -49.6758664,-27.2901296992299,0.0 -49.6763681,-27.2902488992299,0.0 -49.6767002,-27.2904788992299,0.0 -49.6770515,-27.2906831992299,0.0 -49.6773644,-27.2907279992299,0.0 -49.6777882,-27.2907045992299,0.0 -49.6782834,-27.2906313992299,0.0 -49.67882,-27.2906681992299,0.0 -49.6791499,-27.2907225992299,0.0 -49.6796828,-27.2907662992299,0.0 -49.6805004,-27.2908620992299,0.0 -49.6811135,-27.2910153992299,0.0 -49.68165,-27.2912899992298,0.0 -49.6816646,-27.2910727992299,0.0 -49.6818562,-27.2905873992299,0.0 -49.6824055,-27.2899997992299,0.0 -49.6830697,-27.2896292992299,0.0 -49.6839256,-27.2893993992299,0.0 -49.684296,-27.2893993992299,0.0 -49.6846664,-27.2893993992299,0.0 -49.6854967,-27.2895526992299,0.0 -49.6858927,-27.2896165992299,0.0 -49.6868763,-27.2897825992299,0.0 -49.6876044,-27.2897697992299,0.0 -49.6889584,-27.2899103992299,0.0 -49.690057,-27.2899869992299,0.0 -49.6911172,-27.2901019992299,0.0 -49.692203,-27.2900891992299,0.0 -49.6925734,-27.2899997992299,0.0 -49.6926756,-27.2898655992299,0.0 -49.6927778,-27.2897314992299,0.0 -49.6928927,-27.2894504992299,0.0 -49.6931354,-27.2889011992299,0.0 -49.6934037,-27.2885562992299,0.0 -49.6938508,-27.2881858992299,0.0 -49.6942212,-27.2875088992299,0.0 -49.6941829,-27.2870106992299,0.0 -49.6940679,-27.2865891992299,0.0 -49.6939913,-27.2861548992299,0.0 -49.6940935,-27.28573329923,0.0 -49.6943489,-27.28529899923,0.0 -49.6946683,-27.28462199923,0.0 -49.6948727,-27.28388109923,0.0 -49.695026,-27.28360009923,0.0 -49.6955752,-27.28347239923,0.0 -49.6963033,-27.28319139923,0.0 -49.6969037,-27.28288479923,0.0 -49.6972869,-27.28232269923,0.0 -49.6974913,-27.28197789923,0.0 -49.6975296,-27.28164569923,0.0 -49.6974019,-27.2812752992301,0.0 -49.6971464,-27.2808920992301,0.0 -49.6966865,-27.2803299992301,0.0 -49.6963033,-27.2796785992301,0.0 -49.6960734,-27.2790526992301,0.0 -49.6959457,-27.2786566992301,0.0 -49.6957285,-27.2781329992301,0.0 -49.6953198,-27.2776730992301,0.0 -49.6949493,-27.2771493992301,0.0 -49.6946938,-27.2765489992301,0.0 -49.6944767,-27.2761401992301,0.0 -49.6940551,-27.2755270992302,0.0 -49.6938635,-27.2750927992302,0.0 -49.6938252,-27.2746584992302,0.0 -49.693953,-27.2740708992302,0.0 -49.6939657,-27.2736493992302,0.0 -49.6940424,-27.2733171992302,0.0 -49.6942979,-27.2730489992302,0.0 -49.6946811,-27.2724996992302,0.0 -49.694911,-27.2720525992302,0.0 -49.6950643,-27.2715671992302,0.0 -49.6952559,-27.2709157992302,0.0 -49.6955752,-27.2702004992303,0.0 -49.6961245,-27.2689741992303,0.0 -49.6962906,-27.2682843992303,0.0 -49.696302,-27.2677035992303,0.0 -49.696348,-27.2672241992303,0.0 -49.6964675,-27.2609001992304,0.0 -49.6963595,-27.2596620992305,0.0 -49.6963539,-27.2581391992305,0.0 -49.6963613,-27.2578569992305,0.0 -49.6963972,-27.2564991992305,0.0 -49.6965503,-27.2560516992305,0.0 -49.6968781,-27.2547939992305,0.0 -49.6971542,-27.2530945992306,0.0 -49.6972918,-27.2522478992306,0.0 -49.6973069,-27.2521551992306,0.0 -49.6973679,-27.2520628992306,0.0 -49.6975034,-27.2519796992306,0.0 -49.6977078,-27.2519303992306,0.0 -49.698135,-27.2519364992306,0.0 -49.6987943,-27.2519461992306,0.0 -49.6990275,-27.2519088992306,0.0 -49.6992002,-27.2518319992306,0.0 -49.699334,-27.2516689992306,0.0 -49.6994511,-27.2513811992306,0.0 -49.6994268,-27.2510917992306,0.0 -49.6993197,-27.2507786992306,0.0 -49.6991097,-27.2503263992306,0.0 -49.6988261,-27.2500020992306,0.0 -49.6984556,-27.2497261992307,0.0 -49.6977035,-27.2492684992307,0.0 -49.6975291,-27.2491623992307,0.0 -49.6966135,-27.2482053992307,0.0 -49.6958278,-27.2476960992307,0.0 -49.6952332,-27.2474364992307,0.0 -49.6945196,-27.2471669992307,0.0 -49.6944688,-27.2471404992307,0.0 -49.6942667,-27.2470351992307,0.0 -49.6941178,-27.2467730992307,0.0 -49.6940517,-27.2466565992307,0.0 -49.6937856,-27.2462893992307,0.0 -49.6933634,-27.2458460992307,0.0 -49.6928141,-27.2454724992307,0.0 -49.6918589,-27.2450993992307,0.0 -49.6916352,-27.2450287992307,0.0 -49.6912819,-27.2449172992307,0.0 -49.6908427,-27.2448908992307,0.0 -49.6906969,-27.2447707992307,0.0 -49.6905195,-27.2446268992307,0.0 -49.6904302,-27.2445271992307,0.0 -49.6903734,-27.2444606992307,0.0 -49.6903165,-27.2443942992307,0.0 -49.6902911,-27.2442213992307,0.0 -49.6902907,-27.2441990992307,0.0 -49.6902892,-27.2441166992307,0.0 -49.6904144,-27.2439064992308,0.0 -49.6906184,-27.2436963992308,0.0 -49.6908207,-27.2434881992308,0.0 -49.6909513,-27.2431232992308,0.0 -49.6909913,-27.2430093992308,0.0 -49.6910369,-27.2427771992308,0.0 -49.6910913,-27.2425671992308,0.0 -49.6911108,-27.2424388992308,0.0 -49.6910797,-27.2423065992308,0.0 -49.6910019,-27.2422015992308,0.0 -49.6908424,-27.2420577992308,0.0 -49.6906752,-27.2418827992308,0.0 -49.6904536,-27.2417349992308,0.0 -49.6902552,-27.2415754992308,0.0 -49.6901173,-27.2414707992308,0.0 -49.689954,-27.2413756992308,0.0 -49.6896372,-27.2411911992308,0.0 -49.6892301,-27.2408690992308,0.0 -49.688823,-27.2405470992308,0.0 -49.6884119,-27.2401607992308,0.0 -49.6882135,-27.2398650992308,0.0 -49.6881228,-27.2396443992308,0.0 -49.6881468,-27.2393879992308,0.0 -49.6882557,-27.2390658992308,0.0 -49.6884729,-27.2384143992309,0.0 -49.6888989,-27.2379200992309,0.0 -49.6890638,-27.2378391992309,0.0 -49.6892286,-27.2377581992309,0.0 -49.6896408,-27.2376025992309,0.0 -49.6898819,-27.2374081992309,0.0 -49.6900191,-27.2370525992309,0.0 -49.6899986,-27.2368948992309,0.0 -49.68995,-27.2367198992309,0.0 -49.6898605,-27.2365545992309,0.0 -49.6897322,-27.2363892992309,0.0 -49.6895475,-27.2362035992309,0.0 -49.6894561,-27.2361063992309,0.0 -49.6893705,-27.2359896992309,0.0 -49.6893044,-27.2358419992309,0.0 -49.6892111,-27.2357524992309,0.0 -49.6890011,-27.2356202992309,0.0 -49.6889457,-27.2355307992309,0.0 -49.6889214,-27.2354569992309,0.0 -49.688908,-27.2353859992309,0.0 -49.6889333,-27.2353216992309,0.0 -49.6890303,-27.2352308992309,0.0 -49.6892,-27.2351266992309,0.0 -49.6896055,-27.2348509992309,0.0 -49.6898625,-27.2346230992309,0.0 -49.6900669,-27.2342838992309,0.0 -49.6902657,-27.2339308992309,0.0 -49.6905539,-27.233539099231,0.0 -49.6907602,-27.233067399231,0.0 -49.6909913,-27.232087399231,0.0 -49.6911304,-27.231069499231,0.0 -49.6913469,-27.230188099231,0.0 -49.6916435,-27.230048399231,0.0 -49.6919764,-27.229830499231,0.0 -49.6924564,-27.229561299231,0.0 -49.6928741,-27.229350899231,0.0 -49.6933956,-27.229197699231,0.0 -49.6938506,-27.229125299231,0.0 -49.694327,-27.229012699231,0.0 -49.6948579,-27.228869499231,0.0 -49.6953874,-27.228884399231,0.0 -49.6960377,-27.229021399231,0.0 -49.6967003,-27.229164299231,0.0 -49.6971723,-27.229190299231,0.0 -49.6975101,-27.229120999231,0.0 -49.6976097,-27.228973799231,0.0 -49.6977093,-27.228869799231,0.0 -49.6977647,-27.2285071992311,0.0 -49.6977145,-27.2280945992311,0.0 -49.6976415,-27.2276223992311,0.0 -49.6976,-27.2272558992311,0.0 -49.6976506,-27.2268179992311,0.0 -49.6976988,-27.2263943992311,0.0 -49.6976247,-27.2259844992311,0.0 -49.6975688,-27.2256173992311,0.0 -49.6975846,-27.2250367992311,0.0 -49.6976035,-27.2246597992311,0.0 -49.697654,-27.2243611992311,0.0 -49.6977706,-27.2240676992311,0.0 -49.697898,-27.2237319992311,0.0 -49.6980724,-27.2234240992311,0.0 -49.6982165,-27.2231106992312,0.0 -49.6984494,-27.2227712992312,0.0 -49.6986534,-27.2224905992312,0.0 -49.6987747,-27.2220574992312,0.0 -49.6988353,-27.2214598992312,0.0 -49.698766,-27.2211999992312,0.0 -49.6986275,-27.2210267992312,0.0 -49.6985149,-27.2209401992312,0.0 -49.6985062,-27.2208102992312,0.0 -49.6986101,-27.2204464992312,0.0 -49.6987834,-27.2199787992312,0.0 -49.6988613,-27.2195023992312,0.0 -49.6989566,-27.2189133992312,0.0 -49.6990455,-27.2184212992312,0.0 -49.6991289,-27.2179118992313,0.0 -49.6992139,-27.2175390992313,0.0 -49.6994208,-27.2169895992313,0.0 -49.6992895,-27.2168689992313,0.0 -49.6991417,-27.2168076992313,0.0 -49.6990168,-27.2167641992313,0.0 -49.6988505,-27.2166758992313,0.0 -49.6986422,-27.2165677992313,0.0 -49.6983618,-27.2164009992313,0.0 -49.6982497,-27.2163281992313,0.0 -49.6979032,-27.2161031992313,0.0 -49.6977263,-27.2159853992313,0.0 -49.6976257,-27.2158910992313,0.0 -49.6975866,-27.2158257992313,0.0 -49.6975642,-27.2157475992313,0.0 -49.6975596,-27.2157266992313,0.0 -49.6974337,-27.2156897992313,0.0 -49.6973001,-27.2156560992313,0.0 -49.6971203,-27.2155298992313,0.0 -49.6970702,-27.2155099992313,0.0 -49.697014,-27.2154943992313,0.0 -49.6969747,-27.2154848992313,0.0 -49.6969165,-27.2154762992313,0.0 -49.6968438,-27.2154747992313,0.0 -49.6967438,-27.2154736992313,0.0 -49.6967015,-27.2154524992313,0.0 -49.6966911,-27.2154433992313,0.0 -49.6966735,-27.2154223992313,0.0 -49.6966578,-27.2153965992313,0.0 -49.6964949,-27.2152529992313,0.0 -49.6962023,-27.2150840992313,0.0 -49.6960691,-27.2150046992313,0.0 -49.6959736,-27.2149765992313,0.0 -49.6959117,-27.2149827992313,0.0 -49.6958632,-27.2150024992313,0.0 -49.695694,-27.2150687992313,0.0 -49.6954644,-27.2150828992313,0.0 -49.6954126,-27.2150766992313,0.0 -49.6953758,-27.2150655992313,0.0 -49.6953303,-27.2150424992313,0.0 -49.6952955,-27.2150180992313,0.0 -49.6952634,-27.2149863992313,0.0 -49.6952308,-27.2149428992313,0.0 -49.6951439,-27.2148627992313,0.0 -49.6948126,-27.2143420992313,0.0 -49.6943618,-27.2137038992313,0.0 -49.6941957,-27.2133781992313,0.0 -49.6939722,-27.2130843992313,0.0 -49.6937423,-27.2127011992314,0.0 -49.6936082,-27.2122731992314,0.0 -49.6934229,-27.2119730992314,0.0 -49.6932294,-27.2118261992314,0.0 -49.6925439,-27.2117001992314,0.0 -49.6924842,-27.2116966992314,0.0 -49.6923951,-27.2116995992314,0.0 -49.6923599,-27.2116949992314,0.0 -49.6921822,-27.2115652992314,0.0 -49.6920499,-27.2115203992314,0.0 -49.6919157,-27.2114689992314,0.0 -49.6918065,-27.2114217992314,0.0 -49.6917605,-27.2113963992314,0.0 -49.6916918,-27.2113457992314,0.0 -49.6916443,-27.2113010992314,0.0 -49.6915931,-27.2112454992314,0.0 -49.6915667,-27.2112232992314,0.0 -49.691535,-27.2112013992314,0.0 -49.6915022,-27.2111855992314,0.0 -49.6914198,-27.2111443992314,0.0 -49.6913836,-27.2111241992314,0.0 -49.6913669,-27.2111137992314,0.0 -49.6913507,-27.2111035992314,0.0 -49.6913036,-27.2110700992314,0.0 -49.6912787,-27.2110522992314,0.0 -49.6912542,-27.2110320992314,0.0 -49.6912361,-27.2110143992314,0.0 -49.6911925,-27.2109557992314,0.0 -49.6911696,-27.2109031992314,0.0 -49.6911386,-27.2108311992314,0.0 -49.6911033,-27.2107810992314,0.0 -49.691044,-27.2106739992314,0.0 -49.6909967,-27.2105940992314,0.0 -49.6909658,-27.2105616992314,0.0 -49.6909409,-27.2105411992314,0.0 -49.6909074,-27.2105175992314,0.0 -49.6908738,-27.2104932992314,0.0 -49.690838,-27.2104591992314,0.0 -49.6907898,-27.2104106992314,0.0 -49.6907386,-27.2103510992314,0.0 -49.6906762,-27.2102554992314,0.0 -49.6906239,-27.2101971992314,0.0 -49.690587,-27.2101670992314,0.0 -49.6905617,-27.2101462992314,0.0 -49.6905176,-27.2101157992314,0.0 -49.6904859,-27.2100878992314,0.0 -49.6904648,-27.2100632992314,0.0 -49.6904434,-27.2100333992314,0.0 -49.6904198,-27.2099799992314,0.0 -49.6904094,-27.2099358992314,0.0 -49.6903888,-27.2099072992314,0.0 -49.6903202,-27.2098458992314,0.0 -49.6907692,-27.2090457992314,0.0 -49.6909209,-27.2088435992314,0.0 -49.6912749,-27.2084679992314,0.0 -49.6915855,-27.2081356992314,0.0 -49.6918383,-27.2078900992314,0.0 -49.6920261,-27.2076372992314,0.0 -49.6920911,-27.2074421992314,0.0 -49.6922067,-27.2071965992315,0.0 -49.6923584,-27.2070521992315,0.0 -49.6925751,-27.2070593992315,0.0 -49.6929907,-27.2071507992315,0.0 -49.6931879,-27.2072692992315,0.0 -49.6931024,-27.2070593992315,0.0 -49.6928857,-27.2069076992315,0.0 -49.692734,-27.2067126992315,0.0 -49.6927123,-27.2065320992315,0.0 -49.6927846,-27.2062864992315,0.0 -49.6929507,-27.2060119992315,0.0 -49.6931385,-27.2056580992315,0.0 -49.6933119,-27.2054557992315,0.0 -49.693543,-27.2053763992315,0.0 -49.6938897,-27.2053907992315,0.0 -49.6942509,-27.2054702992315,0.0 -49.6947349,-27.2054918992315,0.0 -49.6951755,-27.2056002992315,0.0 -49.695385,-27.2058458992315,0.0 -49.6955439,-27.2064092992315,0.0 -49.6957286,-27.2068617992315,0.0 -49.6957921,-27.2066183992315,0.0 -49.6957255,-27.2063497992315,0.0 -49.6958256,-27.2061130992315,0.0 -49.6958617,-27.2058024992315,0.0 -49.6959339,-27.2055063992315,0.0 -49.696129,-27.2053907992315,0.0 -49.6964107,-27.2055207992315,0.0 -49.6965479,-27.2057085992315,0.0 -49.696808,-27.2057735992315,0.0 -49.6971691,-27.2059758992315,0.0 -49.6974725,-27.2061853992315,0.0 -49.6976675,-27.2065103992315,0.0 -49.6977542,-27.2069654992315,0.0 -49.6978409,-27.2074277992315,0.0 -49.6980143,-27.2075360992315,0.0 -49.6980865,-27.2072977992315,0.0 -49.698231,-27.2070087992315,0.0 -49.6984188,-27.2068787992315,0.0 -49.6987294,-27.2069510992315,0.0 -49.6989966,-27.2072905992315,0.0 -49.6991718,-27.2074409992314,0.0 -49.6993145,-27.2071821992315,0.0 -49.6991989,-27.2067704992315,0.0 -49.6993,-27.2065103992315,0.0 -49.6993795,-27.2064020992315,0.0 -49.6992567,-27.2064164992315,0.0 -49.6989099,-27.2063297992315,0.0 -49.6984115,-27.2061130992315,0.0 -49.6981082,-27.2057591992315,0.0 -49.6980648,-27.2054196992315,0.0 -49.697812,-27.2053401992315,0.0 -49.6975375,-27.2052535992315,0.0 -49.6972414,-27.2050151992315,0.0 -49.6970824,-27.2046539992315,0.0 -49.6970247,-27.2044011992315,0.0 -49.6967502,-27.2042566992315,0.0 -49.6964179,-27.2040038992315,0.0 -49.6962084,-27.2036210992315,0.0 -49.6961506,-27.2030792992315,0.0 -49.6962156,-27.2024075992315,0.0 -49.6964323,-27.2019163992316,0.0 -49.6966707,-27.2017285992316,0.0 -49.6971113,-27.2016418992316,0.0 -49.6971614,-27.2014630992316,0.0 -49.6969163,-27.2012156992316,0.0 -49.6965118,-27.2011506992316,0.0 -49.6960567,-27.2010061992316,0.0 -49.6956337,-27.2007597992316,0.0 -49.6956133,-27.2006690992316,0.0 -49.6954427,-27.2007967992316,0.0 -49.6951683,-27.2009195992316,0.0 -49.6948071,-27.2008833992316,0.0 -49.6946626,-27.2010278992316,0.0 -49.6945326,-27.2011867992316,0.0 -49.6941498,-27.2013312992316,0.0 -49.6936586,-27.2015262992316,0.0 -49.6928134,-27.2016201992316,0.0 -49.6922356,-27.2015696992316,0.0 -49.6917372,-27.2013818992316,0.0 -49.6915132,-27.2012156992316,0.0 -49.6912954,-27.2010891992316,0.0 -49.6911449,-27.2011000992316,0.0 -49.6909643,-27.2011795992316,0.0 -49.6904803,-27.2010784992316,0.0 -49.6898013,-27.2008978992316,0.0 -49.6891801,-27.2007750992316,0.0 -49.68866,-27.2005294992316,0.0 -49.688014,-27.2003586992316,0.0 -49.6874682,-27.2000021992316,0.0 -49.6873458,-27.1997755992316,0.0 -49.6873342,-27.1993554992316,0.0 -49.6875001,-27.1989900992316,0.0 -49.6871768,-27.1989440992316,0.0 -49.6868345,-27.1990797992316,0.0 -49.6866487,-27.1991921992316,0.0 -49.6864667,-27.1992856992316,0.0 -49.6857411,-27.1991124992316,0.0 -49.6852242,-27.1989925992316,0.0 -49.6848779,-27.1988663992316,0.0 -49.6847979,-27.1986777992316,0.0 -49.6850282,-27.1984853992316,0.0 -49.6853079,-27.1982780992316,0.0 -49.6856589,-27.1980586992316,0.0 -49.68603,-27.1977438992316,0.0 -49.6865383,-27.1973581992316,0.0 -49.6868795,-27.1970271992316,0.0 -49.6871797,-27.1967258992317,0.0 -49.6875846,-27.1965399992317,0.0 -49.6879546,-27.1962536992317,0.0 -49.6885173,-27.1960232992317,0.0 -49.6889662,-27.1958665992317,0.0 -49.689315,-27.1956414992317,0.0 -49.6896513,-27.1952155992317,0.0 -49.6898066,-27.1947925992317,0.0 -49.6899965,-27.1944922992317,0.0 -49.6901651,-27.1943896992317,0.0 -49.690615,-27.1943680992317,0.0 -49.6907458,-27.1941350992317,0.0 -49.6907269,-27.1937723992317,0.0 -49.6908428,-27.1934398992317,0.0 -49.6911446,-27.1930130992317,0.0 -49.6913825,-27.1926950992317,0.0 -49.6915761,-27.1925629992317,0.0 -49.691768,-27.1923403992317,0.0 -49.6920383,-27.1920047992317,0.0 -49.6925061,-27.1914874992318,0.0 -49.6931161,-27.1910930992318,0.0 -49.6933966,-27.1908631992318,0.0 -49.6938542,-27.1906135992318,0.0 -49.6943259,-27.1904372992318,0.0 -49.6946383,-27.1905025992318,0.0 -49.6948294,-27.1906798992318,0.0 -49.6950176,-27.1903624992318,0.0 -49.6955942,-27.1901708992318,0.0 -49.6959506,-27.1902401992318,0.0 -49.6962303,-27.1904292992318,0.0 -49.6963179,-27.1902581992318,0.0 -49.6965777,-27.1900357992318,0.0 -49.6969541,-27.1898211992318,0.0 -49.697492,-27.1896026992318,0.0 -49.6980913,-27.1895068992318,0.0 -49.6985381,-27.1896326992318,0.0 -49.6986873,-27.1899663992318,0.0 -49.6987632,-27.1902850992318,0.0 -49.6989219,-27.1905808992318,0.0 -49.6990576,-27.1904518992318,0.0 -49.6990899,-27.1899182992318,0.0 -49.6991488,-27.1895354992318,0.0 -49.6990907,-27.1889844992318,0.0 -49.6989354,-27.1884910992318,0.0 -49.6986753,-27.1879695992318,0.0 -49.6989431,-27.1879767992318,0.0 -49.6992404,-27.1879839992318,0.0 -49.6994579,-27.1879739992318,0.0 -49.6995087,-27.1879727992318,0.0 -49.6996248,-27.1878797992318,0.0 -49.699681,-27.1878220992318,0.0 -49.6997981,-27.1877002992318,0.0 -49.6999692,-27.1875606992318,0.0 -49.7001769,-27.1874171992318,0.0 -49.700303,-27.1872948992318,0.0 -49.7003385,-27.1872898992318,0.0 -49.7003985,-27.1872915992318,0.0 -49.7006057,-27.1873052992318,0.0 -49.7007523,-27.1873049992318,0.0 -49.7008895,-27.1873044992318,0.0 -49.7011946,-27.1873205992318,0.0 -49.701352,-27.1873458992318,0.0 -49.7014731,-27.1872543992318,0.0 -49.7016647,-27.1869413992318,0.0 -49.702016,-27.1865900992319,0.0 -49.702332,-27.1864019992319,0.0 -49.7026686,-27.1862422992319,0.0 -49.7030571,-27.1861823992319,0.0 -49.703467,-27.1861550992319,0.0 -49.7037468,-27.1861941992319,0.0 -49.7040462,-27.1862192992319,0.0 -49.7042104,-27.1861929992319,0.0 -49.7049844,-27.1859439992319,0.0 -49.7054322,-27.1857561992319,0.0 -49.7043477,-27.1848781992319,0.0 -49.704152,-27.1846722992319,0.0 -49.704047,-27.1845555992319,0.0 -49.7039847,-27.1844641992319,0.0 -49.703942,-27.1843844992319,0.0 -49.703905,-27.1842989992319,0.0 -49.703835,-27.1840898992319,0.0 -49.7038039,-27.1838565992319,0.0 -49.7038039,-27.1836193992319,0.0 -49.7037728,-27.1835201992319,0.0 -49.7036717,-27.1833879992319,0.0 -49.7033295,-27.1831935992319,0.0 -49.7030184,-27.1830768992319,0.0 -49.7027969,-27.1828859992319,0.0 -49.7024895,-27.1825946992319,0.0 -49.7022484,-27.1822524992319,0.0 -49.7021725,-27.1821571992319,0.0 -49.7020037,-27.181180199232,0.0 -49.7022017,-27.180662899232,0.0 -49.7024508,-27.180183899232,0.0 -49.7025186,-27.179834399232,0.0 -49.7024711,-27.179519099232,0.0 -49.7022906,-27.179072599232,0.0 -49.7022027,-27.178856499232,0.0 -49.7021148,-27.178640499232,0.0 -49.702034,-27.178400099232,0.0 -49.7019446,-27.178201799232,0.0 -49.7018766,-27.177971899232,0.0 -49.7019018,-27.177703999232,0.0 -49.7019679,-27.177553299232,0.0 -49.7019873,-27.177483299232,0.0 -49.7021021,-27.177333599232,0.0 -49.7022498,-27.176866899232,0.0 -49.7025609,-27.1762446992321,0.0 -49.7026871,-27.1758279992321,0.0 -49.703102,-27.1752281992321,0.0 -49.7039011,-27.1745295992321,0.0 -49.704566,-27.1740718992321,0.0 -49.7047876,-27.1739970992321,0.0 -49.7051027,-27.1739034992321,0.0 -49.7056698,-27.1739055992321,0.0 -49.7057943,-27.1738567992321,0.0 -49.7059577,-27.1737059992321,0.0 -49.7059637,-27.1734719992321,0.0 -49.7058095,-27.1731602992321,0.0 -49.7057778,-27.1728890992321,0.0 -49.7058983,-27.1718328992321,0.0 -49.7058777,-27.1712704992321,0.0 -49.7061105,-27.1708078992321,0.0 -49.7060083,-27.1690259992322,0.0 -49.7058972,-27.1682417992322,0.0 -49.7058295,-27.1675889992322,0.0 -49.7058273,-27.1671089992322,0.0 -49.7057258,-27.1668258992322,0.0 -49.705506,-27.1666755992322,0.0 -49.7049098,-27.1663306992322,0.0 -49.7045457,-27.1659538992322,0.0 -49.7044946,-27.1657367992323,0.0 -49.7045427,-27.1653616992323,0.0 -49.7045814,-27.1651575992323,0.0 -49.7046832,-27.1649185992323,0.0 -49.7054718,-27.1643252992323,0.0 -49.7059206,-27.1638006992323,0.0 -49.7061286,-27.1632066992323,0.0 -49.7062177,-27.1624897992323,0.0 -49.7062272,-27.1620875992323,0.0 -49.7061523,-27.1619415992323,0.0 -49.7060589,-27.1618404992323,0.0 -49.7058645,-27.1617004992323,0.0 -49.7056502,-27.1614023992323,0.0 -49.7055239,-27.1609155992323,0.0 -49.7055728,-27.1605610992323,0.0 -49.7056506,-27.1601721992324,0.0 -49.7057944,-27.1599237992324,0.0 -49.706155,-27.1595811992324,0.0 -49.7065337,-27.1592385992324,0.0 -49.707101,-27.1589970992324,0.0 -49.7075172,-27.1587760992324,0.0 -49.7077739,-27.1585660992324,0.0 -49.7078497,-27.1584746992324,0.0 -49.7079295,-27.1583171992324,0.0 -49.7079755,-27.1581746992324,0.0 -49.7079371,-27.1574912992324,0.0 -49.7079499,-27.1569164992324,0.0 -49.7079938,-27.1560664992324,0.0 -49.708098,-27.1558212992324,0.0 -49.7081902,-27.1557253992324,0.0 -49.7083331,-27.1556454992324,0.0 -49.7089704,-27.1550392992324,0.0 -49.709296,-27.1546779992325,0.0 -49.7097975,-27.1544962992325,0.0 -49.7102157,-27.1542083992325,0.0 -49.7104344,-27.1538698992325,0.0 -49.7109335,-27.1529635992325,0.0 -49.7109393,-27.1525692992325,0.0 -49.7107857,-27.1521709992325,0.0 -49.7104286,-27.1517012992325,0.0 -49.7102941,-27.1515273992325,0.0 -49.710226,-27.1514076992325,0.0 -49.7102102,-27.1512672992325,0.0 -49.7102577,-27.1511533992325,0.0 -49.7104652,-27.1510259992325,0.0 -49.710881,-27.1508436992325,0.0 -49.7112705,-27.1506636992325,0.0 -49.7118593,-27.1504685992325,0.0 -49.7125231,-27.1503425992325,0.0 -49.7131055,-27.1503055992325,0.0 -49.7133316,-27.1503296992326,0.0 -49.7137797,-27.1504998992325,0.0 -49.7141308,-27.1506854992325,0.0 -49.7142737,-27.1507315992325,0.0 -49.7143748,-27.1507561992325,0.0 -49.7145603,-27.1507275992325,0.0 -49.7146891,-27.1506666992325,0.0 -49.7147775,-27.1504912992325,0.0 -49.7147346,-27.1498587992326,0.0 -49.7147732,-27.1495978992326,0.0 -49.7148117,-27.1493370992326,0.0 -49.7150447,-27.1488883992326,0.0 -49.7155703,-27.1483987992326,0.0 -49.716304,-27.1479748992326,0.0 -49.7167118,-27.1474741992326,0.0 -49.7171098,-27.1469559992326,0.0 -49.7174025,-27.1461226992326,0.0 -49.7175286,-27.1454062992326,0.0 -49.7176479,-27.1447586992326,0.0 -49.7175749,-27.1444428992327,0.0 -49.7173548,-27.1438979992327,0.0 -49.7174084,-27.1435294992327,0.0 -49.7176923,-27.1431648992327,0.0 -49.717734,-27.1429121992327,0.0 -49.7175837,-27.1424495992327,0.0 -49.7173666,-27.1421301992327,0.0 -49.71706,-27.1418619992327,0.0 -49.7166896,-27.1415681992327,0.0 -49.7157443,-27.1408017992327,0.0 -49.7151566,-27.1398303992327,0.0 -49.7144536,-27.1389805992328,0.0 -49.7137224,-27.1385653992328,0.0 -49.7129995,-27.1384214992328,0.0 -49.7126262,-27.1383514992328,0.0 -49.712214,-27.1381570992328,0.0 -49.7118406,-27.1380248992328,0.0 -49.7113273,-27.1378070992328,0.0 -49.710884,-27.1377292992328,0.0 -49.7102929,-27.1376281992328,0.0 -49.7099507,-27.1374803992328,0.0 -49.7096629,-27.1372859992328,0.0 -49.7094374,-27.1370564992328,0.0 -49.7093256,-27.1367748992328,0.0 -49.7092468,-27.1364381992328,0.0 -49.7092429,-27.1361970992328,0.0 -49.7092157,-27.1359948992328,0.0 -49.7090835,-27.1353920992328,0.0 -49.7091068,-27.1350576992328,0.0 -49.7091846,-27.1346843992328,0.0 -49.7093246,-27.1341822992329,0.0 -49.7095657,-27.1335954992329,0.0 -49.7096201,-27.1334398992329,0.0 -49.7095968,-27.1331832992329,0.0 -49.709519,-27.1330432992329,0.0 -49.709379,-27.1328993992329,0.0 -49.7086557,-27.1324482992329,0.0 -49.7081974,-27.1322517992329,0.0 -49.7076057,-27.1321215992329,0.0 -49.7071313,-27.1320865992329,0.0 -49.7065469,-27.1320553992329,0.0 -49.7057041,-27.1319878992329,0.0 -49.7051222,-27.1319494992329,0.0 -49.7043892,-27.1319417992329,0.0 -49.7040314,-27.1318678992329,0.0 -49.7035725,-27.1317589992329,0.0 -49.7032135,-27.1317400992329,0.0 -49.7027442,-27.1317317992329,0.0 -49.7021609,-27.1316694992329,0.0 -49.7012334,-27.1315431992329,0.0 -49.7006073,-27.1314575992329,0.0 -49.7001834,-27.1313253992329,0.0 -49.699814,-27.1311425992329,0.0 -49.6997984,-27.1311284992329,0.0 -49.6997751,-27.1310856992329,0.0 -49.6997683,-27.1310409992329,0.0 -49.6997722,-27.1309748992329,0.0 -49.6997916,-27.1307002992329,0.0 -49.6998052,-27.1305621992329,0.0 -49.6998159,-27.1304736992329,0.0 -49.6997867,-27.1303200992329,0.0 -49.6997226,-27.1301528992329,0.0 -49.699602,-27.1299875992329,0.0 -49.6992068,-27.1295539992329,0.0 -49.6986079,-27.128760699233,0.0 -49.6980876,-27.127976399233,0.0 -49.6979907,-27.127585699233,0.0 -49.6979054,-27.127264899233,0.0 -49.6979137,-27.126640099233,0.0 -49.6978483,-27.125907599233,0.0 -49.6977014,-27.125677599233,0.0 -49.6975545,-27.125447699233,0.0 -49.6972351,-27.125064499233,0.0 -49.6967114,-27.124579099233,0.0 -49.6961394,-27.1241536992331,0.0 -49.6959363,-27.124096099233,0.0 -49.6957088,-27.124119399233,0.0 -49.695528,-27.124175799233,0.0 -49.6953686,-27.1242943992331,0.0 -49.6935486,-27.125692399233,0.0 -49.693207,-27.125708399233,0.0 -49.6926581,-27.125520499233,0.0 -49.6923115,-27.125304899233,0.0 -49.6917503,-27.124987299233,0.0 -49.6910568,-27.124666599233,0.0 -49.6903,-27.124593599233,0.0 -49.6894874,-27.124418499233,0.0 -49.6889292,-27.124226299233,0.0 -49.6884995,-27.1239736992331,0.0 -49.688106,-27.1234004992331,0.0 -49.6877115,-27.1230168992331,0.0 -49.6873517,-27.1228535992331,0.0 -49.6870951,-27.1227640992331,0.0 -49.6867937,-27.1226590992331,0.0 -49.6863771,-27.1225764992331,0.0 -49.6861574,-27.1225822992331,0.0 -49.6859994,-27.1225900992331,0.0 -49.685455,-27.1225278992331,0.0 -49.6849805,-27.1223489992331,0.0 -49.6846383,-27.1220378992331,0.0 -49.6844128,-27.1218745992331,0.0 -49.6841872,-27.1217967992331,0.0 -49.6838994,-27.1217656992331,0.0 -49.6837769,-27.1217714992331,0.0 -49.6835961,-27.1217928992331,0.0 -49.68339,-27.1218045992331,0.0 -49.6832149,-27.1217748992331,0.0 -49.6830303,-27.1217695992331,0.0 -49.6828981,-27.1217306992331,0.0 -49.6827989,-27.1216703992331,0.0 -49.6825699,-27.1214851992331,0.0 -49.6823736,-27.1213159992331,0.0 -49.6822083,-27.1211079992331,0.0 -49.6821383,-27.1209659992331,0.0 -49.6820508,-27.1208415992331,0.0 -49.6819516,-27.1207618992331,0.0 -49.6818213,-27.1206879992331,0.0 -49.6816512,-27.1205916992331,0.0 -49.6812623,-27.1204827992331,0.0 -49.680642,-27.1203509992331,0.0 -49.6800445,-27.1200593992331,0.0 -49.6796553,-27.1198955992331,0.0 -49.6787375,-27.1195922992331,0.0 -49.6780453,-27.1193511992331,0.0 -49.6778042,-27.1193667992331,0.0 -49.6775864,-27.1194444992331,0.0 -49.6774522,-27.1194989992331,0.0 -49.6766183,-27.1199421992331,0.0 -49.6761074,-27.1199932992331,0.0 -49.6755325,-27.1200188992331,0.0 -49.6749449,-27.1200060992331,0.0 -49.674434,-27.1199038992331,0.0 -49.6739614,-27.1197377992331,0.0 -49.6734121,-27.1195461992331,0.0 -49.6728373,-27.1193801992331,0.0 -49.6720797,-27.1192523992331,0.0 -49.6714194,-27.1189585992331,0.0 -49.6711669,-27.1188533992332,0.0 -49.6706653,-27.1186978992332,0.0 -49.6702569,-27.1185889992332,0.0 -49.6696542,-27.1184800992332,0.0 -49.669277,-27.1183906992332,0.0 -49.6688609,-27.1182972992332,0.0 -49.668612,-27.1182311992332,0.0 -49.6682464,-27.1180950992332,0.0 -49.6678044,-27.1179494992332,0.0 -49.6674723,-27.1178217992332,0.0 -49.6672296,-27.1175534992332,0.0 -49.6670635,-27.1171830992332,0.0 -49.6670516,-27.1170003992332,0.0 -49.6670788,-27.1168020992332,0.0 -49.667106,-27.1166192992332,0.0 -49.6670788,-27.1164598992332,0.0 -49.6670594,-27.1162614992332,0.0 -49.6669932,-27.1160242992332,0.0 -49.6668921,-27.1158025992332,0.0 -49.6665903,-27.1153708992332,0.0 -49.6663409,-27.1147761992332,0.0 -49.6662143,-27.1137963992332,0.0 -49.666046,-27.1128355992333,0.0 -49.6658756,-27.1119713992333,0.0 -49.6656799,-27.1114083992333,0.0 -49.6653458,-27.1108754992333,0.0 -49.6647413,-27.1101081992333,0.0 -49.6643483,-27.1098118992333,0.0 -49.6639517,-27.1096510992333,0.0 -49.6634217,-27.1093446992333,0.0 -49.6629032,-27.1088490992333,0.0 -49.6621584,-27.1081264992334,0.0 -49.6614309,-27.1076571992334,0.0 -49.6609716,-27.1072899992334,0.0 -49.6606209,-27.1070525992334,0.0 -49.660413,-27.1066339992334,0.0 -49.6602026,-27.1061179992334,0.0 -49.6599914,-27.1055366992334,0.0 -49.6596818,-27.1051081992334,0.0 -49.6594055,-27.1047397992334,0.0 -49.6584413,-27.1043071992334,0.0 -49.65786,-27.1039622992334,0.0 -49.6571947,-27.1035951992334,0.0 -49.6566918,-27.1034033992334,0.0 -49.6559834,-27.1029510992335,0.0 -49.6555544,-27.1027496992335,0.0 -49.6550931,-27.1026807992335,0.0 -49.6546024,-27.1026108992335,0.0 -49.6542434,-27.1027395992335,0.0 -49.6538746,-27.1030361992334,0.0 -49.6537002,-27.1032670992334,0.0 -49.653452,-27.1035170992334,0.0 -49.6530933,-27.1037636992334,0.0 -49.6520735,-27.1040196992334,0.0 -49.6513582,-27.1043390992334,0.0 -49.6507578,-27.1046711992334,0.0 -49.6500475,-27.1049527992334,0.0 -49.6494727,-27.1050599992334,0.0 -49.6488035,-27.1051054992334,0.0 -49.648267,-27.1051310992334,0.0 -49.64736,-27.1051565992334,0.0 -49.6470535,-27.1052842992334,0.0 -49.6468491,-27.1056291992334,0.0 -49.646798,-27.1060379992334,0.0 -49.6465425,-27.1065233992334,0.0 -49.6463828,-27.1066447992334,0.0 -49.6462232,-27.1067660992334,0.0 -49.6457761,-27.1068937992334,0.0 -49.6450735,-27.1072131992334,0.0 -49.6442305,-27.1077368992334,0.0 -49.6428126,-27.1083627992333,0.0 -49.6418034,-27.1086054992333,0.0 -49.6407177,-27.1088098992333,0.0 -49.6400279,-27.1087970992333,0.0 -49.6393892,-27.1086948992333,0.0 -49.6384823,-27.1082478992334,0.0 -49.6376069,-27.1078957992334,0.0 -49.6372815,-27.1077624992334,0.0 -49.6368472,-27.1076346992334,0.0 -49.636298,-27.1076091992334,0.0 -49.6358509,-27.1074558992334,0.0</coordinates>
</LinearRing>
</outerBoundaryIs>
</Polygon>
</MultiGeometry>
</Placemark>
</Folder>
</Document></kml>
