<?xml version='1.0' encoding='UTF-8'?>
<kml xmlns:xsd="http://www.w3.org/2001/XMLSchema" xmlns:gx="http://www.google.com/kml/ext/2.2" xmlns:atom="http://www.w3.org/2005/Atom" xmlns="http://www.opengis.net/kml/2.2">
<Document>
<name>rodeio_4215109_localidades_2022</name>
<visibility>1</visibility>
<Schema name="01. Cidade" id="kml_schema_ft_01._Cidade">
<SimpleField type="xsd:string" name="CD_UF">
<displayName>CD_UF</displayName>
</SimpleField>
<SimpleField type="xsd:string" name="NM_UF">
<displayName>NM_UF</displayName>
</SimpleField>
<SimpleField type="xsd:string" name="SIGLA_UF">
<displayName>SIGLA_UF</displayName>
</SimpleField>
<SimpleField type="xsd:string" name="CD_MUN">
<displayName>CD_MUN</displayName>
</SimpleField>
<SimpleField type="xsd:string" name="NM_MUN">
<displayName>NM_MUN</displayName>
</SimpleField>
<SimpleField type="xsd:string" name="CD_RGINT">
<displayName>CD_RGINT</displayName>
</SimpleField>
<SimpleField type="xsd:string" name="NM_RGINT">
<displayName>NM_RGINT</displayName>
</SimpleField>
<SimpleField type="xsd:string" name="CD_RGI">
<displayName>CD_RGI</displayName>
</SimpleField>
<SimpleField type="xsd:string" name="NM_RGI">
<displayName>NM_RGI</displayName>
</SimpleField>
<SimpleField type="xsd:string" name="CT_LOCALIDADE">
<displayName>CT_LOCALIDADE</displayName>
</SimpleField>
<SimpleField type="xsd:string" name="SCT_LOCALIDADE">
<displayName>SCT_LOCALIDADE</displayName>
</SimpleField>
<SimpleField type="xsd:string" name="CD_LOCALIDADE">
<displayName>CD_LOCALIDADE</displayName>
</SimpleField>
<SimpleField type="xsd:string" name="NM_LOCALIDADE">
<displayName>NM_LOCALIDADE</displayName>
</SimpleField>
<SimpleField type="xsd:string" name="LAT_LOCALIDADE">
<displayName>LAT_LOCALIDADE</displayName>
</SimpleField>
<SimpleField type="xsd:string" name="LONG_LOCALIDADE">
<displayName>LONG_LOCALIDADE</displayName>
</SimpleField>
</Schema>
<Schema name="Município" id="kml_schema_ft_Município">
<SimpleField type="xsd:string" name="CD_UF">
<displayName>CD_UF</displayName>
</SimpleField>
<SimpleField type="xsd:string" name="NM_UF">
<displayName>NM_UF</displayName>
</SimpleField>
<SimpleField type="xsd:string" name="CD_MUN">
<displayName>CD_MUN</displayName>
</SimpleField>
<SimpleField type="xsd:string" name="NM_MUN">
<displayName>NM_MUN</displayName>
</SimpleField>
<SimpleField type="xsd:string" name="CD_RGINT">
<displayName>CD_RGINT</displayName>
</SimpleField>
<SimpleField type="xsd:string" name="NM_RGINT">
<displayName>NM_RGINT</displayName>
</SimpleField>
<SimpleField type="xsd:string" name="CD_RGI">
<displayName>CD_RGI</displayName>
</SimpleField>
<SimpleField type="xsd:string" name="NM_RGI">
<displayName>NM_RGI</displayName>
</SimpleField>
</Schema>
<Folder id="01. Cidade">
<name>01. Cidade</name>
<Folder id="01.03. Sede Municipal">
<name>01.03. Sede Municipal</name>
<Placemark id="01.03. Sede Municipal">
<name>Rodeio [4215109]</name>
<visibility>1</visibility>
<snippet> </snippet>
<description>&lt;center&gt;&lt;table&gt;&lt;tr&gt;&lt;th colspan='2' align='center'&gt;&lt;em&gt;Atributos&lt;/em&gt;&lt;/th&gt;&lt;/tr&gt;&lt;tr bgcolor="#E3E3F3"&gt;
&lt;th&gt;CD_UF&lt;/th&gt;
&lt;td&gt;42&lt;/td&gt;
&lt;/tr&gt;&lt;tr bgcolor=""&gt;
&lt;th&gt;NM_UF&lt;/th&gt;
&lt;td&gt;Santa Catarina&lt;/td&gt;
&lt;/tr&gt;&lt;tr bgcolor="#E3E3F3"&gt;
&lt;th&gt;SIGLA_UF&lt;/th&gt;
&lt;td&gt;SC&lt;/td&gt;
&lt;/tr&gt;&lt;tr bgcolor=""&gt;
&lt;th&gt;CD_MUN&lt;/th&gt;
&lt;td&gt;4215109&lt;/td&gt;
&lt;/tr&gt;&lt;tr bgcolor="#E3E3F3"&gt;
&lt;th&gt;NM_MUN&lt;/th&gt;
&lt;td&gt;Rodeio&lt;/td&gt;
&lt;/tr&gt;&lt;tr bgcolor=""&gt;
&lt;th&gt;CD_RGINT&lt;/th&gt;
&lt;td&gt;4207&lt;/td&gt;
&lt;/tr&gt;&lt;tr bgcolor="#E3E3F3"&gt;
&lt;th&gt;NM_RGINT&lt;/th&gt;
&lt;td&gt;Blumenau&lt;/td&gt;
&lt;/tr&gt;&lt;tr bgcolor=""&gt;
&lt;th&gt;CD_RGI&lt;/th&gt;
&lt;td&gt;420019&lt;/td&gt;
&lt;/tr&gt;&lt;tr bgcolor="#E3E3F3"&gt;
&lt;th&gt;NM_RGI&lt;/th&gt;
&lt;td&gt;Blumenau&lt;/td&gt;
&lt;/tr&gt;&lt;tr bgcolor=""&gt;
&lt;th&gt;CT_LOCALIDADE&lt;/th&gt;
&lt;td&gt;Cidade&lt;/td&gt;
&lt;/tr&gt;&lt;tr bgcolor="#E3E3F3"&gt;
&lt;th&gt;SCT_LOCALIDADE&lt;/th&gt;
&lt;td&gt;Sede Municipal&lt;/td&gt;
&lt;/tr&gt;&lt;tr bgcolor=""&gt;
&lt;th&gt;CD_LOCALIDADE&lt;/th&gt;
&lt;td&gt;4215109&lt;/td&gt;
&lt;/tr&gt;&lt;tr bgcolor="#E3E3F3"&gt;
&lt;th&gt;NM_LOCALIDADE&lt;/th&gt;
&lt;td&gt;Rodeio&lt;/td&gt;
&lt;/tr&gt;&lt;tr bgcolor=""&gt;
&lt;th&gt;LAT_LOCALIDADE&lt;/th&gt;
&lt;td&gt;-26.924&lt;/td&gt;
&lt;/tr&gt;&lt;tr bgcolor="#E3E3F3"&gt;
&lt;th&gt;LONG_LOCALIDADE&lt;/th&gt;
&lt;td&gt;-49.3687&lt;/td&gt;
&lt;/tr&gt;&lt;/table&gt;&lt;/center&gt;</description>
<Style>
<IconStyle>
<color>ff00aaff</color>
<scale>1.0</scale>
<Icon>
<href>http://maps.google.com/mapfiles/kml/shapes/placemark_circle.png</href>
</Icon>
</IconStyle>
<LabelStyle>
<scale>1.0</scale>
</LabelStyle>
<LineStyle>
<color>ffffffff</color>
<width>3</width>
<gx:labelVisibility>1</gx:labelVisibility>
</LineStyle>
<PolyStyle>
<color>00ffffff</color>
</PolyStyle>
</Style>
<ExtendedData>
<SchemaData schemaUrl="#kml_schema_ft_01._Cidade">
<SimpleData name="CD_UF">42</SimpleData>
<SimpleData name="NM_UF">Santa Catarina</SimpleData>
<SimpleData name="SIGLA_UF">SC</SimpleData>
<SimpleData name="CD_MUN">4215109</SimpleData>
<SimpleData name="NM_MUN">Rodeio</SimpleData>
<SimpleData name="CD_RGINT">4207</SimpleData>
<SimpleData name="NM_RGINT">Blumenau</SimpleData>
<SimpleData name="CD_RGI">420019</SimpleData>
<SimpleData name="NM_RGI">Blumenau</SimpleData>
<SimpleData name="CT_LOCALIDADE">Cidade</SimpleData>
<SimpleData name="SCT_LOCALIDADE">Sede Municipal</SimpleData>
<SimpleData name="CD_LOCALIDADE">4215109</SimpleData>
<SimpleData name="NM_LOCALIDADE">Rodeio</SimpleData>
<SimpleData name="LAT_LOCALIDADE">-26.924</SimpleData>
<SimpleData name="LONG_LOCALIDADE">-49.3687</SimpleData>
</SchemaData>
</ExtendedData>
<Point>
<extrude>0</extrude>
<coordinates>-49.3687,-26.9239999992369,0.0</coordinates>
</Point>
</Placemark>
</Folder>
</Folder>
<Folder id="13. Referência">
<name>13. Referência</name>
<Placemark id="13. Referência">
<name>Rodeio [4215109]</name>
<visibility>1</visibility>
<snippet> </snippet>
<description>&lt;center&gt;&lt;table&gt;&lt;tr&gt;&lt;th colspan='2' align='center'&gt;&lt;em&gt;Attributes&lt;/em&gt;&lt;/th&gt;&lt;/tr&gt;&lt;tr bgcolor="#E3E3F3"&gt;
&lt;th&gt;CD_UF&lt;/th&gt;
&lt;td&gt;42&lt;/td&gt;
&lt;/tr&gt;&lt;tr bgcolor=""&gt;
&lt;th&gt;NM_UF&lt;/th&gt;
&lt;td&gt;Santa Catarina&lt;/td&gt;
&lt;/tr&gt;&lt;tr bgcolor="#E3E3F3"&gt;
&lt;th&gt;CD_MUN&lt;/th&gt;
&lt;td&gt;4215109&lt;/td&gt;
&lt;/tr&gt;&lt;tr bgcolor=""&gt;
&lt;th&gt;NM_MUN&lt;/th&gt;
&lt;td&gt;Rodeio&lt;/td&gt;
&lt;/tr&gt;&lt;tr bgcolor="#E3E3F3"&gt;
&lt;th&gt;CD_RGINT&lt;/th&gt;
&lt;td&gt;4207&lt;/td&gt;
&lt;/tr&gt;&lt;tr bgcolor=""&gt;
&lt;th&gt;NM_RGINT&lt;/th&gt;
&lt;td&gt;Blumenau&lt;/td&gt;
&lt;/tr&gt;&lt;tr bgcolor="#E3E3F3"&gt;
&lt;th&gt;CD_RGI&lt;/th&gt;
&lt;td&gt;420019&lt;/td&gt;
&lt;/tr&gt;&lt;tr bgcolor=""&gt;
&lt;th&gt;NM_RGI&lt;/th&gt;
&lt;td&gt;Blumenau&lt;/td&gt;
&lt;/tr&gt;&lt;/table&gt;&lt;/center&gt;</description>
<Style>
<IconStyle>
<scale>0.7</scale>
</IconStyle>
<LabelStyle>
<scale>0.7</scale>
</LabelStyle>
<LineStyle>
<color>ffffffff</color>
<width>3</width>
<gx:labelVisibility>1</gx:labelVisibility>
</LineStyle>
<PolyStyle>
<color>00ffffff</color>
</PolyStyle>
</Style>
<ExtendedData>
<SchemaData schemaUrl="#kml_schema_ft_Município">
<SimpleData name="CD_UF">42</SimpleData>
<SimpleData name="NM_UF">Santa Catarina</SimpleData>
<SimpleData name="CD_MUN">4215109</SimpleData>
<SimpleData name="NM_MUN">Rodeio</SimpleData>
<SimpleData name="CD_RGINT">4207</SimpleData>
<SimpleData name="NM_RGINT">Blumenau</SimpleData>
<SimpleData name="CD_RGI">420019</SimpleData>
<SimpleData name="NM_RGI">Blumenau</SimpleData>
</SchemaData>
</ExtendedData>
<MultiGeometry>
<Polygon>
<extrude>0</extrude>
<tessellate>1</tessellate>
<outerBoundaryIs>
<LinearRing>
<coordinates>-49.3595727,-26.9510518992364,0.0 -49.3596064,-26.9510350992364,0.0 -49.3596402,-26.9510182992364,0.0 -49.3598,-26.9509042992364,0.0 -49.3599399,-26.9508372992364,0.0 -49.3605485,-26.9506117992364,0.0 -49.3606975,-26.9505834992364,0.0 -49.3608272,-26.9505591992364,0.0 -49.3609566,-26.9505520992364,0.0 -49.3610624,-26.9505364992364,0.0 -49.3610911,-26.9505321992364,0.0 -49.3612232,-26.9505052992364,0.0 -49.3614175,-26.9504887992364,0.0 -49.361566,-26.9504904992364,0.0 -49.3618205,-26.9502857992364,0.0 -49.3619342,-26.9501086992364,0.0 -49.3620626,-26.9498819992364,0.0 -49.3621173,-26.9497808992364,0.0 -49.362172,-26.9496798992364,0.0 -49.3622013,-26.9495764992364,0.0 -49.3622859,-26.9493662992364,0.0 -49.3623205,-26.9493203992364,0.0 -49.3623556,-26.9492909992364,0.0 -49.3624063,-26.9492611992364,0.0 -49.3624505,-26.9492413992364,0.0 -49.3624989,-26.9492260992364,0.0 -49.362552,-26.9492222992364,0.0 -49.3625924,-26.9492226992364,0.0 -49.3626545,-26.9492329992364,0.0 -49.3627266,-26.9492565992364,0.0 -49.3627731,-26.9492735992364,0.0 -49.3628274,-26.9492913992364,0.0 -49.3628809,-26.9493135992364,0.0 -49.3629055,-26.9493226992364,0.0 -49.3629734,-26.9493304992364,0.0 -49.3630403,-26.9493172992364,0.0 -49.3630953,-26.9492886992364,0.0 -49.3631625,-26.9492406992364,0.0 -49.363208,-26.9491882992364,0.0 -49.3633034,-26.9491031992364,0.0 -49.3633911,-26.9490128992364,0.0 -49.3635157,-26.9489302992364,0.0 -49.3636255,-26.9488814992364,0.0 -49.3637486,-26.9488372992364,0.0 -49.3638395,-26.9487969992364,0.0 -49.3639187,-26.9487515992364,0.0 -49.3639766,-26.9487135992364,0.0 -49.3639973,-26.9486998992364,0.0 -49.3640216,-26.9486849992364,0.0 -49.3640423,-26.9486718992364,0.0 -49.3640595,-26.9486599992364,0.0 -49.3640731,-26.9486512992364,0.0 -49.3640881,-26.9486406992364,0.0 -49.3641174,-26.9486187992364,0.0 -49.3641445,-26.9486038992364,0.0 -49.3641974,-26.9485696992364,0.0 -49.3642491,-26.9485413992364,0.0 -49.3643226,-26.9485041992364,0.0 -49.364448,-26.9484465992364,0.0 -49.364552,-26.9484040992364,0.0 -49.3646489,-26.9483827992364,0.0 -49.3647363,-26.9483628992364,0.0 -49.3648356,-26.9483456992364,0.0 -49.3649391,-26.9483417992364,0.0 -49.3650284,-26.9483432992364,0.0 -49.3650863,-26.9483431992364,0.0 -49.3651752,-26.9483427992364,0.0 -49.3652422,-26.9483421992364,0.0 -49.3653333,-26.9483325992364,0.0 -49.3653808,-26.9482967992364,0.0 -49.3654208,-26.9482269992364,0.0 -49.3654505,-26.9481631992364,0.0 -49.3654681,-26.9480931992364,0.0 -49.3654778,-26.9480222992364,0.0 -49.3654914,-26.9479518992364,0.0 -49.3654957,-26.9478989992364,0.0 -49.3654912,-26.9478308992364,0.0 -49.3654836,-26.9477601992364,0.0 -49.3654741,-26.9476803992364,0.0 -49.3654705,-26.9476030992364,0.0 -49.3654691,-26.9475311992365,0.0 -49.3654651,-26.9474252992364,0.0 -49.3654529,-26.9473654992365,0.0 -49.3654352,-26.9473081992365,0.0 -49.3654232,-26.9472414992365,0.0 -49.3654041,-26.9471682992365,0.0 -49.3653885,-26.9471048992365,0.0 -49.3653732,-26.9470480992365,0.0 -49.3653583,-26.9469634992365,0.0 -49.3653506,-26.9469194992365,0.0 -49.3653276,-26.9468489992365,0.0 -49.3653014,-26.9468025992365,0.0 -49.3652701,-26.9467298992365,0.0 -49.3652418,-26.9466670992365,0.0 -49.3652157,-26.9465949992365,0.0 -49.3651951,-26.9465200992365,0.0 -49.3651854,-26.9464536992365,0.0 -49.3651766,-26.9463805992365,0.0 -49.3651727,-26.9463278992365,0.0 -49.3652017,-26.9462508992365,0.0 -49.3652403,-26.9461994992365,0.0 -49.3652728,-26.9461347992365,0.0 -49.3653128,-26.9460684992365,0.0 -49.3653594,-26.9459847992365,0.0 -49.3653881,-26.9459307992365,0.0 -49.3654069,-26.9458893992365,0.0 -49.3654182,-26.9458394992365,0.0 -49.3654184,-26.9458263992365,0.0 -49.3654174,-26.9458130992365,0.0 -49.3654171,-26.9458048992365,0.0 -49.3654166,-26.9457956992365,0.0 -49.3654161,-26.9457854992365,0.0 -49.3654163,-26.9457797992365,0.0 -49.3654147,-26.9457539992365,0.0 -49.3654136,-26.9457179992365,0.0 -49.3654091,-26.9456804992365,0.0 -49.3654057,-26.9456450992365,0.0 -49.3654037,-26.9455899992365,0.0 -49.3653963,-26.9455300992365,0.0 -49.3653958,-26.9454537992365,0.0 -49.3654029,-26.9453984992365,0.0 -49.3654232,-26.9453614992365,0.0 -49.3654607,-26.9453304992365,0.0 -49.3655021,-26.9453030992365,0.0 -49.3655484,-26.9452713992365,0.0 -49.3655921,-26.9452432992365,0.0 -49.3656434,-26.9452099992365,0.0 -49.3657007,-26.9451742992365,0.0 -49.3657505,-26.9451414992365,0.0 -49.3658041,-26.9451128992365,0.0 -49.3658475,-26.9450808992365,0.0 -49.3658892,-26.9450502992365,0.0 -49.3659885,-26.9449745992365,0.0 -49.3660645,-26.9449171992365,0.0 -49.3661478,-26.9448583992365,0.0 -49.3661717,-26.9448357992365,0.0 -49.3662305,-26.9447824992365,0.0 -49.3662852,-26.9447202992365,0.0 -49.3663501,-26.9446541992365,0.0 -49.3664352,-26.9445649992365,0.0 -49.3665868,-26.9443993992365,0.0 -49.3667427,-26.9442154992365,0.0 -49.3668781,-26.9440538992365,0.0 -49.3670426,-26.9438517992365,0.0 -49.3671274,-26.9437363992365,0.0 -49.3671852,-26.9436591992365,0.0 -49.3672446,-26.9435829992365,0.0 -49.3685136,-26.9440598992365,0.0 -49.3690417,-26.9441806992365,0.0 -49.3690782,-26.9441630992365,0.0 -49.3693446,-26.9440350992365,0.0 -49.3697162,-26.9440184992365,0.0 -49.3700955,-26.9441297992365,0.0 -49.3705486,-26.9442564992365,0.0 -49.3710427,-26.9445006992365,0.0 -49.3715999,-26.9446022992365,0.0 -49.3720938,-26.9445039992365,0.0 -49.3729837,-26.9445313992365,0.0 -49.3736225,-26.9444419992365,0.0 -49.3743086,-26.9443901992365,0.0 -49.3749848,-26.9443381992365,0.0 -49.3758517,-26.9442675992365,0.0 -49.3764352,-26.9443693992365,0.0 -49.3771296,-26.9444905992365,0.0 -49.3773495,-26.9443739992365,0.0 -49.3777446,-26.9441643992365,0.0 -49.3785911,-26.9438497992365,0.0 -49.3797294,-26.9435124992365,0.0 -49.380678,-26.9430908992365,0.0 -49.381184,-26.9427957992365,0.0 -49.3819607,-26.9421833992366,0.0 -49.3822871,-26.9417336992366,0.0 -49.3823329,-26.9416428992366,0.0 -49.3825423,-26.9412279992366,0.0 -49.3820025,-26.9409433992366,0.0 -49.3813759,-26.9407778992366,0.0 -49.3809882,-26.9405359992366,0.0 -49.3808567,-26.9402706992366,0.0 -49.3809078,-26.9399129992366,0.0 -49.3811037,-26.9396148992366,0.0 -49.3813422,-26.9393422992366,0.0 -49.3815295,-26.9388567992366,0.0 -49.3816232,-26.9384394992366,0.0 -49.3817254,-26.9379624992366,0.0 -49.3817765,-26.9374854992366,0.0 -49.3818447,-26.9372555992367,0.0 -49.3819384,-26.9371277992367,0.0 -49.3819994,-26.9371139992366,0.0 -49.3824665,-26.9370085992366,0.0 -49.3830201,-26.9369233992367,0.0 -49.3835652,-26.9368211992367,0.0 -49.384431,-26.9369137992367,0.0 -49.3850217,-26.9369148992367,0.0 -49.3855412,-26.9367103992367,0.0 -49.3857712,-26.9365570992367,0.0 -49.3860864,-26.9362760992367,0.0 -49.3866826,-26.9359097992367,0.0 -49.3867763,-26.9357053992367,0.0 -49.3867848,-26.9353561992367,0.0 -49.3867507,-26.9350324992367,0.0 -49.3868274,-26.9348450992367,0.0 -49.3870488,-26.9347599992367,0.0 -49.3873725,-26.9347854992367,0.0 -49.3876791,-26.9347599992367,0.0 -49.3882924,-26.9346151992367,0.0 -49.3884466,-26.9345243992367,0.0 -49.3888715,-26.9342744992367,0.0 -49.38934,-26.9339763992367,0.0 -49.3896722,-26.9334822992367,0.0 -49.3898399,-26.9330624992367,0.0 -49.3899775,-26.9322037992367,0.0 -49.390081,-26.9314636992368,0.0 -49.3902428,-26.9309952992368,0.0 -49.3904132,-26.9308248992368,0.0 -49.3907796,-26.9308069992368,0.0 -49.3913416,-26.9308163992368,0.0 -49.3919974,-26.9309185992368,0.0 -49.3925511,-26.9310889992368,0.0 -49.3925914,-26.9311009992368,0.0 -49.3929514,-26.9312081992368,0.0 -49.3932495,-26.9311059992368,0.0 -49.3937299,-26.9307697992368,0.0 -49.3940926,-26.9306616992368,0.0 -49.3944769,-26.9304269992368,0.0 -49.394997,-26.9303121992368,0.0 -49.3954952,-26.9302792992368,0.0 -49.3959103,-26.9302980992368,0.0 -49.3963349,-26.9304207992368,0.0 -49.396618,-26.9307038992368,0.0 -49.3970332,-26.9309963992368,0.0 -49.3975899,-26.9312605992368,0.0 -49.3980522,-26.9311755992368,0.0 -49.3983289,-26.9309557992368,0.0 -49.398724,-26.9306813992368,0.0 -49.3993565,-26.9303989992368,0.0 -49.3996972,-26.9303393992368,0.0 -49.4001741,-26.9303308992368,0.0 -49.4012662,-26.9303022992368,0.0 -49.4017199,-26.9304711992368,0.0 -49.4018737,-26.9305901992368,0.0 -49.4020274,-26.9307092992368,0.0 -49.4024115,-26.9311472992368,0.0 -49.4027469,-26.9315683992368,0.0 -49.4028143,-26.9316284992368,0.0 -49.4028384,-26.9317599992367,0.0 -49.4029973,-26.9319515992368,0.0 -49.4031054,-26.9320990992368,0.0 -49.403255,-26.9322472992367,0.0 -49.4035319,-26.9325995992367,0.0 -49.4040029,-26.9329935992367,0.0 -49.4045502,-26.9332660992367,0.0 -49.4050724,-26.9334873992367,0.0 -49.4056102,-26.9337703992367,0.0 -49.4061492,-26.9339171992367,0.0 -49.4067492,-26.9338353992367,0.0 -49.407465,-26.9335674992367,0.0 -49.4080953,-26.9331756992367,0.0 -49.4088534,-26.9326305992367,0.0 -49.4095433,-26.9322557992367,0.0 -49.4098584,-26.9320939992367,0.0 -49.410148,-26.9317617992368,0.0 -49.4102076,-26.9314466992368,0.0 -49.4102106,-26.9314021992368,0.0 -49.4102332,-26.9310633992368,0.0 -49.410361,-26.9308248992368,0.0 -49.4106165,-26.9304756992368,0.0 -49.4111304,-26.9300377992368,0.0 -49.4116159,-26.9295930992368,0.0 -49.4120815,-26.9290873992368,0.0 -49.4127288,-26.9283207992368,0.0 -49.4132398,-26.9279204992368,0.0 -49.4139553,-26.9272645992368,0.0 -49.4145515,-26.9266172992368,0.0 -49.4151484,-26.9263805992369,0.0 -49.4154311,-26.9262421992369,0.0 -49.4158219,-26.9259389992369,0.0 -49.4161954,-26.9256973992369,0.0 -49.4167405,-26.9251096992369,0.0 -49.4175071,-26.9244879992369,0.0 -49.4180351,-26.9240109992369,0.0 -49.4182821,-26.9234743992369,0.0 -49.4183844,-26.9229888992369,0.0 -49.418427,-26.9224924992369,0.0 -49.4185381,-26.9222656992369,0.0 -49.4187932,-26.9217453992369,0.0 -49.4193803,-26.920910699237,0.0 -49.4195001,-26.920740299237,0.0 -49.4200027,-26.919990799237,0.0 -49.4208374,-26.919420099237,0.0 -49.4219276,-26.919070899237,0.0 -49.4230774,-26.918644999237,0.0 -49.4234104,-26.918593299237,0.0 -49.4239547,-26.918508699237,0.0 -49.4246872,-26.918312799237,0.0 -49.4251642,-26.918210599237,0.0 -49.4254197,-26.918014699237,0.0 -49.4256156,-26.917580299237,0.0 -49.4257008,-26.917435599237,0.0 -49.4257831,-26.917210499237,0.0 -49.4258286,-26.917086299237,0.0 -49.4259223,-26.916864899237,0.0 -49.4263055,-26.9164730992371,0.0 -49.427498,-26.9161408992371,0.0 -49.4298121,-26.9152741992371,0.0 -49.4284419,-26.9155384992371,0.0 -49.4281681,-26.9155913992371,0.0 -49.4278047,-26.9156614992371,0.0 -49.427614,-26.9156982992371,0.0 -49.4273136,-26.9157000992371,0.0 -49.4267948,-26.9156617992371,0.0 -49.4264611,-26.9156388992371,0.0 -49.4261208,-26.9155364992371,0.0 -49.4256822,-26.9153606992371,0.0 -49.4254,-26.9151778992371,0.0 -49.4251623,-26.9150410992371,0.0 -49.4249995,-26.9147775992371,0.0 -49.4248726,-26.9141757992371,0.0 -49.4248019,-26.9135743992371,0.0 -49.4245687,-26.9132492992371,0.0 -49.4240395,-26.9130330992371,0.0 -49.4237032,-26.9129083992371,0.0 -49.4235629,-26.9126684992371,0.0 -49.4233748,-26.9122070992371,0.0 -49.4231649,-26.9117610992371,0.0 -49.4231827,-26.9114285992372,0.0 -49.4233144,-26.9109000992372,0.0 -49.423704,-26.9103624992372,0.0 -49.4239264,-26.9098804992372,0.0 -49.4240481,-26.9091501992372,0.0 -49.4239422,-26.9080532992372,0.0 -49.4239116,-26.9073234992372,0.0 -49.423802,-26.9067942992372,0.0 -49.4235646,-26.9065006992372,0.0 -49.4231472,-26.9063033992372,0.0 -49.4226965,-26.9060146992373,0.0 -49.4218646,-26.9053695992373,0.0 -49.4213981,-26.9051139992373,0.0 -49.4211153,-26.9048895992373,0.0 -49.4208983,-26.9047148992373,0.0 -49.4206486,-26.9043772992373,0.0 -49.4204972,-26.9041063992373,0.0 -49.4203362,-26.9040592992373,0.0 -49.4200134,-26.9041886992373,0.0 -49.4192926,-26.9044552992373,0.0 -49.4188364,-26.9046651992373,0.0 -49.4183092,-26.9047498992373,0.0 -49.4172672,-26.9045203992373,0.0 -49.4165239,-26.9041948992373,0.0 -49.4154357,-26.9037555992373,0.0 -49.4151903,-26.9035983992373,0.0 -49.4147698,-26.9032924992373,0.0 -49.4145552,-26.9031217992373,0.0 -49.4143406,-26.9029509992373,0.0 -49.4140851,-26.9027504992373,0.0 -49.4139307,-26.9026064992373,0.0 -49.4134874,-26.9023093992373,0.0 -49.4130545,-26.9019474992373,0.0 -49.4126227,-26.9015979992373,0.0 -49.4122405,-26.9011080992373,0.0 -49.4118675,-26.9006308992374,0.0 -49.4115458,-26.9002232992374,0.0 -49.4110054,-26.8997134992374,0.0 -49.4103335,-26.8994430992374,0.0 -49.4102095,-26.8989815992374,0.0 -49.4105677,-26.8981307992374,0.0 -49.4108509,-26.8974490992374,0.0 -49.410884,-26.8968479992374,0.0 -49.4109505,-26.8962075992374,0.0 -49.4108813,-26.8956135992374,0.0 -49.4106441,-26.8952077992375,0.0 -49.4103328,-26.8943511992375,0.0 -49.409933,-26.8936398992375,0.0 -49.4099618,-26.8932548992375,0.0 -49.410044,-26.8928795992375,0.0 -49.4100407,-26.8923904992375,0.0 -49.4099289,-26.8918209992375,0.0 -49.409902,-26.8915866992375,0.0 -49.4098502,-26.8911351992375,0.0 -49.409836,-26.8906545992375,0.0 -49.4097308,-26.8902634992376,0.0 -49.4094029,-26.8899070992376,0.0 -49.409001,-26.8896479992376,0.0 -49.4085796,-26.8892961992376,0.0 -49.407888,-26.8890054992376,0.0 -49.4073421,-26.8887662992376,0.0 -49.4065691,-26.8885198992376,0.0 -49.4060646,-26.8882074992376,0.0 -49.4057856,-26.8877721992376,0.0 -49.4057164,-26.8872721992376,0.0 -49.4060581,-26.8861879992376,0.0 -49.4061889,-26.8856658992377,0.0 -49.40627,-26.8849899992377,0.0 -49.406383,-26.8846829992377,0.0 -49.4065498,-26.8841777992377,0.0 -49.4066855,-26.8837252992377,0.0 -49.4067363,-26.8830773992377,0.0 -49.4067068,-26.8827587992377,0.0 -49.4064739,-26.8823920992377,0.0 -49.4063707,-26.8822900992377,0.0 -49.4059992,-26.8819222992377,0.0 -49.4056673,-26.8813661992377,0.0 -49.4051876,-26.8810090992377,0.0 -49.4050013,-26.8807823992377,0.0 -49.4048464,-26.8805947992377,0.0 -49.404683,-26.8804048992377,0.0 -49.4044881,-26.8802380992378,0.0 -49.4042668,-26.8801479992378,0.0 -49.4040844,-26.8800345992377,0.0 -49.4037596,-26.8796855992378,0.0 -49.4035122,-26.8794727992378,0.0 -49.4029879,-26.8789270992378,0.0 -49.4026835,-26.8786728992378,0.0 -49.4023336,-26.8784244992378,0.0 -49.4021843,-26.8782500992378,0.0 -49.4020494,-26.8780265992378,0.0 -49.402107,-26.8777820992378,0.0 -49.4022532,-26.8774501992378,0.0 -49.4023744,-26.8769033992378,0.0 -49.402443,-26.8765724992378,0.0 -49.4025485,-26.8762909992378,0.0 -49.4027242,-26.8760405992378,0.0 -49.4029081,-26.8758343992378,0.0 -49.403054,-26.8754859992378,0.0 -49.403082,-26.8751738992379,0.0 -49.4031344,-26.8747992992379,0.0 -49.4031452,-26.8744402992379,0.0 -49.4031222,-26.8741133992379,0.0 -49.4030805,-26.8738524992379,0.0 -49.4030718,-26.8737507992379,0.0 -49.403063,-26.8736489992379,0.0 -49.4029797,-26.8733246992379,0.0 -49.4029264,-26.8731650992379,0.0 -49.402889,-26.8728753992379,0.0 -49.4028798,-26.8724959992379,0.0 -49.4029928,-26.8721831992379,0.0 -49.4031405,-26.8718271992379,0.0 -49.403306,-26.8714984992379,0.0 -49.4034503,-26.8710976992379,0.0 -49.4034704,-26.8706716992379,0.0 -49.4034552,-26.8703074992379,0.0 -49.4031804,-26.8701061992379,0.0 -49.4028574,-26.8700145992379,0.0 -49.4027373,-26.8699532992379,0.0 -49.4024724,-26.869812999238,0.0 -49.4022586,-26.869653699238,0.0 -49.4021142,-26.869482999238,0.0 -49.4019868,-26.869371099238,0.0 -49.4018707,-26.869254299238,0.0 -49.4017934,-26.869155499238,0.0 -49.401752,-26.869099299238,0.0 -49.4017107,-26.869035399238,0.0 -49.401683,-26.868984599238,0.0 -49.4015894,-26.868836099238,0.0 -49.4015081,-26.868695399238,0.0 -49.401409,-26.868499899238,0.0 -49.4012441,-26.868230799238,0.0 -49.4010913,-26.867990499238,0.0 -49.4009383,-26.867812699238,0.0 -49.4008196,-26.867747699238,0.0 -49.4004971,-26.867736199238,0.0 -49.3999863,-26.867765799238,0.0 -49.399662,-26.867747299238,0.0 -49.3993187,-26.867631599238,0.0 -49.3989091,-26.867604099238,0.0 -49.3982745,-26.867802799238,0.0 -49.3976006,-26.868078599238,0.0 -49.3968979,-26.868237199238,0.0 -49.3963725,-26.868297099238,0.0 -49.3960146,-26.868197599238,0.0 -49.3954,-26.868246399238,0.0 -49.3947573,-26.868143099238,0.0 -49.3944312,-26.868180599238,0.0 -49.3942835,-26.868193299238,0.0 -49.3941358,-26.868205899238,0.0 -49.3938801,-26.868127199238,0.0 -49.393558,-26.867977599238,0.0 -49.3933354,-26.867932199238,0.0 -49.3930571,-26.868007399238,0.0 -49.3927422,-26.868080399238,0.0 -49.3922476,-26.868143599238,0.0 -49.3920149,-26.868151599238,0.0 -49.3916867,-26.867989899238,0.0 -49.39122,-26.867550199238,0.0 -49.3909261,-26.867264299238,0.0 -49.3901885,-26.866852499238,0.0 -49.3894674,-26.866594199238,0.0 -49.388666,-26.866332799238,0.0 -49.3880812,-26.866120999238,0.0 -49.3878704,-26.866065199238,0.0 -49.3874031,-26.865941399238,0.0 -49.3863574,-26.865501399238,0.0 -49.3856587,-26.865284599238,0.0 -49.3849529,-26.864980999238,0.0 -49.3841669,-26.8644739992381,0.0 -49.3834812,-26.8636883992381,0.0 -49.3828979,-26.8629592992381,0.0 -49.3819108,-26.8622926992381,0.0 -49.381313,-26.8618195992381,0.0 -49.3805526,-26.8608664992381,0.0 -49.3799331,-26.8599937992381,0.0 -49.3796523,-26.8595817992382,0.0 -49.3795266,-26.8593975992382,0.0 -49.379096,-26.8587645992382,0.0 -49.3788769,-26.8581567992382,0.0 -49.3787557,-26.8576804992382,0.0 -49.3787764,-26.8570649992382,0.0 -49.3787344,-26.8566421992382,0.0 -49.3784443,-26.8562856992382,0.0 -49.3779077,-26.8560745992382,0.0 -49.3776413,-26.8559058992382,0.0 -49.3776428,-26.8556269992382,0.0 -49.3777672,-26.8551669992382,0.0 -49.3780034,-26.8548772992382,0.0 -49.377982,-26.8544717992383,0.0 -49.3778147,-26.8541328992383,0.0 -49.3772639,-26.8538277992383,0.0 -49.3769541,-26.8535145992383,0.0 -49.3766116,-26.8532840992383,0.0 -49.3761295,-26.8532309992383,0.0 -49.3754626,-26.8532987992383,0.0 -49.3741948,-26.8532215992383,0.0 -49.3734195,-26.8530774992383,0.0 -49.3725258,-26.8527951992383,0.0 -49.3718701,-26.8525145992383,0.0 -49.3713662,-26.8522245992383,0.0 -49.3712657,-26.8521579992383,0.0 -49.3709198,-26.8519284992383,0.0 -49.3706729,-26.8515023992383,0.0 -49.3707054,-26.8510109992383,0.0 -49.3707718,-26.8505857992383,0.0 -49.370859,-26.8502389992383,0.0 -49.3708401,-26.8499424992383,0.0 -49.3706504,-26.8497031992383,0.0 -49.3703681,-26.8495131992384,0.0 -49.3701695,-26.8492765992384,0.0 -49.3698299,-26.8488283992384,0.0 -49.3694529,-26.8484442992384,0.0 -49.3692061,-26.8482400992384,0.0 -49.3690302,-26.8478929992384,0.0 -49.3690135,-26.8477116992384,0.0 -49.3690685,-26.8473186992384,0.0 -49.3691408,-26.8469889992384,0.0 -49.3693701,-26.8467591992384,0.0 -49.3696172,-26.8463810992384,0.0 -49.3697665,-26.8460626992384,0.0 -49.3701971,-26.8457802992384,0.0 -49.3707082,-26.8454269992384,0.0 -49.3710718,-26.8450204992384,0.0 -49.3711503,-26.8447769992384,0.0 -49.3712856,-26.8443573992384,0.0 -49.3715402,-26.8435488992385,0.0 -49.3717461,-26.8431248992385,0.0 -49.3719299,-26.8427477992385,0.0 -49.3720568,-26.8423685992385,0.0 -49.3721959,-26.8420382992385,0.0 -49.3721762,-26.8417441992385,0.0 -49.3718942,-26.8413626992385,0.0 -49.3715596,-26.8410928992385,0.0 -49.3711878,-26.8407956992385,0.0 -49.3710642,-26.8408100992385,0.0 -49.3706358,-26.8408599992385,0.0 -49.3703574,-26.8409304992385,0.0 -49.3700306,-26.8407960992385,0.0 -49.3698027,-26.8406567992385,0.0 -49.3695748,-26.8405719992385,0.0 -49.369039,-26.8405496992385,0.0 -49.3687605,-26.8405681992385,0.0 -49.3681603,-26.8403994992385,0.0 -49.3677579,-26.8401794992385,0.0 -49.3675212,-26.8399175992385,0.0 -49.3672884,-26.8395795992385,0.0 -49.3671376,-26.8393000992385,0.0 -49.3669807,-26.8389846992386,0.0 -49.3667686,-26.8388269992386,0.0 -49.3662543,-26.8387520992386,0.0 -49.3661206,-26.8385994992386,0.0 -49.3660637,-26.8383749992386,0.0 -49.3660811,-26.8380646992386,0.0 -49.3659817,-26.8377672992386,0.0 -49.3657514,-26.8375981992386,0.0 -49.3652672,-26.8373850992386,0.0 -49.3650382,-26.8372733992386,0.0 -49.364941,-26.8371048992386,0.0 -49.3648911,-26.8366217992386,0.0 -49.3649723,-26.8361875992386,0.0 -49.3649411,-26.8356924992386,0.0 -49.3648125,-26.8354067992386,0.0 -49.3648013,-26.8353818992386,0.0 -49.3644285,-26.8351876992386,0.0 -49.3639935,-26.8351876992386,0.0 -49.3636052,-26.8351099992386,0.0 -49.3630693,-26.8348692992386,0.0 -49.3626188,-26.8347449992386,0.0 -49.3623858,-26.8347100992386,0.0 -49.3621528,-26.8346750992386,0.0 -49.3619121,-26.8345507992386,0.0 -49.3617257,-26.8342556992386,0.0 -49.361665,-26.8340182992387,0.0 -49.3616324,-26.8338906992387,0.0 -49.3614849,-26.8334246992387,0.0 -49.361415,-26.8332925992387,0.0 -49.361213,-26.8331605992387,0.0 -49.3606461,-26.8330052992387,0.0 -49.3598772,-26.8329741992387,0.0 -49.3592791,-26.8331527992387,0.0 -49.3590484,-26.8332150992387,0.0 -49.3587898,-26.8332848992387,0.0 -49.3583394,-26.8332692992387,0.0 -49.3578578,-26.8330207992387,0.0 -49.3575239,-26.8326246992387,0.0 -49.3569802,-26.8322130992387,0.0 -49.3563153,-26.8319300992387,0.0 -49.3562663,-26.8315972992387,0.0 -49.3565156,-26.8312310992387,0.0 -49.3571156,-26.8306319992387,0.0 -49.3574475,-26.8298505992387,0.0 -49.3578368,-26.8289342992387,0.0 -49.3581046,-26.8284624992388,0.0 -49.3581499,-26.8274886992388,0.0 -49.3581995,-26.8268605992388,0.0 -49.3587703,-26.8259264992388,0.0 -49.359365,-26.8250932992388,0.0 -49.3598343,-26.8244980992388,0.0 -49.3599395,-26.8240497992388,0.0 -49.3598227,-26.8238320992388,0.0 -49.3595418,-26.8233085992389,0.0 -49.3577883,-26.8216272992389,0.0 -49.3564514,-26.8208188992389,0.0 -49.3532832,-26.8205843992389,0.0 -49.3524037,-26.8208816992389,0.0 -49.35211,-26.8209809992389,0.0 -49.3511961,-26.8211607992389,0.0 -49.3502968,-26.8213041992389,0.0 -49.3492746,-26.8213744992389,0.0 -49.3488591,-26.8215713992389,0.0 -49.3482621,-26.8217665992389,0.0 -49.3475956,-26.8217893992389,0.0 -49.3472327,-26.8219645992389,0.0 -49.3466839,-26.8222550992389,0.0 -49.3464736,-26.8222714992389,0.0 -49.3463041,-26.8222077992389,0.0 -49.3460497,-26.8221121992389,0.0 -49.3457867,-26.8218174992389,0.0 -49.3453129,-26.8214455992389,0.0 -49.345586,-26.8199574992389,0.0 -49.3450857,-26.8206390992389,0.0 -49.3449999,-26.8207073992389,0.0 -49.3445026,-26.8211036992389,0.0 -49.344425,-26.8209335992389,0.0 -49.3443763,-26.8208268992389,0.0 -49.3443669,-26.8208062992389,0.0 -49.3444248,-26.8207504992389,0.0 -49.3445057,-26.8206702992389,0.0 -49.344544,-26.8206311992389,0.0 -49.3445679,-26.8206061992389,0.0 -49.3445806,-26.8205927992389,0.0 -49.3446157,-26.8205549992389,0.0 -49.344649,-26.8205176992389,0.0 -49.3446805,-26.8204809992389,0.0 -49.3447102,-26.8204446992389,0.0 -49.3447379,-26.8204089992389,0.0 -49.3447638,-26.8203736992389,0.0 -49.3447879,-26.8203390992389,0.0 -49.3448103,-26.8203051992389,0.0 -49.3448311,-26.8202719992389,0.0 -49.3448503,-26.8202395992389,0.0 -49.3448846,-26.8201774992389,0.0 -49.3449139,-26.8201194992389,0.0 -49.3448602,-26.8199544992389,0.0 -49.3448512,-26.8199268992389,0.0 -49.344623,-26.8196056992389,0.0 -49.3445374,-26.8194931992389,0.0 -49.3442878,-26.8191653992389,0.0 -49.3442571,-26.8191477992389,0.0 -49.3439065,-26.8189464992389,0.0 -49.3437736,-26.8187871992389,0.0 -49.3436492,-26.818592799239,0.0 -49.343447,-26.818452799239,0.0 -49.3432914,-26.818266199239,0.0 -49.3431552,-26.818036699239,0.0 -49.3431437,-26.818017299239,0.0 -49.3431218,-26.818000699239,0.0 -49.3429804,-26.817892899239,0.0 -49.3429079,-26.817839699239,0.0 -49.3428242,-26.817778399239,0.0 -49.3427565,-26.817728699239,0.0 -49.3427471,-26.817721799239,0.0 -49.3426718,-26.817651399239,0.0 -49.342506,-26.817496299239,0.0 -49.3419928,-26.817426299239,0.0 -49.3415884,-26.817309699239,0.0 -49.3413473,-26.816975299239,0.0 -49.3412618,-26.816726399239,0.0 -49.3404841,-26.816197599239,0.0 -49.3403908,-26.815909899239,0.0 -49.3403364,-26.815715499239,0.0 -49.3402508,-26.815575499239,0.0 -49.3400408,-26.815458899239,0.0 -49.3397142,-26.815349999239,0.0 -49.3394109,-26.815373299239,0.0 -49.3390299,-26.815412199239,0.0 -49.3387188,-26.815396699239,0.0 -49.338616,-26.815306899239,0.0 -49.33857,-26.815155299239,0.0 -49.3385364,-26.815078199239,0.0 -49.3384998,-26.815020299239,0.0 -49.3384497,-26.814969299239,0.0 -49.3383787,-26.814882199239,0.0 -49.3382763,-26.814756299239,0.0 -49.3380961,-26.814452099239,0.0 -49.3378749,-26.814020399239,0.0 -49.337794,-26.813882699239,0.0 -49.3377337,-26.813802899239,0.0 -49.3376307,-26.813711799239,0.0 -49.3375277,-26.813620699239,0.0 -49.3373663,-26.813503799239,0.0 -49.3373105,-26.8134791992391,0.0 -49.3372704,-26.813478699239,0.0 -49.3372382,-26.813492799239,0.0 -49.3371436,-26.8135636992391,0.0 -49.3370814,-26.813615699239,0.0 -49.337068,-26.8136227992391,0.0 -49.3370493,-26.813622599239,0.0 -49.3370227,-26.813612699239,0.0 -49.3369907,-26.813602699239,0.0 -49.3369612,-26.813611999239,0.0 -49.3369317,-26.813618799239,0.0 -49.3367771,-26.813593099239,0.0 -49.336745,-26.813592699239,0.0 -49.3366589,-26.813630099239,0.0 -49.3366322,-26.813632199239,0.0 -49.336587,-26.813614899239,0.0 -49.3365262,-26.813563899239,0.0 -49.3364783,-26.813551399239,0.0 -49.3364221,-26.813555499239,0.0 -49.3363606,-26.813554799239,0.0 -49.3363234,-26.813539999239,0.0 -49.3363023,-26.813520599239,0.0 -49.3362348,-26.813380699239,0.0 -49.3362137,-26.813358899239,0.0 -49.336099,-26.813340799239,0.0 -49.3360725,-26.8133237992391,0.0 -49.3360649,-26.813299699239,0.0 -49.3360562,-26.8131508992391,0.0 -49.3360435,-26.8131075992391,0.0 -49.3360174,-26.8130616992391,0.0 -49.3359724,-26.8130276992391,0.0 -49.335885,-26.8129762992391,0.0 -49.3357841,-26.8129247992391,0.0 -49.335601,-26.8128339992391,0.0 -49.3355,-26.8127944992391,0.0 -49.3354228,-26.8127695992391,0.0 -49.3353697,-26.8127402992391,0.0 -49.3351888,-26.8124935992391,0.0 -49.3351495,-26.8124379992391,0.0 -49.3350965,-26.8124037992391,0.0 -49.3350433,-26.8123863992391,0.0 -49.3349101,-26.8123513992391,0.0 -49.3348357,-26.8123193992391,0.0 -49.3347774,-26.8122874992391,0.0 -49.3347192,-26.8122412992391,0.0 -49.3345609,-26.8120931992391,0.0 -49.3336928,-26.8114299992391,0.0 -49.3335028,-26.8112684992391,0.0 -49.3333446,-26.8110789992391,0.0 -49.3331864,-26.8108894992391,0.0 -49.3330647,-26.8106889992391,0.0 -49.3330338,-26.8105750992391,0.0 -49.333003,-26.8102280992391,0.0 -49.3329743,-26.8099724992391,0.0 -49.3329339,-26.8098246992391,0.0 -49.3328383,-26.8096441992391,0.0 -49.3327327,-26.8094440992391,0.0 -49.3326974,-26.8093036992391,0.0 -49.3326895,-26.8092217992391,0.0 -49.3327146,-26.8089603992391,0.0 -49.3325496,-26.8086731992391,0.0 -49.3321137,-26.8083849992392,0.0 -49.3314192,-26.8080007992392,0.0 -49.3310867,-26.8079120992392,0.0 -49.3307542,-26.8078234992392,0.0 -49.3302574,-26.8078405992392,0.0 -49.3301236,-26.8078451992392,0.0 -49.3296358,-26.8087335992391,0.0 -49.3291698,-26.8095577992391,0.0 -49.3288353,-26.8099960992391,0.0 -49.328661,-26.8105260992391,0.0 -49.3283596,-26.8108955992391,0.0 -49.3282652,-26.8109318992391,0.0 -49.3280275,-26.8110232992391,0.0 -49.3278401,-26.8111340992391,0.0 -49.3276612,-26.8113895992391,0.0 -49.3276101,-26.8116022992391,0.0 -49.3275079,-26.8120283992391,0.0 -49.3273035,-26.8126756992391,0.0 -49.3269798,-26.8133485992391,0.0 -49.3267243,-26.814200299239,0.0 -49.3264943,-26.814677299239,0.0 -49.3260855,-26.815222399239,0.0 -49.3260291,-26.815303199239,0.0 -49.3258905,-26.815502099239,0.0 -49.3256341,-26.815869699239,0.0 -49.3252763,-26.816661899239,0.0 -49.3252423,-26.817181399239,0.0 -49.3251826,-26.818024599239,0.0 -49.3251315,-26.818510099239,0.0 -49.3252252,-26.8189529992389,0.0 -49.3251486,-26.8194129992389,0.0 -49.3248164,-26.8201454992389,0.0 -49.324646,-26.8205798992389,0.0 -49.3244416,-26.8210567992389,0.0 -49.3242457,-26.8213037992389,0.0 -49.3239221,-26.8216700992389,0.0 -49.3235558,-26.8218744992389,0.0 -49.3229681,-26.8220192992389,0.0 -49.3224826,-26.8221725992389,0.0 -49.3216564,-26.8226495992389,0.0 -49.3211326,-26.8228284992389,0.0 -49.3206088,-26.8230072992389,0.0 -49.3204748,-26.8230393992389,0.0 -49.3198252,-26.8231946992389,0.0 -49.3193738,-26.8234672992389,0.0 -49.3190842,-26.8238249992388,0.0 -49.3189632,-26.8239537992388,0.0 -49.3188201,-26.8241060992388,0.0 -49.3184577,-26.8242389992388,0.0 -49.3183068,-26.8243937992388,0.0 -49.3179708,-26.8246734992388,0.0 -49.3179479,-26.8246925992388,0.0 -49.3179106,-26.8246909992388,0.0 -49.3178749,-26.8246900992388,0.0 -49.3178408,-26.8246899992388,0.0 -49.3178087,-26.8246906992388,0.0 -49.3177766,-26.8246914992388,0.0 -49.3177174,-26.8246947992388,0.0 -49.3176894,-26.8246971992388,0.0 -49.3176365,-26.8247034992388,0.0 -49.3176114,-26.8247075992388,0.0 -49.317587,-26.8247121992388,0.0 -49.3175634,-26.8247173992388,0.0 -49.3175404,-26.8247233992388,0.0 -49.317518,-26.8247300992388,0.0 -49.317496,-26.8247376992388,0.0 -49.3174744,-26.8247462992388,0.0 -49.3174532,-26.8247558992388,0.0 -49.3174323,-26.8247666992388,0.0 -49.3174115,-26.8247787992388,0.0 -49.3173908,-26.8247922992388,0.0 -49.3173702,-26.8248071992388,0.0 -49.3173497,-26.8248236992388,0.0 -49.3173294,-26.8248418992388,0.0 -49.3173094,-26.8248619992388,0.0 -49.3172899,-26.8248840992388,0.0 -49.3172708,-26.8249082992388,0.0 -49.3172524,-26.8249346992388,0.0 -49.3172347,-26.8249633992388,0.0 -49.3172177,-26.8249944992388,0.0 -49.3172016,-26.8250275992388,0.0 -49.3171864,-26.8250619992388,0.0 -49.3171721,-26.8250972992388,0.0 -49.3171588,-26.8251327992388,0.0 -49.3171352,-26.8252025992388,0.0 -49.3171159,-26.8252668992388,0.0 -49.3171012,-26.8253243992388,0.0 -49.3170956,-26.8253510992388,0.0 -49.3170912,-26.8253765992388,0.0 -49.317088,-26.8254010992388,0.0 -49.317086,-26.8254248992388,0.0 -49.3170852,-26.8254479992388,0.0 -49.3170856,-26.8254707992388,0.0 -49.3170869,-26.8254935992388,0.0 -49.3170927,-26.8255640992388,0.0 -49.3170941,-26.8255893992388,0.0 -49.3170946,-26.8256159992388,0.0 -49.3170939,-26.8256442992388,0.0 -49.3170917,-26.8256744992388,0.0 -49.3170882,-26.8257062992388,0.0 -49.3170835,-26.8257395992388,0.0 -49.3170714,-26.8258090992388,0.0 -49.3170347,-26.8259880992388,0.0 -49.3170201,-26.8260624992388,0.0 -49.3170056,-26.8261440992388,0.0 -49.3169984,-26.8261888992388,0.0 -49.3169842,-26.8262888992388,0.0 -49.3169392,-26.8266515992388,0.0 -49.3169218,-26.8267792992388,0.0 -49.3169033,-26.8269037992388,0.0 -49.3168351,-26.8273418992388,0.0 -49.3168225,-26.8274084992388,0.0 -49.3168154,-26.8274392992388,0.0 -49.3168073,-26.8274689992388,0.0 -49.3167982,-26.8274979992388,0.0 -49.3167881,-26.8275269992388,0.0 -49.3167533,-26.8276212992388,0.0 -49.3167407,-26.8276576992388,0.0 -49.3167278,-26.8276977992388,0.0 -49.3167148,-26.8277423992388,0.0 -49.3167018,-26.8277919992388,0.0 -49.3166888,-26.8278462992388,0.0 -49.3166758,-26.8279046992388,0.0 -49.3166628,-26.8279667992388,0.0 -49.3166367,-26.8280994992388,0.0 -49.316584,-26.8283841992388,0.0 -49.3165341,-26.8286658992388,0.0 -49.3164684,-26.8290572992387,0.0 -49.3164532,-26.8291359992387,0.0 -49.3164456,-26.8291692992387,0.0 -49.3164379,-26.8291985992387,0.0 -49.3164299,-26.8292241992387,0.0 -49.3164215,-26.8292465992387,0.0 -49.3164124,-26.8292660992387,0.0 -49.3164025,-26.8292831992387,0.0 -49.3163917,-26.8292982992387,0.0 -49.3163798,-26.8293117992387,0.0 -49.3163666,-26.8293240992387,0.0 -49.3163519,-26.8293357992387,0.0 -49.3163355,-26.8293468992387,0.0 -49.3163169,-26.8293577992387,0.0 -49.3162957,-26.8293685992387,0.0 -49.3162716,-26.8293797992387,0.0 -49.3162132,-26.8294036992387,0.0 -49.3161389,-26.8294313992387,0.0 -49.316096,-26.8294465992387,0.0 -49.3160025,-26.8294783992387,0.0 -49.315904,-26.8295097992387,0.0 -49.3158548,-26.8295243992387,0.0 -49.3158066,-26.8295378992387,0.0 -49.3157603,-26.8295499992387,0.0 -49.3157157,-26.8295606992387,0.0 -49.3156729,-26.8295699992387,0.0 -49.3156317,-26.8295778992387,0.0 -49.3155922,-26.8295844992387,0.0 -49.3155542,-26.8295896992387,0.0 -49.3155177,-26.8295936992387,0.0 -49.3154827,-26.8295963992387,0.0 -49.315449,-26.8295977992387,0.0 -49.3154166,-26.8295980992387,0.0 -49.3153854,-26.8295972992387,0.0 -49.3153555,-26.8295953992387,0.0 -49.3153267,-26.8295925992387,0.0 -49.315299,-26.8295886992387,0.0 -49.3152724,-26.8295839992387,0.0 -49.3152468,-26.8295783992387,0.0 -49.3152221,-26.8295718992387,0.0 -49.3151982,-26.8295644992387,0.0 -49.3151749,-26.8295557992387,0.0 -49.315152,-26.8295456992387,0.0 -49.3151293,-26.8295337992387,0.0 -49.3151066,-26.8295200992387,0.0 -49.3150838,-26.8295041992387,0.0 -49.3150607,-26.8294858992387,0.0 -49.3150371,-26.8294650992387,0.0 -49.3150131,-26.8294420992387,0.0 -49.3149888,-26.8294171992387,0.0 -49.3149642,-26.8293906992387,0.0 -49.3149149,-26.8293346992387,0.0 -49.3147232,-26.8291057992387,0.0 -49.3146503,-26.8290208992387,0.0 -49.3145992,-26.8289639992388,0.0 -49.3145724,-26.8289353992387,0.0 -49.3145444,-26.8289065992387,0.0 -49.3145151,-26.8288775992388,0.0 -49.3144844,-26.8288484992387,0.0 -49.3144519,-26.8288191992388,0.0 -49.3144273,-26.8287978992388,0.0 -49.3143817,-26.8287598992388,0.0 -49.314344,-26.8287299992387,0.0 -49.3143049,-26.8287000992387,0.0 -49.3142643,-26.8286701992388,0.0 -49.3142225,-26.8286403992388,0.0 -49.3141796,-26.8286106992388,0.0 -49.3141356,-26.8285810992388,0.0 -49.3140453,-26.8285228992388,0.0 -49.3139995,-26.8284944992388,0.0 -49.3139081,-26.8284395992388,0.0 -49.313863,-26.8284133992388,0.0 -49.3137755,-26.8283640992388,0.0 -49.3136927,-26.8283191992388,0.0 -49.3136523,-26.8282981992388,0.0 -49.3135719,-26.8282579992388,0.0 -49.3134891,-26.8282189992388,0.0 -49.313401,-26.8281796992388,0.0 -49.3131497,-26.8280708992388,0.0 -49.3130363,-26.8280194992388,0.0 -49.3129767,-26.8279913992388,0.0 -49.312898,-26.8279527992388,0.0 -49.3127179,-26.8278611992388,0.0 -49.3125751,-26.8277846992388,0.0 -49.3125001,-26.8277432992388,0.0 -49.3123191,-26.8276141992388,0.0 -49.3121712,-26.8274833992388,0.0 -49.3119032,-26.8272328992388,0.0 -49.3116928,-26.8269991992388,0.0 -49.3113613,-26.8266693992388,0.0 -49.3112944,-26.8266082992388,0.0 -49.3112214,-26.8266726992388,0.0 -49.3111484,-26.8267371992388,0.0 -49.3110916,-26.8267969992388,0.0 -49.3109986,-26.8269144992388,0.0 -49.3108569,-26.8270819992388,0.0 -49.3106966,-26.8272522992388,0.0 -49.310485,-26.8274965992388,0.0 -49.3103506,-26.8276847992388,0.0 -49.3103255,-26.8277479992388,0.0 -49.3103141,-26.8277973992388,0.0 -49.3103131,-26.8278412992388,0.0 -49.3103162,-26.8278831992388,0.0 -49.310321,-26.8279243992388,0.0 -49.3103353,-26.8279697992388,0.0 -49.3104613,-26.8281678992388,0.0 -49.3105628,-26.8282978992388,0.0 -49.3106879,-26.8284787992388,0.0 -49.3107526,-26.8285756992388,0.0 -49.3107666,-26.8286084992388,0.0 -49.310762,-26.8286435992388,0.0 -49.3106952,-26.8287947992388,0.0 -49.3105603,-26.8290484992387,0.0 -49.3103983,-26.8293239992387,0.0 -49.3102861,-26.8295475992387,0.0 -49.3101938,-26.8297219992387,0.0 -49.310163,-26.8297800992387,0.0 -49.3101194,-26.8298859992387,0.0 -49.3100761,-26.8300435992387,0.0 -49.3099953,-26.8302232992387,0.0 -49.3099819,-26.8302574992387,0.0 -49.3099765,-26.8302868992387,0.0 -49.3099765,-26.8303506992387,0.0 -49.3099862,-26.8304039992387,0.0 -49.3099969,-26.8304461992387,0.0 -49.3100679,-26.8306047992387,0.0 -49.3101764,-26.8308681992387,0.0 -49.3101927,-26.8309317992387,0.0 -49.3101922,-26.8309678992387,0.0 -49.3101809,-26.8309889992387,0.0 -49.3101428,-26.8310130992387,0.0 -49.3100328,-26.8310596992387,0.0 -49.309995,-26.8310664992387,0.0 -49.3099611,-26.8310632992387,0.0 -49.3098262,-26.8310248992387,0.0 -49.3096235,-26.8309860992387,0.0 -49.3095816,-26.8310843992387,0.0 -49.3095588,-26.8311454992387,0.0 -49.3095502,-26.8311842992387,0.0 -49.3095453,-26.8312419992387,0.0 -49.3095348,-26.8313708992387,0.0 -49.3094624,-26.8316639992387,0.0 -49.309425,-26.8317973992387,0.0 -49.3094175,-26.8318310992387,0.0 -49.3094154,-26.8318781992387,0.0 -49.3094192,-26.8319293992387,0.0 -49.309449,-26.8320310992387,0.0 -49.3094894,-26.8321691992387,0.0 -49.3094978,-26.8322156992387,0.0 -49.3095004,-26.8322663992387,0.0 -49.3095007,-26.8323799992387,0.0 -49.3094991,-26.8324893992387,0.0 -49.3094893,-26.8326266992387,0.0 -49.3094851,-26.8328177992387,0.0 -49.30949,-26.8328647992387,0.0 -49.3094991,-26.8329201992387,0.0 -49.3095142,-26.8329801992387,0.0 -49.3095549,-26.8330742992387,0.0 -49.3096156,-26.8332037992387,0.0 -49.3096848,-26.8333221992387,0.0 -49.3097126,-26.8333639992387,0.0 -49.3097606,-26.8335906992387,0.0 -49.3086363,-26.8370072992386,0.0 -49.3082857,-26.8380726992386,0.0 -49.3081685,-26.8384288992386,0.0 -49.3075834,-26.8402055992385,0.0 -49.3050282,-26.8479648992384,0.0 -49.3051183,-26.8484262992384,0.0 -49.3060412,-26.8531521992383,0.0 -49.3094198,-26.8704526992379,0.0 -49.3101012,-26.8739420992379,0.0 -49.313292,-26.8902812992376,0.0 -49.3150836,-26.8994549992374,0.0 -49.3128905,-26.9038082992373,0.0 -49.3026049,-26.9242259992369,0.0 -49.298245,-26.9328807992367,0.0 -49.2959378,-26.9374606992366,0.0 -49.2936307,-26.9420404992366,0.0 -49.2930611,-26.9431710992365,0.0 -49.2927916,-26.9437059992365,0.0 -49.2925867,-26.9441128992365,0.0 -49.289385,-26.9504684992364,0.0 -49.2895873,-26.9508612992364,0.0 -49.2899557,-26.9513980992364,0.0 -49.290335,-26.9518729992364,0.0 -49.2905986,-26.9521334992364,0.0 -49.2908932,-26.9523144992364,0.0 -49.2911884,-26.9524511992364,0.0 -49.2916531,-26.9525188992364,0.0 -49.2926846,-26.9525615992363,0.0 -49.2935119,-26.9525957992364,0.0 -49.2939219,-26.9526349992364,0.0 -49.2943642,-26.9526704992363,0.0 -49.2946651,-26.9526946992363,0.0 -49.2954849,-26.9528029992363,0.0 -49.2964981,-26.9530186992363,0.0 -49.2967884,-26.9530803992363,0.0 -49.2971445,-26.9531570992363,0.0 -49.2984092,-26.9534818992363,0.0 -49.2992776,-26.9537392992363,0.0 -49.3009119,-26.9543098992363,0.0 -49.3015387,-26.9545229992363,0.0 -49.3016965,-26.9545765992363,0.0 -49.3017565,-26.9545957992363,0.0 -49.3027749,-26.9549322992363,0.0 -49.3035103,-26.9552442992363,0.0 -49.303918,-26.9553619992363,0.0 -49.3043644,-26.9554523992363,0.0 -49.3048877,-26.9554935992363,0.0 -49.3054781,-26.9555006992363,0.0 -49.3058959,-26.9554633992363,0.0 -49.3063931,-26.9553847992363,0.0 -49.3070525,-26.9551980992363,0.0 -49.3079351,-26.9549465992363,0.0 -49.308548,-26.9547608992363,0.0 -49.3090063,-26.9546465992363,0.0 -49.3093377,-26.9546011992363,0.0 -49.309676,-26.9546122992363,0.0 -49.3101945,-26.9546889992363,0.0 -49.3109828,-26.9547267992363,0.0 -49.311383,-26.9547102992363,0.0 -49.3121288,-26.9546619992363,0.0 -49.3125,-26.9546223992363,0.0 -49.312842,-26.9545276992363,0.0 -49.3139906,-26.9543313992363,0.0 -49.314543,-26.9541929992363,0.0 -49.3151177,-26.9539859992363,0.0 -49.3154405,-26.9537779992363,0.0 -49.3156701,-26.9536070992363,0.0 -49.3159604,-26.9533809992363,0.0 -49.3162865,-26.9531004992363,0.0 -49.3164894,-26.9529134992363,0.0 -49.3168574,-26.9526099992363,0.0 -49.31705,-26.9524729992363,0.0 -49.3172494,-26.9523163992364,0.0 -49.3174688,-26.9521463992364,0.0 -49.317723,-26.9519865992364,0.0 -49.318072,-26.9516683992364,0.0 -49.3185099,-26.9514225992364,0.0 -49.3189091,-26.9511951992364,0.0 -49.319258,-26.9510486992364,0.0 -49.3194253,-26.9509369992364,0.0 -49.319911,-26.9507764992364,0.0 -49.3203541,-26.9506562992364,0.0 -49.320807,-26.9505894992364,0.0 -49.3209089,-26.9505687992364,0.0 -49.3210388,-26.9505483992364,0.0 -49.3212034,-26.9505502992364,0.0 -49.3213574,-26.9505521992364,0.0 -49.3217426,-26.9505629992364,0.0 -49.3217951,-26.9505636992364,0.0 -49.3219066,-26.9506057992364,0.0 -49.3222254,-26.9507201992364,0.0 -49.3227756,-26.9509369992364,0.0 -49.3230889,-26.9510692992364,0.0 -49.3232109,-26.9511083992364,0.0 -49.3233681,-26.9511384992364,0.0 -49.3235216,-26.9511779992364,0.0 -49.3236542,-26.9512109992364,0.0 -49.3238146,-26.9512598992364,0.0 -49.3239401,-26.9513021992364,0.0 -49.3240151,-26.9513203992364,0.0 -49.3240901,-26.9513384992364,0.0 -49.3241808,-26.9513677992364,0.0 -49.324654,-26.9517543992364,0.0 -49.324754,-26.9518107992364,0.0 -49.3248648,-26.9518974992364,0.0 -49.3249307,-26.9519834992364,0.0 -49.325019,-26.9520748992364,0.0 -49.3251127,-26.9521813992364,0.0 -49.3251786,-26.9522674992364,0.0 -49.3252158,-26.9524033992364,0.0 -49.3252136,-26.9525538992364,0.0 -49.325189,-26.9527041992364,0.0 -49.3251806,-26.9528897992363,0.0 -49.3251666,-26.9530802992363,0.0 -49.3251536,-26.9532005992363,0.0 -49.3251346,-26.9533508992363,0.0 -49.3251146,-26.9535881992363,0.0 -49.3250536,-26.9539235992363,0.0 -49.3250581,-26.9539989992363,0.0 -49.3250571,-26.9540641992363,0.0 -49.3250332,-26.9541692992363,0.0 -49.3249758,-26.9542638992363,0.0 -49.3248958,-26.9543683992363,0.0 -49.3248211,-26.9544928992363,0.0 -49.3247296,-26.9546172992363,0.0 -49.3245703,-26.9547859992363,0.0 -49.3244285,-26.9549047992363,0.0 -49.324202,-26.9550625992363,0.0 -49.3240323,-26.9551759992363,0.0 -49.3239134,-26.9552598992363,0.0 -49.3237947,-26.9553287992363,0.0 -49.3236066,-26.9554594992363,0.0 -49.3235445,-26.9554888992363,0.0 -49.3234822,-26.9555382992363,0.0 -49.3233634,-26.9556171992363,0.0 -49.3232276,-26.9557058992363,0.0 -49.3231086,-26.9557947992363,0.0 -49.3229951,-26.9558937992363,0.0 -49.3228765,-26.9559575992363,0.0 -49.3227352,-26.9560462992363,0.0 -49.3225317,-26.9561692992363,0.0 -49.3221859,-26.9563627992363,0.0 -49.3219271,-26.9565133992363,0.0 -49.3218312,-26.9565573992363,0.0 -49.321538,-26.9566893992363,0.0 -49.3214194,-26.9567481992363,0.0 -49.3212785,-26.9568066992363,0.0 -49.3211657,-26.9568555992363,0.0 -49.3209628,-26.9569384992363,0.0 -49.3208952,-26.9569627992363,0.0 -49.3208108,-26.9569918992363,0.0 -49.3200539,-26.9572503992363,0.0 -49.3199301,-26.9572840992363,0.0 -49.3198681,-26.9573133992363,0.0 -49.3197554,-26.9573571992363,0.0 -49.3196142,-26.9574307992363,0.0 -49.3193376,-26.9575730992363,0.0 -49.3192192,-26.9576267992362,0.0 -49.3190105,-26.9577196992363,0.0 -49.3188525,-26.9577980992363,0.0 -49.3187649,-26.9578446992363,0.0 -49.3186774,-26.9578913992362,0.0 -49.3185478,-26.9579449992363,0.0 -49.3183898,-26.9580183992363,0.0 -49.3182827,-26.9580622992362,0.0 -49.3181696,-26.9581311992362,0.0 -49.3179881,-26.9583343992362,0.0 -49.3172368,-26.9586572992362,0.0 -49.3164192,-26.9589807992362,0.0 -49.3160189,-26.9591732992362,0.0 -49.3158227,-26.9592550992362,0.0 -49.3155802,-26.9594260992362,0.0 -49.3154441,-26.9596163992362,0.0 -49.3153916,-26.9597660992362,0.0 -49.3153324,-26.9601050992362,0.0 -49.3153505,-26.9604958992362,0.0 -49.3154097,-26.9610221992362,0.0 -49.315587,-26.9614483992362,0.0 -49.3156488,-26.9615415992362,0.0 -49.3157548,-26.9617433992362,0.0 -49.3159144,-26.9620002992362,0.0 -49.3160197,-26.9621139992362,0.0 -49.316768,-26.9627018992362,0.0 -49.31797,-26.9633211992361,0.0 -49.319582,-26.9639367992361,0.0 -49.3199467,-26.9640766992361,0.0 -49.3202247,-26.9641790992361,0.0 -49.3204833,-26.9642243992361,0.0 -49.3206081,-26.9642462992361,0.0 -49.3208166,-26.9643191992361,0.0 -49.3210252,-26.9643919992361,0.0 -49.3214261,-26.9644541992361,0.0 -49.3220864,-26.9645559992361,0.0 -49.3222669,-26.9645581992361,0.0 -49.3226453,-26.9645678992361,0.0 -49.3230529,-26.9645726992361,0.0 -49.3244709,-26.9645739992361,0.0 -49.3264554,-26.9646672992361,0.0 -49.3268288,-26.9646856992361,0.0 -49.3275138,-26.9646937992361,0.0 -49.3281777,-26.9647202992361,0.0 -49.3287002,-26.9648039992361,0.0 -49.3291853,-26.9648301992361,0.0 -49.3294655,-26.9648381992361,0.0 -49.3301284,-26.9649343992361,0.0 -49.3314021,-26.9652848992361,0.0 -49.3317498,-26.9653619992361,0.0 -49.3325971,-26.9655499992361,0.0 -49.3334737,-26.9657511992361,0.0 -49.33383,-26.9658762992361,0.0 -49.3341716,-26.9659406992361,0.0 -49.3344933,-26.9659491992361,0.0 -49.3350847,-26.9659700992361,0.0 -49.3356713,-26.9659630992361,0.0 -49.3361266,-26.9659715992361,0.0 -49.3362721,-26.9660081992361,0.0 -49.3367383,-26.9661096992361,0.0 -49.3371794,-26.9662639992361,0.0 -49.3372534,-26.9663113992361,0.0 -49.3375701,-26.9664168992361,0.0 -49.3378453,-26.9664753992361,0.0 -49.3380431,-26.9664922992361,0.0 -49.3382251,-26.9664856992361,0.0 -49.3386435,-26.9663940992361,0.0 -49.3388098,-26.9663494992361,0.0 -49.3389759,-26.9663136992361,0.0 -49.3390704,-26.9662914992361,0.0 -49.3395263,-26.9661615992361,0.0 -49.3396986,-26.9660927992361,0.0 -49.3402411,-26.9659456992361,0.0 -49.3404069,-26.9658768992361,0.0 -49.3408044,-26.9657280992361,0.0 -49.3408893,-26.9656873992361,0.0 -49.3411163,-26.9655782992361,0.0 -49.3412293,-26.9655147992361,0.0 -49.3413556,-26.9654394992361,0.0 -49.341926,-26.9651865992361,0.0 -49.3421653,-26.9650477992361,0.0 -49.3429602,-26.9645982992361,0.0 -49.3432323,-26.9644100992361,0.0 -49.3436982,-26.9641232992361,0.0 -49.3444907,-26.9637046992361,0.0 -49.3448983,-26.9634336992361,0.0 -49.3452844,-26.9631813992361,0.0 -49.347179,-26.9619428992362,0.0 -49.3476293,-26.9615970992362,0.0 -49.3478375,-26.9614506992362,0.0 -49.3492853,-26.9607687992362,0.0 -49.349527,-26.9605990992362,0.0 -49.349722,-26.9604465992362,0.0 -49.3501044,-26.9601950992362,0.0 -49.3512353,-26.9593100992362,0.0 -49.351675,-26.9589494992362,0.0 -49.3520416,-26.9587346992362,0.0 -49.3524088,-26.9584628992362,0.0 -49.3524616,-26.9584339992362,0.0 -49.3526433,-26.9583343992362,0.0 -49.3527126,-26.9581849992362,0.0 -49.3528396,-26.9580190992362,0.0 -49.3529903,-26.9578662992363,0.0 -49.3530448,-26.9577424992363,0.0 -49.3531754,-26.9576581992362,0.0 -49.3533399,-26.9575484992363,0.0 -49.3534469,-26.9574424992363,0.0 -49.3536558,-26.9572474992363,0.0 -49.3538069,-26.9570689992363,0.0 -49.3539399,-26.9568215992363,0.0 -49.3540521,-26.9566812992363,0.0 -49.3542329,-26.9564387992363,0.0 -49.3544239,-26.9562497992363,0.0 -49.3545988,-26.9560886992363,0.0 -49.3547353,-26.9559271992363,0.0 -49.3548716,-26.9557785992363,0.0 -49.3551051,-26.9555366992363,0.0 -49.3551284,-26.9555123992363,0.0 -49.3553545,-26.9552762992363,0.0 -49.3554044,-26.9551437992363,0.0 -49.3554681,-26.9550458992363,0.0 -49.3555269,-26.9549520992363,0.0 -49.3555661,-26.9548967992363,0.0 -49.3556878,-26.9547651992363,0.0 -49.3558139,-26.9546592992363,0.0 -49.3560222,-26.9545029992363,0.0 -49.3560717,-26.9543961992363,0.0 -49.356145,-26.9542983992363,0.0 -49.356277,-26.9541110992363,0.0 -49.3563939,-26.9539793992363,0.0 -49.3564863,-26.9538860992363,0.0 -49.356564,-26.9538182992363,0.0 -49.3567238,-26.9536999992363,0.0 -49.3568155,-26.9536537992363,0.0 -49.3570729,-26.9535094992363,0.0 -49.3571793,-26.9534377992363,0.0 -49.3572616,-26.9533786992363,0.0 -49.3573342,-26.9533279992363,0.0 -49.3574022,-26.9532686992363,0.0 -49.3575089,-26.9531797992363,0.0 -49.3575572,-26.9531502992363,0.0 -49.35764,-26.9530611992363,0.0 -49.3577134,-26.9529503992363,0.0 -49.3578071,-26.9528167992363,0.0 -49.3578357,-26.9527758992364,0.0 -49.3578991,-26.9527036992364,0.0 -49.3579308,-26.9526675992364,0.0 -49.3579624,-26.9526314992364,0.0 -49.3580404,-26.9525378992364,0.0 -49.3580991,-26.9524570992364,0.0 -49.3581578,-26.9523761992364,0.0 -49.3582747,-26.9522444992364,0.0 -49.3583624,-26.9521425992364,0.0 -49.3584159,-26.9520873992364,0.0 -49.3589036,-26.9515934992364,0.0 -49.3589715,-26.9515341992364,0.0 -49.3590928,-26.9514325992364,0.0 -49.3592432,-26.9513012992364,0.0 -49.3593569,-26.9512211992364,0.0 -49.3593691,-26.9512125992364,0.0 -49.3594902,-26.9511195992364,0.0 -49.3595727,-26.9510518992364,0.0</coordinates>
</LinearRing>
</outerBoundaryIs>
</Polygon>
</MultiGeometry>
</Placemark>
</Folder>
</Document></kml>
