<?xml version='1.0' encoding='UTF-8'?>
<kml xmlns:xsd="http://www.w3.org/2001/XMLSchema" xmlns:gx="http://www.google.com/kml/ext/2.2" xmlns:atom="http://www.w3.org/2005/Atom" xmlns="http://www.opengis.net/kml/2.2">
<Document>
<name>salete_4215307_localidades_2022</name>
<visibility>1</visibility>
<Schema name="Localidades" id="kml_schema_ft_Localidades">
<SimpleField type="xsd:string" name="CD_UF">
<displayName>CD_UF</displayName>
</SimpleField>
<SimpleField type="xsd:string" name="NM_UF">
<displayName>NM_UF</displayName>
</SimpleField>
<SimpleField type="xsd:string" name="SIGLA_UF">
<displayName>SIGLA_UF</displayName>
</SimpleField>
<SimpleField type="xsd:string" name="CD_MUN">
<displayName>CD_MUN</displayName>
</SimpleField>
<SimpleField type="xsd:string" name="NM_MUN">
<displayName>NM_MUN</displayName>
</SimpleField>
<SimpleField type="xsd:string" name="CD_RGINT">
<displayName>CD_RGINT</displayName>
</SimpleField>
<SimpleField type="xsd:string" name="NM_RGINT">
<displayName>NM_RGINT</displayName>
</SimpleField>
<SimpleField type="xsd:string" name="CD_RGI">
<displayName>CD_RGI</displayName>
</SimpleField>
<SimpleField type="xsd:string" name="NM_RGI">
<displayName>NM_RGI</displayName>
</SimpleField>
<SimpleField type="xsd:string" name="CT_LOCALIDADE">
<displayName>CT_LOCALIDADE</displayName>
</SimpleField>
<SimpleField type="xsd:string" name="SCT_LOCALIDADE">
<displayName>SCT_LOCALIDADE</displayName>
</SimpleField>
<SimpleField type="xsd:string" name="CD_LOCALIDADE">
<displayName>CD_LOCALIDADE</displayName>
</SimpleField>
<SimpleField type="xsd:string" name="NM_LOCALIDADE">
<displayName>NM_LOCALIDADE</displayName>
</SimpleField>
</Schema>
<Schema name="01. Cidade" id="kml_schema_ft_01._Cidade">
<SimpleField type="xsd:string" name="CD_UF">
<displayName>CD_UF</displayName>
</SimpleField>
<SimpleField type="xsd:string" name="NM_UF">
<displayName>NM_UF</displayName>
</SimpleField>
<SimpleField type="xsd:string" name="SIGLA_UF">
<displayName>SIGLA_UF</displayName>
</SimpleField>
<SimpleField type="xsd:string" name="CD_MUN">
<displayName>CD_MUN</displayName>
</SimpleField>
<SimpleField type="xsd:string" name="NM_MUN">
<displayName>NM_MUN</displayName>
</SimpleField>
<SimpleField type="xsd:string" name="CD_RGINT">
<displayName>CD_RGINT</displayName>
</SimpleField>
<SimpleField type="xsd:string" name="NM_RGINT">
<displayName>NM_RGINT</displayName>
</SimpleField>
<SimpleField type="xsd:string" name="CD_RGI">
<displayName>CD_RGI</displayName>
</SimpleField>
<SimpleField type="xsd:string" name="NM_RGI">
<displayName>NM_RGI</displayName>
</SimpleField>
<SimpleField type="xsd:string" name="CT_LOCALIDADE">
<displayName>CT_LOCALIDADE</displayName>
</SimpleField>
<SimpleField type="xsd:string" name="SCT_LOCALIDADE">
<displayName>SCT_LOCALIDADE</displayName>
</SimpleField>
<SimpleField type="xsd:string" name="CD_LOCALIDADE">
<displayName>CD_LOCALIDADE</displayName>
</SimpleField>
<SimpleField type="xsd:string" name="NM_LOCALIDADE">
<displayName>NM_LOCALIDADE</displayName>
</SimpleField>
<SimpleField type="xsd:string" name="LAT_LOCALIDADE">
<displayName>LAT_LOCALIDADE</displayName>
</SimpleField>
<SimpleField type="xsd:string" name="LONG_LOCALIDADE">
<displayName>LONG_LOCALIDADE</displayName>
</SimpleField>
</Schema>
<Schema name="Município" id="kml_schema_ft_Município">
<SimpleField type="xsd:string" name="CD_UF">
<displayName>CD_UF</displayName>
</SimpleField>
<SimpleField type="xsd:string" name="NM_UF">
<displayName>NM_UF</displayName>
</SimpleField>
<SimpleField type="xsd:string" name="CD_MUN">
<displayName>CD_MUN</displayName>
</SimpleField>
<SimpleField type="xsd:string" name="NM_MUN">
<displayName>NM_MUN</displayName>
</SimpleField>
<SimpleField type="xsd:string" name="CD_RGINT">
<displayName>CD_RGINT</displayName>
</SimpleField>
<SimpleField type="xsd:string" name="NM_RGINT">
<displayName>NM_RGINT</displayName>
</SimpleField>
<SimpleField type="xsd:string" name="CD_RGI">
<displayName>CD_RGI</displayName>
</SimpleField>
<SimpleField type="xsd:string" name="NM_RGI">
<displayName>NM_RGI</displayName>
</SimpleField>
</Schema>
<Folder id="01. Cidade">
<name>01. Cidade</name>
<Folder id="01.03. Sede Municipal">
<name>01.03. Sede Municipal</name>
<Placemark id="01.03. Sede Municipal">
<name>Salete [4215307]</name>
<visibility>1</visibility>
<snippet> </snippet>
<description>&lt;center&gt;&lt;table&gt;&lt;tr&gt;&lt;th colspan='2' align='center'&gt;&lt;em&gt;Atributos&lt;/em&gt;&lt;/th&gt;&lt;/tr&gt;&lt;tr bgcolor="#E3E3F3"&gt;
&lt;th&gt;CD_UF&lt;/th&gt;
&lt;td&gt;42&lt;/td&gt;
&lt;/tr&gt;&lt;tr bgcolor=""&gt;
&lt;th&gt;NM_UF&lt;/th&gt;
&lt;td&gt;Santa Catarina&lt;/td&gt;
&lt;/tr&gt;&lt;tr bgcolor="#E3E3F3"&gt;
&lt;th&gt;SIGLA_UF&lt;/th&gt;
&lt;td&gt;SC&lt;/td&gt;
&lt;/tr&gt;&lt;tr bgcolor=""&gt;
&lt;th&gt;CD_MUN&lt;/th&gt;
&lt;td&gt;4215307&lt;/td&gt;
&lt;/tr&gt;&lt;tr bgcolor="#E3E3F3"&gt;
&lt;th&gt;NM_MUN&lt;/th&gt;
&lt;td&gt;Salete&lt;/td&gt;
&lt;/tr&gt;&lt;tr bgcolor=""&gt;
&lt;th&gt;CD_RGINT&lt;/th&gt;
&lt;td&gt;4207&lt;/td&gt;
&lt;/tr&gt;&lt;tr bgcolor="#E3E3F3"&gt;
&lt;th&gt;NM_RGINT&lt;/th&gt;
&lt;td&gt;Blumenau&lt;/td&gt;
&lt;/tr&gt;&lt;tr bgcolor=""&gt;
&lt;th&gt;CD_RGI&lt;/th&gt;
&lt;td&gt;420022&lt;/td&gt;
&lt;/tr&gt;&lt;tr bgcolor="#E3E3F3"&gt;
&lt;th&gt;NM_RGI&lt;/th&gt;
&lt;td&gt;Rio do Sul&lt;/td&gt;
&lt;/tr&gt;&lt;tr bgcolor=""&gt;
&lt;th&gt;CT_LOCALIDADE&lt;/th&gt;
&lt;td&gt;Cidade&lt;/td&gt;
&lt;/tr&gt;&lt;tr bgcolor="#E3E3F3"&gt;
&lt;th&gt;SCT_LOCALIDADE&lt;/th&gt;
&lt;td&gt;Sede Municipal&lt;/td&gt;
&lt;/tr&gt;&lt;tr bgcolor=""&gt;
&lt;th&gt;CD_LOCALIDADE&lt;/th&gt;
&lt;td&gt;4215307&lt;/td&gt;
&lt;/tr&gt;&lt;tr bgcolor="#E3E3F3"&gt;
&lt;th&gt;NM_LOCALIDADE&lt;/th&gt;
&lt;td&gt;Salete&lt;/td&gt;
&lt;/tr&gt;&lt;tr bgcolor=""&gt;
&lt;th&gt;LAT_LOCALIDADE&lt;/th&gt;
&lt;td&gt;-26.9758&lt;/td&gt;
&lt;/tr&gt;&lt;tr bgcolor="#E3E3F3"&gt;
&lt;th&gt;LONG_LOCALIDADE&lt;/th&gt;
&lt;td&gt;-50.0023&lt;/td&gt;
&lt;/tr&gt;&lt;/table&gt;&lt;/center&gt;</description>
<Style>
<IconStyle>
<color>ff00aaff</color>
<scale>1.0</scale>
<Icon>
<href>http://maps.google.com/mapfiles/kml/shapes/placemark_circle.png</href>
</Icon>
</IconStyle>
<LabelStyle>
<scale>1.0</scale>
</LabelStyle>
<LineStyle>
<color>ffffffff</color>
<width>3</width>
<gx:labelVisibility>1</gx:labelVisibility>
</LineStyle>
<PolyStyle>
<color>00ffffff</color>
</PolyStyle>
</Style>
<ExtendedData>
<SchemaData schemaUrl="#kml_schema_ft_01._Cidade">
<SimpleData name="CD_UF">42</SimpleData>
<SimpleData name="NM_UF">Santa Catarina</SimpleData>
<SimpleData name="SIGLA_UF">SC</SimpleData>
<SimpleData name="CD_MUN">4215307</SimpleData>
<SimpleData name="NM_MUN">Salete</SimpleData>
<SimpleData name="CD_RGINT">4207</SimpleData>
<SimpleData name="NM_RGINT">Blumenau</SimpleData>
<SimpleData name="CD_RGI">420022</SimpleData>
<SimpleData name="NM_RGI">Rio do Sul</SimpleData>
<SimpleData name="CT_LOCALIDADE">Cidade</SimpleData>
<SimpleData name="SCT_LOCALIDADE">Sede Municipal</SimpleData>
<SimpleData name="CD_LOCALIDADE">4215307</SimpleData>
<SimpleData name="NM_LOCALIDADE">Salete</SimpleData>
<SimpleData name="LAT_LOCALIDADE">-26.9758</SimpleData>
<SimpleData name="LONG_LOCALIDADE">-50.0023</SimpleData>
</SchemaData>
</ExtendedData>
<Point>
<extrude>0</extrude>
<coordinates>-50.0023,-26.9757999992359,0.0</coordinates>
</Point>
</Placemark>
</Folder>
</Folder>
<Folder id="12. Outras Localidades">
<name>12. Outras Localidades</name>
<Placemark id="12. Outras Localidades">
<name>Barra Grande [421530700001]</name>
<visibility>1</visibility>
<snippet> </snippet>
<description>&lt;center&gt;&lt;table&gt;&lt;tr&gt;&lt;th colspan='2' align='center'&gt;&lt;em&gt;Attributes&lt;/em&gt;&lt;/th&gt;&lt;/tr&gt;&lt;tr bgcolor="#E3E3F3"&gt;
&lt;th&gt;CD_UF&lt;/th&gt;
&lt;td&gt;42&lt;/td&gt;
&lt;/tr&gt;&lt;tr bgcolor=""&gt;
&lt;th&gt;NM_UF&lt;/th&gt;
&lt;td&gt;Santa Catarina&lt;/td&gt;
&lt;/tr&gt;&lt;tr bgcolor="#E3E3F3"&gt;
&lt;th&gt;SIGLA_UF&lt;/th&gt;
&lt;td&gt;SC&lt;/td&gt;
&lt;/tr&gt;&lt;tr bgcolor=""&gt;
&lt;th&gt;CD_MUN&lt;/th&gt;
&lt;td&gt;4215307&lt;/td&gt;
&lt;/tr&gt;&lt;tr bgcolor="#E3E3F3"&gt;
&lt;th&gt;NM_MUN&lt;/th&gt;
&lt;td&gt;Salete&lt;/td&gt;
&lt;/tr&gt;&lt;tr bgcolor=""&gt;
&lt;th&gt;CD_RGINT&lt;/th&gt;
&lt;td&gt;4207&lt;/td&gt;
&lt;/tr&gt;&lt;tr bgcolor="#E3E3F3"&gt;
&lt;th&gt;NM_RGINT&lt;/th&gt;
&lt;td&gt;Blumenau&lt;/td&gt;
&lt;/tr&gt;&lt;tr bgcolor=""&gt;
&lt;th&gt;CD_RGI&lt;/th&gt;
&lt;td&gt;420022&lt;/td&gt;
&lt;/tr&gt;&lt;tr bgcolor="#E3E3F3"&gt;
&lt;th&gt;NM_RGI&lt;/th&gt;
&lt;td&gt;Rio do Sul&lt;/td&gt;
&lt;/tr&gt;&lt;tr bgcolor=""&gt;
&lt;th&gt;CT_LOCALIDADE&lt;/th&gt;
&lt;td&gt;Outras Localidades&lt;/td&gt;
&lt;/tr&gt;&lt;tr bgcolor="#E3E3F3"&gt;
&lt;th&gt;SCT_LOCALIDADE&lt;/th&gt;
&lt;td&gt;&lt;/td&gt;
&lt;/tr&gt;&lt;tr bgcolor=""&gt;
&lt;th&gt;CD_LOCALIDADE&lt;/th&gt;
&lt;td&gt;421530700001&lt;/td&gt;
&lt;/tr&gt;&lt;tr bgcolor="#E3E3F3"&gt;
&lt;th&gt;NM_LOCALIDADE&lt;/th&gt;
&lt;td&gt;Barra Grande&lt;/td&gt;
&lt;/tr&gt;&lt;/table&gt;&lt;/center&gt;</description>
<Style>
<IconStyle>
<color>ff0069d3</color>
<scale>0.6</scale>
<Icon>
<href>http://maps.google.com/mapfiles/kml/shapes/placemark_circle.png</href>
</Icon>
</IconStyle>
<LabelStyle>
<scale>0.6</scale>
</LabelStyle>
<LineStyle>
<width>1.0</width>
<gx:labelVisibility>1</gx:labelVisibility>
</LineStyle>
</Style>
<ExtendedData>
<SchemaData schemaUrl="#kml_schema_ft_Localidades">
<SimpleData name="CD_UF">42</SimpleData>
<SimpleData name="NM_UF">Santa Catarina</SimpleData>
<SimpleData name="SIGLA_UF">SC</SimpleData>
<SimpleData name="CD_MUN">4215307</SimpleData>
<SimpleData name="NM_MUN">Salete</SimpleData>
<SimpleData name="CD_RGINT">4207</SimpleData>
<SimpleData name="NM_RGINT">Blumenau</SimpleData>
<SimpleData name="CD_RGI">420022</SimpleData>
<SimpleData name="NM_RGI">Rio do Sul</SimpleData>
<SimpleData name="CT_LOCALIDADE">Outras Localidades</SimpleData>
<SimpleData name="CD_LOCALIDADE">421530700001</SimpleData>
<SimpleData name="NM_LOCALIDADE">Barra Grande</SimpleData>
</SchemaData>
</ExtendedData>
<Point>
<extrude>0</extrude>
<coordinates>-50.0002425,-26.9525373992364,0.0</coordinates>
</Point>
</Placemark>
</Folder>
<Folder id="13. Referência">
<name>13. Referência</name>
<Placemark id="13. Referência">
<name>Salete [4215307]</name>
<visibility>1</visibility>
<snippet> </snippet>
<description>&lt;center&gt;&lt;table&gt;&lt;tr&gt;&lt;th colspan='2' align='center'&gt;&lt;em&gt;Attributes&lt;/em&gt;&lt;/th&gt;&lt;/tr&gt;&lt;tr bgcolor="#E3E3F3"&gt;
&lt;th&gt;CD_UF&lt;/th&gt;
&lt;td&gt;42&lt;/td&gt;
&lt;/tr&gt;&lt;tr bgcolor=""&gt;
&lt;th&gt;NM_UF&lt;/th&gt;
&lt;td&gt;Santa Catarina&lt;/td&gt;
&lt;/tr&gt;&lt;tr bgcolor="#E3E3F3"&gt;
&lt;th&gt;CD_MUN&lt;/th&gt;
&lt;td&gt;4215307&lt;/td&gt;
&lt;/tr&gt;&lt;tr bgcolor=""&gt;
&lt;th&gt;NM_MUN&lt;/th&gt;
&lt;td&gt;Salete&lt;/td&gt;
&lt;/tr&gt;&lt;tr bgcolor="#E3E3F3"&gt;
&lt;th&gt;CD_RGINT&lt;/th&gt;
&lt;td&gt;4207&lt;/td&gt;
&lt;/tr&gt;&lt;tr bgcolor=""&gt;
&lt;th&gt;NM_RGINT&lt;/th&gt;
&lt;td&gt;Blumenau&lt;/td&gt;
&lt;/tr&gt;&lt;tr bgcolor="#E3E3F3"&gt;
&lt;th&gt;CD_RGI&lt;/th&gt;
&lt;td&gt;420022&lt;/td&gt;
&lt;/tr&gt;&lt;tr bgcolor=""&gt;
&lt;th&gt;NM_RGI&lt;/th&gt;
&lt;td&gt;Rio do Sul&lt;/td&gt;
&lt;/tr&gt;&lt;/table&gt;&lt;/center&gt;</description>
<Style>
<IconStyle>
<scale>0.7</scale>
</IconStyle>
<LabelStyle>
<scale>0.7</scale>
</LabelStyle>
<LineStyle>
<color>ffffffff</color>
<width>3</width>
<gx:labelVisibility>1</gx:labelVisibility>
</LineStyle>
<PolyStyle>
<color>00ffffff</color>
</PolyStyle>
</Style>
<ExtendedData>
<SchemaData schemaUrl="#kml_schema_ft_Município">
<SimpleData name="CD_UF">42</SimpleData>
<SimpleData name="NM_UF">Santa Catarina</SimpleData>
<SimpleData name="CD_MUN">4215307</SimpleData>
<SimpleData name="NM_MUN">Salete</SimpleData>
<SimpleData name="CD_RGINT">4207</SimpleData>
<SimpleData name="NM_RGINT">Blumenau</SimpleData>
<SimpleData name="CD_RGI">420022</SimpleData>
<SimpleData name="NM_RGI">Rio do Sul</SimpleData>
</SchemaData>
</ExtendedData>
<MultiGeometry>
<Polygon>
<extrude>0</extrude>
<tessellate>1</tessellate>
<outerBoundaryIs>
<LinearRing>
<coordinates>-49.9636371,-26.8787277992378,0.0 -49.9637521,-26.8788604992378,0.0 -49.963931,-26.8791637992378,0.0 -49.9639777,-26.8792881992378,0.0 -49.964001,-26.8796070992378,0.0 -49.9639699,-26.8801281992378,0.0 -49.9639777,-26.8806103992377,0.0 -49.9640419,-26.8813571992377,0.0 -49.964071,-26.8816953992377,0.0 -49.964071,-26.8820298992377,0.0 -49.9640866,-26.8824264992377,0.0 -49.9640622,-26.8829161992377,0.0 -49.9640321,-26.8833364992377,0.0 -49.964001,-26.8835620992377,0.0 -49.963931,-26.8838653992377,0.0 -49.9637832,-26.8841764992377,0.0 -49.9636355,-26.8843397992377,0.0 -49.9635086,-26.8844992992377,0.0 -49.9633589,-26.8846353992377,0.0 -49.9631158,-26.8847869992377,0.0 -49.9628611,-26.8849425992377,0.0 -49.9625811,-26.8850436992377,0.0 -49.9624061,-26.8850922992377,0.0 -49.9622894,-26.8851214992377,0.0 -49.9621767,-26.8851136992377,0.0 -49.9620853,-26.8850572992377,0.0 -49.9620367,-26.8849892992377,0.0 -49.9619929,-26.8849153992377,0.0 -49.9619346,-26.8848647992377,0.0 -49.9618024,-26.8848219992377,0.0 -49.961604,-26.8848608992377,0.0 -49.9614174,-26.8849853992377,0.0 -49.9612482,-26.8851097992377,0.0 -49.9609138,-26.8853508992377,0.0 -49.960556,-26.8855919992377,0.0 -49.9599882,-26.8859186992376,0.0 -49.9594205,-26.8862997992376,0.0 -49.9592649,-26.8865097992376,0.0 -49.9591482,-26.8867041992376,0.0 -49.9590705,-26.8868908992376,0.0 -49.9590782,-26.8872252992376,0.0 -49.9591405,-26.8875674992376,0.0 -49.9591405,-26.8877774992376,0.0 -49.9591082,-26.8880066992376,0.0 -49.9590627,-26.8883297992376,0.0 -49.9590471,-26.8886330992376,0.0 -49.9589694,-26.8890063992376,0.0 -49.958806,-26.8893485992376,0.0 -49.9587341,-26.8894380992376,0.0 -49.958423,-26.8897491992376,0.0 -49.9581141,-26.8900151992376,0.0 -49.9577308,-26.8901846992376,0.0 -49.9576374,-26.8902468992376,0.0 -49.9574119,-26.8904024992376,0.0 -49.9571397,-26.8906902992375,0.0 -49.9568363,-26.8911024992375,0.0 -49.9567897,-26.8912618992375,0.0 -49.9567275,-26.8915885992375,0.0 -49.9567275,-26.8921329992375,0.0 -49.9567041,-26.8925763992375,0.0 -49.9567197,-26.8930040992375,0.0 -49.956673,-26.8933929992375,0.0 -49.9566419,-26.8935251992375,0.0 -49.956533,-26.8938051992375,0.0 -49.9564863,-26.8940540992375,0.0 -49.9564863,-26.8943729992375,0.0 -49.9566749,-26.8949555992375,0.0 -49.9567099,-26.8949892992375,0.0 -49.9568552,-26.8950622992375,0.0 -49.9569472,-26.8951505992375,0.0 -49.9571459,-26.8954037992375,0.0 -49.9571682,-26.8954321992375,0.0 -49.9572603,-26.8955175992375,0.0 -49.9572835,-26.8955344992375,0.0 -49.9575313,-26.8957158992375,0.0 -49.9576749,-26.8958165992374,0.0 -49.9578474,-26.8959234992374,0.0 -49.9580069,-26.8960388992374,0.0 -49.9581948,-26.8961866992374,0.0 -49.9586086,-26.8965232992374,0.0 -49.9588481,-26.8966833992374,0.0 -49.9590697,-26.8967562992374,0.0 -49.9592723,-26.8968143992374,0.0 -49.9593523,-26.8968561992374,0.0 -49.9593963,-26.8969205992374,0.0 -49.9593953,-26.8969756992374,0.0 -49.9593717,-26.8970245992374,0.0 -49.9593575,-26.8970938992374,0.0 -49.9593689,-26.8971780992374,0.0 -49.9594121,-26.8972830992374,0.0 -49.9594979,-26.8973626992374,0.0 -49.9598184,-26.8975858992374,0.0 -49.959868,-26.8976203992374,0.0 -49.9599731,-26.8977059992374,0.0 -49.9599758,-26.8977100992374,0.0 -49.9602208,-26.8977427992374,0.0 -49.9603148,-26.8977326992374,0.0 -49.9603484,-26.8976635992374,0.0 -49.9603418,-26.8974953992374,0.0 -49.9603419,-26.8974939992374,0.0 -49.9603471,-26.8973882992374,0.0 -49.9603593,-26.8972521992374,0.0 -49.9603687,-26.8970987992374,0.0 -49.9604166,-26.8969545992374,0.0 -49.9604964,-26.8968398992374,0.0 -49.9607442,-26.8967247992374,0.0 -49.9608761,-26.8967204992374,0.0 -49.9609343,-26.8967213992374,0.0 -49.9610019,-26.8967339992374,0.0 -49.9610628,-26.8967638992374,0.0 -49.9611264,-26.8968198992374,0.0 -49.9611801,-26.8968844992374,0.0 -49.9612331,-26.8969866992374,0.0 -49.9612451,-26.8970361992374,0.0 -49.9612217,-26.8970821992374,0.0 -49.9612241,-26.8971256992374,0.0 -49.9612685,-26.8971669992374,0.0 -49.9613006,-26.8971789992374,0.0 -49.9613196,-26.8972024992374,0.0 -49.9613063,-26.8972225992374,0.0 -49.9612772,-26.8972250992374,0.0 -49.9612417,-26.8972215992374,0.0 -49.9611969,-26.8971948992374,0.0 -49.9611483,-26.8971998992374,0.0 -49.9611189,-26.8972197992374,0.0 -49.9610793,-26.8972625992374,0.0 -49.9610658,-26.8972913992374,0.0 -49.9610879,-26.8973177992374,0.0 -49.9611198,-26.8973414992374,0.0 -49.9611869,-26.8973830992374,0.0 -49.9612383,-26.8974012992374,0.0 -49.9613082,-26.8974631992374,0.0 -49.9613567,-26.8974638992374,0.0 -49.9613957,-26.8974557992374,0.0 -49.9614109,-26.8974559992374,0.0 -49.9614453,-26.8974564992374,0.0 -49.9614825,-26.8976544992374,0.0 -49.9614753,-26.8977023992374,0.0 -49.9614581,-26.8977810992374,0.0 -49.9614151,-26.8978932992374,0.0 -49.9613236,-26.8980752992374,0.0 -49.9612946,-26.8981115992374,0.0 -49.9612909,-26.8981396992374,0.0 -49.9612936,-26.8981622992374,0.0 -49.9612997,-26.8981736992374,0.0 -49.9612993,-26.8981933992374,0.0 -49.961277,-26.8982071992374,0.0 -49.9612359,-26.8982206992374,0.0 -49.9612071,-26.8982456992374,0.0 -49.9611845,-26.8982762992374,0.0 -49.9611275,-26.8984644992374,0.0 -49.9611361,-26.8985069992374,0.0 -49.9611542,-26.8985466992374,0.0 -49.9611754,-26.8985949992374,0.0 -49.9611872,-26.8986346992374,0.0 -49.9612035,-26.8987702992374,0.0 -49.9612114,-26.8988522992374,0.0 -49.9612126,-26.8989566992374,0.0 -49.9612071,-26.8990714992374,0.0 -49.961209,-26.8991312992374,0.0 -49.9612233,-26.8991989992374,0.0 -49.9612265,-26.8992532992374,0.0 -49.9612565,-26.8993274992374,0.0 -49.9613464,-26.8995838992374,0.0 -49.9614084,-26.8997239992374,0.0 -49.9615503,-26.8999144992374,0.0 -49.9616032,-26.9000224992374,0.0 -49.9616463,-26.9001419992374,0.0 -49.9616795,-26.9002670992374,0.0 -49.9617828,-26.9005444992374,0.0 -49.9618393,-26.9007768992374,0.0 -49.9618578,-26.9008533992373,0.0 -49.9618067,-26.9011218992373,0.0 -49.9617016,-26.9013810992373,0.0 -49.9616892,-26.9014028992373,0.0 -49.9616047,-26.9015506992373,0.0 -49.9614554,-26.9017541992373,0.0 -49.9612871,-26.9019399992373,0.0 -49.9610228,-26.9022460992373,0.0 -49.9608336,-26.9024655992373,0.0 -49.9607287,-26.9025835992373,0.0 -49.9604586,-26.9028519992373,0.0 -49.9603597,-26.9029547992373,0.0 -49.9603459,-26.9030038992373,0.0 -49.9603698,-26.9031056992373,0.0 -49.9603695,-26.9031241992373,0.0 -49.9603692,-26.9031374992373,0.0 -49.9603426,-26.9031776992373,0.0 -49.9603149,-26.9032017992373,0.0 -49.9603017,-26.9032130992373,0.0 -49.96028,-26.9032319992373,0.0 -49.9602539,-26.9032669992373,0.0 -49.9602404,-26.9032802992373,0.0 -49.9602232,-26.9032986992373,0.0 -49.9602018,-26.9033257992373,0.0 -49.9601762,-26.9033688992373,0.0 -49.9601631,-26.9033953992373,0.0 -49.9601535,-26.9034183992373,0.0 -49.9601498,-26.9034308992373,0.0 -49.9601474,-26.9034390992373,0.0 -49.9601422,-26.9034604992373,0.0 -49.9601398,-26.9034760992373,0.0 -49.9601387,-26.9034841992373,0.0 -49.9601377,-26.9035094992373,0.0 -49.9601347,-26.9036420992373,0.0 -49.9601178,-26.9036891992373,0.0 -49.9600975,-26.9037095992373,0.0 -49.960061,-26.9037345992373,0.0 -49.9600272,-26.9037511992373,0.0 -49.9599827,-26.9037760992373,0.0 -49.9599272,-26.9038202992373,0.0 -49.9598307,-26.9039228992373,0.0 -49.9597766,-26.9039803992373,0.0 -49.9597181,-26.9040558992373,0.0 -49.9596871,-26.9041187992373,0.0 -49.9594421,-26.9043937992373,0.0 -49.9592952,-26.9046407992373,0.0 -49.9591293,-26.9048671992373,0.0 -49.9590551,-26.9050341992373,0.0 -49.958983,-26.9052591992373,0.0 -49.9589475,-26.9053877992373,0.0 -49.958908,-26.9054666992373,0.0 -49.9588785,-26.9054864992373,0.0 -49.9588598,-26.9055276992373,0.0 -49.9588404,-26.9055704992373,0.0 -49.9588229,-26.9056190992373,0.0 -49.9587957,-26.9056783992373,0.0 -49.9587723,-26.9057600992373,0.0 -49.9587714,-26.9058156992373,0.0 -49.9587704,-26.9058786992372,0.0 -49.9587626,-26.9059681992373,0.0 -49.9587471,-26.9060322992373,0.0 -49.9587101,-26.9061256992373,0.0 -49.9586673,-26.9062208992372,0.0 -49.9586148,-26.9063161992372,0.0 -49.9579887,-26.9071794992372,0.0 -49.9578232,-26.9071832992372,0.0 -49.9577321,-26.9072018992372,0.0 -49.9576699,-26.9072232992372,0.0 -49.9575726,-26.9072601992372,0.0 -49.9574735,-26.9072815992372,0.0 -49.9573938,-26.9072815992372,0.0 -49.9572732,-26.9072310992372,0.0 -49.957141,-26.9071318992372,0.0 -49.9570438,-26.9070423992372,0.0 -49.9570029,-26.9069937992372,0.0 -49.9569952,-26.9069237992372,0.0 -49.956999,-26.9068168992372,0.0 -49.9569947,-26.9067303992372,0.0 -49.956983,-26.9066622992372,0.0 -49.9569383,-26.9065630992372,0.0 -49.9568799,-26.9064600992372,0.0 -49.9567944,-26.9063705992372,0.0 -49.9567186,-26.9063044992373,0.0 -49.9566233,-26.9062208992372,0.0 -49.9565397,-26.9061635992372,0.0 -49.9564502,-26.9060896992373,0.0 -49.9563686,-26.9060157992372,0.0 -49.956073,-26.9057649992373,0.0 -49.9556939,-26.9054071992373,0.0 -49.9554877,-26.9051154992373,0.0 -49.9554877,-26.9049210992373,0.0 -49.9554994,-26.9047421992373,0.0 -49.9555733,-26.9045554992373,0.0 -49.9556935,-26.9043730992373,0.0 -49.955935,-26.9041160992373,0.0 -49.9560283,-26.9039371992373,0.0 -49.9561294,-26.9036882992373,0.0 -49.956215,-26.9033460992373,0.0 -49.9562538,-26.9029960992373,0.0 -49.9562383,-26.9025994992373,0.0 -49.9561683,-26.9022844992373,0.0 -49.9560827,-26.9020744992373,0.0 -49.9558961,-26.9017322992373,0.0 -49.9557716,-26.9015766992373,0.0 -49.9556005,-26.9014599992373,0.0 -49.9553672,-26.9014133992373,0.0 -49.9551028,-26.9014210992373,0.0 -49.9550852,-26.9014198992373,0.0 -49.9546594,-26.9013899992373,0.0 -49.9544258,-26.9013955992373,0.0 -49.9543328,-26.9013977992373,0.0 -49.954115,-26.9014444992373,0.0 -49.953975,-26.9014988992373,0.0 -49.9535628,-26.9015999992373,0.0 -49.9532206,-26.9016310992373,0.0 -49.9528783,-26.9016310992373,0.0 -49.9525983,-26.9016777992373,0.0 -49.9523961,-26.9017088992373,0.0 -49.9521861,-26.9018177992373,0.0 -49.9520384,-26.9019888992373,0.0 -49.9519606,-26.9021366992373,0.0 -49.9519372,-26.9023077992373,0.0 -49.9519372,-26.9025177992373,0.0 -49.9518439,-26.9028055992373,0.0 -49.9517428,-26.9029688992373,0.0 -49.951595,-26.9031360992373,0.0 -49.9513306,-26.9033616992373,0.0 -49.9510817,-26.9035949992373,0.0 -49.950895,-26.9036960992373,0.0 -49.9506384,-26.9037971992373,0.0 -49.9502962,-26.9039682992373,0.0 -49.9501639,-26.9041102992373,0.0 -49.9501056,-26.9041841992373,0.0 -49.9500745,-26.9042657992373,0.0 -49.9500589,-26.9043668992373,0.0 -49.9500628,-26.9045302992373,0.0 -49.9501056,-26.9047557992373,0.0 -49.9502106,-26.9050279992373,0.0 -49.9502923,-26.9053002992373,0.0 -49.9503351,-26.9054907992373,0.0 -49.95044,-26.9056501992373,0.0 -49.9504712,-26.9057124992373,0.0 -49.95054,-26.9058934992373,0.0 -49.9505951,-26.9062851992372,0.0 -49.9509445,-26.9072166992372,0.0 -49.9510865,-26.9076250992372,0.0 -49.951259,-26.9078983992372,0.0 -49.9517693,-26.9084073992372,0.0 -49.952245,-26.9087332992372,0.0 -49.9536108,-26.9096629992372,0.0 -49.9548831,-26.9106140992372,0.0 -49.9551531,-26.9108884992372,0.0 -49.9553161,-26.9112357992371,0.0 -49.9554209,-26.9114762992371,0.0 -49.9554286,-26.9117740992371,0.0 -49.955416,-26.9120518992371,0.0 -49.9554385,-26.9123022992371,0.0 -49.955567,-26.9124565992371,0.0 -49.9566749,-26.9135967992371,0.0 -49.9571035,-26.9140853992371,0.0 -49.9573096,-26.9142807992371,0.0 -49.9574393,-26.9144933992371,0.0 -49.9575961,-26.9150937992371,0.0 -49.9577979,-26.9156685992371,0.0 -49.9579408,-26.9160101992371,0.0 -49.958301,-26.916506299237,0.0 -49.9583849,-26.9166518992371,0.0 -49.9584942,-26.917070899237,0.0 -49.9585737,-26.917298299237,0.0 -49.9586494,-26.917869099237,0.0 -49.9586804,-26.918296499237,0.0 -49.9586093,-26.919391699237,0.0 -49.9586402,-26.919798399237,0.0 -49.958552,-26.920246399237,0.0 -49.9583931,-26.920561899237,0.0 -49.9582034,-26.920784499237,0.0 -49.957858,-26.921068499237,0.0 -49.9568489,-26.9222597992369,0.0 -49.9565513,-26.9226832992369,0.0 -49.9560527,-26.9232501992369,0.0 -49.9558844,-26.9233998992369,0.0 -49.9556508,-26.9235816992369,0.0 -49.9554846,-26.9237403992369,0.0 -49.9553103,-26.9239527992369,0.0 -49.9552025,-26.9243037992369,0.0 -49.955115,-26.9246519992369,0.0 -49.9550245,-26.9248878992369,0.0 -49.954897,-26.9250961992369,0.0 -49.9546835,-26.9253104992369,0.0 -49.9529687,-26.9271999992368,0.0 -49.9527205,-26.9274020992368,0.0 -49.95249,-26.9275398992368,0.0 -49.9522469,-26.9275691992368,0.0 -49.9522428,-26.9275689992368,0.0 -49.9520794,-26.9275670992368,0.0 -49.9516467,-26.9274987992368,0.0 -49.9510077,-26.9274439992368,0.0 -49.9514538,-26.9276831992368,0.0 -49.9516601,-26.9278236992368,0.0 -49.9518386,-26.9280127992368,0.0 -49.9519559,-26.9282164992368,0.0 -49.9521114,-26.9285586992368,0.0 -49.9522514,-26.9288464992368,0.0 -49.9523759,-26.9291030992368,0.0 -49.9525304,-26.9293111992368,0.0 -49.9526315,-26.9294277992368,0.0 -49.9527677,-26.9295327992368,0.0 -49.952966,-26.9296105992368,0.0 -49.9532849,-26.9296650992368,0.0 -49.9534832,-26.9296688992368,0.0 -49.9538721,-26.9296883992368,0.0 -49.9540354,-26.9297000992368,0.0 -49.9542026,-26.9297116992368,0.0 -49.9543621,-26.9297194992368,0.0 -49.9545099,-26.9297388992368,0.0 -49.9546693,-26.9297777992368,0.0 -49.9548404,-26.9298166992368,0.0 -49.954996,-26.9298827992368,0.0 -49.9551204,-26.9299566992368,0.0 -49.9556191,-26.9304038992368,0.0 -49.9557475,-26.9306449992368,0.0 -49.9558914,-26.9308394992368,0.0 -49.9560119,-26.9309833992368,0.0 -49.9561402,-26.9311602992368,0.0 -49.9562141,-26.9312574992368,0.0 -49.9562491,-26.9313197992368,0.0 -49.9562647,-26.9313897992368,0.0 -49.9562802,-26.9314674992368,0.0 -49.9562725,-26.9315374992368,0.0 -49.9562608,-26.9316696992367,0.0 -49.956255,-26.9318369992367,0.0 -49.956255,-26.9320546992367,0.0 -49.956255,-26.9323346992367,0.0 -49.9562394,-26.9325913992367,0.0 -49.9562161,-26.9328869992367,0.0 -49.9561694,-26.9331435992367,0.0 -49.9560372,-26.9334002992367,0.0 -49.9559283,-26.9336335992367,0.0 -49.9558816,-26.9339057992367,0.0 -49.9558583,-26.9341352992367,0.0 -49.9558661,-26.9343607992367,0.0 -49.9558661,-26.9345513992367,0.0 -49.9558748,-26.9348177992367,0.0 -49.9558982,-26.9349460992367,0.0 -49.9559234,-26.9350763992367,0.0 -49.9559487,-26.9352396992367,0.0 -49.9559818,-26.9353640992367,0.0 -49.9560168,-26.9354593992367,0.0 -49.9560732,-26.9355721992367,0.0 -49.9561295,-26.9356304992367,0.0 -49.9562093,-26.9356732992367,0.0 -49.9563026,-26.9357063992367,0.0 -49.9564095,-26.9357549992367,0.0 -49.9565126,-26.9358035992367,0.0 -49.9566332,-26.9358774992367,0.0 -49.9567381,-26.9359629992367,0.0 -49.9568354,-26.9360514992367,0.0 -49.9569404,-26.9361680992367,0.0 -49.9570337,-26.9362964992367,0.0 -49.9571484,-26.9364617992367,0.0 -49.9574556,-26.9369701992367,0.0 -49.9575217,-26.9370712992367,0.0 -49.9575762,-26.9371918992366,0.0 -49.9576151,-26.9373590992366,0.0 -49.9576462,-26.9376507992366,0.0 -49.9575995,-26.9379112992366,0.0 -49.9575956,-26.9381173992366,0.0 -49.9576229,-26.9384090992366,0.0 -49.9576423,-26.9385256992366,0.0 -49.9576938,-26.9390720992366,0.0 -49.9577327,-26.9392820992366,0.0 -49.9578105,-26.9395542992366,0.0 -49.9579194,-26.9398887992366,0.0 -49.958036,-26.9402076992366,0.0 -49.9581216,-26.9405653992366,0.0 -49.9581955,-26.9409056992366,0.0 -49.958211,-26.9410378992366,0.0 -49.9582499,-26.9411506992366,0.0 -49.9582966,-26.9412789992366,0.0 -49.9583744,-26.9414112992366,0.0 -49.9584638,-26.9416095992366,0.0 -49.9585027,-26.9416989992366,0.0 -49.9585455,-26.9418039992366,0.0 -49.9585727,-26.9419050992366,0.0 -49.9585999,-26.9420100992366,0.0 -49.9585999,-26.9421034992366,0.0 -49.9585883,-26.9421734992366,0.0 -49.9585727,-26.9422317992365,0.0 -49.958526,-26.9422900992365,0.0 -49.958491,-26.9423523992366,0.0 -49.9584288,-26.9424417992365,0.0 -49.9583998,-26.9424852992366,0.0 -49.9582694,-26.9426809992365,0.0 -49.9582383,-26.9427509992365,0.0 -49.9582072,-26.9428403992365,0.0 -49.9581955,-26.9429336992365,0.0 -49.9581955,-26.9430075992365,0.0 -49.9582108,-26.9430840992365,0.0 -49.958211,-26.9430853992365,0.0 -49.9582577,-26.9431864992365,0.0 -49.958316,-26.9433458992365,0.0 -49.9583355,-26.9434392992365,0.0 -49.9583335,-26.9434858992365,0.0 -49.9583102,-26.9436570992365,0.0 -49.9582402,-26.9439058992365,0.0 -49.9581391,-26.9441392992365,0.0 -49.957968,-26.9444736992365,0.0 -49.957828,-26.9448392992365,0.0 -49.9578047,-26.9450180992365,0.0 -49.9577891,-26.9451736992365,0.0 -49.9578202,-26.9453991992365,0.0 -49.9578435,-26.9456325992365,0.0 -49.9578435,-26.9459125992365,0.0 -49.9578435,-26.9462236992365,0.0 -49.9577969,-26.9464880992365,0.0 -49.9576958,-26.9466747992365,0.0 -49.9575713,-26.9468613992365,0.0 -49.957408,-26.9470091992365,0.0 -49.9570502,-26.9472269992365,0.0 -49.9568402,-26.9475069992364,0.0 -49.9566458,-26.9476858992364,0.0 -49.9564513,-26.9478024992364,0.0 -49.9561247,-26.9479424992364,0.0 -49.9558991,-26.9480902992364,0.0 -49.955798,-26.9482302992364,0.0 -49.9556814,-26.9484558992364,0.0 -49.955658,-26.9486269992364,0.0 -49.9556814,-26.9488097992364,0.0 -49.9557047,-26.9490274992364,0.0 -49.9556891,-26.9492141992364,0.0 -49.955658,-26.9494163992364,0.0 -49.9556269,-26.9495563992364,0.0 -49.9555725,-26.9498013992364,0.0 -49.9555725,-26.9501280992364,0.0 -49.9556503,-26.9503768992364,0.0 -49.9557125,-26.9505324992364,0.0 -49.9558214,-26.9507035992364,0.0 -49.9558914,-26.9508746992364,0.0 -49.9559225,-26.9510457992364,0.0 -49.9559614,-26.9513802992364,0.0 -49.9559614,-26.9517883992364,0.0 -49.9559614,-26.9518546992364,0.0 -49.9561247,-26.9522046992364,0.0 -49.9562102,-26.9524088992363,0.0 -49.9563152,-26.9526382992364,0.0 -49.9564397,-26.9528365992363,0.0 -49.9566808,-26.9530971992363,0.0 -49.9569647,-26.9533849992363,0.0 -49.9572836,-26.9536610992363,0.0 -49.9575597,-26.9538748992363,0.0 -49.9579213,-26.9541937992363,0.0 -49.9584502,-26.9546409992363,0.0 -49.9587963,-26.9549598992363,0.0 -49.959053,-26.9551815992363,0.0 -49.9592474,-26.9554032992363,0.0 -49.9594146,-26.9555859992363,0.0 -49.9595546,-26.9557259992363,0.0 -49.9595697,-26.9557359992363,0.0 -49.9597491,-26.9558543992363,0.0 -49.959928,-26.9559865992363,0.0 -49.9600563,-26.9561051992363,0.0 -49.9601457,-26.9562218992363,0.0 -49.9602157,-26.9563734992363,0.0 -49.9602702,-26.9565095992363,0.0 -49.9603052,-26.9566456992363,0.0 -49.9603168,-26.9567351992363,0.0 -49.9603168,-26.9568323992363,0.0 -49.9602935,-26.9569217992363,0.0 -49.9602585,-26.9570151992363,0.0 -49.9601574,-26.9572562992363,0.0 -49.9600718,-26.9574623992363,0.0 -49.9600135,-26.9576023992363,0.0 -49.959963,-26.9577578992363,0.0 -49.9599241,-26.9578628992362,0.0 -49.959858,-26.9579795992362,0.0 -49.9598152,-26.9580378992362,0.0 -49.9597655,-26.9580776992362,0.0 -49.9597374,-26.9581001992362,0.0 -49.9596169,-26.9582012992362,0.0 -49.9594691,-26.9583334992362,0.0 -49.9593369,-26.9585025992362,0.0 -49.9592824,-26.9585842992362,0.0 -49.9592707,-26.9586367992362,0.0 -49.9592688,-26.9586795992362,0.0 -49.9592921,-26.9590800992362,0.0 -49.9593077,-26.9592667992362,0.0 -49.9593077,-26.9596089992362,0.0 -49.9592999,-26.9598656992362,0.0 -49.9592532,-26.9600522992362,0.0 -49.9592066,-26.9601611992362,0.0 -49.959051,-26.9603517992362,0.0 -49.9588955,-26.9604839992362,0.0 -49.9586855,-26.9607250992362,0.0 -49.9585766,-26.9609039992362,0.0 -49.9584755,-26.9611295992362,0.0 -49.9584055,-26.9613317992362,0.0 -49.9583102,-26.9616593992362,0.0 -49.9582616,-26.9617954992362,0.0 -49.9582013,-26.9619529992362,0.0 -49.9581683,-26.9620754992362,0.0 -49.9581352,-26.9621940992362,0.0 -49.9581022,-26.9622951992362,0.0 -49.9580769,-26.9623865992362,0.0 -49.9580691,-26.9624760992362,0.0 -49.9580633,-26.9625994992362,0.0 -49.958071,-26.9628561992362,0.0 -49.9580477,-26.9631361992361,0.0 -49.9579933,-26.9633461992361,0.0 -49.9578844,-26.9635639992361,0.0 -49.9577599,-26.9638516992361,0.0 -49.9575577,-26.9642172992361,0.0 -49.9574411,-26.9644427992361,0.0 -49.9573166,-26.9647305992361,0.0 -49.9572233,-26.9650183992361,0.0 -49.9571922,-26.9652594992361,0.0 -49.9571611,-26.9655238992361,0.0 -49.9571611,-26.9657105992361,0.0 -49.9571679,-26.9657948992361,0.0 -49.9571922,-26.9660916992361,0.0 -49.9571922,-26.9664571992361,0.0 -49.9572194,-26.9667624992361,0.0 -49.9572194,-26.9669102992361,0.0 -49.9571883,-26.9671319992361,0.0 -49.9571144,-26.9672874992361,0.0 -49.9570522,-26.9674274992361,0.0 -49.9570016,-26.9675188992361,0.0 -49.9569355,-26.9676238992361,0.0 -49.9569173,-26.9676506992361,0.0 -49.9568694,-26.9677210992361,0.0 -49.95678,-26.9678377992361,0.0 -49.9567294,-26.9679388992361,0.0 -49.9566905,-26.968055499236,0.0 -49.9566672,-26.968179999236,0.0 -49.9566594,-26.968296699236,0.0 -49.9566594,-26.968417199236,0.0 -49.9566788,-26.968564999236,0.0 -49.9566983,-26.968666099236,0.0 -49.9567488,-26.968800299236,0.0 -49.9567955,-26.968916899236,0.0 -49.9569005,-26.969103599236,0.0 -49.9569744,-26.969243599236,0.0 -49.9569785,-26.969252799236,0.0 -49.9570638,-26.969441899236,0.0 -49.9571261,-26.969663599236,0.0 -49.9571727,-26.969850199236,0.0 -49.9571844,-26.970011599236,0.0 -49.9571844,-26.970120499236,0.0 -49.9571727,-26.970260499236,0.0 -49.9571416,-26.970334399236,0.0 -49.9571027,-26.970427699236,0.0 -49.9570483,-26.970513299236,0.0 -49.9569783,-26.970583299236,0.0 -49.9568811,-26.970645499236,0.0 -49.9568023,-26.970675599236,0.0 -49.9567488,-26.970696099236,0.0 -49.9566011,-26.970754399236,0.0 -49.9564183,-26.970839899236,0.0 -49.95629,-26.970906099236,0.0 -49.9562112,-26.970944899236,0.0 -49.9561023,-26.971014899236,0.0 -49.9559857,-26.971131599236,0.0 -49.9559001,-26.971217199236,0.0 -49.9558262,-26.971314399236,0.0 -49.9557212,-26.971423299236,0.0 -49.9556357,-26.971516599236,0.0 -49.955589,-26.971578799236,0.0 -49.955554,-26.971660499236,0.0 -49.9555462,-26.971730499236,0.0 -49.9555462,-26.971827699236,0.0 -49.9555579,-26.971928799236,0.0 -49.9555734,-26.972057199236,0.0 -49.9555734,-26.972169899236,0.0 -49.9555734,-26.972274899236,0.0 -49.9555229,-26.972379899236,0.0 -49.9554879,-26.972461599236,0.0 -49.9554364,-26.972556899236,0.0 -49.9553158,-26.972743499236,0.0 -49.9552614,-26.972930199236,0.0 -49.9552147,-26.973128499236,0.0 -49.9551875,-26.973319099236,0.0 -49.9551914,-26.9734706992359,0.0 -49.9551976,-26.9735171992359,0.0 -49.9552108,-26.9736145992359,0.0 -49.9552147,-26.9737681992359,0.0 -49.9552147,-26.9738692992359,0.0 -49.9552069,-26.9739781992359,0.0 -49.955168,-26.9740909992359,0.0 -49.9550903,-26.9742037992359,0.0 -49.9549736,-26.9743126992359,0.0 -49.9548569,-26.9744137992359,0.0 -49.9547626,-26.9745060992359,0.0 -49.9547004,-26.9745799992359,0.0 -49.9546207,-26.9746810992359,0.0 -49.9545643,-26.9747394992359,0.0 -49.9545079,-26.9747899992359,0.0 -49.954436,-26.9748308992359,0.0 -49.9543426,-26.9748638992359,0.0 -49.9542493,-26.9748891992359,0.0 -49.9541501,-26.9749008992359,0.0 -49.9539513,-26.9749105992359,0.0 -49.9538483,-26.9749085992359,0.0 -49.9537433,-26.9749085992359,0.0 -49.9536713,-26.9749124992359,0.0 -49.9534521,-26.9749367992359,0.0 -49.9532577,-26.9749717992359,0.0 -49.9532142,-26.9749823992359,0.0 -49.953001,-26.9750339992359,0.0 -49.9527949,-26.9751039992359,0.0 -49.9526821,-26.9751856992359,0.0 -49.9526238,-26.9752789992359,0.0 -49.9526121,-26.9753528992359,0.0 -49.9526121,-26.9754889992359,0.0 -49.9526549,-26.9756912992359,0.0 -49.9527093,-26.9758817992359,0.0 -49.952756,-26.9760023992359,0.0 -49.9528143,-26.9761228992359,0.0 -49.9528727,-26.9762084992359,0.0 -49.9529193,-26.9762823992359,0.0 -49.9531254,-26.9764611992359,0.0 -49.9532304,-26.9765661992359,0.0 -49.9533354,-26.9766517992359,0.0 -49.9534093,-26.9767139992359,0.0 -49.9534686,-26.9767584992359,0.0 -49.9535182,-26.9767956992359,0.0 -49.9536232,-26.9769356992359,0.0 -49.9536932,-26.9770872992359,0.0 -49.9537593,-26.9772856992359,0.0 -49.9538332,-26.9775034992359,0.0 -49.9538838,-26.9777639992359,0.0 -49.9539032,-26.9778747992359,0.0 -49.9539265,-26.9779642992359,0.0 -49.9539226,-26.9781003992359,0.0 -49.953911,-26.9782014992359,0.0 -49.9538799,-26.9782675992359,0.0 -49.9538254,-26.9783647992359,0.0 -49.953736,-26.9784931992358,0.0 -49.9536296,-26.9786073992358,0.0 -49.9533976,-26.9788996992358,0.0 -49.9531337,-26.9794611992358,0.0 -49.952901,-26.9799580992358,0.0 -49.9525358,-26.9805726992358,0.0 -49.9522432,-26.9811152992358,0.0 -49.9520784,-26.9813280992358,0.0 -49.9520045,-26.9814252992358,0.0 -49.9518917,-26.9815380992358,0.0 -49.9517828,-26.9816158992358,0.0 -49.95167,-26.9816702992358,0.0 -49.9516462,-26.9816827992358,0.0 -49.9515145,-26.9817519992358,0.0 -49.9513162,-26.9818724992358,0.0 -49.9511752,-26.9819891992358,0.0 -49.9509341,-26.9821836992358,0.0 -49.9507513,-26.9823508992358,0.0 -49.9506657,-26.9825219992358,0.0 -49.9506217,-26.9826130992358,0.0 -49.950553,-26.9827552992358,0.0 -49.9504402,-26.9828874992358,0.0 -49.950343,-26.9830255992358,0.0 -49.9502302,-26.9831383992358,0.0 -49.9501291,-26.9832549992358,0.0 -49.9500319,-26.9833638992358,0.0 -49.9498724,-26.9834727992358,0.0 -49.9498112,-26.9835118992358,0.0 -49.9496897,-26.9835894992358,0.0 -49.9495497,-26.9837255992357,0.0 -49.949433,-26.9838460992357,0.0 -49.9493474,-26.9839938992357,0.0 -49.9492981,-26.9840769992357,0.0 -49.9491569,-26.9843146992357,0.0 -49.9490869,-26.9844196992357,0.0 -49.9490052,-26.9845207992357,0.0 -49.9489236,-26.9846141992357,0.0 -49.9488108,-26.9847152992357,0.0 -49.9486047,-26.9848474992357,0.0 -49.9485082,-26.9849098992357,0.0 -49.9484063,-26.9849757992357,0.0 -49.9482809,-26.9850768992357,0.0 -49.9482187,-26.9851235992357,0.0 -49.9481876,-26.9851779992357,0.0 -49.948172,-26.9852285992357,0.0 -49.9481604,-26.9853296992357,0.0 -49.9481681,-26.9854113992357,0.0 -49.9481915,-26.9855046992357,0.0 -49.9482459,-26.9855902992357,0.0 -49.948312,-26.9856641992357,0.0 -49.9484209,-26.9857379992357,0.0 -49.9485497,-26.9858478992357,0.0 -49.9485531,-26.9858507992357,0.0 -49.9486504,-26.9859518992357,0.0 -49.9487009,-26.9860490992357,0.0 -49.948732,-26.9861268992357,0.0 -49.9487981,-26.9863640992357,0.0 -49.9488681,-26.9865779992357,0.0 -49.9489498,-26.9867140992357,0.0 -49.9490315,-26.9867996992357,0.0 -49.9491442,-26.9868851992357,0.0 -49.949222,-26.9869629992357,0.0 -49.9493465,-26.9870485992357,0.0 -49.9494165,-26.9871340992357,0.0 -49.9494476,-26.9872585992357,0.0 -49.9494359,-26.9873518992357,0.0 -49.9493698,-26.9874646992357,0.0 -49.9492687,-26.9875190992357,0.0 -49.9492017,-26.9875131992357,0.0 -49.9491365,-26.9875074992357,0.0 -49.9490198,-26.9874685992357,0.0 -49.9488876,-26.9873868992357,0.0 -49.9487398,-26.9873207992357,0.0 -49.948627,-26.9872701992357,0.0 -49.9484948,-26.9872235992357,0.0 -49.948382,-26.9872235992357,0.0 -49.9482265,-26.9872468992357,0.0 -49.9481254,-26.9872779992357,0.0 -49.9479348,-26.9873946992357,0.0 -49.9478065,-26.9874607992357,0.0 -49.9475887,-26.9875696992357,0.0 -49.9474487,-26.9876474992357,0.0 -49.9473165,-26.9877251992357,0.0 -49.9472232,-26.9877912992357,0.0 -49.9470054,-26.9879312992357,0.0 -49.9468421,-26.9880323992357,0.0 -49.9466872,-26.9881379992357,0.0 -49.9461792,-26.9882149992357,0.0 -49.9463048,-26.9947097992355,0.0 -49.9466223,-27.0027037992354,0.0 -49.9485351,-27.0026893992354,0.0 -49.9601197,-27.0026024992354,0.0 -49.9602375,-27.0105237992352,0.0 -49.9756814,-27.0103470992352,0.0 -49.9764963,-27.0466250992345,0.0 -49.9912469,-27.0467660992345,0.0 -49.9912815,-27.0467664992345,0.0 -49.9918717,-27.0467720992345,0.0 -49.9940631,-27.0467925992345,0.0 -50.0326148,-27.0471539992345,0.0 -50.0327431,-27.0471590992345,0.0 -50.0482523,-27.0477808992345,0.0 -50.0477458,-27.0473445992345,0.0 -50.0472695,-27.0469562992345,0.0 -50.0472473,-27.0461035992345,0.0 -50.0473262,-27.0454542992346,0.0 -50.0473822,-27.0448853992346,0.0 -50.047258,-27.0442662992346,0.0 -50.0469201,-27.0438765992346,0.0 -50.0464838,-27.0434352992346,0.0 -50.0463217,-27.0428030992346,0.0 -50.0463107,-27.0422792992346,0.0 -50.0463768,-27.0416190992346,0.0 -50.0467984,-27.0412366992346,0.0 -50.0473452,-27.0410745992346,0.0 -50.0473911,-27.0408098992346,0.0 -50.0476911,-27.0404652992347,0.0 -50.0480979,-27.0400408992347,0.0 -50.0486705,-27.0393036992347,0.0 -50.0488921,-27.0389489992347,0.0 -50.0491136,-27.0385942992347,0.0 -50.0490872,-27.0382606992347,0.0 -50.049034,-27.0377282992347,0.0 -50.0490143,-27.0372436992347,0.0 -50.0491366,-27.0367450992347,0.0 -50.0494578,-27.0363090992347,0.0 -50.0498539,-27.0356385992347,0.0 -50.0501993,-27.0350080992348,0.0 -50.050499,-27.0346975992348,0.0 -50.0505664,-27.0343321992348,0.0 -50.0504678,-27.0339228992348,0.0 -50.0506065,-27.0334360992348,0.0 -50.0507311,-27.0333334992348,0.0 -50.0510099,-27.0331036992348,0.0 -50.0511637,-27.0327691992348,0.0 -50.051304,-27.0323050992348,0.0 -50.0514787,-27.0317671992348,0.0 -50.0517679,-27.0312918992348,0.0 -50.0518858,-27.0311382992348,0.0 -50.0520037,-27.0309845992348,0.0 -50.0523105,-27.0305771992348,0.0 -50.0524981,-27.0301681992349,0.0 -50.0525744,-27.0297785992349,0.0 -50.0525445,-27.0292003992349,0.0 -50.0525482,-27.0287845992349,0.0 -50.0527406,-27.0286471992349,0.0 -50.0532114,-27.0286397992349,0.0 -50.0538971,-27.0288048992349,0.0 -50.0542739,-27.0287632992349,0.0 -50.0546412,-27.0287081992349,0.0 -50.0548796,-27.0287174992349,0.0 -50.0551582,-27.0287113992349,0.0 -50.0555664,-27.0288134992349,0.0 -50.0558431,-27.0289196992349,0.0 -50.0563871,-27.0292090992349,0.0 -50.0566835,-27.0294023992349,0.0 -50.0568642,-27.0295891992349,0.0 -50.0569728,-27.0297581992349,0.0 -50.0570794,-27.0299934992349,0.0 -50.0571493,-27.0303010992349,0.0 -50.057203,-27.0303969992348,0.0 -50.0572496,-27.0304343992349,0.0 -50.0574216,-27.0305420992348,0.0 -50.0575577,-27.0306053992348,0.0 -50.0577838,-27.0307158992348,0.0 -50.0578347,-27.0307563992348,0.0 -50.057994,-27.0309493992348,0.0 -50.058136,-27.0310736992348,0.0 -50.0582206,-27.0311316992348,0.0 -50.0583176,-27.0311856992348,0.0 -50.0584146,-27.0312395992348,0.0 -50.0585347,-27.0313086992348,0.0 -50.0587885,-27.0314811992348,0.0 -50.0589308,-27.0315937992348,0.0 -50.0591458,-27.0318214992348,0.0 -50.0593297,-27.0319555992348,0.0 -50.0594597,-27.0319677992348,0.0 -50.0596049,-27.0320141992348,0.0 -50.0598101,-27.0321195992348,0.0 -50.0599131,-27.0322556992348,0.0 -50.0601237,-27.0326644992348,0.0 -50.0602577,-27.0329184992348,0.0 -50.0602965,-27.0330063992348,0.0 -50.0603848,-27.0332065992348,0.0 -50.060704,-27.0333636992348,0.0 -50.0611035,-27.0336098992348,0.0 -50.0614644,-27.0338356992348,0.0 -50.0618114,-27.0336818992348,0.0 -50.0623812,-27.0337143992348,0.0 -50.0631087,-27.0336682992348,0.0 -50.0636689,-27.0335407992348,0.0 -50.0639324,-27.0333009992348,0.0 -50.0639426,-27.0328803992348,0.0 -50.0640559,-27.0325778992348,0.0 -50.064408,-27.0325728992348,0.0 -50.0648047,-27.0328640992348,0.0 -50.065582,-27.0332829992348,0.0 -50.0660612,-27.0333437992348,0.0 -50.0665403,-27.0334044992348,0.0 -50.0671757,-27.0332207992348,0.0 -50.0674949,-27.0330076992348,0.0 -50.0676089,-27.0329314992348,0.0 -50.092298,-26.9880858992357,0.0 -50.0923962,-26.9878902992357,0.0 -50.0911846,-26.9873123992357,0.0 -50.0900769,-26.9864984992357,0.0 -50.0896632,-26.9859328992357,0.0 -50.0895846,-26.9856523992357,0.0 -50.0895345,-26.9852729992357,0.0 -50.0897861,-26.9850073992357,0.0 -50.0898884,-26.9845811992357,0.0 -50.0900077,-26.9841718992357,0.0 -50.0898202,-26.9839672992357,0.0 -50.0897259,-26.9835746992358,0.0 -50.0898123,-26.9832597992358,0.0 -50.0901835,-26.9829122992358,0.0 -50.090404,-26.9825504992358,0.0 -50.0905701,-26.9822525992358,0.0 -50.0906605,-26.9819810992358,0.0 -50.0907184,-26.9816613992358,0.0 -50.0907655,-26.9814010992358,0.0 -50.0911155,-26.9806538992358,0.0 -50.0911559,-26.9789748992358,0.0 -50.0911031,-26.9782647992359,0.0 -50.0907709,-26.9775463992359,0.0 -50.0900563,-26.9770832992359,0.0 -50.0894344,-26.9772093992359,0.0 -50.0889753,-26.9772554992359,0.0 -50.088497,-26.9768211992359,0.0 -50.0879101,-26.9766653992359,0.0 -50.0870439,-26.9761994992359,0.0 -50.0868058,-26.9756213992359,0.0 -50.0865989,-26.9752060992359,0.0 -50.0861543,-26.9751691992359,0.0 -50.0856257,-26.9751180992359,0.0 -50.0852336,-26.9749816992359,0.0 -50.0848755,-26.9748793992359,0.0 -50.0844833,-26.9748793992359,0.0 -50.0841082,-26.9749986992359,0.0 -50.0836649,-26.9750839992359,0.0 -50.0832898,-26.9750157992359,0.0 -50.0827668,-26.9745738992359,0.0 -50.0822567,-26.9741317992359,0.0 -50.0816284,-26.9739592992359,0.0 -50.0811953,-26.9744276992359,0.0 -50.0805688,-26.9746766992359,0.0 -50.079986,-26.9747110992359,0.0 -50.0793711,-26.9752540992359,0.0 -50.0788767,-26.9752710992359,0.0 -50.0785839,-26.9751259992359,0.0 -50.0780532,-26.9747757992359,0.0 -50.0777682,-26.9739649992359,0.0 -50.0776096,-26.973134699236,0.0 -50.0770738,-26.972861499236,0.0 -50.0766893,-26.972688199236,0.0 -50.0759643,-26.972437199236,0.0 -50.0753265,-26.972131599236,0.0 -50.0749314,-26.971599599236,0.0 -50.0747585,-26.971034299236,0.0 -50.0744564,-26.970890499236,0.0 -50.0741543,-26.970746799236,0.0 -50.073372,-26.970702199236,0.0 -50.072605,-26.970810099236,0.0 -50.0719092,-26.971205199236,0.0 -50.0712389,-26.971444099236,0.0 -50.0706745,-26.971520199236,0.0 -50.0702591,-26.971349799236,0.0 -50.0698547,-26.970896699236,0.0 -50.0696166,-26.970400999236,0.0 -50.0695137,-26.969968899236,0.0 -50.0696093,-26.969652799236,0.0 -50.0699116,-26.969494699236,0.0 -50.070384,-26.969324999236,0.0 -50.070893,-26.969056599236,0.0 -50.0713599,-26.968577099236,0.0 -50.071911,-26.9680589992361,0.0 -50.0720314,-26.9674294992361,0.0 -50.0717351,-26.9671361992361,0.0 -50.0715488,-26.9669205992361,0.0 -50.0710533,-26.9668470992361,0.0 -50.0707139,-26.9666337992361,0.0 -50.070688,-26.9663741992361,0.0 -50.070719,-26.9660697992361,0.0 -50.0708343,-26.9658254992361,0.0 -50.071056,-26.9654332992361,0.0 -50.0710901,-26.9651604992361,0.0 -50.0709366,-26.9648194992361,0.0 -50.0708343,-26.9645295992361,0.0 -50.0706297,-26.9642908992361,0.0 -50.0700329,-26.9634383992361,0.0 -50.0699818,-26.9630632992362,0.0 -50.0699647,-26.9626881992362,0.0 -50.0699647,-26.9625346992362,0.0 -50.07005,-26.9621766992362,0.0 -50.0699477,-26.9618526992362,0.0 -50.0696237,-26.9615116992362,0.0 -50.0691804,-26.9614434992362,0.0 -50.0687712,-26.9610342992362,0.0 -50.0685175,-26.9605187992362,0.0 -50.0684445,-26.9598446992362,0.0 -50.0685015,-26.9590426992362,0.0 -50.0683659,-26.9584104992362,0.0 -50.0682981,-26.9579279992362,0.0 -50.0675986,-26.9566670992363,0.0 -50.0675669,-26.9559173992363,0.0 -50.0673693,-26.9551214992363,0.0 -50.0671019,-26.9544584992363,0.0 -50.066139,-26.9533329992363,0.0 -50.065342,-26.9524462992364,0.0 -50.0643671,-26.9513521992364,0.0 -50.0641983,-26.9511999992364,0.0 -50.0640295,-26.9510477992364,0.0 -50.063925,-26.9506221992364,0.0 -50.0639891,-26.9500780992364,0.0 -50.0635974,-26.9494482992364,0.0 -50.0632569,-26.9489130992364,0.0 -50.0632352,-26.9487950992364,0.0 -50.0631101,-26.9481154992364,0.0 -50.0626553,-26.9473211992365,0.0 -50.0621787,-26.9466940992365,0.0 -50.0615625,-26.9462485992365,0.0 -50.0608649,-26.9457767992365,0.0 -50.0603217,-26.9451042992365,0.0 -50.0597381,-26.9442198992365,0.0 -50.0591509,-26.9436395992365,0.0 -50.0588228,-26.9430426992365,0.0 -50.0585107,-26.9421754992366,0.0 -50.0582664,-26.9415190992366,0.0 -50.0576259,-26.9404587992366,0.0 -50.0574824,-26.9399919992366,0.0 -50.056932,-26.9388623992366,0.0 -50.0565031,-26.9380149992366,0.0 -50.0559506,-26.9370789992367,0.0 -50.0554207,-26.9364943992367,0.0 -50.0540475,-26.9355081992367,0.0 -50.0531637,-26.9350964992367,0.0 -50.0527844,-26.9349769992367,0.0 -50.0517192,-26.9343974992367,0.0 -50.0511109,-26.9339066992367,0.0 -50.0505825,-26.9331232992367,0.0 -50.050134,-26.9323364992368,0.0 -50.0491529,-26.9319548992368,0.0 -50.0487328,-26.9316577992368,0.0 -50.0482682,-26.9314149992368,0.0 -50.0476694,-26.9315086992368,0.0 -50.0467393,-26.9314820992368,0.0 -50.0452807,-26.9313458992368,0.0 -50.0440992,-26.9312230992368,0.0 -50.043553,-26.9310324992368,0.0 -50.0431362,-26.9303837992368,0.0 -50.0419609,-26.9291845992368,0.0 -50.0415214,-26.9288326992368,0.0 -50.0411105,-26.9282042992368,0.0 -50.0396872,-26.9277457992368,0.0 -50.0383981,-26.9273875992368,0.0 -50.0371402,-26.9271304992368,0.0 -50.0363473,-26.9264430992369,0.0 -50.0355924,-26.9257886992369,0.0 -50.0350824,-26.9256478992369,0.0 -50.0344353,-26.9251717992369,0.0 -50.0339041,-26.9243563992369,0.0 -50.0333417,-26.9240473992369,0.0 -50.0327456,-26.9234174992369,0.0 -50.0320519,-26.9229543992369,0.0 -50.0312838,-26.9231568992369,0.0 -50.0306189,-26.9233321992369,0.0 -50.0295703,-26.9236548992369,0.0 -50.0285243,-26.9234074992369,0.0 -50.0272954,-26.9232725992369,0.0 -50.0264271,-26.9230822992369,0.0 -50.0259724,-26.9226844992369,0.0 -50.02544,-26.9224534992369,0.0 -50.0249422,-26.9218482992369,0.0 -50.0243814,-26.921187599237,0.0 -50.0239371,-26.920718199237,0.0 -50.02376,-26.920377599237,0.0 -50.0235271,-26.919601599237,0.0 -50.023203,-26.918855999237,0.0 -50.0231174,-26.918230399237,0.0 -50.0228397,-26.917231199237,0.0 -50.0227279,-26.9164108992371,0.0 -50.0228427,-26.9150328992371,0.0 -50.022755,-26.9144020992371,0.0 -50.0223738,-26.9137408992371,0.0 -50.0214526,-26.9136844992371,0.0 -50.0205577,-26.9136296992371,0.0 -50.0191736,-26.9132691992371,0.0 -50.0173439,-26.9130751992371,0.0 -50.016507,-26.9128522992371,0.0 -50.0158749,-26.9118445992371,0.0 -50.0154496,-26.9108841992372,0.0 -50.0148735,-26.9091653992372,0.0 -50.0150878,-26.9084571992372,0.0 -50.015075,-26.9077384992372,0.0 -50.0160584,-26.9072025992372,0.0 -50.0168041,-26.9063399992373,0.0 -50.0171872,-26.9049508992373,0.0 -50.017546,-26.9042017992373,0.0 -50.0175374,-26.9031531992373,0.0 -50.0179079,-26.9022901992373,0.0 -50.0185889,-26.9018107992373,0.0 -50.0200968,-26.9012077992373,0.0 -50.0201214,-26.9009426992374,0.0 -50.0199454,-26.9007156992374,0.0 -50.0195131,-26.9003337992374,0.0 -50.0193327,-26.8996244992374,0.0 -50.0192062,-26.8991272992374,0.0 -50.0187772,-26.8988917992374,0.0 -50.0179831,-26.8983951992374,0.0 -50.0173143,-26.8980656992374,0.0 -50.0169858,-26.8975216992374,0.0 -50.0171314,-26.8968105992374,0.0 -50.0172478,-26.8963292992374,0.0 -50.0171973,-26.8957221992375,0.0 -50.0170623,-26.8953250992375,0.0 -50.0172682,-26.8946419992375,0.0 -50.0172072,-26.8943112992375,0.0 -50.0166134,-26.8940082992375,0.0 -50.0161318,-26.8936294992375,0.0 -50.015577,-26.8926326992375,0.0 -50.0153088,-26.8921507992375,0.0 -50.0140857,-26.8915521992375,0.0 -50.0131363,-26.8910730992375,0.0 -50.0122649,-26.8906496992376,0.0 -50.0112065,-26.8893618992376,0.0 -50.0110322,-26.8889083992376,0.0 -50.0103212,-26.8886650992376,0.0 -50.0094569,-26.8883973992376,0.0 -50.009021,-26.8880703992376,0.0 -50.0090555,-26.8871056992376,0.0 -50.009077,-26.8865059992376,0.0 -50.0090295,-26.8859257992376,0.0 -50.0086165,-26.8853855992377,0.0 -50.00821,-26.8850874992377,0.0 -50.0083131,-26.8843604992377,0.0 -50.0087681,-26.8839655992377,0.0 -50.0087513,-26.8837244992377,0.0 -50.0083967,-26.8836084992377,0.0 -50.008354,-26.8831501992377,0.0 -50.0083912,-26.8826191992377,0.0 -50.0077248,-26.8816623992377,0.0 -50.007298,-26.8811626992377,0.0 -50.0070367,-26.8802549992378,0.0 -50.0067031,-26.8797446992378,0.0 -50.0060151,-26.8796125992378,0.0 -50.0056249,-26.8794432992378,0.0 -50.0050178,-26.8789290992378,0.0 -50.0042785,-26.8787423992378,0.0 -50.0036962,-26.8786583992378,0.0 -50.0035914,-26.8786593992378,0.0 -50.0030842,-26.8786639992378,0.0 -50.0018097,-26.8781502992378,0.0 -50.0011636,-26.8776112992378,0.0 -50.0009876,-26.8767790992378,0.0 -50.0004385,-26.8761476992378,0.0 -49.9996422,-26.8757965992378,0.0 -49.9985678,-26.8756008992378,0.0 -49.99811,-26.8757170992378,0.0 -49.9976092,-26.8761604992378,0.0 -49.9972551,-26.8766069992378,0.0 -49.9967484,-26.8762510992378,0.0 -49.9965938,-26.8759701992378,0.0 -49.9961608,-26.8758641992378,0.0 -49.995576,-26.8759424992378,0.0 -49.9952248,-26.8761056992378,0.0 -49.9948239,-26.8761096992378,0.0 -49.994308,-26.8757648992378,0.0 -49.9939279,-26.8754726992378,0.0 -49.9936061,-26.8752824992378,0.0 -49.9931091,-26.8752821992379,0.0 -49.9922995,-26.8752815992379,0.0 -49.9915559,-26.8754650992378,0.0 -49.9910496,-26.8756256992378,0.0 -49.9892722,-26.8754318992378,0.0 -49.9885154,-26.8753873992378,0.0 -49.9882426,-26.8751306992379,0.0 -49.9878373,-26.8748507992379,0.0 -49.9872579,-26.8750092992379,0.0 -49.9866647,-26.8752267992378,0.0 -49.9860371,-26.8755282992378,0.0 -49.9855854,-26.8752713992378,0.0 -49.9852161,-26.8747053992379,0.0 -49.9848967,-26.8742336992379,0.0 -49.9845966,-26.8733437992379,0.0 -49.9839477,-26.8724877992379,0.0 -49.9834435,-26.8723608992379,0.0 -49.9830213,-26.8723066992379,0.0 -49.982593,-26.8724801992379,0.0 -49.9820537,-26.8728332992379,0.0 -49.981584,-26.8732477992379,0.0 -49.9811972,-26.8727184992379,0.0 -49.979796,-26.8706542992379,0.0 -49.9797663,-26.8706521992379,0.0 -49.9797481,-26.8706453992379,0.0 -49.9797224,-26.8706243992379,0.0 -49.9797097,-26.8705976992379,0.0 -49.9796967,-26.8705706992379,0.0 -49.9796817,-26.8705506992379,0.0 -49.9796682,-26.8705477992379,0.0 -49.9796285,-26.8705537992379,0.0 -49.9795869,-26.8705608992379,0.0 -49.9795349,-26.8705678992379,0.0 -49.9794861,-26.8705709992379,0.0 -49.9794357,-26.8705769992379,0.0 -49.9793969,-26.8705790992379,0.0 -49.979356,-26.8705789992379,0.0 -49.9793346,-26.8705792992379,0.0 -49.9792886,-26.8705934992379,0.0 -49.9792588,-26.8706154992379,0.0 -49.9791499,-26.8707440992379,0.0 -49.9791443,-26.8707564992379,0.0 -49.9791411,-26.8707681992379,0.0 -49.9791173,-26.8707948992379,0.0 -49.9790927,-26.8708018992379,0.0 -49.9790506,-26.8708082992379,0.0 -49.9790185,-26.8708099992379,0.0 -49.9789662,-26.8708091992379,0.0 -49.978919,-26.8708065992379,0.0 -49.9788853,-26.8707940992379,0.0 -49.9788643,-26.8707773992379,0.0 -49.9788548,-26.8707588992379,0.0 -49.9787173,-26.8705210992379,0.0 -49.9786987,-26.8704854992379,0.0 -49.978673,-26.8704391992379,0.0 -49.9786335,-26.8703964992379,0.0 -49.9785982,-26.8703686992379,0.0 -49.9785638,-26.8703504992379,0.0 -49.9785281,-26.870344799238,0.0 -49.9784781,-26.8703489992379,0.0 -49.9784444,-26.8703623992379,0.0 -49.9783995,-26.8703733992379,0.0 -49.9783507,-26.8703789992379,0.0 -49.9783293,-26.8703728992379,0.0 -49.9782925,-26.8703511992379,0.0 -49.9782006,-26.870296999238,0.0 -49.9781634,-26.8702733992379,0.0 -49.9781535,-26.8702673992379,0.0 -49.9780945,-26.8702305992379,0.0 -49.9780497,-26.870209199238,0.0 -49.9779601,-26.8702168992379,0.0 -49.9779153,-26.8702146992379,0.0 -49.9778705,-26.8702110992379,0.0 -49.9778225,-26.8702034992379,0.0 -49.9777602,-26.8701891992379,0.0 -49.9777091,-26.870175999238,0.0 -49.9776727,-26.8701659992379,0.0 -49.9776299,-26.870149899238,0.0 -49.9776112,-26.8701448992379,0.0 -49.9775922,-26.8701430992379,0.0 -49.9775827,-26.8701412992379,0.0 -49.9775613,-26.870142299238,0.0 -49.9775109,-26.8701482992379,0.0 -49.9774439,-26.870157799238,0.0 -49.9773931,-26.8701697992379,0.0 -49.9773216,-26.8702130992379,0.0 -49.97727,-26.8702406992379,0.0 -49.9772188,-26.8702509992379,0.0 -49.9771621,-26.870256199238,0.0 -49.9770772,-26.870257799238,0.0 -49.9770245,-26.8702609992379,0.0 -49.9769817,-26.8702647992379,0.0 -49.9769337,-26.8702661992379,0.0 -49.9768877,-26.8702646992379,0.0 -49.9768587,-26.8702713992379,0.0 -49.9768456,-26.8702841992379,0.0 -49.9768309,-26.870301199238,0.0 -49.9768214,-26.870314699238,0.0 -49.9767995,-26.8703466992379,0.0 -49.976786,-26.8703629992379,0.0 -49.9767725,-26.8703686992379,0.0 -49.9767411,-26.8703675992379,0.0 -49.976732,-26.8703660992379,0.0 -49.9767253,-26.8703610992379,0.0 -49.9767119,-26.8703397992379,0.0 -49.9766952,-26.8703226992379,0.0 -49.9766762,-26.8703147992379,0.0 -49.9766552,-26.8703122992379,0.0 -49.9766441,-26.8703165992379,0.0 -49.976622,-26.8703296992379,0.0 -49.9766069,-26.8703459992379,0.0 -49.9765895,-26.8703534992379,0.0 -49.976576,-26.8703562992379,0.0 -49.9765506,-26.8703608992379,0.0 -49.9765308,-26.8703561992379,0.0 -49.9764753,-26.8703315992379,0.0 -49.9764317,-26.8703111992379,0.0 -49.9764083,-26.8703025992379,0.0 -49.9763921,-26.8702965992379,0.0 -49.9763568,-26.8702915992379,0.0 -49.9763159,-26.870295799238,0.0 -49.9762787,-26.8703017992379,0.0 -49.9762457,-26.8703041992379,0.0 -49.9762069,-26.8703126992379,0.0 -49.9761835,-26.8703136992379,0.0 -49.9761559,-26.870309399238,0.0 -49.9761284,-26.8703050992379,0.0 -49.9760776,-26.8702999992379,0.0 -49.9760241,-26.8702988992379,0.0 -49.9759765,-26.8703076992379,0.0 -49.9759177,-26.8703278992379,0.0 -49.9758824,-26.8703373992379,0.0 -49.9758598,-26.8703390992379,0.0 -49.9758364,-26.8703251992379,0.0 -49.9758166,-26.870317699238,0.0 -49.975777,-26.8703201992379,0.0 -49.9757409,-26.870332199238,0.0 -49.9757222,-26.8703538992379,0.0 -49.9757122,-26.8703676992379,0.0 -49.975682,-26.8703939992379,0.0 -49.9756353,-26.8703920992379,0.0 -49.9755058,-26.8703940992379,0.0 -49.9750088,-26.8703310992379,0.0 -49.9749855,-26.8703303992379,0.0 -49.9749663,-26.8703291992379,0.0 -49.9749407,-26.8703223992379,0.0 -49.9749023,-26.8702907992379,0.0 -49.974885,-26.8702552992379,0.0 -49.9747631,-26.870084999238,0.0 -49.9743826,-26.869530199238,0.0 -49.974113,-26.869118599238,0.0 -49.9740574,-26.869077499238,0.0 -49.9740428,-26.869034599238,0.0 -49.9739904,-26.868799099238,0.0 -49.9739901,-26.868785999238,0.0 -49.9739861,-26.868764299238,0.0 -49.9739783,-26.868744899238,0.0 -49.9739625,-26.868715599238,0.0 -49.9739477,-26.868697199238,0.0 -49.9739179,-26.868667699238,0.0 -49.973908,-26.868658399238,0.0 -49.9738561,-26.868627899238,0.0 -49.9736188,-26.868504399238,0.0 -49.9732823,-26.868368899238,0.0 -49.9732317,-26.868364599238,0.0 -49.9731955,-26.868369599238,0.0 -49.9731685,-26.868384499238,0.0 -49.973135,-26.868409399238,0.0 -49.973116,-26.868438699238,0.0 -49.9730917,-26.868477999238,0.0 -49.9730603,-26.868522299238,0.0 -49.97304,-26.868555499238,0.0 -49.9730128,-26.868579999238,0.0 -49.9729741,-26.868604399238,0.0 -49.9729422,-26.868622999238,0.0 -49.9729075,-26.868643999238,0.0 -49.9728693,-26.868653499238,0.0 -49.9728247,-26.868666899238,0.0 -49.9727967,-26.868671599238,0.0 -49.9727345,-26.868676099238,0.0 -49.9727079,-26.868677399238,0.0 -49.9726736,-26.868678499238,0.0 -49.9726173,-26.868677499238,0.0 -49.9725767,-26.868678999238,0.0 -49.9724918,-26.868679799238,0.0 -49.9724118,-26.868687399238,0.0 -49.9722153,-26.868753199238,0.0 -49.971865,-26.868891999238,0.0 -49.9715818,-26.868944999238,0.0 -49.9714419,-26.868964499238,0.0 -49.971376,-26.868975099238,0.0 -49.9713101,-26.868973099238,0.0 -49.9704576,-26.868845499238,0.0 -49.9702307,-26.868822799238,0.0 -49.970096,-26.868815999238,0.0 -49.9700129,-26.868821099238,0.0 -49.9699339,-26.868827199238,0.0 -49.9698902,-26.868847999238,0.0 -49.9697695,-26.868887499238,0.0 -49.9694741,-26.868997299238,0.0 -49.9694223,-26.869031599238,0.0 -49.9693782,-26.869150799238,0.0 -49.9693307,-26.869183099238,0.0 -49.9692315,-26.869227799238,0.0 -49.9690818,-26.869272599238,0.0 -49.9689632,-26.869365899238,0.0 -49.9689282,-26.869476699238,0.0 -49.9689223,-26.869601199238,0.0 -49.9689593,-26.869743099238,0.0 -49.9690176,-26.869850099238,0.0 -49.9691067,-26.869940999238,0.0 -49.9691595,-26.869994899238,0.0 -49.9692354,-26.870057099238,0.0 -49.9693112,-26.870115499238,0.0 -49.9693618,-26.8701659992379,0.0 -49.9693948,-26.8702340992379,0.0 -49.9694143,-26.8703409992379,0.0 -49.9694279,-26.8704848992379,0.0 -49.9694084,-26.8706287992379,0.0 -49.9693734,-26.8707279992379,0.0 -49.9693443,-26.8708115992379,0.0 -49.9692859,-26.8709894992379,0.0 -49.9692082,-26.8712441992379,0.0 -49.9691693,-26.8713938992379,0.0 -49.9691207,-26.8715387992379,0.0 -49.9690545,-26.8716651992379,0.0 -49.968934,-26.8718167992379,0.0 -49.9687746,-26.8720014992379,0.0 -49.9685179,-26.8722348992379,0.0 -49.9684952,-26.8722560992379,0.0 -49.9682846,-26.8724526992379,0.0 -49.9681407,-26.8725323992379,0.0 -49.9679346,-26.8726878992379,0.0 -49.9678296,-26.8727889992379,0.0 -49.9677285,-26.8729095992379,0.0 -49.9676818,-26.8730767992379,0.0 -49.9676818,-26.8732362992379,0.0 -49.9677246,-26.8735084992379,0.0 -49.9677421,-26.8736036992379,0.0 -49.9677518,-26.8736873992379,0.0 -49.9677518,-26.8737845992379,0.0 -49.9677207,-26.8738895992379,0.0 -49.9676798,-26.8740198992379,0.0 -49.9676273,-26.8741306992379,0.0 -49.967289,-26.8747372992379,0.0 -49.9671024,-26.8751106992379,0.0 -49.9670012,-26.8754606992378,0.0 -49.9669963,-26.8755037992378,0.0 -49.9669701,-26.8757328992378,0.0 -49.9669839,-26.8759062992378,0.0 -49.9669808,-26.8759418992378,0.0 -49.9669614,-26.8760060992378,0.0 -49.9669167,-26.8760779992378,0.0 -49.9668797,-26.8761149992378,0.0 -49.9667669,-26.8761615992378,0.0 -49.9666483,-26.8761712992378,0.0 -49.9665142,-26.8762062992378,0.0 -49.9663586,-26.8762704992378,0.0 -49.9662147,-26.8763657992378,0.0 -49.965979,-26.8765111992378,0.0 -49.9656567,-26.8767098992378,0.0 -49.9650082,-26.8770287992378,0.0 -49.9645571,-26.8771687992378,0.0 -49.9639816,-26.8773009992378,0.0 -49.9635849,-26.8773632992378,0.0 -49.9633127,-26.8773943992378,0.0 -49.9631921,-26.8774137992378,0.0 -49.9630171,-26.8774837992378,0.0 -49.962951,-26.8775498992378,0.0 -49.9629044,-26.8776509992378,0.0 -49.9628733,-26.8777598992378,0.0 -49.9628888,-26.8778609992378,0.0 -49.962951,-26.8779543992378,0.0 -49.9631221,-26.8781993992378,0.0 -49.9633399,-26.8783937992378,0.0 -49.9635499,-26.8786270992378,0.0 -49.9636371,-26.8787277992378,0.0</coordinates>
</LinearRing>
</outerBoundaryIs>
</Polygon>
</MultiGeometry>
</Placemark>
</Folder>
</Document></kml>
