<?xml version='1.0' encoding='UTF-8'?>
<kml xmlns:xsd="http://www.w3.org/2001/XMLSchema" xmlns:gx="http://www.google.com/kml/ext/2.2" xmlns:atom="http://www.w3.org/2005/Atom" xmlns="http://www.opengis.net/kml/2.2">
<Document>
<name>santiago_do_sul_4215695_localidades_2022</name>
<visibility>1</visibility>
<Schema name="01. Cidade" id="kml_schema_ft_01._Cidade">
<SimpleField type="xsd:string" name="CD_UF">
<displayName>CD_UF</displayName>
</SimpleField>
<SimpleField type="xsd:string" name="NM_UF">
<displayName>NM_UF</displayName>
</SimpleField>
<SimpleField type="xsd:string" name="SIGLA_UF">
<displayName>SIGLA_UF</displayName>
</SimpleField>
<SimpleField type="xsd:string" name="CD_MUN">
<displayName>CD_MUN</displayName>
</SimpleField>
<SimpleField type="xsd:string" name="NM_MUN">
<displayName>NM_MUN</displayName>
</SimpleField>
<SimpleField type="xsd:string" name="CD_RGINT">
<displayName>CD_RGINT</displayName>
</SimpleField>
<SimpleField type="xsd:string" name="NM_RGINT">
<displayName>NM_RGINT</displayName>
</SimpleField>
<SimpleField type="xsd:string" name="CD_RGI">
<displayName>CD_RGI</displayName>
</SimpleField>
<SimpleField type="xsd:string" name="NM_RGI">
<displayName>NM_RGI</displayName>
</SimpleField>
<SimpleField type="xsd:string" name="CT_LOCALIDADE">
<displayName>CT_LOCALIDADE</displayName>
</SimpleField>
<SimpleField type="xsd:string" name="SCT_LOCALIDADE">
<displayName>SCT_LOCALIDADE</displayName>
</SimpleField>
<SimpleField type="xsd:string" name="CD_LOCALIDADE">
<displayName>CD_LOCALIDADE</displayName>
</SimpleField>
<SimpleField type="xsd:string" name="NM_LOCALIDADE">
<displayName>NM_LOCALIDADE</displayName>
</SimpleField>
<SimpleField type="xsd:string" name="LAT_LOCALIDADE">
<displayName>LAT_LOCALIDADE</displayName>
</SimpleField>
<SimpleField type="xsd:string" name="LONG_LOCALIDADE">
<displayName>LONG_LOCALIDADE</displayName>
</SimpleField>
</Schema>
<Schema name="Município" id="kml_schema_ft_Município">
<SimpleField type="xsd:string" name="CD_UF">
<displayName>CD_UF</displayName>
</SimpleField>
<SimpleField type="xsd:string" name="NM_UF">
<displayName>NM_UF</displayName>
</SimpleField>
<SimpleField type="xsd:string" name="CD_MUN">
<displayName>CD_MUN</displayName>
</SimpleField>
<SimpleField type="xsd:string" name="NM_MUN">
<displayName>NM_MUN</displayName>
</SimpleField>
<SimpleField type="xsd:string" name="CD_RGINT">
<displayName>CD_RGINT</displayName>
</SimpleField>
<SimpleField type="xsd:string" name="NM_RGINT">
<displayName>NM_RGINT</displayName>
</SimpleField>
<SimpleField type="xsd:string" name="CD_RGI">
<displayName>CD_RGI</displayName>
</SimpleField>
<SimpleField type="xsd:string" name="NM_RGI">
<displayName>NM_RGI</displayName>
</SimpleField>
</Schema>
<Folder id="01. Cidade">
<name>01. Cidade</name>
<Folder id="01.03. Sede Municipal">
<name>01.03. Sede Municipal</name>
<Placemark id="01.03. Sede Municipal">
<name>Santiago do Sul [4215695]</name>
<visibility>1</visibility>
<snippet> </snippet>
<description>&lt;center&gt;&lt;table&gt;&lt;tr&gt;&lt;th colspan='2' align='center'&gt;&lt;em&gt;Atributos&lt;/em&gt;&lt;/th&gt;&lt;/tr&gt;&lt;tr bgcolor="#E3E3F3"&gt;
&lt;th&gt;CD_UF&lt;/th&gt;
&lt;td&gt;42&lt;/td&gt;
&lt;/tr&gt;&lt;tr bgcolor=""&gt;
&lt;th&gt;NM_UF&lt;/th&gt;
&lt;td&gt;Santa Catarina&lt;/td&gt;
&lt;/tr&gt;&lt;tr bgcolor="#E3E3F3"&gt;
&lt;th&gt;SIGLA_UF&lt;/th&gt;
&lt;td&gt;SC&lt;/td&gt;
&lt;/tr&gt;&lt;tr bgcolor=""&gt;
&lt;th&gt;CD_MUN&lt;/th&gt;
&lt;td&gt;4215695&lt;/td&gt;
&lt;/tr&gt;&lt;tr bgcolor="#E3E3F3"&gt;
&lt;th&gt;NM_MUN&lt;/th&gt;
&lt;td&gt;Santiago do Sul&lt;/td&gt;
&lt;/tr&gt;&lt;tr bgcolor=""&gt;
&lt;th&gt;CD_RGINT&lt;/th&gt;
&lt;td&gt;4204&lt;/td&gt;
&lt;/tr&gt;&lt;tr bgcolor="#E3E3F3"&gt;
&lt;th&gt;NM_RGINT&lt;/th&gt;
&lt;td&gt;Chapecó&lt;/td&gt;
&lt;/tr&gt;&lt;tr bgcolor=""&gt;
&lt;th&gt;CD_RGI&lt;/th&gt;
&lt;td&gt;420007&lt;/td&gt;
&lt;/tr&gt;&lt;tr bgcolor="#E3E3F3"&gt;
&lt;th&gt;NM_RGI&lt;/th&gt;
&lt;td&gt;Chapecó&lt;/td&gt;
&lt;/tr&gt;&lt;tr bgcolor=""&gt;
&lt;th&gt;CT_LOCALIDADE&lt;/th&gt;
&lt;td&gt;Cidade&lt;/td&gt;
&lt;/tr&gt;&lt;tr bgcolor="#E3E3F3"&gt;
&lt;th&gt;SCT_LOCALIDADE&lt;/th&gt;
&lt;td&gt;Sede Municipal&lt;/td&gt;
&lt;/tr&gt;&lt;tr bgcolor=""&gt;
&lt;th&gt;CD_LOCALIDADE&lt;/th&gt;
&lt;td&gt;4215695&lt;/td&gt;
&lt;/tr&gt;&lt;tr bgcolor="#E3E3F3"&gt;
&lt;th&gt;NM_LOCALIDADE&lt;/th&gt;
&lt;td&gt;Santiago do Sul&lt;/td&gt;
&lt;/tr&gt;&lt;tr bgcolor=""&gt;
&lt;th&gt;LAT_LOCALIDADE&lt;/th&gt;
&lt;td&gt;-26.6332&lt;/td&gt;
&lt;/tr&gt;&lt;tr bgcolor="#E3E3F3"&gt;
&lt;th&gt;LONG_LOCALIDADE&lt;/th&gt;
&lt;td&gt;-52.6759&lt;/td&gt;
&lt;/tr&gt;&lt;/table&gt;&lt;/center&gt;</description>
<Style>
<IconStyle>
<color>ff00aaff</color>
<scale>1.0</scale>
<Icon>
<href>http://maps.google.com/mapfiles/kml/shapes/placemark_circle.png</href>
</Icon>
</IconStyle>
<LabelStyle>
<scale>1.0</scale>
</LabelStyle>
<LineStyle>
<color>ffffffff</color>
<width>3</width>
<gx:labelVisibility>1</gx:labelVisibility>
</LineStyle>
<PolyStyle>
<color>00ffffff</color>
</PolyStyle>
</Style>
<ExtendedData>
<SchemaData schemaUrl="#kml_schema_ft_01._Cidade">
<SimpleData name="CD_UF">42</SimpleData>
<SimpleData name="NM_UF">Santa Catarina</SimpleData>
<SimpleData name="SIGLA_UF">SC</SimpleData>
<SimpleData name="CD_MUN">4215695</SimpleData>
<SimpleData name="NM_MUN">Santiago do Sul</SimpleData>
<SimpleData name="CD_RGINT">4204</SimpleData>
<SimpleData name="NM_RGINT">Chapecó</SimpleData>
<SimpleData name="CD_RGI">420007</SimpleData>
<SimpleData name="NM_RGI">Chapecó</SimpleData>
<SimpleData name="CT_LOCALIDADE">Cidade</SimpleData>
<SimpleData name="SCT_LOCALIDADE">Sede Municipal</SimpleData>
<SimpleData name="CD_LOCALIDADE">4215695</SimpleData>
<SimpleData name="NM_LOCALIDADE">Santiago do Sul</SimpleData>
<SimpleData name="LAT_LOCALIDADE">-26.6332</SimpleData>
<SimpleData name="LONG_LOCALIDADE">-52.6759</SimpleData>
</SchemaData>
</ExtendedData>
<Point>
<extrude>0</extrude>
<coordinates>-52.6759,-26.6331999992426,0.0</coordinates>
</Point>
</Placemark>
</Folder>
</Folder>
<Folder id="13. Referência">
<name>13. Referência</name>
<Placemark id="13. Referência">
<name>Santiago do Sul [4215695]</name>
<visibility>1</visibility>
<snippet> </snippet>
<description>&lt;center&gt;&lt;table&gt;&lt;tr&gt;&lt;th colspan='2' align='center'&gt;&lt;em&gt;Attributes&lt;/em&gt;&lt;/th&gt;&lt;/tr&gt;&lt;tr bgcolor="#E3E3F3"&gt;
&lt;th&gt;CD_UF&lt;/th&gt;
&lt;td&gt;42&lt;/td&gt;
&lt;/tr&gt;&lt;tr bgcolor=""&gt;
&lt;th&gt;NM_UF&lt;/th&gt;
&lt;td&gt;Santa Catarina&lt;/td&gt;
&lt;/tr&gt;&lt;tr bgcolor="#E3E3F3"&gt;
&lt;th&gt;CD_MUN&lt;/th&gt;
&lt;td&gt;4215695&lt;/td&gt;
&lt;/tr&gt;&lt;tr bgcolor=""&gt;
&lt;th&gt;NM_MUN&lt;/th&gt;
&lt;td&gt;Santiago do Sul&lt;/td&gt;
&lt;/tr&gt;&lt;tr bgcolor="#E3E3F3"&gt;
&lt;th&gt;CD_RGINT&lt;/th&gt;
&lt;td&gt;4204&lt;/td&gt;
&lt;/tr&gt;&lt;tr bgcolor=""&gt;
&lt;th&gt;NM_RGINT&lt;/th&gt;
&lt;td&gt;Chapecó&lt;/td&gt;
&lt;/tr&gt;&lt;tr bgcolor="#E3E3F3"&gt;
&lt;th&gt;CD_RGI&lt;/th&gt;
&lt;td&gt;420007&lt;/td&gt;
&lt;/tr&gt;&lt;tr bgcolor=""&gt;
&lt;th&gt;NM_RGI&lt;/th&gt;
&lt;td&gt;Chapecó&lt;/td&gt;
&lt;/tr&gt;&lt;/table&gt;&lt;/center&gt;</description>
<Style>
<IconStyle>
<scale>0.7</scale>
</IconStyle>
<LabelStyle>
<scale>0.7</scale>
</LabelStyle>
<LineStyle>
<color>ffffffff</color>
<width>3</width>
<gx:labelVisibility>1</gx:labelVisibility>
</LineStyle>
<PolyStyle>
<color>00ffffff</color>
</PolyStyle>
</Style>
<ExtendedData>
<SchemaData schemaUrl="#kml_schema_ft_Município">
<SimpleData name="CD_UF">42</SimpleData>
<SimpleData name="NM_UF">Santa Catarina</SimpleData>
<SimpleData name="CD_MUN">4215695</SimpleData>
<SimpleData name="NM_MUN">Santiago do Sul</SimpleData>
<SimpleData name="CD_RGINT">4204</SimpleData>
<SimpleData name="NM_RGINT">Chapecó</SimpleData>
<SimpleData name="CD_RGI">420007</SimpleData>
<SimpleData name="NM_RGI">Chapecó</SimpleData>
</SchemaData>
</ExtendedData>
<MultiGeometry>
<Polygon>
<extrude>0</extrude>
<tessellate>1</tessellate>
<outerBoundaryIs>
<LinearRing>
<coordinates>-52.7369957,-26.6153976992429,0.0 -52.7371853,-26.6150422992429,0.0 -52.7374701,-26.6145839992429,0.0 -52.7377097,-26.6141984992429,0.0 -52.7378615,-26.613910299243,0.0 -52.7380565,-26.613411599243,0.0 -52.7381901,-26.613144699243,0.0 -52.7381893,-26.612825099243,0.0 -52.73807,-26.612474899243,0.0 -52.7379877,-26.612159999243,0.0 -52.7380266,-26.611553699243,0.0 -52.737989,-26.611183599243,0.0 -52.738205,-26.610657199243,0.0 -52.7385761,-26.610299899243,0.0 -52.7389837,-26.610058799243,0.0 -52.7393668,-26.609952199243,0.0 -52.7398619,-26.609830899243,0.0 -52.7402071,-26.609709199243,0.0 -52.7403814,-26.609520599243,0.0 -52.7404254,-26.609219999243,0.0 -52.7403847,-26.6087643992431,0.0 -52.7403529,-26.6084086992431,0.0 -52.7403446,-26.6078735992431,0.0 -52.7404523,-26.6073928992431,0.0 -52.7405549,-26.6071491992431,0.0 -52.7407598,-26.6069602992431,0.0 -52.7411068,-26.6069123992431,0.0 -52.741939,-26.6070953992431,0.0 -52.7425107,-26.6071272992431,0.0 -52.7427896,-26.6069638992431,0.0 -52.7430811,-26.6065468992431,0.0 -52.7431651,-26.6061405992431,0.0 -52.7431505,-26.6057898992431,0.0 -52.743089,-26.6055750992431,0.0 -52.7430647,-26.6053109992431,0.0 -52.7431531,-26.6051518992431,0.0 -52.7431872,-26.6048582992431,0.0 -52.7431088,-26.6046672992431,0.0 -52.7430755,-26.6044640992431,0.0 -52.743264,-26.6041030992432,0.0 -52.7434145,-26.6039418992431,0.0 -52.7442339,-26.6031514992432,0.0 -52.7447304,-26.6026798992432,0.0 -52.7451237,-26.6022669992432,0.0 -52.7455475,-26.6019476992432,0.0 -52.7462574,-26.6010768992432,0.0 -52.7463769,-26.6007183992432,0.0 -52.7467377,-26.5998297992432,0.0 -52.7469696,-26.5992838992432,0.0 -52.7472816,-26.5983232992433,0.0 -52.747358,-26.5982115992433,0.0 -52.7474788,-26.5980262992433,0.0 -52.7475346,-26.5979040992433,0.0 -52.747632,-26.5970251992433,0.0 -52.7477429,-26.5962312992433,0.0 -52.7478112,-26.5959971992433,0.0 -52.7480491,-26.5952886992433,0.0 -52.74816,-26.5952147992433,0.0 -52.7483772,-26.5950699992433,0.0 -52.7485194,-26.5949751992433,0.0 -52.7480309,-26.5943889992433,0.0 -52.747575,-26.5938190992433,0.0 -52.7470715,-26.5933934992434,0.0 -52.7465653,-26.5931664992434,0.0 -52.745783,-26.5930567992434,0.0 -52.7453768,-26.5929235992434,0.0 -52.7450764,-26.5927362992434,0.0 -52.7443103,-26.5921605992434,0.0 -52.7439342,-26.5919357992434,0.0 -52.7436452,-26.5917568992434,0.0 -52.7434341,-26.5915917992434,0.0 -52.7431818,-26.5912659992434,0.0 -52.7430247,-26.5910802992434,0.0 -52.7429238,-26.5908554992434,0.0 -52.7428045,-26.5906765992434,0.0 -52.7426807,-26.5905664992434,0.0 -52.7424421,-26.5903875992434,0.0 -52.7422311,-26.5903003992434,0.0 -52.7418997,-26.5901971992434,0.0 -52.7415006,-26.5900503992434,0.0 -52.741129,-26.5899310992434,0.0 -52.7408767,-26.5897980992434,0.0 -52.7405831,-26.5895273992434,0.0 -52.7404638,-26.5892658992434,0.0 -52.7404088,-26.5891328992434,0.0 -52.7403101,-26.5890216992434,0.0 -52.7401719,-26.5889057992435,0.0 -52.7400825,-26.5888323992434,0.0 -52.7399839,-26.5887406992435,0.0 -52.7398715,-26.5886557992435,0.0 -52.7398122,-26.5886298992435,0.0 -52.7397614,-26.5886076992434,0.0 -52.7396719,-26.5885709992435,0.0 -52.7395458,-26.5885456992435,0.0 -52.7394374,-26.5885032992435,0.0 -52.7393273,-26.5884504992435,0.0 -52.7392539,-26.5883931992435,0.0 -52.7392395,-26.5883691992435,0.0 -52.739192,-26.5882899992435,0.0 -52.7391644,-26.5882302992435,0.0 -52.7391484,-26.5881890992435,0.0 -52.7391368,-26.5881356992435,0.0 -52.7391186,-26.5880513992435,0.0 -52.7391071,-26.5878988992435,0.0 -52.7391025,-26.5878323992435,0.0 -52.7390819,-26.5877520992435,0.0 -52.739036,-26.5876809992435,0.0 -52.7389511,-26.5876350992435,0.0 -52.738786,-26.5876006992435,0.0 -52.7387036,-26.5875806992435,0.0 -52.7386254,-26.5875616992435,0.0 -52.7384947,-26.5875135992435,0.0 -52.7381432,-26.5873288992435,0.0 -52.7379918,-26.5872417992435,0.0 -52.7379069,-26.5871843992435,0.0 -52.737861,-26.5871453992435,0.0 -52.7378369,-26.5871178992435,0.0 -52.7377142,-26.5869779992435,0.0 -52.7375537,-26.5868288992435,0.0 -52.7374138,-26.5866637992435,0.0 -52.7373553,-26.5865994992435,0.0 -52.7372452,-26.5865123992435,0.0 -52.7370525,-26.5864205992435,0.0 -52.7369149,-26.5863838992435,0.0 -52.7367543,-26.5863425992435,0.0 -52.7366442,-26.5863150992435,0.0 -52.7365204,-26.5862829992435,0.0 -52.7363789,-26.5862447992435,0.0 -52.7362314,-26.5862049992435,0.0 -52.7361075,-26.5861315992435,0.0 -52.7359424,-26.5859893992435,0.0 -52.7357898,-26.5858219992435,0.0 -52.7354917,-26.5854824992435,0.0 -52.7353403,-26.5852049992435,0.0 -52.7352967,-26.5850971992435,0.0 -52.7352623,-26.5849824992435,0.0 -52.7352508,-26.5848562992435,0.0 -52.7352462,-26.5846704992435,0.0 -52.7352531,-26.5845191992435,0.0 -52.7352898,-26.5842106992435,0.0 -52.7353311,-26.5840546992435,0.0 -52.7353311,-26.5838711992435,0.0 -52.7352806,-26.5837472992435,0.0 -52.7351568,-26.5836142992435,0.0 -52.7350283,-26.5835546992435,0.0 -52.734854,-26.5835179992435,0.0 -52.7346613,-26.5835179992435,0.0 -52.7345512,-26.5835270992436,0.0 -52.7344044,-26.5835500992436,0.0 -52.7343723,-26.5835729992436,0.0 -52.734326,-26.5836038992435,0.0 -52.7341934,-26.5836922992435,0.0 -52.7340787,-26.5837885992435,0.0 -52.7337714,-26.5840179992435,0.0 -52.7335283,-26.5841417992435,0.0 -52.7332457,-26.5842186992435,0.0 -52.7328834,-26.5841911992435,0.0 -52.7326509,-26.5841705992435,0.0 -52.7324483,-26.5841959992435,0.0 -52.7321921,-26.5842512992435,0.0 -52.7318556,-26.5843461992435,0.0 -52.7315494,-26.5843739992435,0.0 -52.7314229,-26.5843524992435,0.0 -52.7312393,-26.5842649992435,0.0 -52.7306991,-26.5839407992435,0.0 -52.7303845,-26.5837957992435,0.0 -52.7302447,-26.5837421992435,0.0 -52.7301045,-26.5837498992435,0.0 -52.730008,-26.5837823992435,0.0 -52.7298734,-26.5837931992435,0.0 -52.7294466,-26.5837774992435,0.0 -52.7291216,-26.5837309992435,0.0 -52.7288154,-26.5836407992436,0.0 -52.728542,-26.5834221992436,0.0 -52.7283037,-26.5832249992436,0.0 -52.7281588,-26.5830154992436,0.0 -52.7280593,-26.5828051992436,0.0 -52.7278929,-26.5821512992436,0.0 -52.7276227,-26.5816356992436,0.0 -52.7275763,-26.5814884992436,0.0 -52.7275083,-26.5813566992436,0.0 -52.7274701,-26.5813063992436,0.0 -52.7274179,-26.5812804992436,0.0 -52.727372,-26.5812712992436,0.0 -52.7273169,-26.5812700992436,0.0 -52.7272237,-26.5812841992436,0.0 -52.7267331,-26.5814604992436,0.0 -52.7256024,-26.5817707992436,0.0 -52.7249958,-26.5821585992436,0.0 -52.724246,-26.5826717992436,0.0 -52.7239319,-26.5828526992436,0.0 -52.7237778,-26.5829019992436,0.0 -52.7236384,-26.5828935992436,0.0 -52.7233197,-26.5827688992436,0.0 -52.7229534,-26.5826302992436,0.0 -52.7221133,-26.5823391992436,0.0 -52.7212526,-26.5820253992436,0.0 -52.7204137,-26.5817437992436,0.0 -52.7203189,-26.5817363992436,0.0 -52.7202443,-26.5817380992436,0.0 -52.7201243,-26.5817468992436,0.0 -52.7082671,-26.5833676992436,0.0 -52.7070814,-26.5835297992436,0.0 -52.7072487,-26.5836651992436,0.0 -52.7073896,-26.5838232992435,0.0 -52.7074333,-26.5839842992435,0.0 -52.7074174,-26.5841633992435,0.0 -52.7073924,-26.5844315992435,0.0 -52.7073621,-26.5847569992435,0.0 -52.7073467,-26.5852485992435,0.0 -52.7073281,-26.5856942992435,0.0 -52.7073412,-26.5860521992435,0.0 -52.7073223,-26.5861862992435,0.0 -52.7072728,-26.5863623992435,0.0 -52.707158,-26.5865398992435,0.0 -52.7069246,-26.5867836992435,0.0 -52.7066253,-26.5870151992435,0.0 -52.7064599,-26.5871013992435,0.0 -52.7062213,-26.5871720992435,0.0 -52.7057423,-26.5873603992435,0.0 -52.7055611,-26.5874662992435,0.0 -52.7052637,-26.5876102992435,0.0 -52.7050164,-26.5877957992435,0.0 -52.7046459,-26.5881474992435,0.0 -52.7042601,-26.5885098992435,0.0 -52.7041055,-26.5886858992435,0.0 -52.7040007,-26.5887741992435,0.0 -52.7039415,-26.5888070992434,0.0 -52.7039101,-26.5888244992435,0.0 -52.7037115,-26.5888728992434,0.0 -52.7034123,-26.5889208992434,0.0 -52.7032551,-26.5889243992434,0.0 -52.7031,-26.5888997992434,0.0 -52.7026118,-26.5887742992435,0.0 -52.7018479,-26.5885926992434,0.0 -52.7015548,-26.5885386992435,0.0 -52.7014959,-26.5885278992434,0.0 -52.7012623,-26.5884812992435,0.0 -52.7003518,-26.5883591992435,0.0 -52.699706,-26.5882599992435,0.0 -52.6992056,-26.5881699992435,0.0 -52.6986935,-26.5880504992435,0.0 -52.6985953,-26.5880275992435,0.0 -52.6980065,-26.5878013992435,0.0 -52.6975962,-26.5876403992435,0.0 -52.6971095,-26.5874636992435,0.0 -52.6968824,-26.5874068992435,0.0 -52.6967324,-26.5873904992435,0.0 -52.6965804,-26.5873895992435,0.0 -52.6963233,-26.5874404992435,0.0 -52.6960189,-26.5875075992435,0.0 -52.6956127,-26.5875747992435,0.0 -52.6952884,-26.5876665992435,0.0 -52.6949733,-26.5877907992435,0.0 -52.6947328,-26.5879404992435,0.0 -52.6945219,-26.5880995992435,0.0 -52.6942928,-26.5883136992435,0.0 -52.6939134,-26.5885783992434,0.0 -52.6936556,-26.5888059992435,0.0 -52.6933809,-26.5890543992434,0.0 -52.6930267,-26.5893627992434,0.0 -52.6928378,-26.5895739992434,0.0 -52.6925855,-26.5898804992434,0.0 -52.6925142,-26.5899485992434,0.0 -52.6922602,-26.5901911992434,0.0 -52.6920075,-26.5903786992434,0.0 -52.6917403,-26.5906318992434,0.0 -52.6913949,-26.5909778992434,0.0 -52.6909066,-26.5914618992434,0.0 -52.6906904,-26.5916721992434,0.0 -52.6905036,-26.5918213992434,0.0 -52.6902433,-26.5920176992434,0.0 -52.6898326,-26.5922895992434,0.0 -52.6893313,-26.5925675992434,0.0 -52.6889682,-26.5927933992434,0.0 -52.6887283,-26.5929603992434,0.0 -52.6883722,-26.5931881992434,0.0 -52.688223,-26.5933203992434,0.0 -52.6880943,-26.5934344992434,0.0 -52.6877731,-26.5936825992434,0.0 -52.6876498,-26.5937626992434,0.0 -52.6874999,-26.5938029992434,0.0 -52.6872359,-26.5939570992433,0.0 -52.6867104,-26.5942227992433,0.0 -52.6863691,-26.5943842992433,0.0 -52.6862737,-26.5944434992433,0.0 -52.6861412,-26.5945355992433,0.0 -52.6860487,-26.5945839992433,0.0 -52.685944,-26.5946229992433,0.0 -52.6857313,-26.5946809992433,0.0 -52.6854841,-26.5947500992433,0.0 -52.6853295,-26.5948296992433,0.0 -52.6852029,-26.5949175992433,0.0 -52.6849846,-26.5951052992433,0.0 -52.6848835,-26.5951997992433,0.0 -52.6847484,-26.5953260992433,0.0 -52.6845976,-26.5954710992433,0.0 -52.6845245,-26.5955413992433,0.0 -52.6842882,-26.5957684992433,0.0 -52.6839129,-26.5961302992433,0.0 -52.6837994,-26.5962612992433,0.0 -52.6837214,-26.5963550992433,0.0 -52.6836454,-26.5964251992433,0.0 -52.6835454,-26.5964932992433,0.0 -52.68334,-26.5965907992433,0.0 -52.6828348,-26.5967501992433,0.0 -52.68218,-26.5969536992433,0.0 -52.6816873,-26.5971452992433,0.0 -52.6810521,-26.5974552992433,0.0 -52.6805682,-26.5976893992433,0.0 -52.6804083,-26.5977733992433,0.0 -52.6803393,-26.5978260992433,0.0 -52.6803086,-26.5978609992433,0.0 -52.6802475,-26.5979589992433,0.0 -52.6800319,-26.5983482992433,0.0 -52.6798913,-26.5984953992433,0.0 -52.6796559,-26.5986818992433,0.0 -52.6794164,-26.5989201992432,0.0 -52.6792818,-26.5991192992432,0.0 -52.679004,-26.5995512992432,0.0 -52.6788632,-26.5997970992432,0.0 -52.6787979,-26.5999360992432,0.0 -52.6786218,-26.6002481992432,0.0 -52.67841,-26.6005682992432,0.0 -52.6782301,-26.6007850992432,0.0 -52.6781161,-26.6008879992432,0.0 -52.6779634,-26.6009675992432,0.0 -52.6778006,-26.6010234992432,0.0 -52.6774599,-26.6010836992432,0.0 -52.6771615,-26.6010720992432,0.0 -52.6767036,-26.6010104992432,0.0 -52.6762593,-26.6008925992432,0.0 -52.6755763,-26.6006735992432,0.0 -52.6750255,-26.6005114992432,0.0 -52.6747304,-26.6003982992432,0.0 -52.674615,-26.6003272992432,0.0 -52.6745103,-26.6002355992432,0.0 -52.6744166,-26.6000811992432,0.0 -52.6741996,-26.5998762992432,0.0 -52.6737978,-26.5995500992432,0.0 -52.6736294,-26.5994133992432,0.0 -52.6733431,-26.5992438992432,0.0 -52.6731788,-26.5991918992432,0.0 -52.673044,-26.5991825992432,0.0 -52.6729477,-26.5991772992432,0.0 -52.6728518,-26.5992032992432,0.0 -52.6727583,-26.5992711992432,0.0 -52.6726565,-26.5994679992432,0.0 -52.6725313,-26.5997126992432,0.0 -52.6723235,-26.6000613992432,0.0 -52.6721089,-26.6005529992432,0.0 -52.6720077,-26.6008488992432,0.0 -52.6719273,-26.6010256992432,0.0 -52.6718469,-26.6012023992432,0.0 -52.6717002,-26.6014670992432,0.0 -52.6711484,-26.6025179992432,0.0 -52.6710599,-26.6027398992432,0.0 -52.6710299,-26.6028730992432,0.0 -52.6709999,-26.6030062992432,0.0 -52.670974,-26.6032702992432,0.0 -52.6709721,-26.6034397992432,0.0 -52.6710137,-26.6036686992432,0.0 -52.6711336,-26.6041575992432,0.0 -52.671162,-26.6043483992431,0.0 -52.6711484,-26.6045835992431,0.0 -52.6710842,-26.6051646992431,0.0 -52.6710217,-26.6055505992431,0.0 -52.6709736,-26.6062160992431,0.0 -52.6709829,-26.6066255992431,0.0 -52.6710169,-26.6068605992431,0.0 -52.6710913,-26.6070613992431,0.0 -52.6711868,-26.6073088992431,0.0 -52.6712056,-26.6074309992431,0.0 -52.6712283,-26.6078218992431,0.0 -52.6712082,-26.6080829992431,0.0 -52.6711315,-26.6084230992431,0.0 -52.6710246,-26.6088080992431,0.0 -52.6709167,-26.609344199243,0.0 -52.6708855,-26.609776999243,0.0 -52.6708183,-26.610309699243,0.0 -52.6707692,-26.610454899243,0.0 -52.6707026,-26.610553499243,0.0 -52.6706152,-26.610627899243,0.0 -52.6704955,-26.610818799243,0.0 -52.6703072,-26.611238099243,0.0 -52.6702734,-26.611352499243,0.0 -52.6702611,-26.611540899243,0.0 -52.6702683,-26.611919499243,0.0 -52.6703037,-26.612166099243,0.0 -52.6703025,-26.612309199243,0.0 -52.6702487,-26.612536799243,0.0 -52.6701459,-26.612730799243,0.0 -52.6700119,-26.612857299243,0.0 -52.6699074,-26.612933899243,0.0 -52.6697206,-26.613006899243,0.0 -52.6696269,-26.613015499243,0.0 -52.6694959,-26.613001999243,0.0 -52.6693445,-26.612969099243,0.0 -52.6691778,-26.612922899243,0.0 -52.6685636,-26.612839699243,0.0 -52.667987,-26.612737999243,0.0 -52.6675403,-26.612620899243,0.0 -52.6671429,-26.612502099243,0.0 -52.667015,-26.612465899243,0.0 -52.6668841,-26.612459999243,0.0 -52.6667252,-26.612488899243,0.0 -52.666585,-26.612529699243,0.0 -52.6665002,-26.612583399243,0.0 -52.6664057,-26.612658299243,0.0 -52.6663999,-26.612718599243,0.0 -52.6664213,-26.612805699243,0.0 -52.6666224,-26.613100099243,0.0 -52.6668517,-26.613376499243,0.0 -52.6669988,-26.613540899243,0.0 -52.6671328,-26.613626699243,0.0 -52.6673829,-26.613696199243,0.0 -52.6678506,-26.613823999243,0.0 -52.6684561,-26.614032099243,0.0 -52.6693116,-26.614229299243,0.0 -52.6701944,-26.6144191992429,0.0 -52.6709668,-26.6146045992429,0.0 -52.6713198,-26.6147409992429,0.0 -52.671685,-26.6148964992429,0.0 -52.6721621,-26.6151901992429,0.0 -52.6725296,-26.6155054992429,0.0 -52.6732811,-26.6162889992429,0.0 -52.6738903,-26.6167756992429,0.0 -52.6745797,-26.6172764992429,0.0 -52.6750006,-26.6176746992429,0.0 -52.6752712,-26.6180174992429,0.0 -52.6753181,-26.6181587992429,0.0 -52.6753237,-26.6182829992429,0.0 -52.6752891,-26.6184782992429,0.0 -52.6752188,-26.6187813992429,0.0 -52.6751725,-26.6189683992428,0.0 -52.6749629,-26.6194680992428,0.0 -52.6747708,-26.6199150992428,0.0 -52.6746284,-26.6201519992428,0.0 -52.6744255,-26.6203457992428,0.0 -52.6740033,-26.6206295992428,0.0 -52.6737626,-26.6208456992428,0.0 -52.6735677,-26.6210763992428,0.0 -52.6734421,-26.6211853992428,0.0 -52.6732826,-26.6212778992428,0.0 -52.6730628,-26.6213342992428,0.0 -52.6723948,-26.6214395992428,0.0 -52.6721294,-26.6214493992428,0.0 -52.6718708,-26.6214154992428,0.0 -52.671304,-26.6212742992428,0.0 -52.6707445,-26.6211229992428,0.0 -52.6702622,-26.6210345992428,0.0 -52.6696331,-26.6209848992428,0.0 -52.6690894,-26.6208870992428,0.0 -52.6685184,-26.6208052992428,0.0 -52.6681304,-26.6207267992428,0.0 -52.6678396,-26.6206258992428,0.0 -52.6674061,-26.6204637992428,0.0 -52.6669445,-26.6203298992428,0.0 -52.6664356,-26.6201167992428,0.0 -52.6662444,-26.6200230992428,0.0 -52.6661363,-26.6199365992428,0.0 -52.6660371,-26.6198318992428,0.0 -52.665875,-26.6197095992428,0.0 -52.665645,-26.6196240992428,0.0 -52.6653456,-26.6195613992428,0.0 -52.6650008,-26.6194821992428,0.0 -52.664669,-26.6193616992428,0.0 -52.6642745,-26.6192288992428,0.0 -52.6638848,-26.6191655992429,0.0 -52.6635994,-26.6191006992429,0.0 -52.6629426,-26.6189229992429,0.0 -52.6626625,-26.6188532992429,0.0 -52.6624023,-26.6188281992429,0.0 -52.662235,-26.6188515992429,0.0 -52.6621284,-26.6188760992429,0.0 -52.6620642,-26.6189103992429,0.0 -52.6620461,-26.6189200992429,0.0 -52.661946,-26.6190072992429,0.0 -52.6619176,-26.6190804992429,0.0 -52.6618317,-26.6194116992428,0.0 -52.6617108,-26.6198434992428,0.0 -52.6616447,-26.6201231992428,0.0 -52.6616192,-26.6204089992428,0.0 -52.6615901,-26.6206923992428,0.0 -52.661504,-26.6209988992428,0.0 -52.6614622,-26.6211698992428,0.0 -52.6614104,-26.6214087992428,0.0 -52.6612682,-26.6219179992428,0.0 -52.6611798,-26.6224063992428,0.0 -52.6611683,-26.6227833992428,0.0 -52.6612097,-26.6230984992428,0.0 -52.6612822,-26.6233055992428,0.0 -52.6614041,-26.6234747992428,0.0 -52.661491,-26.6235361992428,0.0 -52.6615142,-26.6235388992428,0.0 -52.6615603,-26.6235234992428,0.0 -52.6616259,-26.6234811992428,0.0 -52.6617439,-26.6234084992428,0.0 -52.6618888,-26.6233591992428,0.0 -52.6620868,-26.6233271992428,0.0 -52.6624373,-26.6233111992428,0.0 -52.6629149,-26.6233061992428,0.0 -52.6630447,-26.6233551992428,0.0 -52.6631616,-26.6234340992428,0.0 -52.6632337,-26.6236174992428,0.0 -52.6633824,-26.6240584992428,0.0 -52.6634206,-26.6241897992428,0.0 -52.6634164,-26.6243562992427,0.0 -52.6633104,-26.6250032992427,0.0 -52.6632578,-26.6254138992427,0.0 -52.6632307,-26.6256312992427,0.0 -52.6632473,-26.6262552992427,0.0 -52.6632231,-26.6266694992427,0.0 -52.6632863,-26.6271233992427,0.0 -52.6633037,-26.6275437992427,0.0 -52.6633213,-26.6277165992427,0.0 -52.6633084,-26.6278693992427,0.0 -52.6632618,-26.6280395992427,0.0 -52.6632192,-26.6282266992427,0.0 -52.663204,-26.6284778992427,0.0 -52.6631766,-26.6286749992427,0.0 -52.6631404,-26.6287805992427,0.0 -52.6630417,-26.6290022992427,0.0 -52.6629129,-26.6292276992427,0.0 -52.6627736,-26.6295142992427,0.0 -52.6626932,-26.6296983992426,0.0 -52.6625894,-26.6298284992426,0.0 -52.662397,-26.6300987992426,0.0 -52.6622639,-26.6302936992426,0.0 -52.6621127,-26.6305362992426,0.0 -52.6619497,-26.6306960992426,0.0 -52.661934,-26.6307114992426,0.0 -52.6617023,-26.6308667992426,0.0 -52.6615371,-26.6309297992426,0.0 -52.661432,-26.6309751992426,0.0 -52.6614073,-26.6309744992426,0.0 -52.6613452,-26.6309727992426,0.0 -52.6612499,-26.6309127992426,0.0 -52.6610538,-26.6306640992426,0.0 -52.6608314,-26.6304189992426,0.0 -52.6604946,-26.6301040992426,0.0 -52.6603539,-26.6300344992426,0.0 -52.6602211,-26.6299859992426,0.0 -52.6601074,-26.6299516992426,0.0 -52.6597951,-26.6298942992426,0.0 -52.6596985,-26.6298673992426,0.0 -52.6594424,-26.6297736992426,0.0 -52.6593117,-26.6297471992426,0.0 -52.659119,-26.6297316992426,0.0 -52.6589861,-26.6297433992426,0.0 -52.6588735,-26.6297879992426,0.0 -52.6587756,-26.6298704992426,0.0 -52.6586639,-26.6299786992426,0.0 -52.6585502,-26.6301402992426,0.0 -52.6584476,-26.6302890992426,0.0 -52.658336,-26.6304048992426,0.0 -52.6580359,-26.6305966992426,0.0 -52.6578532,-26.6306928992426,0.0 -52.6574736,-26.6308703992426,0.0 -52.6571701,-26.6310265992426,0.0 -52.6568665,-26.6311751992426,0.0 -52.6565377,-26.6313443992426,0.0 -52.6561635,-26.6315089992426,0.0 -52.655806,-26.6316479992426,0.0 -52.6555508,-26.6318163992426,0.0 -52.6554161,-26.6318967992426,0.0 -52.6553153,-26.6319768992426,0.0 -52.6552352,-26.6321151992426,0.0 -52.6551296,-26.6322512992426,0.0 -52.654967,-26.6323650992426,0.0 -52.6548184,-26.6324685992426,0.0 -52.6544489,-26.6327604992426,0.0 -52.6541912,-26.6329516992426,0.0 -52.6539147,-26.6332144992426,0.0 -52.65372,-26.6334533992426,0.0 -52.6535606,-26.6335900992426,0.0 -52.6534539,-26.6336523992426,0.0 -52.653335,-26.6336562992426,0.0 -52.6531937,-26.6336706992426,0.0 -52.6530805,-26.6336744992426,0.0 -52.6529843,-26.6336781992426,0.0 -52.6528817,-26.6336310992426,0.0 -52.6527729,-26.6335457992426,0.0 -52.6526759,-26.6334934992426,0.0 -52.6524999,-26.6334598992426,0.0 -52.6523355,-26.6334516992426,0.0 -52.6522018,-26.6334022992426,0.0 -52.6520989,-26.6333373992426,0.0 -52.6520447,-26.6333099992426,0.0 -52.6519621,-26.6332778992426,0.0 -52.6518851,-26.6332329992426,0.0 -52.6517163,-26.6331102992426,0.0 -52.6515824,-26.6330532992426,0.0 -52.6513461,-26.6329644992426,0.0 -52.6512205,-26.6328895992426,0.0 -52.6510525,-26.6328253992426,0.0 -52.6509101,-26.6327633992426,0.0 -52.6507753,-26.6326453992426,0.0 -52.6506123,-26.6325327992426,0.0 -52.6504032,-26.6323621992426,0.0 -52.6502912,-26.6322515992426,0.0 -52.6501806,-26.6320416992426,0.0 -52.6500583,-26.6318089992426,0.0 -52.6497811,-26.6314279992426,0.0 -52.6496392,-26.6312107992426,0.0 -52.6495663,-26.6310640992426,0.0 -52.6494871,-26.6308690992426,0.0 -52.6493933,-26.6306462992426,0.0 -52.6493277,-26.6304154992426,0.0 -52.6492969,-26.6302402992426,0.0 -52.6492611,-26.6301160992426,0.0 -52.6491596,-26.6299492992426,0.0 -52.649073,-26.6298332992426,0.0 -52.6490261,-26.6297192992426,0.0 -52.6489812,-26.6295467992426,0.0 -52.6489675,-26.6293815992426,0.0 -52.6489653,-26.6292314992427,0.0 -52.6490076,-26.6290223992427,0.0 -52.6490443,-26.6288183992427,0.0 -52.6490606,-26.6287723992427,0.0 -52.6490765,-26.6286907992427,0.0 -52.6490974,-26.6285709992427,0.0 -52.6490818,-26.6284718992427,0.0 -52.6490714,-26.6283396992427,0.0 -52.6490745,-26.6281615992427,0.0 -52.6490359,-26.6280347992427,0.0 -52.6490022,-26.6278545992427,0.0 -52.648915,-26.6275043992427,0.0 -52.6488437,-26.6272686992427,0.0 -52.6487398,-26.6269314992427,0.0 -52.6486392,-26.6266272992427,0.0 -52.6485665,-26.6264957992427,0.0 -52.6484945,-26.6264075992427,0.0 -52.6484534,-26.6263113992427,0.0 -52.6483868,-26.6262052992427,0.0 -52.6482753,-26.6261302992427,0.0 -52.6481136,-26.6261041992427,0.0 -52.6479239,-26.6261063992427,0.0 -52.6476498,-26.6261374992427,0.0 -52.6473508,-26.6262121992427,0.0 -52.6471594,-26.6262907992427,0.0 -52.6468601,-26.6265409992427,0.0 -52.6465489,-26.6267532992427,0.0 -52.6462392,-26.6270697992427,0.0 -52.6459848,-26.6272966992427,0.0 -52.6456596,-26.6277176992427,0.0 -52.645538,-26.6279251992427,0.0 -52.6454826,-26.6280123992427,0.0 -52.645425,-26.6281402992427,0.0 -52.6453292,-26.6283677992427,0.0 -52.645204,-26.6287177992427,0.0 -52.6450727,-26.6290373992427,0.0 -52.644986,-26.6293131992427,0.0 -52.6449327,-26.6295402992426,0.0 -52.6448834,-26.6298537992426,0.0 -52.644868,-26.6299658992426,0.0 -52.6448091,-26.6302057992426,0.0 -52.6446659,-26.6306806992426,0.0 -52.6445737,-26.6309641992426,0.0 -52.6445394,-26.6311401992426,0.0 -52.6445167,-26.6313337992426,0.0 -52.6444053,-26.6316632992426,0.0 -52.6443114,-26.6319011992426,0.0 -52.6442277,-26.6321131992426,0.0 -52.6440547,-26.6326825992426,0.0 -52.643883,-26.6331475992426,0.0 -52.6438112,-26.6334690992426,0.0 -52.6436996,-26.6337832992426,0.0 -52.6435924,-26.6340083992426,0.0 -52.6435257,-26.6340982992426,0.0 -52.643416,-26.6341478992426,0.0 -52.6432128,-26.6341934992426,0.0 -52.6430033,-26.6341933992426,0.0 -52.6426429,-26.6341364992426,0.0 -52.6422564,-26.6340289992426,0.0 -52.641935,-26.6339308992426,0.0 -52.6417386,-26.6338542992426,0.0 -52.6414792,-26.6337300992426,0.0 -52.6413823,-26.6336878992426,0.0 -52.6412543,-26.6336410992426,0.0 -52.6409292,-26.6334793992426,0.0 -52.6406978,-26.6333344992426,0.0 -52.6404092,-26.6331520992426,0.0 -52.6401682,-26.6329258992426,0.0 -52.639924,-26.6326793992426,0.0 -52.6397887,-26.6325180992426,0.0 -52.6394958,-26.6322288992426,0.0 -52.6393577,-26.6320803992426,0.0 -52.6391125,-26.6317574992426,0.0 -52.6389856,-26.6315960992426,0.0 -52.6389334,-26.6315101992426,0.0 -52.6389211,-26.6314365992426,0.0 -52.638962,-26.6313317992426,0.0 -52.6390729,-26.6311650992426,0.0 -52.6392497,-26.6308576992426,0.0 -52.6394118,-26.6305097992426,0.0 -52.6395446,-26.6300986992426,0.0 -52.6395792,-26.6299430992426,0.0 -52.6396283,-26.6298101992426,0.0 -52.6398318,-26.6293930992426,0.0 -52.6399308,-26.6291858992427,0.0 -52.6399715,-26.6290657992427,0.0 -52.6399843,-26.6289689992427,0.0 -52.6400225,-26.6288692992427,0.0 -52.6400771,-26.6287261992427,0.0 -52.6401,-26.6285477992427,0.0 -52.6401348,-26.6284099992427,0.0 -52.6402064,-26.6282641992427,0.0 -52.6402416,-26.6281542992427,0.0 -52.6402477,-26.6279837992427,0.0 -52.6402796,-26.6278383992427,0.0 -52.6402972,-26.6276854992427,0.0 -52.6403039,-26.6275607992427,0.0 -52.6402787,-26.6273829992427,0.0 -52.6402831,-26.6272912992427,0.0 -52.6403109,-26.6270619992427,0.0 -52.6403575,-26.6267510992427,0.0 -52.6403766,-26.6265090992427,0.0 -52.640403,-26.6263713992427,0.0 -52.6404491,-26.6262283992427,0.0 -52.6405201,-26.6260443992427,0.0 -52.6405647,-26.6257995992427,0.0 -52.6406047,-26.6254276992427,0.0 -52.6406361,-26.6252516992427,0.0 -52.6406443,-26.6250025992427,0.0 -52.6406926,-26.6238637992428,0.0 -52.6407191,-26.6234029992428,0.0 -52.6407872,-26.6229727992428,0.0 -52.6407837,-26.6227323992428,0.0 -52.6407024,-26.6225222992428,0.0 -52.6403514,-26.6221894992428,0.0 -52.6400482,-26.6220300992428,0.0 -52.6399447,-26.6219979992428,0.0 -52.6398621,-26.6219877992428,0.0 -52.6397572,-26.6219856992428,0.0 -52.6396336,-26.6220139992428,0.0 -52.6394794,-26.6220963992428,0.0 -52.6392727,-26.6222946992428,0.0 -52.638858,-26.6227368992428,0.0 -52.6384173,-26.6231235992428,0.0 -52.6381143,-26.6233497992428,0.0 -52.6378964,-26.6235230992428,0.0 -52.6377718,-26.6236222992428,0.0 -52.6374742,-26.6240135992427,0.0 -52.6372256,-26.6244846992427,0.0 -52.637052,-26.6250020992427,0.0 -52.636858,-26.6254077992427,0.0 -52.6366055,-26.6257746992427,0.0 -52.6364164,-26.6259973992427,0.0 -52.6362426,-26.6261427992427,0.0 -52.6361086,-26.6262178992427,0.0 -52.6359827,-26.6262781992427,0.0 -52.635803,-26.6263022992427,0.0 -52.6355822,-26.6263084992427,0.0 -52.6353165,-26.6263188992427,0.0 -52.6350109,-26.6264069992427,0.0 -52.634587,-26.6265147992427,0.0 -52.6344318,-26.6265349992427,0.0 -52.6340677,-26.6265280992427,0.0 -52.6338349,-26.6265601992427,0.0 -52.6333776,-26.6266205992427,0.0 -52.6330431,-26.6266869992427,0.0 -52.6329087,-26.6267252992427,0.0 -52.6328114,-26.6267888992427,0.0 -52.6326904,-26.6269115992427,0.0 -52.6325497,-26.6270859992427,0.0 -52.6324046,-26.6272384992427,0.0 -52.6322224,-26.6273728992427,0.0 -52.6320981,-26.6275470992427,0.0 -52.6320347,-26.6276948992427,0.0 -52.6320373,-26.6278750992427,0.0 -52.6320941,-26.6281280992427,0.0 -52.6320899,-26.6284075992427,0.0 -52.632058,-26.6287534992427,0.0 -52.6320129,-26.6290371992427,0.0 -52.631934,-26.6292439992427,0.0 -52.6319343,-26.6295490992427,0.0 -52.6319555,-26.6298907992426,0.0 -52.6319256,-26.6300896992426,0.0 -52.6319269,-26.6301815992426,0.0 -52.6319615,-26.6303134992426,0.0 -52.6321175,-26.6306389992426,0.0 -52.632221,-26.6310127992426,0.0 -52.6322824,-26.6313061992426,0.0 -52.6323267,-26.6315409992426,0.0 -52.6323777,-26.6316764992426,0.0 -52.6324348,-26.6319551992426,0.0 -52.6324977,-26.6323813992426,0.0 -52.6325472,-26.6327925992426,0.0 -52.6325655,-26.6330379992426,0.0 -52.6325793,-26.6331949992426,0.0 -52.6325944,-26.6332878992426,0.0 -52.6326136,-26.6333414992426,0.0 -52.6326253,-26.6335191992426,0.0 -52.6326722,-26.6338136992426,0.0 -52.6327048,-26.6343795992425,0.0 -52.6327445,-26.6348717992425,0.0 -52.6327989,-26.6352461992425,0.0 -52.6328098,-26.6354334992425,0.0 -52.6327514,-26.6356437992425,0.0 -52.63274,-26.6356880992425,0.0 -52.6327049,-26.6358244992425,0.0 -52.6326243,-26.6359135992425,0.0 -52.6324498,-26.6360148992425,0.0 -52.6323191,-26.6360310992425,0.0 -52.6321067,-26.6360555992425,0.0 -52.631814,-26.6361839992425,0.0 -52.6316345,-26.6362190992425,0.0 -52.6314834,-26.6362355992425,0.0 -52.631262,-26.6362049992425,0.0 -52.6309498,-26.6361129992425,0.0 -52.6307406,-26.6360749992425,0.0 -52.6303184,-26.6360209992425,0.0 -52.6300596,-26.6359430992425,0.0 -52.6297516,-26.6358619992425,0.0 -52.6293414,-26.6357858992425,0.0 -52.6289556,-26.6356983992425,0.0 -52.6287957,-26.6356744992425,0.0 -52.6285623,-26.6356623992425,0.0 -52.6284273,-26.6356639992425,0.0 -52.6282636,-26.6356584992425,0.0 -52.6279807,-26.6356138992425,0.0 -52.6277185,-26.6355874992425,0.0 -52.6276609,-26.6355770992425,0.0 -52.6274519,-26.6355390992425,0.0 -52.6273446,-26.6354777992425,0.0 -52.6271561,-26.6354505992425,0.0 -52.6269102,-26.6354202992425,0.0 -52.626452,-26.6354254992425,0.0 -52.6262023,-26.6354136992425,0.0 -52.6259893,-26.6353940992425,0.0 -52.6258011,-26.6353924992425,0.0 -52.6255842,-26.6353912992425,0.0 -52.6254039,-26.6353676992425,0.0 -52.6252362,-26.6353695992425,0.0 -52.6250726,-26.6353750992425,0.0 -52.6249999,-26.6353907992425,0.0 -52.624549,-26.6354649992425,0.0 -52.6239182,-26.6356648992425,0.0 -52.6233922,-26.6358326992425,0.0 -52.6231163,-26.6358988992425,0.0 -52.6227142,-26.6359561992425,0.0 -52.6226654,-26.6359638992425,0.0 -52.6222396,-26.6360306992425,0.0 -52.621951,-26.6360957992425,0.0 -52.6217218,-26.6361588992425,0.0 -52.6210549,-26.6363809992425,0.0 -52.6205826,-26.6365650992425,0.0 -52.6200753,-26.6367671992425,0.0 -52.6197901,-26.6369213992425,0.0 -52.6194044,-26.6371720992425,0.0 -52.6193885,-26.6371851992425,0.0 -52.6191723,-26.6373636992425,0.0 -52.6190608,-26.6374994992425,0.0 -52.6188458,-26.6377830992425,0.0 -52.6186789,-26.6380067992425,0.0 -52.618579,-26.6381699992425,0.0 -52.6184905,-26.6383527992425,0.0 -52.6182718,-26.6389479992425,0.0 -52.618213,-26.6392453992425,0.0 -52.6181403,-26.6395000992425,0.0 -52.6180504,-26.6398033992424,0.0 -52.6179773,-26.6400338992424,0.0 -52.6179555,-26.6401104992424,0.0 -52.6179174,-26.6402440992424,0.0 -52.6178629,-26.6405106992424,0.0 -52.6178432,-26.6407157992424,0.0 -52.6178657,-26.6409074992424,0.0 -52.6179191,-26.6410879992424,0.0 -52.6180151,-26.6413282992424,0.0 -52.6180699,-26.6414641992424,0.0 -52.6181153,-26.6415625992424,0.0 -52.618178,-26.6416291992424,0.0 -52.618276,-26.6417052992424,0.0 -52.6185506,-26.6418118992424,0.0 -52.6189616,-26.6419685992424,0.0 -52.6191744,-26.6420673992424,0.0 -52.6193626,-26.6421727992424,0.0 -52.6195295,-26.6422657992424,0.0 -52.6200522,-26.6425983992424,0.0 -52.6204224,-26.6427827992424,0.0 -52.6207885,-26.6430095992424,0.0 -52.6213069,-26.6432883992424,0.0 -52.6216566,-26.6434788992424,0.0 -52.6220831,-26.6437397992424,0.0 -52.6225985,-26.6440533992424,0.0 -52.6232538,-26.6444650992423,0.0 -52.6235921,-26.6447142992424,0.0 -52.6239633,-26.6449644992423,0.0 -52.6241904,-26.6450789992423,0.0 -52.624499,-26.6452209992423,0.0 -52.6254584,-26.6457091992423,0.0 -52.6259323,-26.6460410992423,0.0 -52.6262927,-26.6462592992423,0.0 -52.6313605,-26.6419961992424,0.0 -52.6318175,-26.6421216992424,0.0 -52.6328637,-26.6424090992424,0.0 -52.6339904,-26.6427806992424,0.0 -52.6345567,-26.6429674992424,0.0 -52.6352643,-26.6433404992424,0.0 -52.6357792,-26.6436523992424,0.0 -52.636551,-26.6442526992424,0.0 -52.6366758,-26.6444108992424,0.0 -52.6367611,-26.6445560992423,0.0 -52.6367853,-26.6447796992423,0.0 -52.636701,-26.6454317992423,0.0 -52.6369154,-26.6460319992423,0.0 -52.6376044,-26.6468425992423,0.0 -52.6379881,-26.6473158992423,0.0 -52.6388877,-26.6481460992423,0.0 -52.6393593,-26.6484330992423,0.0 -52.6398953,-26.6487117992423,0.0 -52.64086,-26.6485187992423,0.0 -52.6416103,-26.6490761992423,0.0 -52.6423392,-26.6490547992423,0.0 -52.6428759,-26.6493118992423,0.0 -52.6429875,-26.6493358992423,0.0 -52.6430707,-26.6493504992423,0.0 -52.6432143,-26.6493774992423,0.0 -52.6433579,-26.6494211992423,0.0 -52.643514,-26.6495190992422,0.0 -52.6435972,-26.6495689992423,0.0 -52.6436742,-26.6496230992423,0.0 -52.6437283,-26.6496729992423,0.0 -52.6437658,-26.6497229992423,0.0 -52.6437891,-26.6497493992422,0.0 -52.6438282,-26.6497936992422,0.0 -52.643874,-26.6498457992423,0.0 -52.6439302,-26.6498811992422,0.0 -52.6439926,-26.6499143992422,0.0 -52.6440785,-26.6499539992422,0.0 -52.6441159,-26.6499685992422,0.0 -52.6442507,-26.6500267992422,0.0 -52.6443256,-26.6500517992422,0.0 -52.6443485,-26.6500590992422,0.0 -52.6444099,-26.6500683992422,0.0 -52.6444661,-26.6500694992422,0.0 -52.6445514,-26.6500642992422,0.0 -52.6446752,-26.6500350992423,0.0 -52.6448396,-26.6500080992422,0.0 -52.6449998,-26.6499830992422,0.0 -52.6452537,-26.6499622992422,0.0 -52.6455055,-26.6499393992422,0.0 -52.645697,-26.6499352992422,0.0 -52.6458198,-26.6499372992422,0.0 -52.6460986,-26.6499331992422,0.0 -52.6463151,-26.6499705992423,0.0 -52.6465523,-26.6500080992422,0.0 -52.6468187,-26.6500704992422,0.0 -52.6470393,-26.6501453992422,0.0 -52.6471974,-26.6501870992422,0.0 -52.6473389,-26.6502203992422,0.0 -52.6475356,-26.6502557992422,0.0 -52.6476854,-26.6502827992422,0.0 -52.6477874,-26.6503066992422,0.0 -52.6479091,-26.6503316992422,0.0 -52.6480236,-26.6503638992422,0.0 -52.6480871,-26.6503826992422,0.0 -52.6482972,-26.6504617992422,0.0 -52.6485386,-26.6505699992422,0.0 -52.648778,-26.6507343992422,0.0 -52.6490006,-26.6509445992422,0.0 -52.6491671,-26.6511109992422,0.0 -52.6494252,-26.6514106992422,0.0 -52.6496083,-26.6515459992422,0.0 -52.6498247,-26.6516874992422,0.0 -52.6501951,-26.6517540992422,0.0 -52.6507529,-26.6518414992422,0.0 -52.6511066,-26.6519038992422,0.0 -52.6519494,-26.6519746992422,0.0 -52.6519942,-26.6519746992422,0.0 -52.6526903,-26.6519746992422,0.0 -52.65299,-26.6519746992422,0.0 -52.6535144,-26.6519829992422,0.0 -52.6541803,-26.6518747992422,0.0 -52.6549191,-26.6517207992422,0.0 -52.6551592,-26.6516227992422,0.0 -52.6552354,-26.6515917992422,0.0 -52.6554185,-26.6515292992422,0.0 -52.6555767,-26.6514710992422,0.0 -52.6557265,-26.6514169992422,0.0 -52.6558722,-26.6513960992422,0.0 -52.6560012,-26.6513960992422,0.0 -52.6561178,-26.6514169992422,0.0 -52.6562176,-26.6514793992422,0.0 -52.6562759,-26.6515584992422,0.0 -52.6563467,-26.6516707992422,0.0 -52.6565318,-26.6518553992422,0.0 -52.6566848,-26.6520079992422,0.0 -52.6568222,-26.6521494992422,0.0 -52.6570844,-26.6523741992422,0.0 -52.6572883,-26.6525697992422,0.0 -52.6575797,-26.6527695992422,0.0 -52.6581093,-26.6531795992422,0.0 -52.6584215,-26.6534459992422,0.0 -52.6587503,-26.6536789992422,0.0 -52.6589417,-26.6537747992422,0.0 -52.6593798,-26.6539266992422,0.0 -52.6596461,-26.6540390992422,0.0 -52.6599541,-26.6541638992422,0.0 -52.6602788,-26.6542970992422,0.0 -52.6605961,-26.6544697992422,0.0 -52.6608072,-26.6545808992422,0.0 -52.6609915,-26.6546778992422,0.0 -52.6613411,-26.6548401992422,0.0 -52.6617657,-26.6550982992421,0.0 -52.6620112,-26.6552772992421,0.0 -52.6622693,-26.6555352992421,0.0 -52.6625232,-26.6557891992421,0.0 -52.6626813,-26.6559889992421,0.0 -52.6627687,-26.6561512992421,0.0 -52.6628312,-26.6563427992421,0.0 -52.6628686,-26.6565508992421,0.0 -52.6628853,-26.6567547992421,0.0 -52.6628645,-26.6568692992421,0.0 -52.6627895,-26.6570356992421,0.0 -52.662673,-26.6571647992421,0.0 -52.6625668,-26.6572771992421,0.0 -52.6625315,-26.6573145992421,0.0 -52.6624316,-26.6574643992421,0.0 -52.66239,-26.6576142992421,0.0 -52.6623608,-26.6577515992421,0.0 -52.6623608,-26.6578348992421,0.0 -52.6623879,-26.6581011992421,0.0 -52.6624432,-26.6582542992421,0.0 -52.6626043,-26.6587005992421,0.0 -52.662929,-26.6592665992421,0.0 -52.6632286,-26.6595745992421,0.0 -52.663545,-26.6598991992421,0.0 -52.6638363,-26.660148999242,0.0 -52.664061,-26.660423699242,0.0 -52.6642525,-26.660606799242,0.0 -52.6644773,-26.660831499242,0.0 -52.6645855,-26.661039599242,0.0 -52.6646188,-26.661231099242,0.0 -52.6646188,-26.661439199242,0.0 -52.6645522,-26.661663899242,0.0 -52.6644023,-26.662005199242,0.0 -52.6642109,-26.662242499242,0.0 -52.6638529,-26.662750199242,0.0 -52.6636199,-26.662991599242,0.0 -52.6634691,-26.663175999242,0.0 -52.6634138,-26.663243499242,0.0 -52.6633722,-26.663312099242,0.0 -52.6633514,-26.663407899242,0.0 -52.6633514,-26.663468199242,0.0 -52.6633826,-26.663530599242,0.0 -52.6634347,-26.663574299242,0.0 -52.6635096,-26.663605599242,0.0 -52.6640075,-26.663868799242,0.0 -52.6642946,-26.663957199242,0.0 -52.6645485,-26.664035299242,0.0 -52.6649814,-26.664151799242,0.0 -52.6653227,-26.664210099242,0.0 -52.6656223,-26.664259999242,0.0 -52.6660739,-26.664364099242,0.0 -52.6662654,-26.664438999242,0.0 -52.6666402,-26.664623099242,0.0 -52.6667399,-26.664672099242,0.0 -52.6670895,-26.664955099242,0.0 -52.6677221,-26.6655294992419,0.0 -52.6682382,-26.6661162992419,0.0 -52.668438,-26.6664242992419,0.0 -52.6687127,-26.6669237992419,0.0 -52.6690123,-26.6673149992419,0.0 -52.6691871,-26.6677311992419,0.0 -52.6693203,-26.6679392992419,0.0 -52.6694589,-26.6680588992419,0.0 -52.6695035,-26.6680974992419,0.0 -52.6697116,-26.6682389992419,0.0 -52.6698364,-26.6683138992419,0.0 -52.6700695,-26.6683221992419,0.0 -52.6704025,-26.6682305992419,0.0 -52.6706959,-26.6680474992419,0.0 -52.67089,-26.6679827992419,0.0 -52.6710705,-26.6679226992419,0.0 -52.6715616,-26.6678227992419,0.0 -52.6719695,-26.6677477992419,0.0 -52.6721755,-26.6677311992419,0.0 -52.672317,-26.6677332992419,0.0 -52.6724294,-26.6677540992419,0.0 -52.6725498,-26.6677716992419,0.0 -52.6726,-26.6677790992419,0.0 -52.6727499,-26.6678476992419,0.0 -52.6728872,-26.6679080992419,0.0 -52.6730183,-26.6680120992419,0.0 -52.6731159,-26.6681083992419,0.0 -52.6731786,-26.6681702992419,0.0 -52.6733804,-26.6683117992419,0.0 -52.6734782,-26.6683804992419,0.0 -52.6735849,-26.6684314992419,0.0 -52.6737701,-26.6685271992419,0.0 -52.6739123,-26.6685821992419,0.0 -52.6740177,-26.6686228992419,0.0 -52.6741176,-26.6686644992419,0.0 -52.6741863,-26.6687061992419,0.0 -52.6742779,-26.6687622992419,0.0 -52.6743819,-26.6688392992419,0.0 -52.6745089,-26.6689246992419,0.0 -52.6745493,-26.6689610992419,0.0 -52.6745713,-26.6689808992419,0.0 -52.6746441,-26.6690536992419,0.0 -52.6747232,-26.6691098992419,0.0 -52.6748834,-26.6692055992419,0.0 -52.6750181,-26.6692534992419,0.0 -52.6750707,-26.6692721992419,0.0 -52.6752123,-26.6693096992419,0.0 -52.6754162,-26.6693553992419,0.0 -52.6755827,-26.6694178992419,0.0 -52.6758324,-26.6694968992419,0.0 -52.6761071,-26.6695801992419,0.0 -52.6763485,-26.6696592992419,0.0 -52.6766367,-26.6697611992419,0.0 -52.6768906,-26.6698485992419,0.0 -52.6771736,-26.6699734992419,0.0 -52.6773776,-26.6701108992418,0.0 -52.6775274,-26.6702939992418,0.0 -52.6776731,-26.6704978992418,0.0 -52.6777522,-26.6706893992418,0.0 -52.6778073,-26.6708454992418,0.0 -52.6778536,-26.6709814992418,0.0 -52.6779488,-26.6712616992418,0.0 -52.6779863,-26.6713843992418,0.0 -52.6781107,-26.6717783992418,0.0 -52.6782446,-26.6722278992418,0.0 -52.6785096,-26.6731176992418,0.0 -52.6943454,-26.6717540992418,0.0 -52.6946494,-26.6717278992418,0.0 -52.6967484,-26.6714358992418,0.0 -52.6967597,-26.6714535992418,0.0 -52.6970602,-26.6717532992418,0.0 -52.6972415,-26.6719376992418,0.0 -52.6973711,-26.6721127992418,0.0 -52.6974241,-26.6722116992418,0.0 -52.697471,-26.6723042992418,0.0 -52.6975074,-26.6723895992418,0.0 -52.6975188,-26.6724301992418,0.0 -52.6975292,-26.6724634992418,0.0 -52.6975334,-26.6725227992418,0.0 -52.6975334,-26.6725757992418,0.0 -52.6975656,-26.6726330992418,0.0 -52.6976031,-26.6726725992418,0.0 -52.6976603,-26.6727006992418,0.0 -52.6977134,-26.6727120992418,0.0 -52.697749,-26.6727146992418,0.0 -52.6978175,-26.6726991992418,0.0 -52.6978271,-26.6726970992418,0.0 -52.6979478,-26.6726741992418,0.0 -52.6980882,-26.6726543992418,0.0 -52.6987594,-26.6726043992418,0.0 -52.6991381,-26.6725669992418,0.0 -52.6995232,-26.6725173992418,0.0 -52.6996875,-26.6724961992418,0.0 -52.6999497,-26.6724795992418,0.0 -52.7003992,-26.6724587992418,0.0 -52.7010943,-26.6724295992418,0.0 -52.7016728,-26.6723754992418,0.0 -52.7019912,-26.6723609992418,0.0 -52.7023242,-26.6723609992418,0.0 -52.7025573,-26.6723817992418,0.0 -52.7027695,-26.6724275992418,0.0 -52.7029048,-26.6725053992418,0.0 -52.7029069,-26.6725065992418,0.0 -52.7030442,-26.6725981992418,0.0 -52.7032107,-26.6726897992418,0.0 -52.7034022,-26.6727729992418,0.0 -52.703548,-26.6728053992418,0.0 -52.703552,-26.6728062992418,0.0 -52.7037976,-26.6728395992418,0.0 -52.7040181,-26.6728520992418,0.0 -52.7044427,-26.6729144992418,0.0 -52.7050274,-26.6729623992418,0.0 -52.7057142,-26.6730913992418,0.0 -52.7063968,-26.6732370992418,0.0 -52.7069833,-26.6733627992418,0.0 -52.7071543,-26.6733993992418,0.0 -52.7075164,-26.6734617992418,0.0 -52.7081126,-26.6735325992418,0.0 -52.7085371,-26.6735658992418,0.0 -52.7087785,-26.6735325992418,0.0 -52.7091323,-26.6734701992418,0.0 -52.7096068,-26.6733743992418,0.0 -52.7101249,-26.6732287992418,0.0 -52.7104339,-26.6731245992418,0.0 -52.7104954,-26.6731038992418,0.0 -52.71077,-26.6729581992418,0.0 -52.7109906,-26.6728749992418,0.0 -52.7111238,-26.6728291992418,0.0 -52.7112279,-26.6728000992418,0.0 -52.7113507,-26.6727792992418,0.0 -52.7114381,-26.6727916992418,0.0 -52.7115525,-26.6728208992418,0.0 -52.7116628,-26.6728749992418,0.0 -52.7117664,-26.6729418992418,0.0 -52.7118626,-26.6730039992418,0.0 -52.7121487,-26.6731683992418,0.0 -52.7123818,-26.6732640992418,0.0 -52.7126482,-26.6733181992418,0.0 -52.7129478,-26.6733348992418,0.0 -52.7132891,-26.6733015992418,0.0 -52.7142017,-26.6729623992418,0.0 -52.7142293,-26.6729452992418,0.0 -52.7144847,-26.6727875992418,0.0 -52.7147094,-26.6726793992418,0.0 -52.714774,-26.6726647992418,0.0 -52.7148343,-26.6726647992418,0.0 -52.7149696,-26.6726918992418,0.0 -52.7150778,-26.6727459992418,0.0 -52.71529,-26.6728208992418,0.0 -52.7154773,-26.6728707992418,0.0 -52.715673,-26.6729019992418,0.0 -52.716007,-26.6728895992418,0.0 -52.7163108,-26.6728603992418,0.0 -52.7165318,-26.6728668992418,0.0 -52.7167353,-26.6728728992418,0.0 -52.7169934,-26.6728437992418,0.0 -52.7171432,-26.6727979992418,0.0 -52.7172639,-26.6727355992418,0.0 -52.717322,-26.6726499992418,0.0 -52.7174221,-26.6725024992418,0.0 -52.7175053,-26.6724233992418,0.0 -52.7176094,-26.6723401992418,0.0 -52.717755,-26.6722568992418,0.0 -52.71801,-26.6721278992418,0.0 -52.7182139,-26.6720612992418,0.0 -52.7184595,-26.6720237992418,0.0 -52.7186967,-26.6720404992418,0.0 -52.7189048,-26.6720654992418,0.0 -52.7191483,-26.6721195992418,0.0 -52.7193814,-26.6721985992418,0.0 -52.7197185,-26.6723484992418,0.0 -52.7199724,-26.6724399992418,0.0 -52.7202221,-26.6725398992418,0.0 -52.7204385,-26.6726272992418,0.0 -52.7204488,-26.6726291992418,0.0 -52.7207174,-26.6726772992418,0.0 -52.7208922,-26.6726897992418,0.0 -52.7211044,-26.6726481992418,0.0 -52.7212584,-26.6725898992418,0.0 -52.7213188,-26.6725169992418,0.0 -52.7213791,-26.6724441992418,0.0 -52.7214333,-26.6722693992418,0.0 -52.7214541,-26.6719904992418,0.0 -52.7214291,-26.6718656992418,0.0 -52.7213667,-26.6716783992418,0.0 -52.7212127,-26.6713204992418,0.0 -52.7210711,-26.6710007992418,0.0 -52.7209713,-26.6707751992418,0.0 -52.720938,-26.6702257992418,0.0 -52.7210462,-26.6698844992419,0.0 -52.7212043,-26.6696347992419,0.0 -52.7215456,-26.6694266992419,0.0 -52.7219369,-26.6692601992419,0.0 -52.7222782,-26.6691186992419,0.0 -52.7225882,-26.6690416992419,0.0 -52.7227942,-26.6690062992419,0.0 -52.7229009,-26.6689897992419,0.0 -52.7230356,-26.6689688992419,0.0 -52.7232167,-26.6689209992419,0.0 -52.7233853,-26.6688606992419,0.0 -52.7235039,-26.6687919992419,0.0 -52.7236974,-26.6686962992419,0.0 -52.7238306,-26.6686296992419,0.0 -52.7239825,-26.6685796992419,0.0 -52.7240741,-26.6685526992419,0.0 -52.7245205,-26.6684631992419,0.0 -52.724766,-26.6684256992419,0.0 -52.7250199,-26.6683799992419,0.0 -52.7251739,-26.6683091992419,0.0 -52.7253321,-26.6682009992419,0.0 -52.7254569,-26.6680968992419,0.0 -52.7254994,-26.6680351992419,0.0 -52.725586,-26.6679095992419,0.0 -52.7256619,-26.6678409992419,0.0 -52.7257576,-26.6677868992419,0.0 -52.726024,-26.6676453992419,0.0 -52.7265151,-26.6672499992419,0.0 -52.7272653,-26.6666464992419,0.0 -52.7273996,-26.6665662992419,0.0 -52.7274849,-26.6665121992419,0.0 -52.7275243,-26.6664881992419,0.0 -52.7276256,-26.6664263992419,0.0 -52.7277255,-26.6663607992419,0.0 -52.7278774,-26.6662588992419,0.0 -52.728302,-26.6659445992419,0.0 -52.7286125,-26.6657198992419,0.0 -52.7288539,-26.6655491992419,0.0 -52.728933,-26.6654784992419,0.0 -52.7290787,-26.6653077992419,0.0 -52.7291578,-26.6651787992419,0.0 -52.7292825,-26.664904199242,0.0 -52.7293118,-26.664839599242,0.0 -52.7293617,-26.664727199242,0.0 -52.7295282,-26.664489999242,0.0 -52.7296406,-26.664360999242,0.0 -52.7297821,-26.664215299242,0.0 -52.7299527,-26.664069599242,0.0 -52.7303648,-26.663865699242,0.0 -52.7311025,-26.663509799242,0.0 -52.7327694,-26.662768999242,0.0 -52.7330399,-26.662652399242,0.0 -52.733169,-26.662606699242,0.0 -52.733273,-26.662577799242,0.0 -52.7334395,-26.662531699242,0.0 -52.7335786,-26.662517699242,0.0 -52.7336747,-26.662467199242,0.0 -52.7337308,-26.662423499242,0.0 -52.7337641,-26.662350699242,0.0 -52.7337954,-26.662184199242,0.0 -52.7338411,-26.662090599242,0.0 -52.7339036,-26.661944899242,0.0 -52.7339535,-26.661797099242,0.0 -52.7340014,-26.661651499242,0.0 -52.7340555,-26.661536999242,0.0 -52.7341096,-26.661447499242,0.0 -52.7342927,-26.661305999242,0.0 -52.7345934,-26.661033399242,0.0 -52.7347392,-26.660873399242,0.0 -52.7349347,-26.660658799242,0.0 -52.735251,-26.660392399242,0.0 -52.7355257,-26.660184299242,0.0 -52.7357588,-26.660046999242,0.0 -52.7361584,-26.659884699242,0.0 -52.7366256,-26.6597576992421,0.0 -52.7371333,-26.6595745992421,0.0 -52.737453,-26.6594632992421,0.0 -52.7379044,-26.6593060992421,0.0 -52.7381582,-26.6591812992421,0.0 -52.738383,-26.6590189992421,0.0 -52.7385672,-26.6588241992421,0.0 -52.7387451,-26.6586359992421,0.0 -52.7389324,-26.6584820992421,0.0 -52.7390739,-26.6584029992421,0.0 -52.7392778,-26.6583030992421,0.0 -52.7395817,-26.6581656992421,0.0 -52.7400572,-26.6579430992421,0.0 -52.7403693,-26.6578181992421,0.0 -52.7407388,-26.6576727992421,0.0 -52.7409739,-26.6576287992421,0.0 -52.7412361,-26.6575996992421,0.0 -52.7414989,-26.6576320992421,0.0 -52.7415732,-26.6576412992421,0.0 -52.7418354,-26.6576953992421,0.0 -52.7422267,-26.6577286992421,0.0 -52.742415,-26.6577245992421,0.0 -52.7426522,-26.6577161992421,0.0 -52.7427472,-26.6577074992421,0.0 -52.7429228,-26.6576912992421,0.0 -52.7431642,-26.6577161992421,0.0 -52.7434014,-26.6577744992421,0.0 -52.7435554,-26.6578368992421,0.0 -52.7437088,-26.6578982992421,0.0 -52.743727,-26.6579055992421,0.0 -52.7438091,-26.6579383992421,0.0 -52.7438467,-26.6579534992421,0.0 -52.7438765,-26.6579077992421,0.0 -52.7441057,-26.6575562992421,0.0 -52.744231,-26.6572164992421,0.0 -52.7442616,-26.6570410992421,0.0 -52.744285,-26.6568109992421,0.0 -52.7443021,-26.6564333992421,0.0 -52.7442713,-26.6554199992421,0.0 -52.7442805,-26.6552318992421,0.0 -52.7443539,-26.6549130992421,0.0 -52.7444915,-26.6545598992422,0.0 -52.7445925,-26.6543258992422,0.0 -52.7446337,-26.6540598992422,0.0 -52.7446364,-26.6538381992422,0.0 -52.7446383,-26.6536744992422,0.0 -52.7446154,-26.6535230992422,0.0 -52.7445512,-26.6533258992422,0.0 -52.7444824,-26.6532111992422,0.0 -52.7443814,-26.6530781992422,0.0 -52.743964,-26.6526331992422,0.0 -52.7433584,-26.6520184992422,0.0 -52.7432667,-26.6518165992422,0.0 -52.7431841,-26.6515321992422,0.0 -52.7431107,-26.6512569992422,0.0 -52.743074,-26.6507890992422,0.0 -52.7431474,-26.6502201992422,0.0 -52.7432667,-26.6497706992423,0.0 -52.7433756,-26.6491833992423,0.0 -52.7435419,-26.6488944992423,0.0 -52.7435626,-26.6487304992423,0.0 -52.743558,-26.6485400992423,0.0 -52.7435351,-26.6483221992423,0.0 -52.7435626,-26.6481225992423,0.0 -52.7435901,-26.6479998992423,0.0 -52.7437002,-26.6475686992423,0.0 -52.7437736,-26.6473117992423,0.0 -52.7437461,-26.6470548992423,0.0 -52.7437002,-26.6468255992423,0.0 -52.7436003,-26.6464965992423,0.0 -52.7435442,-26.6463117992423,0.0 -52.7434708,-26.6460548992423,0.0 -52.7434433,-26.6457795992423,0.0 -52.7434892,-26.6453300992423,0.0 -52.7435961,-26.6448651992424,0.0 -52.7437588,-26.6434889992424,0.0 -52.7439861,-26.6427660992424,0.0 -52.7440465,-26.6418975992424,0.0 -52.7439319,-26.6414908992424,0.0 -52.7435909,-26.6411267992424,0.0 -52.742984,-26.6404581992424,0.0 -52.7427075,-26.6395057992424,0.0 -52.7423681,-26.6388717992425,0.0 -52.7417832,-26.6383296992425,0.0 -52.7413375,-26.6381140992425,0.0 -52.7410753,-26.6380623992425,0.0 -52.7403315,-26.6377998992425,0.0 -52.7398204,-26.6375741992425,0.0 -52.7390543,-26.6369690992425,0.0 -52.7389456,-26.6369025992425,0.0 -52.7388743,-26.6368268992425,0.0 -52.7386611,-26.6367900992425,0.0 -52.7385292,-26.6367948992425,0.0 -52.7383722,-26.6368222992425,0.0 -52.7380784,-26.6368892992425,0.0 -52.7377648,-26.6369694992425,0.0 -52.7375416,-26.6370314992425,0.0 -52.737321,-26.6370775992425,0.0 -52.7371012,-26.6371093992425,0.0 -52.7368856,-26.6371315992425,0.0 -52.7365737,-26.6371598992425,0.0 -52.7359406,-26.6371048992425,0.0 -52.7355828,-26.6370314992425,0.0 -52.7353397,-26.6369029992425,0.0 -52.734858,-26.6365314992425,0.0 -52.7345335,-26.6363023992425,0.0 -52.7343689,-26.6361862992425,0.0 -52.7340822,-26.6360508992425,0.0 -52.733823,-26.6359155992425,0.0 -52.7334675,-26.6357527992425,0.0 -52.7331894,-26.6356070992425,0.0 -52.7329715,-26.6354877992425,0.0 -52.7328476,-26.6353983992425,0.0 -52.7327765,-26.6353501992425,0.0 -52.7326848,-26.6353180992425,0.0 -52.7325792,-26.6352928992425,0.0 -52.7325173,-26.6352951992425,0.0 -52.7324588,-26.6352937992425,0.0 -52.7324187,-26.6352928992425,0.0 -52.7323269,-26.6352675992425,0.0 -52.7319823,-26.6351035992425,0.0 -52.7317048,-26.6349476992425,0.0 -52.7314731,-26.6348145992425,0.0 -52.7314285,-26.6347937992425,0.0 -52.7313721,-26.6348295992425,0.0 -52.7313399,-26.6348500992425,0.0 -52.7312737,-26.6348896992425,0.0 -52.7312475,-26.6349002992425,0.0 -52.7311582,-26.6349224992425,0.0 -52.7311285,-26.6349269992425,0.0 -52.7310654,-26.6349259992425,0.0 -52.7309899,-26.6349156992425,0.0 -52.730891,-26.6348938992426,0.0 -52.7308075,-26.6348691992425,0.0 -52.7307541,-26.6348546992425,0.0 -52.7306623,-26.6348472992425,0.0 -52.7305917,-26.6348546992425,0.0 -52.7305522,-26.6348626992425,0.0 -52.7304629,-26.6348848992425,0.0 -52.730361,-26.6349198992425,0.0 -52.7302438,-26.6349655992425,0.0 -52.7301572,-26.6350112992425,0.0 -52.7300782,-26.6350586992425,0.0 -52.729991,-26.6351142992425,0.0 -52.7298808,-26.6352004992425,0.0 -52.7298178,-26.6352569992425,0.0 -52.7297568,-26.6353158992425,0.0 -52.7297064,-26.6353799992425,0.0 -52.7296539,-26.6354622992425,0.0 -52.7296135,-26.6355203992425,0.0 -52.729552,-26.6355985992425,0.0 -52.7294918,-26.6356629992425,0.0 -52.7294085,-26.6357383992425,0.0 -52.7293454,-26.6357877992425,0.0 -52.7292533,-26.6358379992425,0.0 -52.7291659,-26.6358820992425,0.0 -52.7290531,-26.6359432992425,0.0 -52.7289915,-26.6359753992425,0.0 -52.7289279,-26.6360065992425,0.0 -52.7288606,-26.6360335992425,0.0 -52.7287736,-26.6360558992425,0.0 -52.7286839,-26.6360734992425,0.0 -52.728615,-26.6360865992425,0.0 -52.7285415,-26.6361070992425,0.0 -52.7284697,-26.6361210992425,0.0 -52.7282657,-26.6361714992425,0.0 -52.7282558,-26.6363988992425,0.0 -52.728259,-26.6364673992425,0.0 -52.7282693,-26.6365142992425,0.0 -52.7282746,-26.6365538992425,0.0 -52.7282749,-26.6365890992425,0.0 -52.728258,-26.6366163992425,0.0 -52.728213,-26.6366587992425,0.0 -52.7281858,-26.6366930992425,0.0 -52.7281743,-26.6367292992425,0.0 -52.7281805,-26.6367723992425,0.0 -52.7281717,-26.6368041992425,0.0 -52.7281491,-26.6368599992425,0.0 -52.7281249,-26.6369115992425,0.0 -52.7281185,-26.6369346992425,0.0 -52.7281348,-26.6369562992425,0.0 -52.7281461,-26.6369788992425,0.0 -52.7281367,-26.6370108992425,0.0 -52.7281173,-26.6370579992425,0.0 -52.7281026,-26.6371000992425,0.0 -52.7281038,-26.6371298992425,0.0 -52.7281253,-26.6371586992425,0.0 -52.7281888,-26.6371922992425,0.0 -52.7282583,-26.6372286992425,0.0 -52.7283049,-26.6372622992425,0.0 -52.7283177,-26.6372852992425,0.0 -52.7282994,-26.6373115992425,0.0 -52.7282393,-26.6373577992425,0.0 -52.7281689,-26.6373919992425,0.0 -52.7280951,-26.6374151992425,0.0 -52.7280214,-26.6374399992425,0.0 -52.7280193,-26.6374407992425,0.0 -52.7279537,-26.6374637992425,0.0 -52.7278713,-26.6374857992425,0.0 -52.7277859,-26.6375031992425,0.0 -52.7277147,-26.6375135992425,0.0 -52.7276589,-26.6375027992425,0.0 -52.7276203,-26.6374921992425,0.0 -52.7275938,-26.6374758992425,0.0 -52.727568,-26.6374517992425,0.0 -52.7275284,-26.6374108992425,0.0 -52.7274893,-26.6373847992425,0.0 -52.7274515,-26.6373720992425,0.0 -52.7273939,-26.6373632992425,0.0 -52.7273231,-26.6373715992425,0.0 -52.7272424,-26.6373865992425,0.0 -52.7271744,-26.6374001992425,0.0 -52.7270948,-26.6374277992425,0.0 -52.7270174,-26.6374583992425,0.0 -52.7269467,-26.6374857992425,0.0 -52.7268668,-26.6374957992425,0.0 -52.7268389,-26.6374979992425,0.0 -52.7267785,-26.6375043992425,0.0 -52.7267199,-26.6375244992425,0.0 -52.7266537,-26.6375544992425,0.0 -52.7277383,-26.6295161992426,0.0 -52.728346,-26.6228851992428,0.0 -52.7291072,-26.6227124992428,0.0 -52.7297197,-26.6225361992428,0.0 -52.7303523,-26.6224662992428,0.0 -52.7308995,-26.6223965992428,0.0 -52.7314661,-26.6221869992428,0.0 -52.7317117,-26.6220174992428,0.0 -52.7321022,-26.6214784992428,0.0 -52.7324085,-26.6213195992428,0.0 -52.7329736,-26.6212732992428,0.0 -52.7334066,-26.6213904992428,0.0 -52.7338505,-26.6212857992428,0.0 -52.7343773,-26.6208834992428,0.0 -52.7347732,-26.6206547992428,0.0 -52.7351077,-26.6203408992428,0.0 -52.7352445,-26.6198478992428,0.0 -52.7352665,-26.6194988992428,0.0 -52.7353121,-26.6192582992428,0.0 -52.7355612,-26.6188163992429,0.0 -52.7358526,-26.6183829992429,0.0 -52.7362996,-26.6178606992429,0.0 -52.7368212,-26.6174846992429,0.0 -52.7370729,-26.6170480992429,0.0 -52.7369306,-26.6166841992429,0.0 -52.7366793,-26.6163888992429,0.0 -52.7365811,-26.6160318992429,0.0 -52.7367406,-26.6157911992429,0.0 -52.7369519,-26.6154652992429,0.0 -52.7369957,-26.6153976992429,0.0</coordinates>
</LinearRing>
</outerBoundaryIs>
</Polygon>
</MultiGeometry>
</Placemark>
</Folder>
</Document></kml>
