<?xml version='1.0' encoding='UTF-8'?>
<kml xmlns:xsd="http://www.w3.org/2001/XMLSchema" xmlns:gx="http://www.google.com/kml/ext/2.2" xmlns:atom="http://www.w3.org/2005/Atom" xmlns="http://www.opengis.net/kml/2.2">
<Document>
<name>sao_ludgero_4217006_localidades_2022</name>
<visibility>1</visibility>
<Schema name="01. Cidade" id="kml_schema_ft_01._Cidade">
<SimpleField type="xsd:string" name="CD_UF">
<displayName>CD_UF</displayName>
</SimpleField>
<SimpleField type="xsd:string" name="NM_UF">
<displayName>NM_UF</displayName>
</SimpleField>
<SimpleField type="xsd:string" name="SIGLA_UF">
<displayName>SIGLA_UF</displayName>
</SimpleField>
<SimpleField type="xsd:string" name="CD_MUN">
<displayName>CD_MUN</displayName>
</SimpleField>
<SimpleField type="xsd:string" name="NM_MUN">
<displayName>NM_MUN</displayName>
</SimpleField>
<SimpleField type="xsd:string" name="CD_RGINT">
<displayName>CD_RGINT</displayName>
</SimpleField>
<SimpleField type="xsd:string" name="NM_RGINT">
<displayName>NM_RGINT</displayName>
</SimpleField>
<SimpleField type="xsd:string" name="CD_RGI">
<displayName>CD_RGI</displayName>
</SimpleField>
<SimpleField type="xsd:string" name="NM_RGI">
<displayName>NM_RGI</displayName>
</SimpleField>
<SimpleField type="xsd:string" name="CT_LOCALIDADE">
<displayName>CT_LOCALIDADE</displayName>
</SimpleField>
<SimpleField type="xsd:string" name="SCT_LOCALIDADE">
<displayName>SCT_LOCALIDADE</displayName>
</SimpleField>
<SimpleField type="xsd:string" name="CD_LOCALIDADE">
<displayName>CD_LOCALIDADE</displayName>
</SimpleField>
<SimpleField type="xsd:string" name="NM_LOCALIDADE">
<displayName>NM_LOCALIDADE</displayName>
</SimpleField>
<SimpleField type="xsd:string" name="LAT_LOCALIDADE">
<displayName>LAT_LOCALIDADE</displayName>
</SimpleField>
<SimpleField type="xsd:string" name="LONG_LOCALIDADE">
<displayName>LONG_LOCALIDADE</displayName>
</SimpleField>
</Schema>
<Schema name="Município" id="kml_schema_ft_Município">
<SimpleField type="xsd:string" name="CD_UF">
<displayName>CD_UF</displayName>
</SimpleField>
<SimpleField type="xsd:string" name="NM_UF">
<displayName>NM_UF</displayName>
</SimpleField>
<SimpleField type="xsd:string" name="CD_MUN">
<displayName>CD_MUN</displayName>
</SimpleField>
<SimpleField type="xsd:string" name="NM_MUN">
<displayName>NM_MUN</displayName>
</SimpleField>
<SimpleField type="xsd:string" name="CD_RGINT">
<displayName>CD_RGINT</displayName>
</SimpleField>
<SimpleField type="xsd:string" name="NM_RGINT">
<displayName>NM_RGINT</displayName>
</SimpleField>
<SimpleField type="xsd:string" name="CD_RGI">
<displayName>CD_RGI</displayName>
</SimpleField>
<SimpleField type="xsd:string" name="NM_RGI">
<displayName>NM_RGI</displayName>
</SimpleField>
</Schema>
<Folder id="01. Cidade">
<name>01. Cidade</name>
<Folder id="01.03. Sede Municipal">
<name>01.03. Sede Municipal</name>
<Placemark id="01.03. Sede Municipal">
<name>São Ludgero [4217006]</name>
<visibility>1</visibility>
<snippet> </snippet>
<description>&lt;center&gt;&lt;table&gt;&lt;tr&gt;&lt;th colspan='2' align='center'&gt;&lt;em&gt;Atributos&lt;/em&gt;&lt;/th&gt;&lt;/tr&gt;&lt;tr bgcolor="#E3E3F3"&gt;
&lt;th&gt;CD_UF&lt;/th&gt;
&lt;td&gt;42&lt;/td&gt;
&lt;/tr&gt;&lt;tr bgcolor=""&gt;
&lt;th&gt;NM_UF&lt;/th&gt;
&lt;td&gt;Santa Catarina&lt;/td&gt;
&lt;/tr&gt;&lt;tr bgcolor="#E3E3F3"&gt;
&lt;th&gt;SIGLA_UF&lt;/th&gt;
&lt;td&gt;SC&lt;/td&gt;
&lt;/tr&gt;&lt;tr bgcolor=""&gt;
&lt;th&gt;CD_MUN&lt;/th&gt;
&lt;td&gt;4217006&lt;/td&gt;
&lt;/tr&gt;&lt;tr bgcolor="#E3E3F3"&gt;
&lt;th&gt;NM_MUN&lt;/th&gt;
&lt;td&gt;São Ludgero&lt;/td&gt;
&lt;/tr&gt;&lt;tr bgcolor=""&gt;
&lt;th&gt;CD_RGINT&lt;/th&gt;
&lt;td&gt;4202&lt;/td&gt;
&lt;/tr&gt;&lt;tr bgcolor="#E3E3F3"&gt;
&lt;th&gt;NM_RGINT&lt;/th&gt;
&lt;td&gt;Criciúma&lt;/td&gt;
&lt;/tr&gt;&lt;tr bgcolor=""&gt;
&lt;th&gt;CD_RGI&lt;/th&gt;
&lt;td&gt;420003&lt;/td&gt;
&lt;/tr&gt;&lt;tr bgcolor="#E3E3F3"&gt;
&lt;th&gt;NM_RGI&lt;/th&gt;
&lt;td&gt;Tubarão&lt;/td&gt;
&lt;/tr&gt;&lt;tr bgcolor=""&gt;
&lt;th&gt;CT_LOCALIDADE&lt;/th&gt;
&lt;td&gt;Cidade&lt;/td&gt;
&lt;/tr&gt;&lt;tr bgcolor="#E3E3F3"&gt;
&lt;th&gt;SCT_LOCALIDADE&lt;/th&gt;
&lt;td&gt;Sede Municipal&lt;/td&gt;
&lt;/tr&gt;&lt;tr bgcolor=""&gt;
&lt;th&gt;CD_LOCALIDADE&lt;/th&gt;
&lt;td&gt;4217006&lt;/td&gt;
&lt;/tr&gt;&lt;tr bgcolor="#E3E3F3"&gt;
&lt;th&gt;NM_LOCALIDADE&lt;/th&gt;
&lt;td&gt;São Ludgero&lt;/td&gt;
&lt;/tr&gt;&lt;tr bgcolor=""&gt;
&lt;th&gt;LAT_LOCALIDADE&lt;/th&gt;
&lt;td&gt;-28.3264&lt;/td&gt;
&lt;/tr&gt;&lt;tr bgcolor="#E3E3F3"&gt;
&lt;th&gt;LONG_LOCALIDADE&lt;/th&gt;
&lt;td&gt;-49.1766&lt;/td&gt;
&lt;/tr&gt;&lt;/table&gt;&lt;/center&gt;</description>
<Style>
<IconStyle>
<color>ff00aaff</color>
<scale>1.0</scale>
<Icon>
<href>http://maps.google.com/mapfiles/kml/shapes/placemark_circle.png</href>
</Icon>
</IconStyle>
<LabelStyle>
<scale>1.0</scale>
</LabelStyle>
<LineStyle>
<color>ffffffff</color>
<width>3</width>
<gx:labelVisibility>1</gx:labelVisibility>
</LineStyle>
<PolyStyle>
<color>00ffffff</color>
</PolyStyle>
</Style>
<ExtendedData>
<SchemaData schemaUrl="#kml_schema_ft_01._Cidade">
<SimpleData name="CD_UF">42</SimpleData>
<SimpleData name="NM_UF">Santa Catarina</SimpleData>
<SimpleData name="SIGLA_UF">SC</SimpleData>
<SimpleData name="CD_MUN">4217006</SimpleData>
<SimpleData name="NM_MUN">São Ludgero</SimpleData>
<SimpleData name="CD_RGINT">4202</SimpleData>
<SimpleData name="NM_RGINT">Criciúma</SimpleData>
<SimpleData name="CD_RGI">420003</SimpleData>
<SimpleData name="NM_RGI">Tubarão</SimpleData>
<SimpleData name="CT_LOCALIDADE">Cidade</SimpleData>
<SimpleData name="SCT_LOCALIDADE">Sede Municipal</SimpleData>
<SimpleData name="CD_LOCALIDADE">4217006</SimpleData>
<SimpleData name="NM_LOCALIDADE">São Ludgero</SimpleData>
<SimpleData name="LAT_LOCALIDADE">-28.3264</SimpleData>
<SimpleData name="LONG_LOCALIDADE">-49.1766</SimpleData>
</SchemaData>
</ExtendedData>
<Point>
<extrude>0</extrude>
<coordinates>-49.1766,-28.3263999992107,0.0</coordinates>
</Point>
</Placemark>
</Folder>
</Folder>
<Folder id="13. Referência">
<name>13. Referência</name>
<Placemark id="13. Referência">
<name>São Ludgero [4217006]</name>
<visibility>1</visibility>
<snippet> </snippet>
<description>&lt;center&gt;&lt;table&gt;&lt;tr&gt;&lt;th colspan='2' align='center'&gt;&lt;em&gt;Attributes&lt;/em&gt;&lt;/th&gt;&lt;/tr&gt;&lt;tr bgcolor="#E3E3F3"&gt;
&lt;th&gt;CD_UF&lt;/th&gt;
&lt;td&gt;42&lt;/td&gt;
&lt;/tr&gt;&lt;tr bgcolor=""&gt;
&lt;th&gt;NM_UF&lt;/th&gt;
&lt;td&gt;Santa Catarina&lt;/td&gt;
&lt;/tr&gt;&lt;tr bgcolor="#E3E3F3"&gt;
&lt;th&gt;CD_MUN&lt;/th&gt;
&lt;td&gt;4217006&lt;/td&gt;
&lt;/tr&gt;&lt;tr bgcolor=""&gt;
&lt;th&gt;NM_MUN&lt;/th&gt;
&lt;td&gt;São Ludgero&lt;/td&gt;
&lt;/tr&gt;&lt;tr bgcolor="#E3E3F3"&gt;
&lt;th&gt;CD_RGINT&lt;/th&gt;
&lt;td&gt;4202&lt;/td&gt;
&lt;/tr&gt;&lt;tr bgcolor=""&gt;
&lt;th&gt;NM_RGINT&lt;/th&gt;
&lt;td&gt;Criciúma&lt;/td&gt;
&lt;/tr&gt;&lt;tr bgcolor="#E3E3F3"&gt;
&lt;th&gt;CD_RGI&lt;/th&gt;
&lt;td&gt;420003&lt;/td&gt;
&lt;/tr&gt;&lt;tr bgcolor=""&gt;
&lt;th&gt;NM_RGI&lt;/th&gt;
&lt;td&gt;Tubarão&lt;/td&gt;
&lt;/tr&gt;&lt;/table&gt;&lt;/center&gt;</description>
<Style>
<IconStyle>
<scale>0.7</scale>
</IconStyle>
<LabelStyle>
<scale>0.7</scale>
</LabelStyle>
<LineStyle>
<color>ffffffff</color>
<width>3</width>
<gx:labelVisibility>1</gx:labelVisibility>
</LineStyle>
<PolyStyle>
<color>00ffffff</color>
</PolyStyle>
</Style>
<ExtendedData>
<SchemaData schemaUrl="#kml_schema_ft_Município">
<SimpleData name="CD_UF">42</SimpleData>
<SimpleData name="NM_UF">Santa Catarina</SimpleData>
<SimpleData name="CD_MUN">4217006</SimpleData>
<SimpleData name="NM_MUN">São Ludgero</SimpleData>
<SimpleData name="CD_RGINT">4202</SimpleData>
<SimpleData name="NM_RGINT">Criciúma</SimpleData>
<SimpleData name="CD_RGI">420003</SimpleData>
<SimpleData name="NM_RGI">Tubarão</SimpleData>
</SchemaData>
</ExtendedData>
<MultiGeometry>
<Polygon>
<extrude>0</extrude>
<tessellate>1</tessellate>
<outerBoundaryIs>
<LinearRing>
<coordinates>-49.1561928,-28.3180618992108,0.0 -49.1561461,-28.3180137992108,0.0 -49.1561161,-28.3179827992108,0.0 -49.1560061,-28.3179314992108,0.0 -49.1559274,-28.3179114992108,0.0 -49.1558871,-28.3179011992108,0.0 -49.1558576,-28.3178984992108,0.0 -49.1558331,-28.3178981992108,0.0 -49.1557657,-28.3179083992108,0.0 -49.155717,-28.3179326992108,0.0 -49.1556821,-28.3179499992108,0.0 -49.1555943,-28.3179746992108,0.0 -49.1555444,-28.3179886992108,0.0 -49.1555024,-28.3179869992108,0.0 -49.1554254,-28.3179442992108,0.0 -49.1554208,-28.3179148992108,0.0 -49.1554131,-28.3178437992108,0.0 -49.1553375,-28.3177954992108,0.0 -49.1552648,-28.3177875992108,0.0 -49.15525,-28.3177873992108,0.0 -49.1552056,-28.3177987992108,0.0 -49.155177,-28.3178114992108,0.0 -49.1550702,-28.3178240992108,0.0 -49.1550397,-28.3178145992108,0.0 -49.1550217,-28.3178053992108,0.0 -49.1549692,-28.3177614992108,0.0 -49.1549448,-28.3177280992108,0.0 -49.154924,-28.3177101992108,0.0 -49.1548801,-28.3177176992108,0.0 -49.1548592,-28.3177296992108,0.0 -49.1547685,-28.3177853992108,0.0 -49.1547014,-28.3178007992108,0.0 -49.1546255,-28.3177976992108,0.0 -49.1545202,-28.3177697992108,0.0 -49.1544177,-28.3177032992108,0.0 -49.1543499,-28.3176352992108,0.0 -49.1542162,-28.3176435992108,0.0 -49.1541623,-28.3177038992108,0.0 -49.1541336,-28.3177168992108,0.0 -49.154105,-28.3177298992108,0.0 -49.1539893,-28.3177718992108,0.0 -49.1538156,-28.3177937992108,0.0 -49.1537225,-28.3177940992108,0.0 -49.1536725,-28.3177288992108,0.0 -49.1536919,-28.3176645992108,0.0 -49.1537664,-28.3175752992108,0.0 -49.1538735,-28.3174598992108,0.0 -49.1538735,-28.3173868992108,0.0 -49.1538523,-28.3173467992108,0.0 -49.1538163,-28.3173428992108,0.0 -49.1537711,-28.3173445992108,0.0 -49.1537389,-28.3173474992108,0.0 -49.1536563,-28.3173543992108,0.0 -49.1536074,-28.3173548992108,0.0 -49.1535177,-28.3173228992108,0.0 -49.1534848,-28.3172893992108,0.0 -49.1534785,-28.3172790992108,0.0 -49.1535168,-28.3172294992108,0.0 -49.1535379,-28.3171966992108,0.0 -49.1535579,-28.3171593992108,0.0 -49.1535893,-28.3170991992108,0.0 -49.1535844,-28.3170202992108,0.0 -49.1535851,-28.3169818992108,0.0 -49.153529,-28.3168692992109,0.0 -49.1534716,-28.3168318992108,0.0 -49.1533246,-28.3168280992108,0.0 -49.1531615,-28.3168368992109,0.0 -49.1528977,-28.3168919992108,0.0 -49.1527604,-28.3169108992108,0.0 -49.152351,-28.3170028992108,0.0 -49.151967,-28.3170462992108,0.0 -49.1518239,-28.3170635992108,0.0 -49.1518,-28.3170583992108,0.0 -49.1517592,-28.3170424992108,0.0 -49.1517371,-28.3170332992108,0.0 -49.1516843,-28.3169839992108,0.0 -49.1515973,-28.3168332992108,0.0 -49.1515548,-28.3167710992108,0.0 -49.1515399,-28.3167477992109,0.0 -49.1515019,-28.3167252992108,0.0 -49.151397,-28.3166873992108,0.0 -49.1513018,-28.3166543992108,0.0 -49.1509059,-28.3165929992108,0.0 -49.1508207,-28.3165807992109,0.0 -49.1507391,-28.3165779992109,0.0 -49.1506613,-28.3165810992109,0.0 -49.1503706,-28.3166210992108,0.0 -49.1500381,-28.3166572992109,0.0 -49.1500199,-28.3166619992108,0.0 -49.1499453,-28.3166813992109,0.0 -49.1497324,-28.3167364992109,0.0 -49.1496696,-28.3167526992108,0.0 -49.1493573,-28.3168165992108,0.0 -49.1492823,-28.3168173992108,0.0 -49.1492433,-28.3168116992108,0.0 -49.149148,-28.3167863992109,0.0 -49.1491056,-28.3167680992108,0.0 -49.1489999,-28.3167224992108,0.0 -49.1489513,-28.3166942992109,0.0 -49.1489045,-28.3166571992109,0.0 -49.1488715,-28.3166342992109,0.0 -49.1488188,-28.3166174992108,0.0 -49.1487296,-28.3166138992109,0.0 -49.1486133,-28.3166093992109,0.0 -49.1485728,-28.3166169992109,0.0 -49.1485203,-28.3166264992108,0.0 -49.1484598,-28.3166386992108,0.0 -49.1484038,-28.3166478992108,0.0 -49.1483341,-28.3166411992108,0.0 -49.1482695,-28.3166243992109,0.0 -49.1482292,-28.3166084992109,0.0 -49.1481478,-28.3165726992109,0.0 -49.1479561,-28.3164629992108,0.0 -49.1479138,-28.3164309992109,0.0 -49.1478918,-28.3164010992109,0.0 -49.1478412,-28.3163022992109,0.0 -49.147789,-28.3161897992109,0.0 -49.1477311,-28.3160517992109,0.0 -49.147721,-28.3160378992109,0.0 -49.1475982,-28.3158694992109,0.0 -49.1474161,-28.3157179992109,0.0 -49.1473375,-28.3156309992109,0.0 -49.1473188,-28.3155521992109,0.0 -49.1473163,-28.3154507992109,0.0 -49.1473199,-28.3153843992109,0.0 -49.1473239,-28.3153081992109,0.0 -49.1473508,-28.3150946992109,0.0 -49.1473686,-28.3149037992109,0.0 -49.1473604,-28.3146684992109,0.0 -49.1473604,-28.3146667992109,0.0 -49.1473175,-28.3145838992109,0.0 -49.1472746,-28.3145009992109,0.0 -49.1471835,-28.3144100992109,0.0 -49.1471356,-28.3143622992109,0.0 -49.147032,-28.3143039992109,0.0 -49.1469741,-28.3142760992109,0.0 -49.1469517,-28.3142651992109,0.0 -49.1469292,-28.3142543992109,0.0 -49.1467954,-28.3142130992109,0.0 -49.1466171,-28.3142128992109,0.0 -49.1462951,-28.3142324992109,0.0 -49.1462752,-28.3142336992109,0.0 -49.1456607,-28.3143293992109,0.0 -49.1453594,-28.3144463992109,0.0 -49.1452805,-28.3144769992109,0.0 -49.1449929,-28.3146298992109,0.0 -49.1447845,-28.3147073992109,0.0 -49.1444448,-28.3147912992109,0.0 -49.1441449,-28.3148255992109,0.0 -49.1438243,-28.3148221992109,0.0 -49.143497,-28.3147904992109,0.0 -49.1431451,-28.3147491992109,0.0 -49.1428297,-28.3147551992109,0.0 -49.1424424,-28.3148213992109,0.0 -49.1418891,-28.3149735992109,0.0 -49.1415825,-28.3151991992109,0.0 -49.1414482,-28.3153252992109,0.0 -49.1412123,-28.3155719992109,0.0 -49.1411741,-28.3156368992109,0.0 -49.1411638,-28.3156676992109,0.0 -49.1411625,-28.3156977992109,0.0 -49.1411676,-28.3157408992109,0.0 -49.1411795,-28.3157722992109,0.0 -49.1411977,-28.3158002992109,0.0 -49.1412407,-28.3158288992109,0.0 -49.141322,-28.3159009992109,0.0 -49.1413451,-28.3159272992109,0.0 -49.1413762,-28.3159748992109,0.0 -49.1414072,-28.3160225992109,0.0 -49.1414557,-28.3161326992109,0.0 -49.1414972,-28.3162352992108,0.0 -49.1415144,-28.3162879992109,0.0 -49.1414953,-28.3163438992109,0.0 -49.1414298,-28.3164079992109,0.0 -49.1413276,-28.3164808992109,0.0 -49.1412048,-28.3165958992108,0.0 -49.141143,-28.3167303992109,0.0 -49.1411255,-28.3168634992109,0.0 -49.1411205,-28.3169369992108,0.0 -49.1411238,-28.3170349992108,0.0 -49.141117,-28.3171310992108,0.0 -49.1410556,-28.3172169992108,0.0 -49.1409632,-28.3173241992108,0.0 -49.1409493,-28.3173948992108,0.0 -49.1409512,-28.3177850992108,0.0 -49.140914,-28.3178768992108,0.0 -49.1408521,-28.3179392992108,0.0 -49.140806,-28.3179917992108,0.0 -49.1407659,-28.3180213992108,0.0 -49.1407259,-28.3180508992108,0.0 -49.1405942,-28.3181240992108,0.0 -49.1404213,-28.3182243992108,0.0 -49.1399997,-28.3185315992108,0.0 -49.1396116,-28.3188127992108,0.0 -49.1393126,-28.3189622992108,0.0 -49.1391002,-28.3189809992108,0.0 -49.1389346,-28.3189560992108,0.0 -49.1387857,-28.3189206992108,0.0 -49.138646,-28.3189075992108,0.0 -49.1385652,-28.3189271992108,0.0 -49.1384399,-28.3189576992108,0.0 -49.1383178,-28.3190346992108,0.0 -49.1381808,-28.3191162992108,0.0 -49.1380357,-28.3191615992108,0.0 -49.137914,-28.3191617992108,0.0 -49.1377266,-28.3191427992108,0.0 -49.1376844,-28.3191430992108,0.0 -49.1376423,-28.3191433992108,0.0 -49.1376087,-28.3191561992108,0.0 -49.137595,-28.3191613992108,0.0 -49.1375076,-28.3192403992108,0.0 -49.1373911,-28.3193443992108,0.0 -49.1372309,-28.3194086992108,0.0 -49.1370206,-28.3194140992108,0.0 -49.1370187,-28.3194140992108,0.0 -49.1369087,-28.3193921992108,0.0 -49.1366605,-28.3193133992108,0.0 -49.1364196,-28.3193198992108,0.0 -49.13625,-28.3193156992108,0.0 -49.1362004,-28.3193158992108,0.0 -49.1361136,-28.3193162992108,0.0 -49.135943,-28.3193202992108,0.0 -49.1357768,-28.3193198992108,0.0 -49.135562,-28.3193157992108,0.0 -49.1352875,-28.3193140992108,0.0 -49.1350675,-28.3193144992108,0.0 -49.1348859,-28.3193122992108,0.0 -49.1346882,-28.3193072992108,0.0 -49.1346072,-28.3193052992108,0.0 -49.1344445,-28.3192972992108,0.0 -49.1343272,-28.3192740992108,0.0 -49.1341953,-28.3192143992108,0.0 -49.1340812,-28.3191542992108,0.0 -49.133989,-28.3190619992108,0.0 -49.1339118,-28.3189989992108,0.0 -49.1337745,-28.3187879992108,0.0 -49.1336456,-28.3186001992108,0.0 -49.1334446,-28.3183896992108,0.0 -49.1332573,-28.3182705992108,0.0 -49.1329668,-28.3181110992108,0.0 -49.132713,-28.3180447992108,0.0 -49.1321192,-28.3179162992108,0.0 -49.1319159,-28.3178369992108,0.0 -49.1318904,-28.3178292992108,0.0 -49.1317586,-28.3177894992108,0.0 -49.1316437,-28.3177547992108,0.0 -49.1313779,-28.3178162992108,0.0 -49.1312084,-28.3180539992108,0.0 -49.1312017,-28.3180619992108,0.0 -49.1311981,-28.3180657992108,0.0 -49.1311946,-28.3180696992108,0.0 -49.1311897,-28.3180746992108,0.0 -49.1311795,-28.3180843992108,0.0 -49.1311715,-28.3180913992108,0.0 -49.131166,-28.3180959992108,0.0 -49.1311547,-28.3181047992108,0.0 -49.1311489,-28.3181090992108,0.0 -49.131137,-28.3181172992108,0.0 -49.1311248,-28.3181250992108,0.0 -49.1311165,-28.3181300992108,0.0 -49.1311109,-28.3181333992108,0.0 -49.1310996,-28.3181395992108,0.0 -49.1310878,-28.3181456992108,0.0 -49.1310798,-28.3181495992108,0.0 -49.1310638,-28.3181571992108,0.0 -49.1310395,-28.3181679992108,0.0 -49.1309905,-28.3181886992108,0.0 -49.1309661,-28.3181991992108,0.0 -49.130954,-28.3182045992108,0.0 -49.1309359,-28.3182130992108,0.0 -49.1309029,-28.3182294992108,0.0 -49.1308866,-28.3182378992108,0.0 -49.1308624,-28.3182508992108,0.0 -49.1308465,-28.3182599992108,0.0 -49.1308386,-28.3182645992108,0.0 -49.1308269,-28.3182716992108,0.0 -49.13082,-28.3182761992108,0.0 -49.1308155,-28.3182792992108,0.0 -49.1308068,-28.3182857992108,0.0 -49.1308026,-28.3182891992108,0.0 -49.1307945,-28.3182961992108,0.0 -49.1307868,-28.3183033992108,0.0 -49.1307818,-28.3183084992108,0.0 -49.1307723,-28.3183187992108,0.0 -49.1307621,-28.3183308992108,0.0 -49.1307556,-28.3183392992108,0.0 -49.1307514,-28.3183448992108,0.0 -49.1307432,-28.3183564992108,0.0 -49.1307313,-28.3183741992108,0.0 -49.1307083,-28.3184103992108,0.0 -49.1306908,-28.3184376992108,0.0 -49.1306786,-28.3184554992108,0.0 -49.1306722,-28.3184642992108,0.0 -49.1306623,-28.3184770992108,0.0 -49.1306517,-28.3184895992108,0.0 -49.1306463,-28.3184956992108,0.0 -49.1306386,-28.3185035992108,0.0 -49.1306347,-28.3185074992108,0.0 -49.1306286,-28.3185130992108,0.0 -49.1306191,-28.3185213992108,0.0 -49.1306,-28.3185367992108,0.0 -49.1305903,-28.3185441992108,0.0 -49.1305755,-28.3185550992108,0.0 -49.1305603,-28.3185654992108,0.0 -49.1305526,-28.3185704992108,0.0 -49.1305421,-28.3185768992108,0.0 -49.1305368,-28.3185798992108,0.0 -49.1305288,-28.3185842992108,0.0 -49.1305165,-28.3185905992108,0.0 -49.1305053,-28.3185956992108,0.0 -49.1304996,-28.3185980992108,0.0 -49.1304909,-28.3186015992108,0.0 -49.1304776,-28.3186061992108,0.0 -49.1304639,-28.3186100992108,0.0 -49.1304569,-28.3186118992108,0.0 -49.1304508,-28.3186131992108,0.0 -49.1304387,-28.3186155992108,0.0 -49.1304265,-28.3186176992108,0.0 -49.1304184,-28.3186188992108,0.0 -49.1304021,-28.3186207992108,0.0 -49.1303858,-28.3186221992108,0.0 -49.1303641,-28.3186232992108,0.0 -49.1303533,-28.3186235992108,0.0 -49.130337,-28.3186237992108,0.0 -49.1303289,-28.3186237992108,0.0 -49.1303127,-28.3186236992108,0.0 -49.1303047,-28.3186234992108,0.0 -49.1302926,-28.3186232992108,0.0 -49.1302792,-28.3186227992108,0.0 -49.1302657,-28.3186223992108,0.0 -49.1302523,-28.3186216992108,0.0 -49.1302321,-28.3186202992108,0.0 -49.130212,-28.3186184992108,0.0 -49.130202,-28.3186173992108,0.0 -49.130182,-28.3186147992108,0.0 -49.1301721,-28.3186132992108,0.0 -49.1301573,-28.3186105992108,0.0 -49.1301538,-28.3186098992108,0.0 -49.1301469,-28.3186081992108,0.0 -49.1301401,-28.3186060992108,0.0 -49.1301357,-28.3186045992108,0.0 -49.1301269,-28.3186011992108,0.0 -49.130114,-28.3185952992108,0.0 -49.1301056,-28.3185910992108,0.0 -49.1300888,-28.3185820992108,0.0 -49.13007,-28.3185721992108,0.0 -49.1300573,-28.3185659992108,0.0 -49.1300509,-28.3185632992108,0.0 -49.1300411,-28.3185594992108,0.0 -49.1300311,-28.3185563992108,0.0 -49.1300261,-28.3185551992108,0.0 -49.1300048,-28.3185506992108,0.0 -49.1299939,-28.3185485992108,0.0 -49.1299774,-28.3185459992108,0.0 -49.1299607,-28.3185438992108,0.0 -49.1299524,-28.3185429992108,0.0 -49.1299356,-28.3185418992108,0.0 -49.1299273,-28.3185414992108,0.0 -49.129925,-28.3185414992108,0.0 -49.1299148,-28.3185413992108,0.0 -49.1299038,-28.3185416992108,0.0 -49.1298983,-28.3185419992108,0.0 -49.1298943,-28.3185422992108,0.0 -49.1298902,-28.3185426992108,0.0 -49.1298781,-28.3185440992108,0.0 -49.1298663,-28.3185460992108,0.0 -49.1298605,-28.3185472992108,0.0 -49.1298432,-28.3185512992108,0.0 -49.1298318,-28.3185540992108,0.0 -49.1298089,-28.3185599992108,0.0 -49.129786,-28.3185660992108,0.0 -49.1297709,-28.3185702992108,0.0 -49.1297406,-28.3185789992108,0.0 -49.1297066,-28.3185891992108,0.0 -49.1296914,-28.3185939992108,0.0 -49.1296814,-28.3185974992108,0.0 -49.1296614,-28.3186048992108,0.0 -49.1296415,-28.3186126992108,0.0 -49.1296018,-28.3186283992108,0.0 -49.1295819,-28.3186357992108,0.0 -49.1295718,-28.3186392992108,0.0 -49.1295583,-28.3186437992108,0.0 -49.1295515,-28.3186457992108,0.0 -49.1295413,-28.3186486992108,0.0 -49.1295258,-28.3186525992108,0.0 -49.12951,-28.3186556992108,0.0 -49.129502,-28.3186569992108,0.0 -49.129486,-28.3186590992108,0.0 -49.1294753,-28.3186601992108,0.0 -49.1294538,-28.3186619992108,0.0 -49.1294431,-28.3186625992108,0.0 -49.1294217,-28.3186633992108,0.0 -49.1294003,-28.3186638992108,0.0 -49.1293574,-28.3186642992108,0.0 -49.1293253,-28.3186646992108,0.0 -49.1293092,-28.3186651992108,0.0 -49.1292851,-28.3186662992108,0.0 -49.1292176,-28.3186705992108,0.0 -49.1291838,-28.3186727992108,0.0 -49.1291332,-28.3186765992108,0.0 -49.1290825,-28.3186810992108,0.0 -49.1290572,-28.3186835992108,0.0 -49.1290503,-28.3186844992108,0.0 -49.1290365,-28.3186865992108,0.0 -49.1290231,-28.3186893992108,0.0 -49.1290142,-28.3186915992108,0.0 -49.1290083,-28.3186931992108,0.0 -49.1289967,-28.3186965992108,0.0 -49.128988,-28.3186992992108,0.0 -49.1289709,-28.3187053992108,0.0 -49.128954,-28.3187117992108,0.0 -49.1289204,-28.3187254992108,0.0 -49.1288952,-28.3187357992108,0.0 -49.1288825,-28.3187406992108,0.0 -49.1288655,-28.3187468992108,0.0 -49.128857,-28.3187497992108,0.0 -49.128844,-28.3187536992108,0.0 -49.1288309,-28.3187572992108,0.0 -49.1288243,-28.3187588992108,0.0 -49.1288109,-28.3187615992108,0.0 -49.1288041,-28.3187626992108,0.0 -49.1287938,-28.3187640992108,0.0 -49.1287429,-28.3187696992108,0.0 -49.1287087,-28.3187731992108,0.0 -49.1286859,-28.3187754992108,0.0 -49.1286402,-28.3187797992108,0.0 -49.1286057,-28.3187827992108,0.0 -49.1285827,-28.3187846992108,0.0 -49.1285364,-28.3187884992108,0.0 -49.1285133,-28.3187901992108,0.0 -49.1284668,-28.3187936992108,0.0 -49.1284201,-28.3187968992108,0.0 -49.1283889,-28.3187989992108,0.0 -49.1283262,-28.3188029992108,0.0 -49.1283103,-28.3188039992108,0.0 -49.1282783,-28.3188059992108,0.0 -49.1282461,-28.3188078992108,0.0 -49.1282032,-28.3188100992108,0.0 -49.1281818,-28.3188110992108,0.0 -49.1281498,-28.3188122992108,0.0 -49.1281339,-28.3188126992108,0.0 -49.1281101,-28.3188130992108,0.0 -49.1280949,-28.3188129992108,0.0 -49.1280847,-28.3188125992108,0.0 -49.128078,-28.3188121992108,0.0 -49.1280646,-28.3188110992108,0.0 -49.1280545,-28.3188099992108,0.0 -49.1280345,-28.3188073992108,0.0 -49.1280145,-28.3188043992108,0.0 -49.1279747,-28.3187977992108,0.0 -49.1279548,-28.3187945992108,0.0 -49.1279448,-28.3187930992108,0.0 -49.1279298,-28.3187909992108,0.0 -49.1279147,-28.3187892992108,0.0 -49.1279069,-28.3187885992108,0.0 -49.1278996,-28.3187878992108,0.0 -49.1278843,-28.3187866992108,0.0 -49.1278687,-28.3187855992108,0.0 -49.1278478,-28.3187843992108,0.0 -49.1278372,-28.3187840992108,0.0 -49.1278214,-28.3187838992108,0.0 -49.1278135,-28.3187838992108,0.0 -49.1278017,-28.3187842992108,0.0 -49.1277861,-28.3187852992108,0.0 -49.1277783,-28.3187859992108,0.0 -49.1277668,-28.3187874992108,0.0 -49.1277554,-28.3187892992108,0.0 -49.1277498,-28.3187904992108,0.0 -49.1277456,-28.3187914992108,0.0 -49.1277373,-28.3187938992108,0.0 -49.1277294,-28.3187969992108,0.0 -49.1277243,-28.3187992992108,0.0 -49.127721,-28.3188009992108,0.0 -49.1277145,-28.3188045992108,0.0 -49.1277074,-28.3188090992108,0.0 -49.1277027,-28.3188122992108,0.0 -49.1276937,-28.3188189992108,0.0 -49.1276849,-28.3188261992108,0.0 -49.1276675,-28.3188411992108,0.0 -49.1276544,-28.3188523992108,0.0 -49.1276455,-28.3188595992108,0.0 -49.127641,-28.3188630992108,0.0 -49.127634,-28.3188680992108,0.0 -49.1276269,-28.3188726992108,0.0 -49.1276232,-28.3188748992108,0.0 -49.1276157,-28.3188789992108,0.0 -49.1276119,-28.3188808992108,0.0 -49.1276059,-28.3188833992108,0.0 -49.1275657,-28.3188992992108,0.0 -49.1275455,-28.3189070992108,0.0 -49.127515,-28.3189183992108,0.0 -49.1274946,-28.3189254992108,0.0 -49.1274843,-28.3189288992108,0.0 -49.1274688,-28.3189336992108,0.0 -49.1274481,-28.3189396992108,0.0 -49.1274376,-28.3189424992108,0.0 -49.1274218,-28.3189462992108,0.0 -49.127406,-28.3189496992108,0.0 -49.127398,-28.3189511992108,0.0 -49.1273779,-28.3189547992108,0.0 -49.1273511,-28.3189592992108,0.0 -49.1273377,-28.3189612992108,0.0 -49.1273175,-28.3189637992108,0.0 -49.1273074,-28.3189648992108,0.0 -49.1272938,-28.3189659992108,0.0 -49.127287,-28.3189664992108,0.0 -49.1272768,-28.3189669992108,0.0 -49.1272613,-28.3189673992108,0.0 -49.1271055,-28.3189683992108,0.0 -49.1264126,-28.3189500992108,0.0 -49.1262588,-28.3189496992108,0.0 -49.1255448,-28.3189478992108,0.0 -49.1250001,-28.3189736992108,0.0 -49.1243767,-28.3189130992108,0.0 -49.1238829,-28.3190892992108,0.0 -49.1237316,-28.3192254992108,0.0 -49.1237054,-28.3195041992108,0.0 -49.1237838,-28.3198089992108,0.0 -49.1239406,-28.3200527992108,0.0 -49.1239841,-28.3202704992108,0.0 -49.1240068,-28.3204451992108,0.0 -49.1240451,-28.3207407992108,0.0 -49.1241357,-28.3214081992108,0.0 -49.1239816,-28.3217848992108,0.0 -49.1236532,-28.3221341992107,0.0 -49.1233571,-28.3224737992107,0.0 -49.1232526,-28.3227176992107,0.0 -49.1231417,-28.3229634992107,0.0 -49.1230523,-28.3231617992107,0.0 -49.1230784,-28.3234578992107,0.0 -49.1232003,-28.3236930992107,0.0 -49.1233259,-28.3237871992107,0.0 -49.1234442,-28.3238758992107,0.0 -49.1236096,-28.3242242992107,0.0 -49.1236358,-28.3243722992107,0.0 -49.1236288,-28.3243888992107,0.0 -49.1236134,-28.3244256992107,0.0 -49.1235226,-28.3246422992107,0.0 -49.1234006,-28.3247816992107,0.0 -49.1231307,-28.3249993992107,0.0 -49.1230871,-28.3251735992107,0.0 -49.1231307,-28.3252954992107,0.0 -49.1234616,-28.3255131992107,0.0 -49.1237054,-28.3256002992107,0.0 -49.1239319,-28.3258353992107,0.0 -49.1241235,-28.3260095992107,0.0 -49.1243151,-28.3262446992107,0.0 -49.1244457,-28.3264711992107,0.0 -49.1245066,-28.3267410992107,0.0 -49.1245415,-28.3270197992107,0.0 -49.1245371,-28.3271547992107,0.0 -49.1245328,-28.3272897992107,0.0 -49.1245154,-28.3274638992107,0.0 -49.1245328,-28.3278296992106,0.0 -49.1245763,-28.3281257992106,0.0 -49.1246895,-28.3286569992106,0.0 -49.1248289,-28.3289530992106,0.0 -49.1248975,-28.3290034992106,0.0 -49.1249595,-28.3290488992106,0.0 -49.1251946,-28.3292840992106,0.0 -49.1252643,-28.3293885992106,0.0 -49.125273,-28.3295017992106,0.0 -49.1252121,-28.3297020992106,0.0 -49.1251589,-28.3297552992106,0.0 -49.1250379,-28.3298762992106,0.0 -49.1248289,-28.3301374992106,0.0 -49.1246721,-28.3303813992106,0.0 -49.1245763,-28.3307819992106,0.0 -49.1245633,-28.3309082992106,0.0 -49.1245502,-28.3310344992106,0.0 -49.1244544,-28.3314350992106,0.0 -49.1243586,-28.3317224992106,0.0 -49.1242628,-28.3319489992106,0.0 -49.1241496,-28.3320795992106,0.0 -49.1241108,-28.3321889992106,0.0 -49.1240548,-28.3323466992106,0.0 -49.1240538,-28.3323495992106,0.0 -49.1239319,-28.3325498992106,0.0 -49.1237333,-28.3327649992106,0.0 -49.1236184,-28.3328894992106,0.0 -49.1234442,-28.3331158992105,0.0 -49.1233649,-28.3331646992106,0.0 -49.1231045,-28.3333248992105,0.0 -49.1229217,-28.3334380992105,0.0 -49.1227126,-28.3334903992106,0.0 -49.1224601,-28.3335251992106,0.0 -49.1221901,-28.3335513992105,0.0 -49.1219027,-28.3335774992105,0.0 -49.1215457,-28.3336558992105,0.0 -49.1213192,-28.3337516992105,0.0 -49.1212568,-28.3337976992105,0.0 -49.1211538,-28.3338735992105,0.0 -49.1209448,-28.3341435992105,0.0 -49.1207706,-28.3342915992105,0.0 -49.1205367,-28.3344534992105,0.0 -49.120431,-28.3345266992105,0.0 -49.1202357,-28.3345677992105,0.0 -49.1197691,-28.3346660992105,0.0 -49.1194033,-28.3346573992105,0.0 -49.1190898,-28.3346224992105,0.0 -49.1190731,-28.3346166992105,0.0 -49.1188895,-28.3345528992105,0.0 -49.1187676,-28.3345615992105,0.0 -49.1186718,-28.3346747992105,0.0 -49.1186108,-28.3348489992105,0.0 -49.1185586,-28.3353104992105,0.0 -49.1183147,-28.3358417992105,0.0 -49.1182451,-28.3360681992105,0.0 -49.1181231,-28.3363293992105,0.0 -49.117876,-28.3366400992105,0.0 -49.1175135,-28.3370957992105,0.0 -49.1172784,-28.3373657992105,0.0 -49.1169736,-28.3376008992105,0.0 -49.1162943,-28.3381146992105,0.0 -49.1159808,-28.3382714992105,0.0 -49.1157108,-28.3382888992105,0.0 -49.1153712,-28.3382279992105,0.0 -49.1150054,-28.3380537992105,0.0 -49.1147441,-28.3377663992105,0.0 -49.1143348,-28.3375486992105,0.0 -49.1141201,-28.3375209992105,0.0 -49.1140649,-28.3375137992105,0.0 -49.1138733,-28.3375399992105,0.0 -49.1136556,-28.3376531992105,0.0 -49.1135609,-28.3377650992105,0.0 -49.1135598,-28.3377663992105,0.0 -49.1134901,-28.3379318992105,0.0 -49.113464,-28.3381669992105,0.0 -49.1134513,-28.3385648992105,0.0 -49.1133333,-28.3388026992104,0.0 -49.1132811,-28.3389768992104,0.0 -49.1132288,-28.3392642992104,0.0 -49.1132288,-28.3395777992104,0.0 -49.1132811,-28.3398912992104,0.0 -49.1133159,-28.3402047992104,0.0 -49.1134291,-28.3405792992104,0.0 -49.1135162,-28.3407969992104,0.0 -49.1135772,-28.3409537992104,0.0 -49.1135859,-28.3411975992104,0.0 -49.1135162,-28.3413978992104,0.0 -49.1133682,-28.3417288992104,0.0 -49.1132288,-28.3419552992104,0.0 -49.1129205,-28.3426571992104,0.0 -49.112506,-28.3435315992104,0.0 -49.1123057,-28.3440801992104,0.0 -49.1121975,-28.3442208992104,0.0 -49.1120444,-28.3444198992103,0.0 -49.1119051,-28.3446375992103,0.0 -49.1118093,-28.3448291992103,0.0 -49.1118267,-28.3451600992103,0.0 -49.1119225,-28.3454735992103,0.0 -49.1119486,-28.3456129992103,0.0 -49.1119486,-28.3457261992103,0.0 -49.1118703,-28.3459525992103,0.0 -49.1117135,-28.3461702992103,0.0 -49.1115045,-28.3463966992103,0.0 -49.1112519,-28.3467537992103,0.0 -49.1111474,-28.3469976992103,0.0 -49.11113,-28.3473807992103,0.0 -49.1111736,-28.3481471992103,0.0 -49.1112258,-28.3486000992103,0.0 -49.1114087,-28.3491051992103,0.0 -49.1115393,-28.3493315992103,0.0 -49.1118528,-28.3498279992102,0.0 -49.1121757,-28.3504735992102,0.0 -49.1123852,-28.3507456992102,0.0 -49.1124363,-28.3508120992102,0.0 -49.1126366,-28.3511255992102,0.0 -49.1126976,-28.3513171992102,0.0 -49.1128021,-28.3515783992102,0.0 -49.1128631,-28.3517351992102,0.0 -49.1129589,-28.3519180992102,0.0 -49.1129852,-28.3519585992102,0.0 -49.1130895,-28.3521183992102,0.0 -49.1132637,-28.3522402992102,0.0 -49.1134347,-28.3523308992102,0.0 -49.1135598,-28.3523970992102,0.0 -49.1137949,-28.3525276992102,0.0 -49.1139517,-28.3527105992102,0.0 -49.114239,-28.3531198992102,0.0 -49.1144393,-28.3534856992102,0.0 -49.1145264,-28.3536946992102,0.0 -49.1147616,-28.3540865992102,0.0 -49.1149096,-28.3543739992102,0.0 -49.1149619,-28.3545567992102,0.0 -49.1148125,-28.3547199992102,0.0 -49.1146048,-28.3550009992102,0.0 -49.1143348,-28.3552709992101,0.0 -49.1140997,-28.3554015992102,0.0 -49.1136991,-28.3555060992101,0.0 -49.1132544,-28.3555075992101,0.0 -49.1129066,-28.3554799992101,0.0 -49.112567,-28.3554189992102,0.0 -49.1123667,-28.3554276992102,0.0 -49.1120706,-28.3554537992101,0.0 -49.1116706,-28.3555760992101,0.0 -49.1112094,-28.3557877992101,0.0 -49.1111483,-28.3558158992101,0.0 -49.1107117,-28.3562096992101,0.0 -49.1103179,-28.3565349992101,0.0 -49.1101552,-28.3566291992101,0.0 -49.1099979,-28.3566991992101,0.0 -49.1095015,-28.3566381992101,0.0 -49.1091722,-28.3565713992101,0.0 -49.1089006,-28.3565162992101,0.0 -49.1085958,-28.3564378992101,0.0 -49.1083345,-28.3563682992101,0.0 -49.1081081,-28.3563682992101,0.0 -49.1078991,-28.3564204992101,0.0 -49.1077859,-28.3564988992101,0.0 -49.1076211,-28.3567661992101,0.0 -49.1075246,-28.3571519992101,0.0 -49.1074462,-28.3575090992101,0.0 -49.1073678,-28.3576483992101,0.0 -49.1073518,-28.3576637992101,0.0 -49.1071588,-28.3578486992101,0.0 -49.1066886,-28.3580838992101,0.0 -49.1064186,-28.3582101992101,0.0 -49.1061486,-28.3583363992101,0.0 -49.1057219,-28.3584234992101,0.0 -49.1054554,-28.3584862992101,0.0 -49.1050835,-28.3585738992101,0.0 -49.1049571,-28.3587157992101,0.0 -49.10495,-28.3587236992101,0.0 -49.1040985,-28.3596796992101,0.0 -49.1032854,-28.3605924992101,0.0 -49.1017973,-28.36226309921,0.0 -49.1015706,-28.36251759921,0.0 -49.1015515,-28.36253899921,0.0 -49.1015324,-28.36256039921,0.0 -49.101418,-28.36268889921,0.0 -49.1281784,-28.3967317992094,0.0 -49.128633,-28.3976156992094,0.0 -49.1291381,-28.3995603992094,0.0 -49.1294411,-28.4005958992093,0.0 -49.12982,-28.4016060992093,0.0 -49.1300068,-28.4021800992093,0.0 -49.1302115,-28.4025908992093,0.0 -49.130676,-28.4032455992093,0.0 -49.1310527,-28.4039860992093,0.0 -49.1313706,-28.4045200992093,0.0 -49.1319336,-28.4052298992093,0.0 -49.1321382,-28.4054472992092,0.0 -49.1325282,-28.4057482992092,0.0 -49.1330135,-28.4060807992092,0.0 -49.1334218,-28.4063996992092,0.0 -49.1338426,-28.4066235992092,0.0 -49.1344094,-28.4068136992092,0.0 -49.134595,-28.4068749992092,0.0 -49.1348103,-28.4070018992092,0.0 -49.1354126,-28.4076033992092,0.0 -49.1359388,-28.4080844992092,0.0 -49.1363157,-28.4083408992092,0.0 -49.1367917,-28.4085767992092,0.0 -49.1375243,-28.4089293992092,0.0 -49.1378545,-28.4096322992092,0.0 -49.1379291,-28.4098269992092,0.0 -49.1379637,-28.4099282992092,0.0 -49.1380133,-28.4101029992092,0.0 -49.1380175,-28.4101618992092,0.0 -49.1380156,-28.4102064992092,0.0 -49.1379966,-28.4102454992092,0.0 -49.1379588,-28.4102620992092,0.0 -49.1378042,-28.4103212992092,0.0 -49.1377583,-28.4103393992092,0.0 -49.1377178,-28.4103782992092,0.0 -49.1376765,-28.4103852992092,0.0 -49.1375894,-28.4103778992092,0.0 -49.1375284,-28.4103775992092,0.0 -49.1374772,-28.4103925992092,0.0 -49.1374573,-28.4104235992092,0.0 -49.1374525,-28.4105063992092,0.0 -49.1374426,-28.4107341992092,0.0 -49.1374527,-28.4107755992092,0.0 -49.1374611,-28.4108100992092,0.0 -49.1375049,-28.4110809992092,0.0 -49.1375573,-28.4112086992091,0.0 -49.1376656,-28.4115077992091,0.0 -49.1377405,-28.4116506992091,0.0 -49.1377699,-28.4117025992091,0.0 -49.1378287,-28.4117967992091,0.0 -49.137858,-28.4118805992091,0.0 -49.1378162,-28.4120415992091,0.0 -49.137784,-28.4121786992091,0.0 -49.1377699,-28.4122482992091,0.0 -49.1377534,-28.4122712992091,0.0 -49.1376913,-28.4123025992091,0.0 -49.1376567,-28.4123198992091,0.0 -49.1376386,-28.4123449992091,0.0 -49.1376276,-28.4123700992091,0.0 -49.1376261,-28.4124089992091,0.0 -49.1376395,-28.4124667992091,0.0 -49.1376529,-28.4125406992091,0.0 -49.1376592,-28.4125810992091,0.0 -49.1376585,-28.4126019992091,0.0 -49.1376428,-28.4126979992091,0.0 -49.1376216,-28.4127299992091,0.0 -49.1375768,-28.4128065992091,0.0 -49.1375697,-28.4128399992091,0.0 -49.137565,-28.4128845992091,0.0 -49.1375627,-28.4129450992091,0.0 -49.1375747,-28.4130732992091,0.0 -49.1375933,-28.4131594992091,0.0 -49.1376046,-28.4132032992091,0.0 -49.1376001,-28.4132336992091,0.0 -49.1375833,-28.4132810992091,0.0 -49.1375805,-28.4133054992091,0.0 -49.1375895,-28.4133323992091,0.0 -49.1376002,-28.4133587992091,0.0 -49.1376031,-28.4134140992091,0.0 -49.1375898,-28.4134504992091,0.0 -49.1375862,-28.4134603992091,0.0 -49.1375446,-28.4135235992091,0.0 -49.1375267,-28.4135711992091,0.0 -49.1375214,-28.4136624992091,0.0 -49.1375088,-28.4138383992091,0.0 -49.1375886,-28.4138000992091,0.0 -49.1376369,-28.4137768992091,0.0 -49.1376496,-28.4137740992091,0.0 -49.1377231,-28.4137575992091,0.0 -49.1378092,-28.4137381992091,0.0 -49.1380857,-28.4136083992091,0.0 -49.1384081,-28.4134426992091,0.0 -49.1390225,-28.4130978992091,0.0 -49.139467,-28.4129281992091,0.0 -49.1396563,-28.4128608992091,0.0 -49.1401159,-28.4126856992091,0.0 -49.1402084,-28.4126336992091,0.0 -49.1408199,-28.4123697992091,0.0 -49.1410919,-28.4122822992091,0.0 -49.1413242,-28.4122284992091,0.0 -49.141471,-28.4122166992091,0.0 -49.1416794,-28.4122299992091,0.0 -49.1417919,-28.4122416992091,0.0 -49.1419817,-28.4122274992091,0.0 -49.142186,-28.4121792992091,0.0 -49.1424433,-28.4121240992091,0.0 -49.1425406,-28.4120940992091,0.0 -49.1426269,-28.4120590992091,0.0 -49.1426668,-28.4120102992091,0.0 -49.1427253,-28.4119682992091,0.0 -49.1428001,-28.4119462992091,0.0 -49.1429904,-28.4119257992091,0.0 -49.1430966,-28.4119339992091,0.0 -49.1438505,-28.4120047992091,0.0 -49.144051,-28.4120061992091,0.0 -49.1444084,-28.4120066992091,0.0 -49.1447377,-28.4120244992091,0.0 -49.1450362,-28.4120068992091,0.0 -49.1452584,-28.4119613992091,0.0 -49.145508,-28.4119299992091,0.0 -49.1456512,-28.4119297992091,0.0 -49.1458288,-28.4119203992091,0.0 -49.145942,-28.4119062992091,0.0 -49.1461207,-28.4118236992091,0.0 -49.1461771,-28.4117184992091,0.0 -49.1462273,-28.4115212992091,0.0 -49.1462492,-28.4112540992091,0.0 -49.1462308,-28.4111471992091,0.0 -49.14617,-28.4108592992092,0.0 -49.1461571,-28.4105984992092,0.0 -49.1461413,-28.4105274992092,0.0 -49.1460693,-28.4104220992092,0.0 -49.145888,-28.4102346992092,0.0 -49.1458433,-28.4101134992092,0.0 -49.1458247,-28.4099807992092,0.0 -49.1458557,-28.4096873992092,0.0 -49.1459772,-28.4090875992092,0.0 -49.1461368,-28.4086872992092,0.0 -49.1464096,-28.4083069992092,0.0 -49.1465324,-28.4082013992092,0.0 -49.1467721,-28.4080684992092,0.0 -49.1468902,-28.4080345992092,0.0 -49.1470083,-28.4080005992092,0.0 -49.1472663,-28.4079275992092,0.0 -49.147581,-28.4077924992092,0.0 -49.1478727,-28.4075612992092,0.0 -49.1481383,-28.4074655992092,0.0 -49.1484549,-28.4073987992092,0.0 -49.148586,-28.4073321992092,0.0 -49.1487831,-28.4072036992092,0.0 -49.1489186,-28.4070764992092,0.0 -49.149333,-28.4065228992092,0.0 -49.1493796,-28.4064433992092,0.0 -49.1496317,-28.4061311992092,0.0 -49.1497913,-28.4058639992092,0.0 -49.1502237,-28.4053130992093,0.0 -49.1503974,-28.4051729992093,0.0 -49.1508004,-28.4049808992093,0.0 -49.1515239,-28.4047296992093,0.0 -49.1518417,-28.4046058992093,0.0 -49.1522751,-28.4044067992093,0.0 -49.1525086,-28.4043273992093,0.0 -49.152605,-28.4042881992093,0.0 -49.1527214,-28.4041721992093,0.0 -49.1529191,-28.4040308992093,0.0 -49.1532519,-28.4037929992093,0.0 -49.1537936,-28.4034120992093,0.0 -49.1538927,-28.4033327992093,0.0 -49.1542208,-28.4030296992093,0.0 -49.1544098,-28.4026814992093,0.0 -49.1545163,-28.4024286992093,0.0 -49.1548918,-28.4018568992093,0.0 -49.1551268,-28.4014875992093,0.0 -49.1552594,-28.4012714992093,0.0 -49.1556354,-28.4009053992093,0.0 -49.1559633,-28.4007997992093,0.0 -49.1564407,-28.4007351992093,0.0 -49.1568675,-28.4007327992093,0.0 -49.1578761,-28.4009318992093,0.0 -49.1584908,-28.4011183992093,0.0 -49.158769,-28.4012151992093,0.0 -49.1591046,-28.4013788992093,0.0 -49.1593449,-28.4014313992093,0.0 -49.1596206,-28.4014049992093,0.0 -49.1598572,-28.4013179992093,0.0 -49.1600349,-28.4011202992093,0.0 -49.1601223,-28.4011156992093,0.0 -49.1602636,-28.4011438992093,0.0 -49.1604068,-28.4012060992093,0.0 -49.1604589,-28.4012454992093,0.0 -49.1605381,-28.4013495992093,0.0 -49.1605947,-28.4014057992093,0.0 -49.1606456,-28.4014738992093,0.0 -49.1606905,-28.4016502992093,0.0 -49.160737,-28.4018928992093,0.0 -49.1607564,-28.4019985992093,0.0 -49.1607758,-28.4021043992093,0.0 -49.1607787,-28.4021851992093,0.0 -49.1607629,-28.4022799992093,0.0 -49.1607283,-28.4024816992093,0.0 -49.1606705,-28.4026367992093,0.0 -49.1606126,-28.4027918992093,0.0 -49.1605873,-28.4028877992093,0.0 -49.1606055,-28.4030512992093,0.0 -49.1606321,-28.4031789992093,0.0 -49.1606784,-28.4032859992093,0.0 -49.1607441,-28.4034046992093,0.0 -49.1608121,-28.4035139992093,0.0 -49.1608737,-28.4036946992093,0.0 -49.1609219,-28.4041035992093,0.0 -49.160944,-28.4042897992093,0.0 -49.1609616,-28.4044379992093,0.0 -49.1609661,-28.4044759992093,0.0 -49.1609421,-28.4049012992093,0.0 -49.1609308,-28.4050875992093,0.0 -49.160901,-28.4055145992092,0.0 -49.1810122,-28.4138960992091,0.0 -49.1811076,-28.4137402992091,0.0 -49.1811447,-28.4135664992091,0.0 -49.181153,-28.4133132992091,0.0 -49.1811962,-28.4130868992091,0.0 -49.1812308,-28.4130171992091,0.0 -49.1812933,-28.4129435992091,0.0 -49.1813378,-28.4128654992091,0.0 -49.1813609,-28.4127886992091,0.0 -49.1814069,-28.4126458992091,0.0 -49.1815088,-28.4124762992091,0.0 -49.1815593,-28.4123125992091,0.0 -49.1815911,-28.4121206992091,0.0 -49.1816425,-28.4119583992091,0.0 -49.1817048,-28.4118049992091,0.0 -49.1817889,-28.4114556992091,0.0 -49.1819441,-28.4110858992091,0.0 -49.1820736,-28.4108763992091,0.0 -49.1821851,-28.4106550992092,0.0 -49.1822725,-28.4103873992092,0.0 -49.1823111,-28.4101424992092,0.0 -49.1823662,-28.4099345992092,0.0 -49.1824144,-28.4097980992092,0.0 -49.182426,-28.4096426992092,0.0 -49.1824257,-28.4094223992092,0.0 -49.1824074,-28.4092227992092,0.0 -49.1824141,-28.4090977992092,0.0 -49.182448,-28.4090384992092,0.0 -49.1824902,-28.4090174992092,0.0 -49.1825479,-28.4090047992092,0.0 -49.1826072,-28.4090171992092,0.0 -49.1827368,-28.4090964992092,0.0 -49.1829439,-28.4092520992092,0.0 -49.1831718,-28.4094277992092,0.0 -49.1833988,-28.4096617992092,0.0 -49.1842173,-28.4105775992092,0.0 -49.1844036,-28.4107190992092,0.0 -49.1846125,-28.4108186992092,0.0 -49.1848432,-28.4108837992092,0.0 -49.185085,-28.4109231992091,0.0 -49.1852796,-28.4110190992091,0.0 -49.1854651,-28.4111368992092,0.0 -49.185604,-28.4113018992091,0.0 -49.1857111,-28.4114675992091,0.0 -49.1858419,-28.4115896992091,0.0 -49.1860535,-28.4116817992091,0.0 -49.1862286,-28.4117083992091,0.0 -49.1863765,-28.4116284992091,0.0 -49.1864888,-28.4114931992091,0.0 -49.1866634,-28.4111496992091,0.0 -49.1868112,-28.4107451992092,0.0 -49.1868909,-28.4102945992092,0.0 -49.1868595,-28.4099056992092,0.0 -49.1868116,-28.4096004992092,0.0 -49.186725,-28.4093743992092,0.0 -49.1866169,-28.4091269992092,0.0 -49.1864448,-28.4089247992092,0.0 -49.1862434,-28.4087521992092,0.0 -49.1861438,-28.4085894992092,0.0 -49.1861522,-28.4084592992092,0.0 -49.1861997,-28.4083191992092,0.0 -49.1862565,-28.4081983992092,0.0 -49.186346,-28.4081199992092,0.0 -49.1865063,-28.4080259992092,0.0 -49.1866709,-28.4079815992092,0.0 -49.1868763,-28.4079572992092,0.0 -49.1870377,-28.4079050992092,0.0 -49.187272,-28.4078413992092,0.0 -49.1875324,-28.4078390992092,0.0 -49.1880617,-28.4079344992092,0.0 -49.1884547,-28.4079584992092,0.0 -49.1888226,-28.4079364992092,0.0 -49.1892078,-28.4078540992092,0.0 -49.1896264,-28.4076891992092,0.0 -49.1898532,-28.4075899992092,0.0 -49.1900414,-28.4075424992092,0.0 -49.1902038,-28.4075110992092,0.0 -49.1903474,-28.4074910992092,0.0 -49.1904693,-28.4074379992092,0.0 -49.1905457,-28.4073624992092,0.0 -49.1905725,-28.4072607992092,0.0 -49.1905855,-28.4071597992092,0.0 -49.1905706,-28.4070394992092,0.0 -49.1904895,-28.4068865992092,0.0 -49.1904556,-28.4067557992092,0.0 -49.1904448,-28.4066337992092,0.0 -49.1905216,-28.4063848992092,0.0 -49.1905333,-28.4061065992092,0.0 -49.1904932,-28.4059029992092,0.0 -49.1904889,-28.4056423992092,0.0 -49.1905173,-28.4055411992092,0.0 -49.1905707,-28.4054338992092,0.0 -49.1906649,-28.4053238992092,0.0 -49.1907838,-28.4052399992093,0.0 -49.1909684,-28.4050897992093,0.0 -49.1911031,-28.4049979992093,0.0 -49.1911832,-28.4049594992093,0.0 -49.1912456,-28.4049108992093,0.0 -49.1913196,-28.4047880992093,0.0 -49.1914009,-28.4046568992093,0.0 -49.1915244,-28.4045293992093,0.0 -49.1915892,-28.4043917992093,0.0 -49.1916575,-28.4039843992093,0.0 -49.1916785,-28.4038262992093,0.0 -49.191721,-28.4036917992093,0.0 -49.1917653,-28.4035583992093,0.0 -49.191803,-28.4034308992093,0.0 -49.1918191,-28.4033224992093,0.0 -49.1918273,-28.4031912992093,0.0 -49.1918365,-28.4030629992093,0.0 -49.1918503,-28.4028943992093,0.0 -49.1918043,-28.4025856992093,0.0 -49.191687,-28.4022228992093,0.0 -49.1914441,-28.4017447992093,0.0 -49.1911138,-28.4013231992093,0.0 -49.1909985,-28.4011569992093,0.0 -49.1909322,-28.4009545992093,0.0 -49.1909091,-28.4007176992093,0.0 -49.190862,-28.4005415992093,0.0 -49.1908675,-28.4003317992093,0.0 -49.1909166,-28.4001020992093,0.0 -49.1910338,-28.3999408992093,0.0 -49.1910739,-28.3998133992093,0.0 -49.1910715,-28.3996903992094,0.0 -49.1910433,-28.3995333992094,0.0 -49.1910736,-28.3993790992094,0.0 -49.1911304,-28.3992857992094,0.0 -49.1911595,-28.3991787992094,0.0 -49.191149,-28.3989640992094,0.0 -49.1909115,-28.3980822992094,0.0 -49.1905884,-28.3973230992094,0.0 -49.1904071,-28.3968975992094,0.0 -49.1902808,-28.3967291992094,0.0 -49.1900329,-28.3965773992094,0.0 -49.1898842,-28.3964028992094,0.0 -49.1897767,-28.3962678992094,0.0 -49.1896254,-28.3961648992094,0.0 -49.1895536,-28.3961426992094,0.0 -49.189474,-28.3961369992094,0.0 -49.1894027,-28.3961164992094,0.0 -49.1893286,-28.3960772992094,0.0 -49.1892675,-28.3960316992094,0.0 -49.1892244,-28.3959684992094,0.0 -49.1891503,-28.3959198992094,0.0 -49.1890588,-28.3958936992094,0.0 -49.1889982,-28.3959047992094,0.0 -49.1889364,-28.3959351992094,0.0 -49.1888578,-28.3959938992094,0.0 -49.1887994,-28.3960773992094,0.0 -49.1887761,-28.3961543992094,0.0 -49.1887708,-28.3962210992094,0.0 -49.1887437,-28.3962773992094,0.0 -49.1886971,-28.3963109992094,0.0 -49.1886386,-28.3963503992094,0.0 -49.1885681,-28.3963862992094,0.0 -49.1884995,-28.3964098992094,0.0 -49.188433,-28.3964214992094,0.0 -49.1883889,-28.3964134992094,0.0 -49.1883606,-28.3963920992094,0.0 -49.1883491,-28.3963626992094,0.0 -49.1883503,-28.3963274992094,0.0 -49.1883655,-28.3962457992094,0.0 -49.1884277,-28.3960886992094,0.0 -49.1886205,-28.3956695992094,0.0 -49.1887564,-28.3954339992094,0.0 -49.1888252,-28.3951315992094,0.0 -49.189012,-28.3945649992094,0.0 -49.1890437,-28.3943393992094,0.0 -49.1890583,-28.3940982992095,0.0 -49.188969,-28.3937434992095,0.0 -49.1889661,-28.3935795992095,0.0 -49.1889968,-28.3934217992095,0.0 -49.1890604,-28.3932871992095,0.0 -49.1891685,-28.3931694992095,0.0 -49.18923,-28.3931219992095,0.0 -49.1893057,-28.3930890992095,0.0 -49.1897144,-28.3929873992095,0.0 -49.189967,-28.3928615992095,0.0 -49.1901841,-28.3927436992095,0.0 -49.1904585,-28.3925922992095,0.0 -49.190581,-28.3925281992095,0.0 -49.1906589,-28.3924823992095,0.0 -49.1907039,-28.3924221992095,0.0 -49.1907406,-28.3922976992095,0.0 -49.1907282,-28.3921824992095,0.0 -49.1906786,-28.3919257992095,0.0 -49.190596,-28.3916345992095,0.0 -49.1904556,-28.3913067992095,0.0 -49.1903907,-28.3910982992095,0.0 -49.1903211,-28.3909396992095,0.0 -49.19021,-28.3907427992095,0.0 -49.1901069,-28.3904140992095,0.0 -49.1900102,-28.3900872992095,0.0 -49.1897699,-28.3893547992095,0.0 -49.1901664,-28.3890479992095,0.0 -49.1903655,-28.3888884992095,0.0 -49.1905474,-28.3887429992096,0.0 -49.1907658,-28.3885488992096,0.0 -49.1908749,-28.3884396992096,0.0 -49.191069,-28.3883547992096,0.0 -49.1912267,-28.3882941992096,0.0 -49.1914086,-28.3882092992096,0.0 -49.1915178,-28.3882092992095,0.0 -49.1917275,-28.3882288992096,0.0 -49.1922853,-28.3880379992096,0.0 -49.1929311,-28.3877590992096,0.0 -49.1935917,-28.3873040992096,0.0 -49.1937238,-28.3871279992096,0.0 -49.1938706,-28.3868049992096,0.0 -49.193988,-28.3863646992096,0.0 -49.1940761,-28.3857040992096,0.0 -49.1941201,-28.3852930992096,0.0 -49.1941348,-28.3846031992096,0.0 -49.1941134,-28.3841459992096,0.0 -49.194174,-28.3839034992096,0.0 -49.1942711,-28.3835759992096,0.0 -49.1943681,-28.3832727992096,0.0 -49.1945379,-28.3829330992097,0.0 -49.1947077,-28.3826298992097,0.0 -49.1948775,-28.3823508992097,0.0 -49.1950958,-28.3821568992097,0.0 -49.1954559,-28.3819316992097,0.0 -49.1959549,-28.3815646992097,0.0 -49.1963513,-28.3813151992097,0.0 -49.1964907,-28.3811986992097,0.0 -49.1966969,-28.3808954992097,0.0 -49.1967333,-28.3807498992097,0.0 -49.1970685,-28.3799538992097,0.0 -49.1970971,-28.3798765992097,0.0 -49.1972669,-28.3796339992097,0.0 -49.1974367,-28.3795976992097,0.0 -49.1975338,-28.3796339992097,0.0 -49.1974731,-28.3799978992097,0.0 -49.197461,-28.3803132992097,0.0 -49.1974125,-28.3805436992097,0.0 -49.197364,-28.3808468992097,0.0 -49.1973882,-28.3812592992097,0.0 -49.1974489,-28.3816716992097,0.0 -49.1974987,-28.3819709992097,0.0 -49.1975216,-28.3821083992097,0.0 -49.1973397,-28.3823023992097,0.0 -49.1971456,-28.3825813992097,0.0 -49.1971093,-28.3828481992097,0.0 -49.1971578,-28.3830786992096,0.0 -49.1972548,-28.3832241992096,0.0 -49.1974004,-28.3833939992096,0.0 -49.1979133,-28.3836952992096,0.0 -49.1981645,-28.3838427992096,0.0 -49.1984798,-28.3840368992096,0.0 -49.1986496,-28.3843036992096,0.0 -49.1987952,-28.3846432992096,0.0 -49.1989044,-28.3849343992096,0.0 -49.1990135,-28.3851648992096,0.0 -49.1991469,-28.3853467992096,0.0 -49.1994259,-28.3855408992096,0.0 -49.1998626,-28.3858561992096,0.0 -49.2001658,-28.3860745992096,0.0 -49.2006995,-28.3864990992096,0.0 -49.200859,-28.3865917992096,0.0 -49.2011903,-28.3866963992096,0.0 -49.2014866,-28.3867835992096,0.0 -49.2018876,-28.3868619992096,0.0 -49.2025327,-28.3869927992096,0.0 -49.2029773,-28.3871757992096,0.0 -49.2032998,-28.3873239992096,0.0 -49.2039624,-28.3876726992096,0.0 -49.2043895,-28.3878557992096,0.0 -49.2047643,-28.3879864992096,0.0 -49.2051043,-28.3880213992096,0.0 -49.205453,-28.3880126992096,0.0 -49.2057145,-28.3879167992096,0.0 -49.2059237,-28.3877598992096,0.0 -49.2059822,-28.3877203992096,0.0 -49.2062201,-28.3875593992096,0.0 -49.206534,-28.3874983992096,0.0 -49.2065415,-28.3875011992096,0.0 -49.2067868,-28.3875942992096,0.0 -49.2070396,-28.3877336992096,0.0 -49.2073447,-28.3877685992096,0.0 -49.2076062,-28.3877075992096,0.0 -49.2079026,-28.3875767992096,0.0 -49.2081292,-28.3874896992096,0.0 -49.208382,-28.3874460992096,0.0 -49.2087046,-28.3874547992096,0.0 -49.2088353,-28.3874634992096,0.0 -49.2092102,-28.3874198992096,0.0 -49.2094978,-28.3873065992096,0.0 -49.2097332,-28.3872019992096,0.0 -49.2098727,-28.3870363992096,0.0 -49.2100034,-28.3868793992096,0.0 -49.2101603,-28.3867137992096,0.0 -49.210326,-28.3865917992096,0.0 -49.2105003,-28.3864696992096,0.0 -49.2107793,-28.3863389992096,0.0 -49.2110844,-28.3863302992096,0.0 -49.2112674,-28.3863476992096,0.0 -49.2114679,-28.3864260992096,0.0 -49.2116249,-28.3866178992096,0.0 -49.2117905,-28.3867399992096,0.0 -49.2118555,-28.3868163992096,0.0 -49.2121392,-28.3871496992096,0.0 -49.2124879,-28.3875680992096,0.0 -49.2129324,-28.3880126992096,0.0 -49.2131242,-28.3881433992096,0.0 -49.2133726,-28.3882779992096,0.0 -49.2140497,-28.3884022992096,0.0 -49.214613,-28.3885334992096,0.0 -49.2150354,-28.3886655992095,0.0 -49.2152164,-28.3886925992095,0.0 -49.215443,-28.3885966992096,0.0 -49.2156522,-28.3884223992096,0.0 -49.2158809,-28.3881916992096,0.0 -49.2160271,-28.3880126992096,0.0 -49.2161317,-28.3876988992096,0.0 -49.2161015,-28.3873701992096,0.0 -49.2161317,-28.3870363992096,0.0 -49.2162101,-28.3867486992096,0.0 -49.216307,-28.3866361992096,0.0 -49.2164542,-28.3864086992096,0.0 -49.2165065,-28.3862604992096,0.0 -49.2165414,-28.3861471992096,0.0 -49.2165676,-28.3859466992096,0.0 -49.2165363,-28.3858371992096,0.0 -49.2165152,-28.3857635992096,0.0 -49.2165152,-28.3855979992096,0.0 -49.2165937,-28.3854584992096,0.0 -49.21674,-28.3852930992096,0.0 -49.2169773,-28.3851010992096,0.0 -49.2172126,-28.3849092992096,0.0 -49.2174044,-28.3847698992096,0.0 -49.2176746,-28.3845693992096,0.0 -49.2183023,-28.3840724992096,0.0 -49.2186684,-28.3837847992096,0.0 -49.218834,-28.3836191992096,0.0 -49.2191566,-28.3833663992096,0.0 -49.2193919,-28.3831919992096,0.0 -49.219636,-28.3829914992097,0.0 -49.2196641,-28.3829679992097,0.0 -49.2202288,-28.3824945992097,0.0 -49.2204555,-28.3823725992097,0.0 -49.220778,-28.3823376992097,0.0 -49.221118,-28.3822679992097,0.0 -49.2216497,-28.3821110992097,0.0 -49.2217908,-28.3820623992097,0.0 -49.2219025,-28.3820238992097,0.0 -49.2221292,-28.3819105992097,0.0 -49.2223035,-28.3817274992097,0.0 -49.222443,-28.3815269992097,0.0 -49.2225465,-28.3813907992097,0.0 -49.2226086,-28.3813090992097,0.0 -49.2228004,-28.3811782992097,0.0 -49.2228364,-28.3811628992097,0.0 -49.2230445,-28.3810736992097,0.0 -49.2236024,-28.3807685992097,0.0 -49.2237942,-28.3805419992097,0.0 -49.2238901,-28.3802193992097,0.0 -49.2239598,-28.3799229992097,0.0 -49.223986,-28.3796266992097,0.0 -49.2239442,-28.3793285992097,0.0 -49.2239249,-28.3791907992097,0.0 -49.2238817,-28.3788735992097,0.0 -49.2238726,-28.3788071992097,0.0 -49.2238378,-28.3785107992097,0.0 -49.2238069,-28.3782899992097,0.0 -49.2237855,-28.3781359992097,0.0 -49.2236024,-28.3774821992098,0.0 -49.2234891,-28.3770462992098,0.0 -49.2233496,-28.3765319992098,0.0 -49.2232188,-28.3761571992098,0.0 -49.2230881,-28.3759043992098,0.0 -49.2229486,-28.3757561992098,0.0 -49.2226958,-28.3756951992098,0.0 -49.222443,-28.3756253992098,0.0 -49.2221989,-28.3754074992098,0.0 -49.2219461,-28.3751633992098,0.0 -49.2217979,-28.3749279992098,0.0 -49.2217282,-28.3747100992098,0.0 -49.2217195,-28.3744834992098,0.0 -49.2217892,-28.3742218992098,0.0 -49.2218677,-28.3740213992098,0.0 -49.2219025,-28.3738644992098,0.0 -49.22192,-28.3736116992098,0.0 -49.2219112,-28.3732978992098,0.0 -49.2219112,-28.3730450992098,0.0 -49.22192,-28.3729143992098,0.0 -49.2219461,-28.3728184992098,0.0 -49.2220023,-28.3726106992098,0.0 -49.2221902,-28.3724174992098,0.0 -49.2222599,-28.3722779992098,0.0 -49.2223733,-28.3721471992098,0.0 -49.2225389,-28.3720338992099,0.0 -49.2229858,-28.3718914992099,0.0 -49.2232537,-28.3718072992099,0.0 -49.2233932,-28.3717984992099,0.0 -49.2235937,-28.3717984992099,0.0 -49.2239337,-28.3717113992099,0.0 -49.2242126,-28.3716590992099,0.0 -49.2244305,-28.3715108992099,0.0 -49.2245962,-28.3714236992099,0.0 -49.2246833,-28.3713713992099,0.0 -49.2249361,-28.3713016992099,0.0 -49.2251628,-28.3712493992099,0.0 -49.2256161,-28.3711446992099,0.0 -49.2257643,-28.3710749992099,0.0 -49.2259038,-28.3709267992099,0.0 -49.2259561,-28.3708134992099,0.0 -49.2260312,-28.3705539992099,0.0 -49.226052,-28.3704821992099,0.0 -49.2261478,-28.3702468992099,0.0 -49.2262176,-28.3700550992099,0.0 -49.2262612,-28.3698196992099,0.0 -49.2262612,-28.3696191992099,0.0 -49.2262612,-28.3695319992099,0.0 -49.2262525,-28.3692181992099,0.0 -49.2262525,-28.3688433992099,0.0 -49.2262525,-28.3684772992099,0.0 -49.2262089,-28.3681895992099,0.0 -49.2261217,-28.3678582992099,0.0 -49.2260725,-28.3677469992099,0.0 -49.2259561,-28.3674834992099,0.0 -49.225834,-28.3672567992099,0.0 -49.2257425,-28.3671042992099,0.0 -49.225651,-28.3669516992099,0.0 -49.2255028,-28.3667163992099,0.0 -49.2253633,-28.3664722992099,0.0 -49.2252412,-28.3662891992099,0.0 -49.2250495,-28.36612359921,0.0 -49.225024,-28.36610319921,0.0 -49.2248315,-28.36594919921,0.0 -49.2246223,-28.36587949921,0.0 -49.2242213,-28.36580099921,0.0 -49.2239854,-28.36578289921,0.0 -49.2238814,-28.36577489921,0.0 -49.2235152,-28.36579229921,0.0 -49.223245,-28.36580099921,0.0 -49.2230271,-28.36579229921,0.0 -49.2224256,-28.36572259921,0.0 -49.2222861,-28.36563539921,0.0 -49.2222076,-28.36553949921,0.0 -49.2221292,-28.36544359921,0.0 -49.222103,-28.36525189921,0.0 -49.2220856,-28.36507749921,0.0 -49.2219723,-28.36478979921,0.0 -49.2218415,-28.36458059921,0.0 -49.2216759,-28.36422319921,0.0 -49.2215626,-28.36397039921,0.0 -49.2214056,-28.36368269921,0.0 -49.221301,-28.36358689921,0.0 -49.2212226,-28.36350839921,0.0 -49.2210395,-28.36342989921,0.0 -49.2208303,-28.36339509921,0.0 -49.2204903,-28.36338639921,0.0 -49.2201939,-28.36336889921,0.0 -49.2198162,-28.36337579921,0.0 -49.2197145,-28.36337759921,0.0 -49.2194094,-28.36333409921,0.0 -49.2191479,-28.36329049921,0.0 -49.2188253,-28.36321199921,0.0 -49.2183284,-28.36310739921,0.0 -49.2180495,-28.36303769921,0.0 -49.2176746,-28.36295049921,0.0 -49.2173434,-28.36283719921,0.0 -49.2169685,-28.36274999921,0.0 -49.216768,-28.36271509921,0.0 -49.2165065,-28.36269769921,0.0 -49.2161666,-28.36269769921,0.0 -49.215905,-28.36268899921,0.0 -49.2157743,-28.36268899921,0.0 -49.2155999,-28.36268899921,0.0 -49.2154605,-28.36268899921,0.0 -49.2154169,-28.36266279921,0.0 -49.2153994,-28.36263669921,0.0 -49.2153994,-28.36257569921,0.0 -49.2154082,-28.36250589921,0.0 -49.2154517,-28.36242749921,0.0 -49.2154082,-28.36230539921,0.0 -49.2153384,-28.36213979921,0.0 -49.2151466,-28.36193929921,0.0 -49.2150072,-28.36183469921,0.0 -49.2148241,-28.36165159921,0.0 -49.2146497,-28.36149469921,0.0 -49.2145451,-28.36134649921,0.0 -49.2144318,-28.36114599921,0.0 -49.2144144,-28.3609193992101,0.0 -49.2145364,-28.3607188992101,0.0 -49.214641,-28.3606054992101,0.0 -49.2147979,-28.3604747992101,0.0 -49.2149113,-28.3603614992101,0.0 -49.2150943,-28.3601609992101,0.0 -49.2152077,-28.3598732992101,0.0 -49.2151902,-28.3595419992101,0.0 -49.2150299,-28.3588420992101,0.0 -49.2149897,-28.3586005992101,0.0 -49.2150856,-28.3582954992101,0.0 -49.2151336,-28.3582126992101,0.0 -49.2151815,-28.3581297992101,0.0 -49.2152687,-28.3579815992101,0.0 -49.2154169,-28.3578421992101,0.0 -49.2155825,-28.3577549992101,0.0 -49.2158179,-28.3575021992101,0.0 -49.2159547,-28.3573741992101,0.0 -49.2161895,-28.3571099992101,0.0 -49.216306,-28.3569093992101,0.0 -49.2164281,-28.3566478992101,0.0 -49.2164804,-28.3563776992101,0.0 -49.2164891,-28.3561509992101,0.0 -49.2165065,-28.3559417992101,0.0 -49.2165152,-28.3556715992102,0.0 -49.2164978,-28.3554971992101,0.0 -49.2164281,-28.3552530992102,0.0 -49.2162912,-28.3551162992102,0.0 -49.2162886,-28.3551136992101,0.0 -49.2161143,-28.3549392992102,0.0 -49.2160096,-28.3547562992102,0.0 -49.2159225,-28.3546080992102,0.0 -49.2158091,-28.3542941992102,0.0 -49.2155584,-28.3536604992102,0.0 -49.2153994,-28.3533265992102,0.0 -49.2153558,-28.3531260992102,0.0 -49.2153554,-28.3531212992102,0.0 -49.2153297,-28.3528645992102,0.0 -49.2153035,-28.3526117992102,0.0 -49.2153035,-28.3523763992102,0.0 -49.2153297,-28.3521933992102,0.0 -49.2153384,-28.3519928992102,0.0 -49.2153558,-28.3517661992102,0.0 -49.21526,-28.3515743992102,0.0 -49.2150769,-28.3513738992102,0.0 -49.2149374,-28.3512867992102,0.0 -49.2148677,-28.3510775992102,0.0 -49.2148677,-28.3507811992102,0.0 -49.2149723,-28.3505457992102,0.0 -49.2151641,-28.3503714992102,0.0 -49.21526,-28.3502842992102,0.0 -49.2153558,-28.3501970992102,0.0 -49.2155825,-28.3500052992102,0.0 -49.2158353,-28.3497611992103,0.0 -49.2160794,-28.3494560992103,0.0 -49.2161491,-28.3492294992103,0.0 -49.2161666,-28.3490550992103,0.0 -49.2161317,-28.3488545992103,0.0 -49.2160881,-28.3486889992103,0.0 -49.216067,-28.3485481992103,0.0 -49.2160619,-28.3485146992103,0.0 -49.2160619,-28.3484361992103,0.0 -49.2160794,-28.3481920992103,0.0 -49.2161753,-28.3478869992103,0.0 -49.2162537,-28.3474772992103,0.0 -49.2163671,-28.3471460992103,0.0 -49.2164139,-28.3470622992103,0.0 -49.2164891,-28.3469280992103,0.0 -49.2167332,-28.3465358992103,0.0 -49.2168901,-28.3463614992103,0.0 -49.2170208,-28.3461348992103,0.0 -49.2170448,-28.3459868992103,0.0 -49.2170732,-28.3458122992103,0.0 -49.2170906,-28.3455507992103,0.0 -49.217108,-28.3453153992103,0.0 -49.2170819,-28.3449754992103,0.0 -49.2171255,-28.3446964992103,0.0 -49.2172213,-28.3444872992103,0.0 -49.2174044,-28.3443390992104,0.0 -49.2176398,-28.3442518992103,0.0 -49.2178316,-28.3442082992104,0.0 -49.2181192,-28.3441647992104,0.0 -49.2184243,-28.3441647992104,0.0 -49.2187207,-28.3441472992104,0.0 -49.2189735,-28.3441734992104,0.0 -49.2192873,-28.3441472992104,0.0 -49.2194966,-28.3440426992104,0.0 -49.2196622,-28.3439293992104,0.0 -49.2197524,-28.3438571992104,0.0 -49.2199237,-28.3437201992104,0.0 -49.2200022,-28.3435980992104,0.0 -49.2199847,-28.3434062992104,0.0 -49.2199324,-28.3431796992104,0.0 -49.2199237,-28.3426217992104,0.0 -49.2199455,-28.3423716992104,0.0 -49.2199586,-28.3422207992104,0.0 -49.2199847,-28.3417935992104,0.0 -49.2199324,-28.3414797992104,0.0 -49.2197755,-28.3411921992104,0.0 -49.2197335,-28.3411539992104,0.0 -49.2194878,-28.3409305992104,0.0 -49.2193702,-28.3408412992104,0.0 -49.2192699,-28.3407649992104,0.0 -49.2192115,-28.3407382992104,0.0 -49.2189648,-28.3406254992104,0.0 -49.2187142,-28.3405683992104,0.0 -49.2184679,-28.3405121992104,0.0 -49.2183601,-28.3405046992104,0.0 -49.2180931,-28.3404860992104,0.0 -49.2175352,-28.3403988992104,0.0 -49.2171771,-28.3401624992104,0.0 -49.2165565,-28.3396863992104,0.0 -49.2164474,-28.3395488992104,0.0 -49.2159676,-28.3389441992104,0.0 -49.214729,-28.3380312992105,0.0 -49.2137088,-28.3371469992105,0.0 -49.2127494,-28.3361099992105,0.0 -49.2123571,-28.3355956992105,0.0 -49.2121479,-28.3352992992105,0.0 -49.2120956,-28.3351074992105,0.0 -49.2120956,-28.3349069992105,0.0 -49.2121653,-28.3345146992105,0.0 -49.2122263,-28.3340700992105,0.0 -49.2121915,-28.3335470992105,0.0 -49.2121584,-28.3334476992105,0.0 -49.2120869,-28.3332332992106,0.0 -49.2120258,-28.3330327992106,0.0 -49.2123135,-28.3324399992106,0.0 -49.2125053,-28.3320825992106,0.0 -49.2129499,-28.3316553992106,0.0 -49.2132811,-28.3313502992106,0.0 -49.2133849,-28.3311392992106,0.0 -49.2135339,-28.3308359992106,0.0 -49.2135165,-28.3304524992106,0.0 -49.2134075,-28.3303589992106,0.0 -49.213107,-28.3301011992106,0.0 -49.2129374,-28.3299181992106,0.0 -49.2125892,-28.3295423992106,0.0 -49.2125043,-28.3294924992106,0.0 -49.2122139,-28.3293213992106,0.0 -49.2119474,-28.3291176992106,0.0 -49.2115803,-28.3287242992106,0.0 -49.2117093,-28.3284557992106,0.0 -49.2120518,-28.3283665992106,0.0 -49.2122116,-28.3283250992106,0.0 -49.2130839,-28.3216418992108,0.0 -49.2136969,-28.3169445992108,0.0 -49.2137218,-28.3167543992108,0.0 -49.2137418,-28.3166008992108,0.0 -49.213761,-28.3164535992109,0.0 -49.21377,-28.3163851992108,0.0 -49.2137727,-28.3163643992109,0.0 -49.2137753,-28.3163443992109,0.0 -49.2137776,-28.3163265992109,0.0 -49.2137798,-28.3163094992109,0.0 -49.2137824,-28.3162895992108,0.0 -49.2137834,-28.3162823992109,0.0 -49.2137837,-28.3162795992109,0.0 -49.213784,-28.3162777992109,0.0 -49.2137843,-28.3162753992108,0.0 -49.2137846,-28.3162728992109,0.0 -49.2137849,-28.3162705992109,0.0 -49.2137852,-28.3162684992108,0.0 -49.2137855,-28.3162658992109,0.0 -49.2137859,-28.3162632992109,0.0 -49.2137862,-28.3162606992109,0.0 -49.2137865,-28.3162580992109,0.0 -49.2137868,-28.3162559992109,0.0 -49.2137871,-28.3162535992109,0.0 -49.213789,-28.3162393992109,0.0 -49.2137892,-28.3162375992109,0.0 -49.2137917,-28.3162181992109,0.0 -49.2137987,-28.3161652992109,0.0 -49.2138488,-28.3157812992109,0.0 -49.2140938,-28.3139038992109,0.0 -49.2151304,-28.305961599211,0.0 -49.2150593,-28.3051326992111,0.0 -49.2148831,-28.3040611992111,0.0 -49.2148831,-28.3028868992111,0.0 -49.2148872,-28.3026777992111,0.0 -49.2148998,-28.3020192992111,0.0 -49.2150217,-28.3016362992111,0.0 -49.2151262,-28.3014011992111,0.0 -49.2152829,-28.3012705992111,0.0 -49.2157443,-28.3009484992111,0.0 -49.2159358,-28.3007308992111,0.0 -49.216197,-28.3004957992111,0.0 -49.2165365,-28.3003129992111,0.0 -49.2169069,-28.3002718992111,0.0 -49.217085,-28.3002520992111,0.0 -49.2174593,-28.3002084992111,0.0 -49.2181565,-28.2999363992112,0.0 -49.2192701,-28.2994249992112,0.0 -49.2198882,-28.2990941992112,0.0 -49.2199334,-28.2990768992112,0.0 -49.2204802,-28.2988678992112,0.0 -49.2207849,-28.2987111992112,0.0 -49.2212376,-28.2985195992112,0.0 -49.2214465,-28.2984412992112,0.0 -49.2218122,-28.2984064992112,0.0 -49.22223,-28.2983541992112,0.0 -49.2223432,-28.2982148992112,0.0 -49.2225173,-28.2980233992112,0.0 -49.2228743,-28.2978927992112,0.0 -49.2233618,-28.2979188992112,0.0 -49.2237361,-28.2979711992112,0.0 -49.2241192,-28.2980842992112,0.0 -49.2244761,-28.2982322992112,0.0 -49.2249821,-28.2985272992112,0.0 -49.2251378,-28.2985718992112,0.0 -49.2251503,-28.2985624992112,0.0 -49.2252074,-28.2985195992112,0.0 -49.2252074,-28.2984325992112,0.0 -49.2251289,-28.2982336992112,0.0 -49.2250159,-28.2979362992112,0.0 -49.2249549,-28.2977099992112,0.0 -49.2248766,-28.2974574992112,0.0 -49.2247721,-28.2973181992112,0.0 -49.2246502,-28.2972050992112,0.0 -49.2245284,-28.2966739992112,0.0 -49.2244704,-28.2961753992112,0.0 -49.2243362,-28.2951951992112,0.0 -49.2187172,-28.2898317992113,0.0 -49.218141,-28.2892817992113,0.0 -49.2002226,-28.2884615992114,0.0 -49.2005098,-28.2888067992114,0.0 -49.200797,-28.2891520992113,0.0 -49.200699,-28.2897400992113,0.0 -49.2006673,-28.2903918992113,0.0 -49.2006609,-28.2907424992113,0.0 -49.200422,-28.2910265992113,0.0 -49.1999897,-28.2909634992113,0.0 -49.1995947,-28.2907825992113,0.0 -49.1984992,-28.2903960992113,0.0 -49.1978412,-28.2902781992113,0.0 -49.1970005,-28.2902537992113,0.0 -49.1967094,-28.2904421992113,0.0 -49.1964868,-28.2906647992113,0.0 -49.1961258,-28.2910536992113,0.0 -49.1960524,-28.2915294992113,0.0 -49.1960397,-28.2920327992113,0.0 -49.1962129,-28.2926337992113,0.0 -49.19623,-28.2935070992113,0.0 -49.1961102,-28.2938152992113,0.0 -49.1952198,-28.2943974992112,0.0 -49.1951291,-28.2945410992113,0.0 -49.1950943,-28.2948196992112,0.0 -49.1951117,-28.2953071992112,0.0 -49.194955,-28.2956466992112,0.0 -49.194868,-28.2958904992112,0.0 -49.1946503,-28.2960819992112,0.0 -49.194363,-28.2962125992112,0.0 -49.1940061,-28.2962735992112,0.0 -49.193475,-28.2963431992112,0.0 -49.1931616,-28.2963953992112,0.0 -49.1929082,-28.2965205992112,0.0 -49.1924459,-28.2974794992112,0.0 -49.1923432,-28.2978561992112,0.0 -49.1920934,-28.2981454992112,0.0 -49.1920179,-28.2982328992112,0.0 -49.1914466,-28.2985456992112,0.0 -49.1908111,-28.2988591992112,0.0 -49.190341,-28.2989983992112,0.0 -49.1900363,-28.2990332992112,0.0 -49.1897142,-28.2990158992112,0.0 -49.1894965,-28.2989374992112,0.0 -49.1892005,-28.2987981992112,0.0 -49.1890525,-28.2986066992112,0.0 -49.1890028,-28.2985072992112,0.0 -49.1888697,-28.2982409992112,0.0 -49.1886869,-28.2979101992112,0.0 -49.1885998,-28.2977883992112,0.0 -49.188417,-28.2976838992112,0.0 -49.1881297,-28.2976403992112,0.0 -49.1879643,-28.2976490992112,0.0 -49.1877206,-28.2977534992112,0.0 -49.1875116,-28.2979972992112,0.0 -49.1874333,-28.2982584992112,0.0 -49.1873375,-28.2985108992112,0.0 -49.1871893,-28.2989691992112,0.0 -49.1868587,-28.2997383992112,0.0 -49.1867107,-28.3002346992111,0.0 -49.1865888,-28.3006176992111,0.0 -49.1863712,-28.3008701992111,0.0 -49.1862058,-28.3010268992111,0.0 -49.1859359,-28.3011922992111,0.0 -49.1856486,-28.3012531992111,0.0 -49.1849521,-28.3013141992111,0.0 -49.1844673,-28.3013878992111,0.0 -49.1841587,-28.3014347992111,0.0 -49.1836811,-28.3017494992111,0.0 -49.1833938,-28.3019670992111,0.0 -49.1825668,-28.3022804992111,0.0 -49.1824528,-28.3023047992111,0.0 -49.1821576,-28.3023675992111,0.0 -49.1817833,-28.3024545992111,0.0 -49.1814002,-28.3025503992111,0.0 -49.1809301,-28.3026460992111,0.0 -49.1806863,-28.3027244992111,0.0 -49.1803468,-28.3027766992111,0.0 -49.1800334,-28.3028724992111,0.0 -49.1797635,-28.3030204992111,0.0 -49.179313,-28.3031812992111,0.0 -49.1787822,-28.3033011992111,0.0 -49.1780288,-28.3034038992111,0.0 -49.1773268,-28.3034552992111,0.0 -49.1766761,-28.3033182992111,0.0 -49.1761796,-28.3031983992111,0.0 -49.1751666,-28.3030126992111,0.0 -49.1744673,-28.3026333992111,0.0 -49.1742104,-28.3024288992111,0.0 -49.1740787,-28.3023239992111,0.0 -49.173927,-28.3020673992111,0.0 -49.1738524,-28.3019409992111,0.0 -49.1737131,-28.3015404992111,0.0 -49.1735302,-28.3013054992111,0.0 -49.1732691,-28.3011138992111,0.0 -49.1730633,-28.3008525992111,0.0 -49.172799,-28.3004174992111,0.0 -49.1725726,-28.3000953992111,0.0 -49.1723898,-28.2999299992112,0.0 -49.1721896,-28.2997035992112,0.0 -49.1720242,-28.2995207992112,0.0 -49.1717369,-28.2992247992112,0.0 -49.1715423,-28.2991256992112,0.0 -49.1712755,-28.2989896992112,0.0 -49.1708315,-28.2986849992112,0.0 -49.1705181,-28.2986240992112,0.0 -49.1701089,-28.2986762992112,0.0 -49.1697084,-28.2986762992112,0.0 -49.1692818,-28.2987024992112,0.0 -49.168864,-28.2988155992112,0.0 -49.1686724,-28.2989200992112,0.0 -49.1683068,-28.2989896992112,0.0 -49.1679325,-28.2990854992112,0.0 -49.1678324,-28.2991168992112,0.0 -49.1674885,-28.2992247992112,0.0 -49.1671577,-28.2992856992112,0.0 -49.1668965,-28.2993466992112,0.0 -49.1667398,-28.2994597992112,0.0 -49.1666005,-28.2996774992112,0.0 -49.1664873,-28.2999560992111,0.0 -49.1663393,-28.3001910992111,0.0 -49.1661217,-28.3004957992111,0.0 -49.1654629,-28.3010266992111,0.0 -49.1646515,-28.3007375992111,0.0 -49.1640487,-28.3006012992111,0.0 -49.1630476,-28.3004839992111,0.0 -49.1625473,-28.3004653992111,0.0 -49.162243,-28.3002466992111,0.0 -49.1621615,-28.3001722992111,0.0 -49.1621231,-28.3001175992111,0.0 -49.162019,-28.2999623992111,0.0 -49.1619448,-28.2998515992112,0.0 -49.1619014,-28.2998231992112,0.0 -49.1618076,-28.2998045992112,0.0 -49.1615632,-28.2997419992112,0.0 -49.1612805,-28.2994968992112,0.0 -49.1605142,-28.2995640992112,0.0 -49.1600053,-28.2996418992112,0.0 -49.1594515,-28.2996338992112,0.0 -49.1594106,-28.2994043992112,0.0 -49.159391,-28.2993838992112,0.0 -49.159356,-28.2992845992112,0.0 -49.1593431,-28.2992097992112,0.0 -49.1593349,-28.2990194992112,0.0 -49.1593341,-28.2989975992112,0.0 -49.1593181,-28.2989860992112,0.0 -49.1592801,-28.2989813992112,0.0 -49.1589752,-28.2989235992112,0.0 -49.1589289,-28.2989110992112,0.0 -49.1589146,-28.2988945992112,0.0 -49.1587217,-28.2987975992112,0.0 -49.1586374,-28.2988039992112,0.0 -49.1586132,-28.2988082992112,0.0 -49.1585914,-28.2988166992112,0.0 -49.1585729,-28.2988417992112,0.0 -49.1585074,-28.2988948992112,0.0 -49.1584638,-28.2989153992112,0.0 -49.1583706,-28.2989361992112,0.0 -49.1583513,-28.2989488992112,0.0 -49.1582387,-28.2991437992112,0.0 -49.1581626,-28.2992570992112,0.0 -49.1581432,-28.2992800992112,0.0 -49.1581224,-28.2993225992112,0.0 -49.1581075,-28.2994941992112,0.0 -49.1580329,-28.2996479992112,0.0 -49.1579755,-28.2997755992111,0.0 -49.1579595,-28.2998110992112,0.0 -49.157922,-28.2998388992111,0.0 -49.1578694,-28.2998696992112,0.0 -49.1577679,-28.2999247992111,0.0 -49.1577015,-28.2999822992111,0.0 -49.1576447,-28.3000497992111,0.0 -49.1575995,-28.3000874992111,0.0 -49.1575705,-28.3001163992111,0.0 -49.1575508,-28.3001352992111,0.0 -49.1574229,-28.3002231992111,0.0 -49.1572998,-28.3002926992111,0.0 -49.1572855,-28.3003139992111,0.0 -49.1572339,-28.3003905992111,0.0 -49.1572139,-28.3004146992111,0.0 -49.1571973,-28.3004327992111,0.0 -49.1571748,-28.3004790992111,0.0 -49.1571646,-28.3005066992111,0.0 -49.1571127,-28.3005717992111,0.0 -49.1570924,-28.3005979992111,0.0 -49.1570183,-28.3006711992111,0.0 -49.1569619,-28.3007319992111,0.0 -49.156919,-28.3007653992111,0.0 -49.1568899,-28.3007772992111,0.0 -49.1568279,-28.3007895992111,0.0 -49.1567957,-28.3007941992111,0.0 -49.1567841,-28.3007966992111,0.0 -49.1567662,-28.3008008992111,0.0 -49.1567561,-28.3008059992111,0.0 -49.1567492,-28.3009307992111,0.0 -49.1567298,-28.3010601992111,0.0 -49.1567286,-28.3011966992111,0.0 -49.1567419,-28.3012731992111,0.0 -49.1567364,-28.3013099992111,0.0 -49.1567291,-28.3013781992111,0.0 -49.1567072,-28.3014375992111,0.0 -49.1566492,-28.3015973992111,0.0 -49.1565881,-28.3017291992111,0.0 -49.1564828,-28.3017998992111,0.0 -49.1563627,-28.3019256992111,0.0 -49.1563202,-28.3019437992111,0.0 -49.1562827,-28.3019416992111,0.0 -49.1562385,-28.3019278992111,0.0 -49.1561884,-28.3019107992111,0.0 -49.1561443,-28.3019125992111,0.0 -49.1560646,-28.3019610992111,0.0 -49.1559758,-28.3020409992111,0.0 -49.1556401,-28.3021918992111,0.0 -49.1556149,-28.3022038992111,0.0 -49.1554706,-28.3022725992111,0.0 -49.1553996,-28.3022997992111,0.0 -49.1553726,-28.3023013992111,0.0 -49.1553477,-28.3022829992111,0.0 -49.155178,-28.3022104992111,0.0 -49.1551467,-28.3022012992111,0.0 -49.1551066,-28.3021981992111,0.0 -49.1550175,-28.3022053992111,0.0 -49.1548255,-28.3023524992111,0.0 -49.1546988,-28.3024028992111,0.0 -49.1546427,-28.3024144992111,0.0 -49.1545077,-28.3024249992111,0.0 -49.1544038,-28.3024323992111,0.0 -49.1542681,-28.3024351992111,0.0 -49.154257,-28.3024571992111,0.0 -49.154202,-28.3025661992111,0.0 -49.1541571,-28.3026167992111,0.0 -49.1537409,-28.3030854992111,0.0 -49.1536689,-28.3031666992111,0.0 -49.1535446,-28.3032682992111,0.0 -49.1534096,-28.3034095992111,0.0 -49.1533134,-28.3035069992111,0.0 -49.1530204,-28.3038036992111,0.0 -49.1529653,-28.3038588992111,0.0 -49.1528565,-28.3039678992111,0.0 -49.1527923,-28.3040131992111,0.0 -49.1527585,-28.3040432992111,0.0 -49.1526476,-28.3041421992111,0.0 -49.1526116,-28.3041743992111,0.0 -49.1525886,-28.3041948992111,0.0 -49.1525728,-28.3042089992111,0.0 -49.1525643,-28.3042165992111,0.0 -49.1525384,-28.3042359992111,0.0 -49.1524908,-28.3042717992111,0.0 -49.1524259,-28.3043288992111,0.0 -49.1522376,-28.3044947992111,0.0 -49.1513666,-28.3052620992111,0.0 -49.1512407,-28.3053729992111,0.0 -49.150018,-28.306447699211,0.0 -49.1499116,-28.306565199211,0.0 -49.1498681,-28.306642799211,0.0 -49.1498429,-28.306706299211,0.0 -49.1498329,-28.306818099211,0.0 -49.1498321,-28.306980599211,0.0 -49.1498408,-28.307174199211,0.0 -49.1498857,-28.307364799211,0.0 -49.1499763,-28.307675799211,0.0 -49.1501994,-28.307911699211,0.0 -49.1503706,-28.308025699211,0.0 -49.1505171,-28.308104199211,0.0 -49.1511244,-28.308240099211,0.0 -49.1515899,-28.308243299211,0.0 -49.1518708,-28.308243999211,0.0 -49.1522992,-28.308249799211,0.0 -49.152554,-28.308267599211,0.0 -49.1528399,-28.308344399211,0.0 -49.1529796,-28.308489599211,0.0 -49.1534686,-28.309250399211,0.0 -49.1544597,-28.310792299211,0.0 -49.1553114,-28.3121442992109,0.0 -49.1555547,-28.3124857992109,0.0 -49.1556922,-28.3128213992109,0.0 -49.155761,-28.3134060992109,0.0 -49.1558148,-28.3142398992109,0.0 -49.1560107,-28.3155342992109,0.0 -49.1560264,-28.3156378992109,0.0 -49.1561458,-28.3167828992108,0.0 -49.1561719,-28.3170323992108,0.0 -49.1561891,-28.3177096992108,0.0 -49.1561928,-28.3180618992108,0.0</coordinates>
</LinearRing>
</outerBoundaryIs>
</Polygon>
</MultiGeometry>
</Placemark>
</Folder>
</Document></kml>
