<?xml version='1.0' encoding='UTF-8'?>
<kml xmlns:xsd="http://www.w3.org/2001/XMLSchema" xmlns:gx="http://www.google.com/kml/ext/2.2" xmlns:atom="http://www.w3.org/2005/Atom" xmlns="http://www.opengis.net/kml/2.2">
<Document>
<name>sao_pedro_de_alcantara_4217253_localidades_2022</name>
<visibility>1</visibility>
<Schema name="01. Cidade" id="kml_schema_ft_01._Cidade">
<SimpleField type="xsd:string" name="CD_UF">
<displayName>CD_UF</displayName>
</SimpleField>
<SimpleField type="xsd:string" name="NM_UF">
<displayName>NM_UF</displayName>
</SimpleField>
<SimpleField type="xsd:string" name="SIGLA_UF">
<displayName>SIGLA_UF</displayName>
</SimpleField>
<SimpleField type="xsd:string" name="CD_MUN">
<displayName>CD_MUN</displayName>
</SimpleField>
<SimpleField type="xsd:string" name="NM_MUN">
<displayName>NM_MUN</displayName>
</SimpleField>
<SimpleField type="xsd:string" name="CD_RGINT">
<displayName>CD_RGINT</displayName>
</SimpleField>
<SimpleField type="xsd:string" name="NM_RGINT">
<displayName>NM_RGINT</displayName>
</SimpleField>
<SimpleField type="xsd:string" name="CD_RGI">
<displayName>CD_RGI</displayName>
</SimpleField>
<SimpleField type="xsd:string" name="NM_RGI">
<displayName>NM_RGI</displayName>
</SimpleField>
<SimpleField type="xsd:string" name="CT_LOCALIDADE">
<displayName>CT_LOCALIDADE</displayName>
</SimpleField>
<SimpleField type="xsd:string" name="SCT_LOCALIDADE">
<displayName>SCT_LOCALIDADE</displayName>
</SimpleField>
<SimpleField type="xsd:string" name="CD_LOCALIDADE">
<displayName>CD_LOCALIDADE</displayName>
</SimpleField>
<SimpleField type="xsd:string" name="NM_LOCALIDADE">
<displayName>NM_LOCALIDADE</displayName>
</SimpleField>
<SimpleField type="xsd:string" name="LAT_LOCALIDADE">
<displayName>LAT_LOCALIDADE</displayName>
</SimpleField>
<SimpleField type="xsd:string" name="LONG_LOCALIDADE">
<displayName>LONG_LOCALIDADE</displayName>
</SimpleField>
</Schema>
<Schema name="Município" id="kml_schema_ft_Município">
<SimpleField type="xsd:string" name="CD_UF">
<displayName>CD_UF</displayName>
</SimpleField>
<SimpleField type="xsd:string" name="NM_UF">
<displayName>NM_UF</displayName>
</SimpleField>
<SimpleField type="xsd:string" name="CD_MUN">
<displayName>CD_MUN</displayName>
</SimpleField>
<SimpleField type="xsd:string" name="NM_MUN">
<displayName>NM_MUN</displayName>
</SimpleField>
<SimpleField type="xsd:string" name="CD_RGINT">
<displayName>CD_RGINT</displayName>
</SimpleField>
<SimpleField type="xsd:string" name="NM_RGINT">
<displayName>NM_RGINT</displayName>
</SimpleField>
<SimpleField type="xsd:string" name="CD_RGI">
<displayName>CD_RGI</displayName>
</SimpleField>
<SimpleField type="xsd:string" name="NM_RGI">
<displayName>NM_RGI</displayName>
</SimpleField>
</Schema>
<Folder id="01. Cidade">
<name>01. Cidade</name>
<Folder id="01.03. Sede Municipal">
<name>01.03. Sede Municipal</name>
<Placemark id="01.03. Sede Municipal">
<name>São Pedro de Alcântara [4217253]</name>
<visibility>1</visibility>
<snippet> </snippet>
<description>&lt;center&gt;&lt;table&gt;&lt;tr&gt;&lt;th colspan='2' align='center'&gt;&lt;em&gt;Atributos&lt;/em&gt;&lt;/th&gt;&lt;/tr&gt;&lt;tr bgcolor="#E3E3F3"&gt;
&lt;th&gt;CD_UF&lt;/th&gt;
&lt;td&gt;42&lt;/td&gt;
&lt;/tr&gt;&lt;tr bgcolor=""&gt;
&lt;th&gt;NM_UF&lt;/th&gt;
&lt;td&gt;Santa Catarina&lt;/td&gt;
&lt;/tr&gt;&lt;tr bgcolor="#E3E3F3"&gt;
&lt;th&gt;SIGLA_UF&lt;/th&gt;
&lt;td&gt;SC&lt;/td&gt;
&lt;/tr&gt;&lt;tr bgcolor=""&gt;
&lt;th&gt;CD_MUN&lt;/th&gt;
&lt;td&gt;4217253&lt;/td&gt;
&lt;/tr&gt;&lt;tr bgcolor="#E3E3F3"&gt;
&lt;th&gt;NM_MUN&lt;/th&gt;
&lt;td&gt;São Pedro de Alcântara&lt;/td&gt;
&lt;/tr&gt;&lt;tr bgcolor=""&gt;
&lt;th&gt;CD_RGINT&lt;/th&gt;
&lt;td&gt;4201&lt;/td&gt;
&lt;/tr&gt;&lt;tr bgcolor="#E3E3F3"&gt;
&lt;th&gt;NM_RGINT&lt;/th&gt;
&lt;td&gt;Florianópolis&lt;/td&gt;
&lt;/tr&gt;&lt;tr bgcolor=""&gt;
&lt;th&gt;CD_RGI&lt;/th&gt;
&lt;td&gt;420001&lt;/td&gt;
&lt;/tr&gt;&lt;tr bgcolor="#E3E3F3"&gt;
&lt;th&gt;NM_RGI&lt;/th&gt;
&lt;td&gt;Florianópolis&lt;/td&gt;
&lt;/tr&gt;&lt;tr bgcolor=""&gt;
&lt;th&gt;CT_LOCALIDADE&lt;/th&gt;
&lt;td&gt;Cidade&lt;/td&gt;
&lt;/tr&gt;&lt;tr bgcolor="#E3E3F3"&gt;
&lt;th&gt;SCT_LOCALIDADE&lt;/th&gt;
&lt;td&gt;Sede Municipal&lt;/td&gt;
&lt;/tr&gt;&lt;tr bgcolor=""&gt;
&lt;th&gt;CD_LOCALIDADE&lt;/th&gt;
&lt;td&gt;4217253&lt;/td&gt;
&lt;/tr&gt;&lt;tr bgcolor="#E3E3F3"&gt;
&lt;th&gt;NM_LOCALIDADE&lt;/th&gt;
&lt;td&gt;São Pedro de Alcântara&lt;/td&gt;
&lt;/tr&gt;&lt;tr bgcolor=""&gt;
&lt;th&gt;LAT_LOCALIDADE&lt;/th&gt;
&lt;td&gt;-27.5674&lt;/td&gt;
&lt;/tr&gt;&lt;tr bgcolor="#E3E3F3"&gt;
&lt;th&gt;LONG_LOCALIDADE&lt;/th&gt;
&lt;td&gt;-48.8043&lt;/td&gt;
&lt;/tr&gt;&lt;/table&gt;&lt;/center&gt;</description>
<Style>
<IconStyle>
<color>ff00aaff</color>
<scale>1.0</scale>
<Icon>
<href>http://maps.google.com/mapfiles/kml/shapes/placemark_circle.png</href>
</Icon>
</IconStyle>
<LabelStyle>
<scale>1.0</scale>
</LabelStyle>
<LineStyle>
<color>ffffffff</color>
<width>3</width>
<gx:labelVisibility>1</gx:labelVisibility>
</LineStyle>
<PolyStyle>
<color>00ffffff</color>
</PolyStyle>
</Style>
<ExtendedData>
<SchemaData schemaUrl="#kml_schema_ft_01._Cidade">
<SimpleData name="CD_UF">42</SimpleData>
<SimpleData name="NM_UF">Santa Catarina</SimpleData>
<SimpleData name="SIGLA_UF">SC</SimpleData>
<SimpleData name="CD_MUN">4217253</SimpleData>
<SimpleData name="NM_MUN">São Pedro de Alcântara</SimpleData>
<SimpleData name="CD_RGINT">4201</SimpleData>
<SimpleData name="NM_RGINT">Florianópolis</SimpleData>
<SimpleData name="CD_RGI">420001</SimpleData>
<SimpleData name="NM_RGI">Florianópolis</SimpleData>
<SimpleData name="CT_LOCALIDADE">Cidade</SimpleData>
<SimpleData name="SCT_LOCALIDADE">Sede Municipal</SimpleData>
<SimpleData name="CD_LOCALIDADE">4217253</SimpleData>
<SimpleData name="NM_LOCALIDADE">São Pedro de Alcântara</SimpleData>
<SimpleData name="LAT_LOCALIDADE">-27.5674</SimpleData>
<SimpleData name="LONG_LOCALIDADE">-48.8043</SimpleData>
</SchemaData>
</ExtendedData>
<Point>
<extrude>0</extrude>
<coordinates>-48.8043,-27.5673999992246,0.0</coordinates>
</Point>
</Placemark>
</Folder>
</Folder>
<Folder id="13. Referência">
<name>13. Referência</name>
<Placemark id="13. Referência">
<name>São Pedro de Alcântara [4217253]</name>
<visibility>1</visibility>
<snippet> </snippet>
<description>&lt;center&gt;&lt;table&gt;&lt;tr&gt;&lt;th colspan='2' align='center'&gt;&lt;em&gt;Attributes&lt;/em&gt;&lt;/th&gt;&lt;/tr&gt;&lt;tr bgcolor="#E3E3F3"&gt;
&lt;th&gt;CD_UF&lt;/th&gt;
&lt;td&gt;42&lt;/td&gt;
&lt;/tr&gt;&lt;tr bgcolor=""&gt;
&lt;th&gt;NM_UF&lt;/th&gt;
&lt;td&gt;Santa Catarina&lt;/td&gt;
&lt;/tr&gt;&lt;tr bgcolor="#E3E3F3"&gt;
&lt;th&gt;CD_MUN&lt;/th&gt;
&lt;td&gt;4217253&lt;/td&gt;
&lt;/tr&gt;&lt;tr bgcolor=""&gt;
&lt;th&gt;NM_MUN&lt;/th&gt;
&lt;td&gt;São Pedro de Alcântara&lt;/td&gt;
&lt;/tr&gt;&lt;tr bgcolor="#E3E3F3"&gt;
&lt;th&gt;CD_RGINT&lt;/th&gt;
&lt;td&gt;4201&lt;/td&gt;
&lt;/tr&gt;&lt;tr bgcolor=""&gt;
&lt;th&gt;NM_RGINT&lt;/th&gt;
&lt;td&gt;Florianópolis&lt;/td&gt;
&lt;/tr&gt;&lt;tr bgcolor="#E3E3F3"&gt;
&lt;th&gt;CD_RGI&lt;/th&gt;
&lt;td&gt;420001&lt;/td&gt;
&lt;/tr&gt;&lt;tr bgcolor=""&gt;
&lt;th&gt;NM_RGI&lt;/th&gt;
&lt;td&gt;Florianópolis&lt;/td&gt;
&lt;/tr&gt;&lt;/table&gt;&lt;/center&gt;</description>
<Style>
<IconStyle>
<scale>0.7</scale>
</IconStyle>
<LabelStyle>
<scale>0.7</scale>
</LabelStyle>
<LineStyle>
<color>ffffffff</color>
<width>3</width>
<gx:labelVisibility>1</gx:labelVisibility>
</LineStyle>
<PolyStyle>
<color>00ffffff</color>
</PolyStyle>
</Style>
<ExtendedData>
<SchemaData schemaUrl="#kml_schema_ft_Município">
<SimpleData name="CD_UF">42</SimpleData>
<SimpleData name="NM_UF">Santa Catarina</SimpleData>
<SimpleData name="CD_MUN">4217253</SimpleData>
<SimpleData name="NM_MUN">São Pedro de Alcântara</SimpleData>
<SimpleData name="CD_RGINT">4201</SimpleData>
<SimpleData name="NM_RGINT">Florianópolis</SimpleData>
<SimpleData name="CD_RGI">420001</SimpleData>
<SimpleData name="NM_RGI">Florianópolis</SimpleData>
</SchemaData>
</ExtendedData>
<MultiGeometry>
<Polygon>
<extrude>0</extrude>
<tessellate>1</tessellate>
<outerBoundaryIs>
<LinearRing>
<coordinates>-48.73141,-27.5721515992245,0.0 -48.7312723,-27.5724097992245,0.0 -48.7310829,-27.5727884992245,0.0 -48.7310663,-27.5728436992245,0.0 -48.7309796,-27.5731326992245,0.0 -48.7309452,-27.5737006992245,0.0 -48.7309258,-27.5740652992245,0.0 -48.7309796,-27.5743547992245,0.0 -48.7310829,-27.5747678992245,0.0 -48.7311346,-27.5750948992245,0.0 -48.7312206,-27.5753358992245,0.0 -48.7313927,-27.5755940992245,0.0 -48.7315821,-27.5757661992245,0.0 -48.7317556,-27.5759706992245,0.0 -48.7319608,-27.5763341992245,0.0 -48.7320909,-27.5764829992245,0.0 -48.7322017,-27.5766095992245,0.0 -48.7324083,-27.5769021992245,0.0 -48.7326493,-27.5772808992245,0.0 -48.7329591,-27.5775907992245,0.0 -48.7334066,-27.5778316992244,0.0 -48.7338714,-27.5780382992244,0.0 -48.7340622,-27.5781574992244,0.0 -48.7341468,-27.5782103992244,0.0 -48.734491,-27.5784341992244,0.0 -48.7346493,-27.5785396992244,0.0 -48.7347492,-27.5786062992244,0.0 -48.734818,-27.5787611992244,0.0 -48.7347836,-27.5788644992244,0.0 -48.7346287,-27.5790365992244,0.0 -48.7345497,-27.5791314992244,0.0 -48.7344738,-27.5793119992244,0.0 -48.7344738,-27.5796562992244,0.0 -48.7345771,-27.5798971992244,0.0 -48.7348229,-27.5800066992244,0.0 -48.734973,-27.5800520992244,0.0 -48.7351451,-27.5801553992244,0.0 -48.7352139,-27.5803274992244,0.0 -48.7351967,-27.5804824992244,0.0 -48.7351944,-27.5805121992244,0.0 -48.7351795,-27.5807061992244,0.0 -48.7352828,-27.5807922992244,0.0 -48.7354197,-27.5808219992244,0.0 -48.7356787,-27.5808782992244,0.0 -48.7358164,-27.5809299992244,0.0 -48.7358852,-27.5810159992244,0.0 -48.7359885,-27.5812913992244,0.0 -48.7360229,-27.5814290992244,0.0 -48.7360118,-27.5816654992244,0.0 -48.7360949,-27.5820796992244,0.0 -48.7361605,-27.5824070992244,0.0 -48.736051,-27.5824902992244,0.0 -48.7358476,-27.5825768992244,0.0 -48.7357455,-27.5826060992243,0.0 -48.7356011,-27.5826223992244,0.0 -48.7353752,-27.5826021992244,0.0 -48.7352466,-27.5826144992244,0.0 -48.7351308,-27.5826455992243,0.0 -48.7350218,-27.5826595992244,0.0 -48.7348799,-27.5826686992243,0.0 -48.7347866,-27.5826551992244,0.0 -48.7347106,-27.5826388992243,0.0 -48.7346627,-27.5826335992244,0.0 -48.7345881,-27.5826328992243,0.0 -48.7344935,-27.5826398992244,0.0 -48.7344284,-27.5826387992244,0.0 -48.7343375,-27.5826195992244,0.0 -48.7342878,-27.5826139992244,0.0 -48.7342597,-27.5825931992244,0.0 -48.7341556,-27.5825748992244,0.0 -48.7340939,-27.5825585992243,0.0 -48.7339793,-27.5824321992243,0.0 -48.7339445,-27.5823672992244,0.0 -48.7338785,-27.5822830992244,0.0 -48.7337827,-27.5821795992244,0.0 -48.7337041,-27.5821205992244,0.0 -48.7336519,-27.5820929992244,0.0 -48.7335007,-27.5820488992244,0.0 -48.7331859,-27.5819766992244,0.0 -48.732612,-27.5818476992244,0.0 -48.732175,-27.5817103992244,0.0 -48.7318495,-27.5815763992244,0.0 -48.7316177,-27.5814952992244,0.0 -48.7315502,-27.5814853992244,0.0 -48.7315315,-27.5814856992244,0.0 -48.7314989,-27.5814851992244,0.0 -48.7314687,-27.5814781992244,0.0 -48.7314565,-27.5814865992244,0.0 -48.7314614,-27.5815023992244,0.0 -48.7314621,-27.5815176992244,0.0 -48.7314534,-27.5816113992244,0.0 -48.7310522,-27.5819902992244,0.0 -48.7310153,-27.5820482992244,0.0 -48.7309953,-27.5821413992244,0.0 -48.7309483,-27.5824980992244,0.0 -48.7309333,-27.5827991992243,0.0 -48.7309351,-27.5828210992243,0.0 -48.7309368,-27.5828428992243,0.0 -48.7309527,-27.5828951992244,0.0 -48.7309745,-27.5829312992243,0.0 -48.731043,-27.5830207992243,0.0 -48.7311428,-27.5830945992243,0.0 -48.731278,-27.5831809992243,0.0 -48.731364,-27.5832414992243,0.0 -48.7314068,-27.5832840992243,0.0 -48.7314444,-27.5833362992243,0.0 -48.7315869,-27.5835343992243,0.0 -48.7317132,-27.5837157992243,0.0 -48.731744,-27.5837616992243,0.0 -48.7317697,-27.5837913992243,0.0 -48.7319552,-27.5839603992243,0.0 -48.7321157,-27.5841252992243,0.0 -48.7322663,-27.5842734992243,0.0 -48.7323029,-27.5843147992243,0.0 -48.7323425,-27.5843531992243,0.0 -48.7324627,-27.5844582992243,0.0 -48.7326449,-27.5846130992243,0.0 -48.7327172,-27.5847004992243,0.0 -48.7327851,-27.5848014992243,0.0 -48.7328935,-27.5850006992243,0.0 -48.7330116,-27.5851811992243,0.0 -48.7331656,-27.5853798992243,0.0 -48.7333179,-27.5856226992243,0.0 -48.7333681,-27.5857021992243,0.0 -48.7334024,-27.5857434992243,0.0 -48.7334472,-27.5857856992243,0.0 -48.7335026,-27.5858258992243,0.0 -48.7335742,-27.5858724992243,0.0 -48.7338453,-27.5860252992243,0.0 -48.7338783,-27.5860430992243,0.0 -48.7339334,-27.5860677992243,0.0 -48.7340252,-27.5861111992243,0.0 -48.7341747,-27.5861591992243,0.0 -48.7344025,-27.5862158992243,0.0 -48.7347903,-27.5863252992243,0.0 -48.7349554,-27.5863717992243,0.0 -48.7351965,-27.5864750992243,0.0 -48.7355065,-27.5865956992243,0.0 -48.7357476,-27.5866128992243,0.0 -48.7358337,-27.5867506992243,0.0 -48.7358291,-27.5868559992243,0.0 -48.7358165,-27.5871467992243,0.0 -48.7358165,-27.5874050992243,0.0 -48.7357993,-27.5879044992243,0.0 -48.7357304,-27.5882833992243,0.0 -48.7356271,-27.5884900992242,0.0 -48.735541,-27.5888516992242,0.0 -48.7355754,-27.5892650992242,0.0 -48.735541,-27.5895750992242,0.0 -48.7356443,-27.5898677992242,0.0 -48.7357821,-27.5900399992242,0.0 -48.7359026,-27.5902638992242,0.0 -48.7359543,-27.5904533992242,0.0 -48.7359715,-27.5906599992242,0.0 -48.7359371,-27.5909355992242,0.0 -48.736,-27.5911917992242,0.0 -48.7362298,-27.5914177992242,0.0 -48.736402,-27.5914521992242,0.0 -48.7367293,-27.5915038992242,0.0 -48.7371404,-27.5915141992242,0.0 -48.7377076,-27.5915936992242,0.0 -48.7381508,-27.5917689992242,0.0 -48.738566,-27.5921122992242,0.0 -48.7388647,-27.5922615992242,0.0 -48.7392781,-27.5925371992242,0.0 -48.7394829,-27.5926937992242,0.0 -48.7395708,-27.5927610992242,0.0 -48.7399669,-27.5931571992242,0.0 -48.7402941,-27.5935532992242,0.0 -48.7405869,-27.5938115992241,0.0 -48.7409486,-27.5940181992241,0.0 -48.7411552,-27.5941904992241,0.0 -48.7413619,-27.5942420992241,0.0 -48.7416202,-27.5942937992241,0.0 -48.7418308,-27.5943704992241,0.0 -48.7421369,-27.5946209992241,0.0 -48.7423952,-27.5947759992241,0.0 -48.742688,-27.5949481992241,0.0 -48.7427741,-27.5950514992241,0.0 -48.7429291,-27.5953098992241,0.0 -48.7430668,-27.5955164992241,0.0 -48.7433596,-27.5957920992241,0.0 -48.7435146,-27.5960331992241,0.0 -48.7436202,-27.5961915992241,0.0 -48.7437901,-27.5964464992241,0.0 -48.7438935,-27.5967736992241,0.0 -48.7439968,-27.5969975992241,0.0 -48.7442207,-27.5973591992241,0.0 -48.744491,-27.5976469992241,0.0 -48.7445823,-27.5978586992241,0.0 -48.7446684,-27.5981513992241,0.0 -48.7447029,-27.5984097992241,0.0 -48.7446684,-27.5986163992241,0.0 -48.7445307,-27.598840299224,0.0 -48.7444273,-27.598960899224,0.0 -48.7443412,-27.599115899224,0.0 -48.7443585,-27.599425899224,0.0 -48.7443929,-27.599615299224,0.0 -48.7443757,-27.599735799224,0.0 -48.744324,-27.599890799224,0.0 -48.7442551,-27.599908099224,0.0 -48.7441174,-27.600011399224,0.0 -48.7440709,-27.600057799224,0.0 -48.744014,-27.600114699224,0.0 -48.7439107,-27.600304199224,0.0 -48.7438935,-27.600441899224,0.0 -48.743859,-27.600614099224,0.0 -48.7438935,-27.600803599224,0.0 -48.7439786,-27.601057199224,0.0 -48.7441191,-27.601522499224,0.0 -48.7442551,-27.601905799224,0.0 -48.7444101,-27.602198499224,0.0 -48.7445084,-27.602289199224,0.0 -48.744634,-27.602405199224,0.0 -48.7449784,-27.602766899224,0.0 -48.7452023,-27.602990699224,0.0 -48.7452884,-27.603094099224,0.0 -48.7453573,-27.603266299224,0.0 -48.745409,-27.603490199224,0.0 -48.7453573,-27.603713999224,0.0 -48.7452884,-27.604023999224,0.0 -48.7452023,-27.6042823992239,0.0 -48.7451979,-27.6043013992239,0.0 -48.7451507,-27.6045061992239,0.0 -48.7451162,-27.6047472992239,0.0 -48.7450301,-27.6052467992239,0.0 -48.7449784,-27.6056083992239,0.0 -48.7447373,-27.6059700992239,0.0 -48.7446168,-27.6063489992239,0.0 -48.7445307,-27.6068311992239,0.0 -48.7445307,-27.6072961992239,0.0 -48.7445447,-27.6073380992239,0.0 -48.7446168,-27.6075544992239,0.0 -48.7445996,-27.6081399992239,0.0 -48.7444618,-27.6084844992239,0.0 -48.7442207,-27.6086738992239,0.0 -48.7441911,-27.6087219992239,0.0 -48.7440829,-27.6088977992239,0.0 -48.7440552,-27.6092445992239,0.0 -48.7440485,-27.6093282992239,0.0 -48.7441001,-27.6095865992238,0.0 -48.7441346,-27.6098276992238,0.0 -48.7442207,-27.6100860992238,0.0 -48.7445823,-27.6104993992238,0.0 -48.7448407,-27.6106887992238,0.0 -48.7451162,-27.6111365992238,0.0 -48.7453401,-27.6116359992238,0.0 -48.7454262,-27.6119115992238,0.0 -48.7455812,-27.6124109992238,0.0 -48.7456673,-27.6127037992238,0.0 -48.7457534,-27.6130481992238,0.0 -48.745874,-27.6134959992238,0.0 -48.7458395,-27.6138231992238,0.0 -48.7457879,-27.6140297992238,0.0 -48.7457865,-27.6140358992238,0.0 -48.7457534,-27.6141847992238,0.0 -48.7457879,-27.6143742992238,0.0 -48.7459271,-27.6145670992238,0.0 -48.74602,-27.6153768992237,0.0 -48.7481005,-27.6155837992237,0.0 -48.8090955,-27.6216483992236,0.0 -48.8091129,-27.6216498992236,0.0 -48.8445282,-27.6251710992236,0.0 -48.8531384,-27.6252881992236,0.0 -48.8531983,-27.6252889992235,0.0 -48.8714472,-27.6255370992235,0.0 -48.8896941,-27.6257850992235,0.0 -48.8897996,-27.6257864992235,0.0 -48.9151491,-27.6261311992235,0.0 -48.950141,-27.6266067992235,0.0 -48.9495315,-27.6262566992235,0.0 -48.949307,-27.6260283992235,0.0 -48.9489109,-27.6254772992235,0.0 -48.948842,-27.6253049992236,0.0 -48.9487903,-27.6250810992236,0.0 -48.9487214,-27.6249260992236,0.0 -48.9486181,-27.6248227992236,0.0 -48.948377,-27.6247710992236,0.0 -48.948222,-27.6247194992236,0.0 -48.9480842,-27.6246505992236,0.0 -48.947912,-27.6244094992236,0.0 -48.9478259,-27.6241338992236,0.0 -48.9478775,-27.6239444992236,0.0 -48.9479981,-27.6237205992236,0.0 -48.9481875,-27.6234277992236,0.0 -48.9483426,-27.6230143992236,0.0 -48.948532,-27.6222393992236,0.0 -48.9486353,-27.6219121992236,0.0 -48.9487903,-27.6217226992236,0.0 -48.9490659,-27.6215504992236,0.0 -48.9494448,-27.6214126992236,0.0 -48.9498643,-27.6211416992236,0.0 -48.9505126,-27.6207237992236,0.0 -48.9507537,-27.6206204992236,0.0 -48.9510465,-27.6205170992236,0.0 -48.9511671,-27.6204137992236,0.0 -48.9512965,-27.6202175992237,0.0 -48.9514599,-27.6200004992237,0.0 -48.9516837,-27.6198454992237,0.0 -48.9519249,-27.6198109992237,0.0 -48.9521832,-27.6198798992237,0.0 -48.9524243,-27.6200348992237,0.0 -48.9527688,-27.6202931992236,0.0 -48.9530616,-27.6204309992236,0.0 -48.9535004,-27.6206032992236,0.0 -48.9538882,-27.6206548992236,0.0 -48.9540433,-27.6205515992236,0.0 -48.9542499,-27.6204654992236,0.0 -48.9544738,-27.6203793992237,0.0 -48.9548183,-27.6203104992236,0.0 -48.9550594,-27.6203104992236,0.0 -48.9552144,-27.6202759992236,0.0 -48.955504,-27.6202621992236,0.0 -48.9555761,-27.6202587992236,0.0 -48.9559033,-27.6202243992236,0.0 -48.9561616,-27.6202931992236,0.0 -48.9564028,-27.6202070992236,0.0 -48.9566267,-27.6200865992237,0.0 -48.9567128,-27.6198626992237,0.0 -48.9567607,-27.6193469992237,0.0 -48.9567817,-27.6191220992237,0.0 -48.956885,-27.6188981992237,0.0 -48.9569883,-27.6186570992237,0.0 -48.9570572,-27.6184331992237,0.0 -48.9570572,-27.6181575992237,0.0 -48.9570572,-27.6176925992237,0.0 -48.9570572,-27.6171718992237,0.0 -48.9570572,-27.6171586992237,0.0 -48.9570228,-27.6168486992237,0.0 -48.9568505,-27.6165042992237,0.0 -48.9566551,-27.6163006992237,0.0 -48.9564372,-27.6160736992237,0.0 -48.95611,-27.6157119992237,0.0 -48.9559205,-27.6154019992237,0.0 -48.9559205,-27.6150575992237,0.0 -48.9560239,-27.6146613992237,0.0 -48.9562478,-27.6142480992238,0.0 -48.9564889,-27.6140241992238,0.0 -48.9568678,-27.6138863992238,0.0 -48.9572122,-27.6137830992238,0.0 -48.9576083,-27.6136969992238,0.0 -48.95797,-27.6135591992238,0.0 -48.958125,-27.6132835992238,0.0 -48.9581767,-27.6129218992238,0.0 -48.9581078,-27.6125430992238,0.0 -48.9579356,-27.6122329992238,0.0 -48.9577461,-27.6121124992238,0.0 -48.9575739,-27.6120263992238,0.0 -48.9573844,-27.6117852992238,0.0 -48.9571778,-27.6115440992238,0.0 -48.9569022,-27.6114235992238,0.0 -48.9567472,-27.6113546992238,0.0 -48.9565233,-27.6112685992238,0.0 -48.9562994,-27.6111307992238,0.0 -48.9562165,-27.6109648992238,0.0 -48.9562133,-27.6109585992238,0.0 -48.9561444,-27.6108379992238,0.0 -48.9559894,-27.6107001992238,0.0 -48.9556622,-27.6105107992238,0.0 -48.9554452,-27.6103505992238,0.0 -48.9551627,-27.6100112992238,0.0 -48.9550594,-27.6097529992238,0.0 -48.9550077,-27.6094773992238,0.0 -48.954899,-27.6088454992239,0.0 -48.9548183,-27.6083578992239,0.0 -48.9547322,-27.6080651992239,0.0 -48.9546633,-27.6077723992239,0.0 -48.9546977,-27.6075312992239,0.0 -48.954801,-27.6073417992239,0.0 -48.9550077,-27.6072039992239,0.0 -48.9552833,-27.6070145992239,0.0 -48.9554458,-27.6069406992239,0.0 -48.9554727,-27.6069284992239,0.0 -48.9556277,-27.6068250992239,0.0 -48.9557311,-27.6067045992239,0.0 -48.9559377,-27.6064806992239,0.0 -48.9559894,-27.6062222992239,0.0 -48.9560411,-27.6059467992239,0.0 -48.9559423,-27.6055170992239,0.0 -48.9557483,-27.6053267992239,0.0 -48.9556277,-27.6051717992239,0.0 -48.9554383,-27.6049650992239,0.0 -48.9553177,-27.6047239992239,0.0 -48.9552488,-27.604086699224,0.0 -48.9552144,-27.603897299224,0.0 -48.9551455,-27.603328899224,0.0 -48.9551394,-27.603259399224,0.0 -48.9550653,-27.602419799224,0.0 -48.9550422,-27.602157799224,0.0 -48.9549905,-27.601709999224,0.0 -48.9549216,-27.601503299224,0.0 -48.954801,-27.601331099224,0.0 -48.9546116,-27.601141699224,0.0 -48.954491,-27.601038299224,0.0 -48.9543016,-27.600952199224,0.0 -48.9541121,-27.600900499224,0.0 -48.9538538,-27.600900499224,0.0 -48.9535955,-27.600986599224,0.0 -48.9532855,-27.601158899224,0.0 -48.9529582,-27.601417199224,0.0 -48.9528032,-27.601537799224,0.0 -48.9525793,-27.601675599224,0.0 -48.9524415,-27.601692799224,0.0 -48.9523554,-27.601641099224,0.0 -48.9521832,-27.601537799224,0.0 -48.9520454,-27.601365499224,0.0 -48.9518388,-27.601141699224,0.0 -48.9516321,-27.601021099224,0.0 -48.9514771,-27.600969399224,0.0 -48.9512876,-27.600986599224,0.0 -48.9511326,-27.601021099224,0.0 -48.9508398,-27.601089999224,0.0 -48.9506159,-27.601158899224,0.0 -48.9503748,-27.601141699224,0.0 -48.9502026,-27.601038299224,0.0 -48.9500131,-27.601038299224,0.0 -48.9498237,-27.601089999224,0.0 -48.9497031,-27.601193299224,0.0 -48.9495998,-27.601331099224,0.0 -48.9495137,-27.601520599224,0.0 -48.9494276,-27.601589399224,0.0 -48.9493326,-27.601696299224,0.0 -48.9490315,-27.601761699224,0.0 -48.9486009,-27.601658299224,0.0 -48.9482737,-27.601468899224,0.0 -48.9481875,-27.601365499224,0.0 -48.9481187,-27.601227799224,0.0 -48.9480153,-27.601055499224,0.0 -48.9478086,-27.600779999224,0.0 -48.9476536,-27.600607699224,0.0 -48.947447,-27.600418299224,0.0 -48.9472575,-27.600280499224,0.0 -48.9470336,-27.600073799224,0.0 -48.9465615,-27.599723099224,0.0 -48.9464308,-27.599626099224,0.0 -48.9459486,-27.599333299224,0.0 -48.9456386,-27.599178299224,0.0 -48.9454491,-27.599109399224,0.0 -48.9452793,-27.599109399224,0.0 -48.9451908,-27.599109399224,0.0 -48.9449669,-27.599126599224,0.0 -48.9447947,-27.599092199224,0.0 -48.9445536,-27.598988799224,0.0 -48.9443986,-27.5988337992241,0.0 -48.9441058,-27.5982654992241,0.0 -48.9438647,-27.5980070992241,0.0 -48.9437322,-27.5979474992241,0.0 -48.9435202,-27.5978520992241,0.0 -48.9431758,-27.5978176992241,0.0 -48.9429519,-27.5978865992241,0.0 -48.9426935,-27.5979554992241,0.0 -48.9425385,-27.5980243992241,0.0 -48.9422457,-27.5980931992241,0.0 -48.9420907,-27.5980931992241,0.0 -48.9418496,-27.5980587992241,0.0 -48.9417118,-27.5979898992241,0.0 -48.9415052,-27.5979037992241,0.0 -48.9412813,-27.5978176992241,0.0 -48.9410057,-27.5977831992241,0.0 -48.9405407,-27.5977659992241,0.0 -48.9400757,-27.5977831992241,0.0 -48.939869,-27.5978176992241,0.0 -48.9395762,-27.5978520992241,0.0 -48.9394212,-27.5978692992241,0.0 -48.9392145,-27.5978176992241,0.0 -48.9390251,-27.5977487992241,0.0 -48.9388356,-27.5976798992241,0.0 -48.9385983,-27.5974931992241,0.0 -48.9385248,-27.5973895992241,0.0 -48.938319,-27.5971459992241,0.0 -48.9380951,-27.5968187992241,0.0 -48.9379056,-27.5964742992241,0.0 -48.9376645,-27.5959920992241,0.0 -48.9375095,-27.5956475992241,0.0 -48.9374275,-27.5953313992241,0.0 -48.9373889,-27.5951825992241,0.0 -48.9371995,-27.5946658992241,0.0 -48.9368378,-27.5942008992241,0.0 -48.9364245,-27.5939253992241,0.0 -48.9359595,-27.5936325992241,0.0 -48.9348572,-27.5932191992242,0.0 -48.9344094,-27.5930125992242,0.0 -48.9342292,-27.5929341992242,0.0 -48.9340133,-27.5928402992242,0.0 -48.9337377,-27.5924958992242,0.0 -48.9337205,-27.5921685992242,0.0 -48.9338066,-27.5917724992242,0.0 -48.9340111,-27.5914128992242,0.0 -48.9341683,-27.5911696992242,0.0 -48.93422,-27.5909113992242,0.0 -48.9342265,-27.5908001992242,0.0 -48.9342372,-27.5906185992242,0.0 -48.9343233,-27.5901535992242,0.0 -48.9343922,-27.5897057992242,0.0 -48.9344439,-27.5893613992242,0.0 -48.9345644,-27.5890685992242,0.0 -48.9346678,-27.5888101992242,0.0 -48.9347883,-27.5883968992242,0.0 -48.9348228,-27.5879834992243,0.0 -48.9347711,-27.5875701992243,0.0 -48.9346333,-27.5872256992243,0.0 -48.9346161,-27.5869673992243,0.0 -48.9347022,-27.5866056992243,0.0 -48.93484,-27.5861751992243,0.0 -48.9349089,-27.5857789992243,0.0 -48.9349261,-27.5855206992243,0.0 -48.9349507,-27.5852848992243,0.0 -48.9348578,-27.5851648992243,0.0 -48.9345644,-27.5850728992243,0.0 -48.9341683,-27.5850211992243,0.0 -48.9337377,-27.5850211992243,0.0 -48.9326355,-27.5850728992243,0.0 -48.9324116,-27.5850211992243,0.0 -48.9321016,-27.5848661992243,0.0 -48.932059,-27.5848357992243,0.0 -48.9318605,-27.5846939992243,0.0 -48.9316021,-27.5845906992243,0.0 -48.9314127,-27.5845906992243,0.0 -48.9311888,-27.5846595992243,0.0 -48.9309649,-27.5847111992243,0.0 -48.930741,-27.5847284992243,0.0 -48.9306893,-27.5847111992243,0.0 -48.9304827,-27.5846939992243,0.0 -48.9303277,-27.5847111992243,0.0 -48.9302071,-27.5847111992243,0.0 -48.9300693,-27.5846767992243,0.0 -48.9299384,-27.5845900992243,0.0 -48.9298627,-27.5844115992243,0.0 -48.9298078,-27.5842821992243,0.0 -48.9297765,-27.5840911992243,0.0 -48.9297593,-27.5839706992243,0.0 -48.9296904,-27.5837467992243,0.0 -48.929656,-27.5836261992243,0.0 -48.9295526,-27.5834711992243,0.0 -48.9294665,-27.5833678992243,0.0 -48.9293804,-27.5832644992243,0.0 -48.9292426,-27.5831783992243,0.0 -48.9291393,-27.5831267992243,0.0 -48.9288982,-27.5830750992243,0.0 -48.9287604,-27.5830578992243,0.0 -48.9285537,-27.5830233992243,0.0 -48.9284159,-27.5829889992243,0.0 -48.9282954,-27.5829716992243,0.0 -48.928192,-27.5830233992243,0.0 -48.9280715,-27.5831439992243,0.0 -48.9278648,-27.5832644992243,0.0 -48.9276065,-27.5833678992243,0.0 -48.9273826,-27.5833678992243,0.0 -48.9272276,-27.5833505992243,0.0 -48.9270726,-27.5832989992243,0.0 -48.9269692,-27.5831955992243,0.0 -48.9268831,-27.5830578992243,0.0 -48.9268142,-27.5828855992243,0.0 -48.9267626,-27.5827133992244,0.0 -48.9267281,-27.5825239992243,0.0 -48.9267453,-27.5822311992244,0.0 -48.9267626,-27.5819727992244,0.0 -48.9267626,-27.5813360992244,0.0 -48.9267626,-27.5813011992244,0.0 -48.926797,-27.5808360992244,0.0 -48.9268487,-27.5805260992244,0.0 -48.9268831,-27.5803710992244,0.0 -48.9268831,-27.5801644992244,0.0 -48.9268142,-27.5798543992244,0.0 -48.9267109,-27.5795443992244,0.0 -48.9265903,-27.5792860992244,0.0 -48.9264181,-27.5789760992244,0.0 -48.9262459,-27.5786660992244,0.0 -48.9261253,-27.5784076992244,0.0 -48.9259187,-27.5779426992244,0.0 -48.9257464,-27.5776326992244,0.0 -48.9256259,-27.5773398992244,0.0 -48.9255762,-27.5772404992245,0.0 -48.9255225,-27.5771332992245,0.0 -48.9254192,-27.5769609992245,0.0 -48.9252642,-27.5768059992245,0.0 -48.924937,-27.5766682992245,0.0 -48.924627,-27.5765304992245,0.0 -48.9244031,-27.5764443992245,0.0 -48.9242308,-27.5764270992245,0.0 -48.9240931,-27.5764270992245,0.0 -48.9239208,-27.5764270992245,0.0 -48.9237142,-27.5764098992245,0.0 -48.9234912,-27.5763003992245,0.0 -48.9232668,-27.5761592992245,0.0 -48.9229743,-27.5758494992245,0.0 -48.9227161,-27.5754364992245,0.0 -48.922544,-27.5751093992245,0.0 -48.9225268,-27.5748168992245,0.0 -48.9225189,-27.5747801992245,0.0 -48.9224751,-27.5745758992245,0.0 -48.9224235,-27.5744209992245,0.0 -48.922303,-27.5742660992245,0.0 -48.9221998,-27.5741800992245,0.0 -48.9219416,-27.5739562992245,0.0 -48.9218383,-27.5738185992245,0.0 -48.9217523,-27.5736464992245,0.0 -48.9217179,-27.5734743992245,0.0 -48.9217007,-27.5732162992245,0.0 -48.9217351,-27.5730613992245,0.0 -48.9219072,-27.5727515992245,0.0 -48.9221137,-27.5725449992245,0.0 -48.9222686,-27.5723384992245,0.0 -48.9223375,-27.5722007992246,0.0 -48.9224063,-27.5721491992245,0.0 -48.9225096,-27.5720975992245,0.0 -48.9226472,-27.5720975992245,0.0 -48.9228143,-27.5721103992245,0.0 -48.922871,-27.5721147992246,0.0 -48.9231119,-27.5720803992245,0.0 -48.9236971,-27.5721319992246,0.0 -48.9240241,-27.5720803992245,0.0 -48.9243511,-27.5720114992245,0.0 -48.9246265,-27.5719254992246,0.0 -48.9249191,-27.5718393992246,0.0 -48.9251772,-27.5717705992246,0.0 -48.9254354,-27.5716672992246,0.0 -48.9255731,-27.5715467992246,0.0 -48.9256788,-27.5713441992246,0.0 -48.925728,-27.5710820992246,0.0 -48.9257452,-27.5708239992246,0.0 -48.9258312,-27.5706690992246,0.0 -48.9258816,-27.5706270992246,0.0 -48.9259345,-27.5705829992246,0.0 -48.9260033,-27.5705313992246,0.0 -48.9260894,-27.5704108992246,0.0 -48.9261582,-27.5702043992246,0.0 -48.9262099,-27.5699977992246,0.0 -48.9264164,-27.5695158992246,0.0 -48.9264508,-27.5693609992246,0.0 -48.9264853,-27.5691544992246,0.0 -48.9264508,-27.5690339992246,0.0 -48.9263992,-27.5688963992246,0.0 -48.9262959,-27.5687930992246,0.0 -48.9261066,-27.5686725992246,0.0 -48.9259173,-27.5686209992246,0.0 -48.9258312,-27.5686037992246,0.0 -48.9256419,-27.5686037992246,0.0 -48.9254526,-27.5685693992246,0.0 -48.9252289,-27.5685176992246,0.0 -48.9250223,-27.5684832992246,0.0 -48.9248158,-27.5684316992246,0.0 -48.9245602,-27.5683617992246,0.0 -48.9243167,-27.5683111992246,0.0 -48.9241446,-27.5682767992246,0.0 -48.9240069,-27.5682078992246,0.0 -48.9239208,-27.5680701992246,0.0 -48.9238348,-27.5678120992246,0.0 -48.9237659,-27.5675022992246,0.0 -48.9237487,-27.5672268992246,0.0 -48.9237832,-27.5670719992246,0.0 -48.9237832,-27.5669848992246,0.0 -48.9237832,-27.5668482992246,0.0 -48.9237487,-27.5666761992246,0.0 -48.9236799,-27.5665556992246,0.0 -48.9235594,-27.5664867992247,0.0 -48.9234562,-27.5664480992246,0.0 -48.9234217,-27.5664351992247,0.0 -48.9233357,-27.5663663992247,0.0 -48.9232152,-27.5663146992247,0.0 -48.9230087,-27.5662286992247,0.0 -48.9228366,-27.5661081992247,0.0 -48.9227505,-27.5659704992247,0.0 -48.9227333,-27.5658672992247,0.0 -48.9227333,-27.5656778992247,0.0 -48.9227333,-27.5654945992247,0.0 -48.9227333,-27.5654025992247,0.0 -48.9226645,-27.5651787992247,0.0 -48.9225268,-27.5649206992247,0.0 -48.9223891,-27.5646968992247,0.0 -48.9221826,-27.5645419992247,0.0 -48.9218801,-27.5642563992247,0.0 -48.9218728,-27.5642493992247,0.0 -48.9216146,-27.5640428992247,0.0 -48.9213909,-27.5638535992247,0.0 -48.9212704,-27.5636298992247,0.0 -48.9211327,-27.5633544992247,0.0 -48.9210811,-27.5630790992247,0.0 -48.9211155,-27.5629241992247,0.0 -48.9212188,-27.5628036992247,0.0 -48.9213383,-27.5626482992247,0.0 -48.9213909,-27.5625799992247,0.0 -48.9214253,-27.5624250992247,0.0 -48.9214081,-27.5622013992247,0.0 -48.9213909,-27.5620119992247,0.0 -48.9213766,-27.5617982992247,0.0 -48.9213736,-27.5617538992247,0.0 -48.9213736,-27.5615817992248,0.0 -48.9214425,-27.5613579992248,0.0 -48.921649,-27.5611858992248,0.0 -48.9218039,-27.5610998992248,0.0 -48.9218859,-27.5610849992248,0.0 -48.9219932,-27.5610653992248,0.0 -48.922303,-27.5610481992248,0.0 -48.9224923,-27.5610309992248,0.0 -48.9226645,-27.5610137992248,0.0 -48.9228021,-27.5609965992248,0.0 -48.922871,-27.5609621992248,0.0 -48.9228538,-27.5608932992248,0.0 -48.9228021,-27.5607900992248,0.0 -48.9225096,-27.5605490992248,0.0 -48.9223547,-27.5604458992248,0.0 -48.921976,-27.5601532992248,0.0 -48.9217007,-27.5599983992248,0.0 -48.9215008,-27.5598454992248,0.0 -48.921236,-27.5595680992248,0.0 -48.9210639,-27.5593271992248,0.0 -48.9208917,-27.5591722992248,0.0 -48.9207368,-27.5591033992248,0.0 -48.9205647,-27.5590345992248,0.0 -48.9204291,-27.5589493992248,0.0 -48.9203066,-27.5587935992248,0.0 -48.9201861,-27.5586386992248,0.0 -48.9201173,-27.5585182992248,0.0 -48.9199968,-27.5583288992248,0.0 -48.9199279,-27.5581395992248,0.0 -48.9199796,-27.5579502992248,0.0 -48.9200484,-27.5576920992248,0.0 -48.9201689,-27.5575371992248,0.0 -48.9204831,-27.5573146992248,0.0 -48.9206445,-27.5570312992248,0.0 -48.9201238,-27.5572832992248,0.0 -48.9198343,-27.5575896992248,0.0 -48.9196106,-27.5577101992248,0.0 -48.9193525,-27.5577273992248,0.0 -48.9193308,-27.5577220992248,0.0 -48.9188536,-27.5576068992248,0.0 -48.9187159,-27.5575896992248,0.0 -48.9185267,-27.5576068992248,0.0 -48.9182858,-27.5576757992248,0.0 -48.9181482,-27.5578305992248,0.0 -48.9179589,-27.5579510992248,0.0 -48.9177524,-27.5580542992248,0.0 -48.9175976,-27.5581402992248,0.0 -48.9174255,-27.5582434992248,0.0 -48.9172509,-27.5583979992248,0.0 -48.9169782,-27.5586392992248,0.0 -48.9168233,-27.5589317992248,0.0 -48.9166741,-27.5593387992248,0.0 -48.9166341,-27.5594478992248,0.0 -48.9164448,-27.5599812992248,0.0 -48.9162039,-27.5602737992248,0.0 -48.9161163,-27.5603253992248,0.0 -48.9159114,-27.5604457992248,0.0 -48.9154125,-27.5610135992248,0.0 -48.9149135,-27.5615469992248,0.0 -48.9145694,-27.5620803992247,0.0 -48.9142941,-27.5623039992247,0.0 -48.9141909,-27.5623383992247,0.0 -48.913864,-27.5623556992247,0.0 -48.9134511,-27.5622695992247,0.0 -48.9129721,-27.5622534992247,0.0 -48.9127367,-27.5622961992247,0.0 -48.912287,-27.5623525992247,0.0 -48.9119802,-27.5623843992247,0.0 -48.9113245,-27.5625477992247,0.0 -48.9111627,-27.5626997992247,0.0 -48.9108186,-27.5631126992247,0.0 -48.9104057,-27.5633707992247,0.0 -48.9101304,-27.5634911992247,0.0 -48.9099974,-27.5635443992247,0.0 -48.9097863,-27.5636288992247,0.0 -48.9094422,-27.5638008992247,0.0 -48.9092013,-27.5640073992247,0.0 -48.9090981,-27.5643858992247,0.0 -48.9090465,-27.5646267992247,0.0 -48.9089432,-27.5649364992247,0.0 -48.9089232,-27.5649991992247,0.0 -48.9088056,-27.5653665992247,0.0 -48.9087195,-27.5656246992247,0.0 -48.9085303,-27.5658483992247,0.0 -48.9084443,-27.5659343992247,0.0 -48.9080829,-27.5659171992247,0.0 -48.9078937,-27.5658999992247,0.0 -48.9076247,-27.5659423992247,0.0 -48.9075668,-27.5659515992247,0.0 -48.9072227,-27.5660891992247,0.0 -48.9061687,-27.5663687992247,0.0 -48.9059667,-27.5664505992247,0.0 -48.905743,-27.5664505992247,0.0 -48.9054161,-27.5664333992247,0.0 -48.9051924,-27.5663816992247,0.0 -48.904986,-27.5662784992247,0.0 -48.9047905,-27.5661634992247,0.0 -48.9046935,-27.5661063992247,0.0 -48.9043666,-27.5660203992247,0.0 -48.9040225,-27.5658655992247,0.0 -48.9036439,-27.5657794992247,0.0 -48.9031278,-27.5657839992247,0.0 -48.9021258,-27.5660038992247,0.0 -48.9014246,-27.5660018992247,0.0 -48.8999204,-27.5662515992247,0.0 -48.8996695,-27.5663300992247,0.0 -48.8995318,-27.5662956992247,0.0 -48.899291,-27.5662440992247,0.0 -48.898964,-27.5661752992247,0.0 -48.8988092,-27.5661408992247,0.0 -48.8986716,-27.5661408992247,0.0 -48.8986027,-27.5662096992247,0.0 -48.8985339,-27.5664333992247,0.0 -48.8983619,-27.5667429992246,0.0 -48.8981898,-27.5669666992246,0.0 -48.8978973,-27.5670354992246,0.0 -48.8975016,-27.5671559992246,0.0 -48.897037,-27.5673279992246,0.0 -48.8966069,-27.5677065992246,0.0 -48.8963554,-27.5679248992246,0.0 -48.8960907,-27.5681022992246,0.0 -48.8959187,-27.5681538992246,0.0 -48.895609,-27.5682742992246,0.0 -48.8952993,-27.5682226992246,0.0 -48.8950584,-27.5680726992246,0.0 -48.8947831,-27.5679129992246,0.0 -48.8946971,-27.5677753992246,0.0 -48.894525,-27.5673968992246,0.0 -48.8943186,-27.5672075992246,0.0 -48.8940433,-27.5671387992246,0.0 -48.8936476,-27.5670182992246,0.0 -48.8932174,-27.5670354992246,0.0 -48.893011,-27.5672075992246,0.0 -48.8927013,-27.5674312992246,0.0 -48.8922004,-27.5675281992246,0.0 -48.8921679,-27.5675344992246,0.0 -48.8919098,-27.5675172992246,0.0 -48.8914108,-27.5675344992246,0.0 -48.89117,-27.5675000992246,0.0 -48.8905678,-27.5674484992246,0.0 -48.8901548,-27.5673623992246,0.0 -48.8898796,-27.5672591992246,0.0 -48.8895871,-27.5672075992246,0.0 -48.8891053,-27.5670699992246,0.0 -48.8889161,-27.5670354992246,0.0 -48.8886924,-27.5669322992246,0.0 -48.8885547,-27.5666741992247,0.0 -48.8884859,-27.5664333992247,0.0 -48.8884171,-27.5661752992247,0.0 -48.8883483,-27.5658139992247,0.0 -48.8882967,-27.5656934992247,0.0 -48.8881934,-27.5655386992247,0.0 -48.8880386,-27.5654697992247,0.0 -48.8879181,-27.5654525992247,0.0 -48.8877461,-27.5655042992247,0.0 -48.8875052,-27.5655902992247,0.0 -48.8872987,-27.5656074992247,0.0 -48.8870579,-27.5656074992247,0.0 -48.8868686,-27.5656074992247,0.0 -48.8866277,-27.5657966992247,0.0 -48.8863696,-27.5660891992247,0.0 -48.8861804,-27.5663472992247,0.0 -48.8859911,-27.5665365992247,0.0 -48.8858019,-27.5666053992247,0.0 -48.8855954,-27.5666741992247,0.0 -48.8852169,-27.5668290992247,0.0 -48.8849588,-27.5669494992246,0.0 -48.8848039,-27.5669666992246,0.0 -48.8846147,-27.5668634992246,0.0 -48.8843566,-27.5664160992247,0.0 -48.8841673,-27.5658827992247,0.0 -48.8838748,-27.5652117992247,0.0 -48.8836512,-27.5647815992247,0.0 -48.8834275,-27.5643686992247,0.0 -48.883364,-27.5641148992247,0.0 -48.8833243,-27.5639557992247,0.0 -48.8833243,-27.5636460992247,0.0 -48.8833243,-27.5633879992247,0.0 -48.8833243,-27.5631126992247,0.0 -48.883221,-27.5629061992247,0.0 -48.883049,-27.5627857992247,0.0 -48.8828941,-27.5627685992247,0.0 -48.8826705,-27.5628717992247,0.0 -48.8825156,-27.5630094992247,0.0 -48.8824124,-27.5630782992247,0.0 -48.8822575,-27.5630954992247,0.0 -48.8821027,-27.5630438992247,0.0 -48.8818823,-27.5630224992247,0.0 -48.8816209,-27.5629922992247,0.0 -48.8812512,-27.5630624992247,0.0 -48.8808983,-27.5631126992247,0.0 -48.8805542,-27.5632330992247,0.0 -48.8803133,-27.5634223992247,0.0 -48.8802273,-27.5637320992247,0.0 -48.8803133,-27.5639901992247,0.0 -48.8804682,-27.5642826992247,0.0 -48.880537,-27.5645406992247,0.0 -48.880537,-27.5646723992247,0.0 -48.880537,-27.5647987992247,0.0 -48.8804682,-27.5650224992247,0.0 -48.8803477,-27.5652461992247,0.0 -48.8801585,-27.5653493992247,0.0 -48.879866,-27.5655558992247,0.0 -48.8793754,-27.5658772992247,0.0 -48.879367,-27.5658827992247,0.0 -48.8791357,-27.5660870992247,0.0 -48.8787,-27.5662978992247,0.0 -48.8782487,-27.5663300992247,0.0 -48.877526,-27.5663644992247,0.0 -48.8770787,-27.5663816992247,0.0 -48.8770515,-27.5663884992247,0.0 -48.8768034,-27.5664505992247,0.0 -48.8760636,-27.5665193992247,0.0 -48.8753409,-27.5665193992247,0.0 -48.8751708,-27.5665543992246,0.0 -48.8747559,-27.5666397992247,0.0 -48.8743946,-27.5666569992247,0.0 -48.8737576,-27.5666179992247,0.0 -48.8725722,-27.5664896992247,0.0 -48.8706839,-27.5664712992247,0.0 -48.8693001,-27.5663999992247,0.0 -48.8675954,-27.5665182992246,0.0 -48.8673404,-27.5665193992246,0.0 -48.8671339,-27.5665365992247,0.0 -48.866893,-27.5666053992247,0.0 -48.8666522,-27.5667602992246,0.0 -48.8665145,-27.5670699992246,0.0 -48.8665145,-27.5674140992246,0.0 -48.8664285,-27.5677409992246,0.0 -48.8662392,-27.5679817992246,0.0 -48.8660156,-27.5680506992246,0.0 -48.8655428,-27.5683365992246,0.0 -48.8652757,-27.5684979992246,0.0 -48.8649832,-27.5686528992246,0.0 -48.8645187,-27.5689280992246,0.0 -48.8643896,-27.5690055992246,0.0 -48.8642606,-27.5690829992246,0.0 -48.8640025,-27.5692549992246,0.0 -48.8638477,-27.5694098992246,0.0 -48.8637789,-27.5695646992246,0.0 -48.8637789,-27.5697023992246,0.0 -48.8637983,-27.5698479992246,0.0 -48.8638133,-27.5699604992246,0.0 -48.8637961,-27.5701840992246,0.0 -48.8637444,-27.5703561992246,0.0 -48.8635896,-27.5705109992246,0.0 -48.8632283,-27.5707174992246,0.0 -48.8630734,-27.5707862992246,0.0 -48.8628153,-27.5707690992246,0.0 -48.8626605,-27.5706142992246,0.0 -48.8624196,-27.5705109992246,0.0 -48.8622304,-27.5705109992246,0.0 -48.8614794,-27.5706548992246,0.0 -48.8614217,-27.5706658992246,0.0 -48.8611577,-27.5707622992246,0.0 -48.8609399,-27.5708206992246,0.0 -48.8608951,-27.5708684992246,0.0 -48.8606819,-27.5710959992246,0.0 -48.8603894,-27.5714745992246,0.0 -48.8602861,-27.5716637992246,0.0 -48.8601313,-27.5717153992246,0.0 -48.8599764,-27.5717325992246,0.0 -48.8597356,-27.5716637992246,0.0 -48.859357,-27.5713884992246,0.0 -48.859185,-27.5711475992246,0.0 -48.8590671,-27.5709876992246,0.0 -48.8589441,-27.5708206992246,0.0 -48.8588065,-27.5706142992246,0.0 -48.858514,-27.5704077992246,0.0 -48.8583763,-27.5703389992246,0.0 -48.8581699,-27.5703217992246,0.0 -48.8577913,-27.5702873992246,0.0 -48.8575505,-27.5703045992246,0.0 -48.8572924,-27.5702529992246,0.0 -48.8569999,-27.5701496992246,0.0 -48.856587,-27.5700120992246,0.0 -48.8562773,-27.5699088992246,0.0 -48.8558471,-27.5697711992246,0.0 -48.8555718,-27.5697367992246,0.0 -48.8553138,-27.5696335992246,0.0 -48.8550041,-27.5694786992246,0.0 -48.8547976,-27.5694270992246,0.0 -48.8546772,-27.5694442992246,0.0 -48.8545911,-27.5695302992246,0.0 -48.8545051,-27.5697023992246,0.0 -48.8544538,-27.5698754992246,0.0 -48.8542975,-27.5700288992246,0.0 -48.8542126,-27.5702185992246,0.0 -48.8540578,-27.5705798992246,0.0 -48.8539889,-27.5710615992246,0.0 -48.8539201,-27.5714056992246,0.0 -48.8538943,-27.5715175992246,0.0 -48.8538685,-27.5716293992246,0.0 -48.8538685,-27.5719218992246,0.0 -48.8539373,-27.5721111992245,0.0 -48.8539717,-27.5724380992245,0.0 -48.8539545,-27.5725928992245,0.0 -48.8539056,-27.5727560992245,0.0 -48.8538513,-27.5729369992245,0.0 -48.8538341,-27.5731950992245,0.0 -48.8537653,-27.5733843992245,0.0 -48.8536276,-27.5736251992245,0.0 -48.8534728,-27.5740553992245,0.0 -48.8534556,-27.5743134992245,0.0 -48.8533867,-27.5745198992245,0.0 -48.8533351,-27.5746747992245,0.0 -48.8532835,-27.5748983992245,0.0 -48.8532663,-27.5751048992245,0.0 -48.8532319,-27.5753113992245,0.0 -48.8532147,-27.5755005992245,0.0 -48.8531459,-27.5756210992245,0.0 -48.8530598,-27.5756382992245,0.0 -48.8529222,-27.5755866992245,0.0 -48.8527157,-27.5755005992245,0.0 -48.8526383,-27.5754317992245,0.0 -48.8525609,-27.5753629992245,0.0 -48.8523716,-27.5752941992245,0.0 -48.8522168,-27.5752597992245,0.0 -48.8520103,-27.5751908992245,0.0 -48.851735,-27.5751220992245,0.0 -48.8514597,-27.5749844992245,0.0 -48.8512017,-27.5748123992245,0.0 -48.8506683,-27.5743478992245,0.0 -48.8502381,-27.5741241992245,0.0 -48.8499457,-27.5740553992245,0.0 -48.8495671,-27.5740209992245,0.0 -48.8489994,-27.5739176992245,0.0 -48.8487241,-27.5738144992245,0.0 -48.8483111,-27.5735907992245,0.0 -48.8482333,-27.5735200992245,0.0 -48.8481555,-27.5734493992245,0.0 -48.8479326,-27.5732466992245,0.0 -48.8475713,-27.5728853992245,0.0 -48.8474164,-27.5727993992245,0.0 -48.8471928,-27.5727649992245,0.0 -48.8469863,-27.5727993992245,0.0 -48.8466661,-27.5728443992245,0.0 -48.8464529,-27.5727821992245,0.0 -48.846126,-27.5725584992245,0.0 -48.8457819,-27.5723691992245,0.0 -48.8455583,-27.5721627992246,0.0 -48.8453518,-27.5717842992246,0.0 -48.8452658,-27.5714400992246,0.0 -48.8451797,-27.5711303992246,0.0 -48.8451281,-27.5707862992246,0.0 -48.8451148,-27.5704635992246,0.0 -48.8448117,-27.5699719992246,0.0 -48.8445456,-27.5698260992246,0.0 -48.8439628,-27.5695413992246,0.0 -48.8435648,-27.5694311992246,0.0 -48.8431669,-27.5693208992246,0.0 -48.8426578,-27.5691754992246,0.0 -48.8420068,-27.5689859992246,0.0 -48.8414853,-27.5686885992246,0.0 -48.8412258,-27.5684494992246,0.0 -48.8408417,-27.5680520992246,0.0 -48.8403358,-27.5677482992246,0.0 -48.8398368,-27.5676328992246,0.0 -48.8390787,-27.5672696992246,0.0 -48.8382717,-27.5668000992247,0.0 -48.8377636,-27.5665002992247,0.0 -48.8372615,-27.5662519992247,0.0 -48.8369209,-27.5659197992247,0.0 -48.8366906,-27.5655045992247,0.0 -48.8365292,-27.5651383992247,0.0 -48.8364394,-27.5646267992247,0.0 -48.8363705,-27.5642482992247,0.0 -48.8362673,-27.5639557992247,0.0 -48.8360952,-27.5637320992247,0.0 -48.8359748,-27.5635771992247,0.0 -48.8356135,-27.5634223992247,0.0 -48.835321,-27.5634051992247,0.0 -48.8350973,-27.5634223992247,0.0 -48.834822,-27.5634395992247,0.0 -48.8346018,-27.5634674992247,0.0 -48.8340677,-27.5634870992247,0.0 -48.8335336,-27.5635065992247,0.0 -48.8325106,-27.5636249992247,0.0 -48.8322412,-27.5635255992247,0.0 -48.8319831,-27.5634739992247,0.0 -48.8317251,-27.5634739992247,0.0 -48.8313982,-27.5635427992247,0.0 -48.8306927,-27.5636632992247,0.0 -48.830281,-27.5638739992247,0.0 -48.8298497,-27.5642309992247,0.0 -48.8295228,-27.5644718992247,0.0 -48.8292131,-27.5647127992247,0.0 -48.8288001,-27.5649536992247,0.0 -48.8284904,-27.5650912992247,0.0 -48.8282668,-27.5651600992247,0.0 -48.8280603,-27.5651256992247,0.0 -48.8278194,-27.5650740992247,0.0 -48.8276791,-27.5650300992247,0.0 -48.8273721,-27.5648848992247,0.0 -48.8272344,-27.5648503992247,0.0 -48.8270624,-27.5648676992247,0.0 -48.8266666,-27.5649020992247,0.0 -48.8265634,-27.5649192992247,0.0 -48.8264774,-27.5649708992247,0.0 -48.8261849,-27.5650740992247,0.0 -48.8259784,-27.5651256992247,0.0 -48.8258236,-27.5651084992247,0.0 -48.8256859,-27.5650740992247,0.0 -48.8253246,-27.5648159992247,0.0 -48.8250665,-27.5645062992247,0.0 -48.8248429,-27.5641449992247,0.0 -48.8247568,-27.5638524992247,0.0 -48.824688,-27.5635771992247,0.0 -48.8244816,-27.5633363992247,0.0 -48.8242063,-27.5631814992247,0.0 -48.8239394,-27.5630924992247,0.0 -48.8238449,-27.5630610992247,0.0 -48.8235697,-27.5627341992247,0.0 -48.8231395,-27.5622179992247,0.0 -48.8228986,-27.5619426992247,0.0 -48.8227782,-27.5617534992247,0.0 -48.8224857,-27.5611168992248,0.0 -48.8223481,-27.5606866992248,0.0 -48.8223309,-27.5603941992248,0.0 -48.8223825,-27.5601188992248,0.0 -48.8224782,-27.5599593992248,0.0 -48.8224857,-27.5599468992248,0.0 -48.8225029,-27.5597575992248,0.0 -48.8223825,-27.5594134992248,0.0 -48.822176,-27.5592586992248,0.0 -48.8218835,-27.5590521992248,0.0 -48.8216599,-27.5587596992248,0.0 -48.8214534,-27.5586220992248,0.0 -48.8211609,-27.5584843992248,0.0 -48.8209544,-27.5584327992248,0.0 -48.8207996,-27.5583467992248,0.0 -48.8207136,-27.5582434992248,0.0 -48.8205587,-27.5581402992248,0.0 -48.8203178,-27.5580370992248,0.0 -48.8200597,-27.5579854992248,0.0 -48.8198877,-27.5578993992248,0.0 -48.8197845,-27.5577961992248,0.0 -48.8198017,-27.5576413992248,0.0 -48.8198533,-27.5575208992248,0.0 -48.8199737,-27.5574348992248,0.0 -48.8201286,-27.5573143992248,0.0 -48.8201286,-27.5571939992248,0.0 -48.8200769,-27.5571251992248,0.0 -48.8200425,-27.5571079992248,0.0 -48.8199393,-27.5570907992248,0.0 -48.8196812,-27.5570735992248,0.0 -48.8193027,-27.5570907992248,0.0 -48.8190446,-27.5570735992248,0.0 -48.8188726,-27.5570047992248,0.0 -48.8186661,-27.5567810992248,0.0 -48.8185973,-27.5565745992248,0.0 -48.8186145,-27.5563680992248,0.0 -48.8186489,-27.5562992992248,0.0 -48.8187521,-27.5561616992249,0.0 -48.8188382,-27.5560928992249,0.0 -48.8191823,-27.5560067992249,0.0 -48.8194403,-27.5558863992249,0.0 -48.8196296,-27.5556798992249,0.0 -48.8197142,-27.5554704992249,0.0 -48.8197156,-27.5551981992249,0.0 -48.8195952,-27.5549744992249,0.0 -48.8194785,-27.5548019992249,0.0 -48.8192167,-27.5545615992249,0.0 -48.8190446,-27.5544066992249,0.0 -48.8189441,-27.5543648992249,0.0 -48.8188382,-27.5543206992249,0.0 -48.8187005,-27.5543206992249,0.0 -48.8184596,-27.5543378992249,0.0 -48.8182016,-27.5542862992249,0.0 -48.8179435,-27.5541830992249,0.0 -48.8177026,-27.5540281992249,0.0 -48.8175305,-27.5538733992249,0.0 -48.8173585,-27.5537012992249,0.0 -48.8171692,-27.5534947992249,0.0 -48.8171004,-27.5533743992249,0.0 -48.8170488,-27.5532539992249,0.0 -48.8170488,-27.5531334992249,0.0 -48.8170997,-27.5529370992249,0.0 -48.8172208,-27.5528925992249,0.0 -48.8173585,-27.5528581992249,0.0 -48.817651,-27.5527549992249,0.0 -48.8177714,-27.5526689992249,0.0 -48.8178919,-27.5524624992249,0.0 -48.8178919,-27.5522903992249,0.0 -48.8178402,-27.5520839992249,0.0 -48.8178402,-27.5519118992249,0.0 -48.817842,-27.5519032992249,0.0 -48.8178919,-27.5516537992249,0.0 -48.8179435,-27.5513957992249,0.0 -48.8179607,-27.5512580992249,0.0 -48.8179781,-27.5511998992249,0.0 -48.8180123,-27.5510860992249,0.0 -48.8180123,-27.5509483992249,0.0 -48.8179779,-27.5507935992249,0.0 -48.8178402,-27.5506902992249,0.0 -48.8175133,-27.5505698992249,0.0 -48.8169628,-27.550432299225,0.0 -48.8167219,-27.550294599225,0.0 -48.8166186,-27.550191399225,0.0 -48.8164122,-27.550053699225,0.0 -48.816309,-27.549967699225,0.0 -48.8162187,-27.549937599225,0.0 -48.8159993,-27.549864499225,0.0 -48.8158616,-27.549726799225,0.0 -48.815724,-27.549571999225,0.0 -48.8156551,-27.549365499225,0.0 -48.8155519,-27.549072999225,0.0 -48.8155003,-27.548935399225,0.0 -48.8153626,-27.548832199225,0.0 -48.8152078,-27.548900999225,0.0 -48.8151046,-27.548986999225,0.0 -48.8150529,-27.549124599225,0.0 -48.8150185,-27.549279499225,0.0 -48.8149325,-27.549365499225,0.0 -48.8148035,-27.549417099225,0.0 -48.8146744,-27.549468799225,0.0 -48.8145024,-27.549571999225,0.0 -48.8142959,-27.549657999225,0.0 -48.813969,-27.549692399225,0.0 -48.813298,-27.549898899225,0.0 -48.8128334,-27.550019299225,0.0 -48.8125582,-27.550053699225,0.0 -48.8123778,-27.550070499225,0.0 -48.8119216,-27.550139799225,0.0 -48.8112333,-27.550260199225,0.0 -48.8110261,-27.550316599225,0.0 -48.810786,-27.550277399225,0.0 -48.8105967,-27.550242999225,0.0 -48.8103893,-27.550096299225,0.0 -48.8103042,-27.550019299225,0.0 -48.8101322,-27.549984899225,0.0 -48.8099601,-27.549984899225,0.0 -48.8097365,-27.549967699225,0.0 -48.8094956,-27.550053699225,0.0 -48.8093751,-27.550174199225,0.0 -48.8092203,-27.550328999225,0.0 -48.8090654,-27.5505698992249,0.0 -48.808945,-27.5506558992249,0.0 -48.808773,-27.550862399225,0.0 -48.8085665,-27.5511548992249,0.0 -48.8084977,-27.5513957992249,0.0 -48.8083772,-27.5515161992249,0.0 -48.8082568,-27.5515677992249,0.0 -48.8081364,-27.5516193992249,0.0 -48.8079987,-27.5515505992249,0.0 -48.8079299,-27.5514645992249,0.0 -48.8078783,-27.5512752992249,0.0 -48.8077922,-27.5511204992249,0.0 -48.8074997,-27.550776399225,0.0 -48.807018,-27.550328999225,0.0 -48.8065857,-27.550054399225,0.0 -48.8063126,-27.550019299225,0.0 -48.8058824,-27.550019299225,0.0 -48.8056071,-27.550002099225,0.0 -48.8052802,-27.549830099225,0.0 -48.8049877,-27.549657999225,0.0 -48.8046608,-27.549503199225,0.0 -48.8043856,-27.549382699225,0.0 -48.8040759,-27.549331099225,0.0 -48.8037317,-27.549262299225,0.0 -48.803336,-27.549210699225,0.0 -48.8029995,-27.549108799225,0.0 -48.8026761,-27.549340099225,0.0 -48.8020759,-27.550272199225,0.0 -48.8017648,-27.5507444992249,0.0 -48.8013525,-27.550918499225,0.0 -48.8008273,-27.5508891992249,0.0 -48.8006569,-27.550879699225,0.0 -48.7999797,-27.5510747992249,0.0 -48.7998089,-27.5511720992249,0.0 -48.7997008,-27.5511855992249,0.0 -48.7995336,-27.5512064992249,0.0 -48.7993616,-27.5511548992249,0.0 -48.7992583,-27.5509999992249,0.0 -48.7992067,-27.550845199225,0.0 -48.7992239,-27.550587099225,0.0 -48.7993616,-27.550260199225,0.0 -48.799482,-27.549830099225,0.0 -48.7993616,-27.549589199225,0.0 -48.7991035,-27.549434299225,0.0 -48.7989486,-27.549193499225,0.0 -48.7990691,-27.548969799225,0.0 -48.7995164,-27.548677299225,0.0 -48.7997917,-27.548487999225,0.0 -48.800067,-27.548229999225,0.0 -48.8003079,-27.547782599225,0.0 -48.8004283,-27.547679399225,0.0 -48.8004111,-27.547472899225,0.0 -48.8003423,-27.547318099225,0.0 -48.800239,-27.547318099225,0.0 -48.799981,-27.547404099225,0.0 -48.7997057,-27.547524499225,0.0 -48.799396,-27.547593399225,0.0 -48.7991035,-27.547507299225,0.0 -48.7988282,-27.547369699225,0.0 -48.7985701,-27.547163199225,0.0 -48.798312,-27.546973999225,0.0 -48.7981572,-27.546819099225,0.0 -48.7978303,-27.546784699225,0.0 -48.797469,-27.546733099225,0.0 -48.797369,-27.546694199225,0.0 -48.7971593,-27.546612599225,0.0 -48.7970044,-27.546388999225,0.0 -48.7966947,-27.545872799225,0.0 -48.7964022,-27.5455114992251,0.0 -48.7961606,-27.545390699225,0.0 -48.7961269,-27.5453738992251,0.0 -48.7958205,-27.5452895992251,0.0 -48.7953974,-27.5452717992251,0.0 -48.7949516,-27.5452886992251,0.0 -48.7945506,-27.545613599225,0.0 -48.7940151,-27.546613999225,0.0 -48.7935805,-27.547249199225,0.0 -48.7934601,-27.547472899225,0.0 -48.7932708,-27.547748199225,0.0 -48.7931504,-27.548023499225,0.0 -48.7931504,-27.548161099225,0.0 -48.793137,-27.548402299225,0.0 -48.7931332,-27.548470799225,0.0 -48.7930816,-27.548625699225,0.0 -48.7929099,-27.548764699225,0.0 -48.7928644,-27.548786399225,0.0 -48.7924796,-27.548969699225,0.0 -48.7921008,-27.549090199225,0.0 -48.7916707,-27.549159099225,0.0 -48.7913954,-27.549210699225,0.0 -48.7910341,-27.549245099225,0.0 -48.7906728,-27.549210699225,0.0 -48.7903287,-27.549193499225,0.0 -48.790148,-27.549167699225,0.0 -48.7899674,-27.549141799225,0.0 -48.7895544,-27.549141799225,0.0 -48.7892836,-27.549099099225,0.0 -48.7892275,-27.549090199225,0.0 -48.7890211,-27.549090199225,0.0 -48.7888512,-27.549106399225,0.0 -48.7886598,-27.549124599225,0.0 -48.7884533,-27.549245099225,0.0 -48.7882812,-27.549537599225,0.0 -48.7881697,-27.549760699225,0.0 -48.7881436,-27.549812899225,0.0 -48.7880232,-27.550105399225,0.0 -48.7878855,-27.550328999225,0.0 -48.787593,-27.5507935992249,0.0 -48.7874382,-27.5511548992249,0.0 -48.7873521,-27.5515333992249,0.0 -48.7872145,-27.5517914992249,0.0 -48.7869908,-27.5520495992249,0.0 -48.7865951,-27.5522043992249,0.0 -48.7863026,-27.5521871992249,0.0 -48.7859413,-27.5521699992249,0.0 -48.7856488,-27.5521183992249,0.0 -48.7853391,-27.5519807992249,0.0 -48.7851842,-27.5517054992249,0.0 -48.784995,-27.5514473992249,0.0 -48.7847885,-27.5513440992249,0.0 -48.7845649,-27.5512408992249,0.0 -48.7843068,-27.5510171992249,0.0 -48.7841347,-27.5508795992249,0.0 -48.783825,-27.5505698992249,0.0 -48.7834981,-27.550294599225,0.0 -48.7829647,-27.549898899225,0.0 -48.782655,-27.549606399225,0.0 -48.7824486,-27.549331099225,0.0 -48.7821045,-27.548986999225,0.0 -48.7817604,-27.548591299225,0.0 -48.7813302,-27.548126699225,0.0 -48.7811754,-27.547885799225,0.0 -48.7810377,-27.547730999225,0.0 -48.7809225,-27.547509399225,0.0 -48.7808141,-27.547300899225,0.0 -48.7806248,-27.547145999225,0.0 -48.7805044,-27.547111599225,0.0 -48.7803983,-27.547182299225,0.0 -48.7802463,-27.547283699225,0.0 -48.780057,-27.547524499225,0.0 -48.7797645,-27.547679399225,0.0 -48.7794892,-27.547730999225,0.0 -48.7789104,-27.547718699225,0.0 -48.7786978,-27.547558899225,0.0 -48.7784741,-27.547214799225,0.0 -48.7782676,-27.546922299225,0.0 -48.7779407,-27.546647099225,0.0 -48.777631,-27.546526599225,0.0 -48.7774934,-27.546474999225,0.0 -48.7773558,-27.546423399225,0.0 -48.776788,-27.546509399225,0.0 -48.7764267,-27.546440599225,0.0 -48.7760481,-27.546354599225,0.0 -48.775704,-27.546440599225,0.0 -48.7755148,-27.546647099225,0.0 -48.7753943,-27.546922299225,0.0 -48.7752739,-27.547231999225,0.0 -48.7751707,-27.547730999225,0.0 -48.7750846,-27.548109499225,0.0 -48.7750502,-27.548401999225,0.0 -48.7749126,-27.548694499225,0.0 -48.7748167,-27.548937499225,0.0 -48.7746545,-27.549348299225,0.0 -48.7746201,-27.549606399225,0.0 -48.7744412,-27.549882799225,0.0 -48.7744308,-27.549898899225,0.0 -48.7743104,-27.550019299225,0.0 -48.7738458,-27.550122599225,0.0 -48.7734673,-27.550225799225,0.0 -48.773192,-27.550260199225,0.0 -48.772746,-27.5503700992249,0.0 -48.7723571,-27.5507874992249,0.0 -48.7719414,-27.5509449992249,0.0 -48.7713864,-27.5509990992249,0.0 -48.7711267,-27.5511961992249,0.0 -48.7710164,-27.5514826992249,0.0 -48.7708865,-27.5516537992249,0.0 -48.7707489,-27.5523248992249,0.0 -48.7707833,-27.5529958992249,0.0 -48.7707489,-27.5540453992249,0.0 -48.7706785,-27.5550018992249,0.0 -48.7706628,-27.5552153992249,0.0 -48.7707661,-27.5560067992249,0.0 -48.7707489,-27.5564885992248,0.0 -48.7706628,-27.5570563992248,0.0 -48.7704736,-27.5574004992248,0.0 -48.7700606,-27.5577101992248,0.0 -48.7698026,-27.5579165992248,0.0 -48.7695101,-27.5580886992248,0.0 -48.7690627,-27.5581058992248,0.0 -48.7688563,-27.5580714992248,0.0 -48.7686498,-27.5579682992248,0.0 -48.7685638,-27.5576929992248,0.0 -48.7685293,-27.5574692992248,0.0 -48.7684552,-27.5572765992248,0.0 -48.7684433,-27.5572455992248,0.0 -48.7684223,-27.5572392992248,0.0 -48.7682713,-27.5571939992248,0.0 -48.7680132,-27.5571251992248,0.0 -48.7676175,-27.5569014992248,0.0 -48.7671701,-27.5566777992248,0.0 -48.7665335,-27.5565573992248,0.0 -48.7662926,-27.5565401992248,0.0 -48.7660174,-27.5565229992248,0.0 -48.7658797,-27.5564197992248,0.0 -48.7657937,-27.5562820992249,0.0 -48.7657593,-27.5561100992248,0.0 -48.7656216,-27.5560239992248,0.0 -48.7653954,-27.5560249992249,0.0 -48.7652087,-27.5560928992249,0.0 -48.7645377,-27.5561272992248,0.0 -48.7639011,-27.5561616992248,0.0 -48.7635588,-27.5561593992248,0.0 -48.7631784,-27.5560756992249,0.0 -48.7628515,-27.5559035992249,0.0 -48.7627311,-27.5555938992249,0.0 -48.7627163,-27.5555052992249,0.0 -48.7626795,-27.5552841992249,0.0 -48.7626279,-27.5547679992249,0.0 -48.7626967,-27.5545615992249,0.0 -48.7628343,-27.5543034992249,0.0 -48.7628687,-27.5540797992249,0.0 -48.7627999,-27.5538560992249,0.0 -48.7626623,-27.5537012992249,0.0 -48.7625074,-27.5536496992249,0.0 -48.7621977,-27.5537012992249,0.0 -48.7620257,-27.5538044992249,0.0 -48.7617676,-27.5538905992249,0.0 -48.7615267,-27.5538388992249,0.0 -48.7613324,-27.5538227992249,0.0 -48.7611138,-27.5538044992249,0.0 -48.7607525,-27.5539765992249,0.0 -48.760374,-27.5541657992249,0.0 -48.7599954,-27.5542346992249,0.0 -48.7597374,-27.5542002992249,0.0 -48.7594104,-27.5540797992249,0.0 -48.7590835,-27.5538905992249,0.0 -48.7588771,-27.5538388992249,0.0 -48.7586018,-27.5538905992249,0.0 -48.7582577,-27.5540625992249,0.0 -48.7576899,-27.5544410992249,0.0 -48.7573458,-27.5547851992249,0.0 -48.7570189,-27.5550088992249,0.0 -48.7567092,-27.5551465992249,0.0 -48.7563651,-27.5552497992249,0.0 -48.7560382,-27.5553185992249,0.0 -48.7556097,-27.5552204992249,0.0 -48.7550987,-27.5551420992249,0.0 -48.7546789,-27.5550776992249,0.0 -48.7543348,-27.5553013992249,0.0 -48.7540595,-27.5556110992249,0.0 -48.7539286,-27.5558566992249,0.0 -48.7539219,-27.5558691992249,0.0 -48.7538015,-27.5562304992248,0.0 -48.7536982,-27.5564197992248,0.0 -48.7534574,-27.5565401992248,0.0 -48.7532337,-27.5565917992248,0.0 -48.7529584,-27.5564713992248,0.0 -48.7527519,-27.5563336992249,0.0 -48.7525627,-27.5561272992248,0.0 -48.7522186,-27.5559035992249,0.0 -48.7517884,-27.5557142992249,0.0 -48.7513583,-27.5554045992249,0.0 -48.7510486,-27.5551465992249,0.0 -48.7508937,-27.5550088992249,0.0 -48.7506185,-27.5548368992249,0.0 -48.7505392,-27.5548124992249,0.0 -48.7501711,-27.5546991992249,0.0 -48.7498958,-27.5546819992249,0.0 -48.7495861,-27.5546991992249,0.0 -48.7494555,-27.5548950992249,0.0 -48.7493797,-27.5550088992249,0.0 -48.7492764,-27.5550948992249,0.0 -48.74907,-27.5551981992249,0.0 -48.7489667,-27.5551981992249,0.0 -48.7486914,-27.5551465992249,0.0 -48.7483989,-27.5551120992249,0.0 -48.7481753,-27.5551120992249,0.0 -48.747814,-27.5550260992249,0.0 -48.7475387,-27.5549744992249,0.0 -48.7472978,-27.5548712992249,0.0 -48.7470397,-27.5547851992249,0.0 -48.746816,-27.5547335992249,0.0 -48.7464203,-27.5547851992249,0.0 -48.7459214,-27.5548196992249,0.0 -48.7456461,-27.5547163992249,0.0 -48.7453192,-27.5545787992249,0.0 -48.7449751,-27.5544410992249,0.0 -48.7445277,-27.5543550992249,0.0 -48.7440804,-27.5542690992249,0.0 -48.7432717,-27.5542346992249,0.0 -48.7425319,-27.5542690992249,0.0 -48.742377,-27.5542690992249,0.0 -48.7419631,-27.5541084992249,0.0 -48.7411162,-27.5540035992249,0.0 -48.7401962,-27.5539841992249,0.0 -48.7400363,-27.5540033992249,0.0 -48.7400027,-27.5539937992249,0.0 -48.7397274,-27.5539765992249,0.0 -48.7395725,-27.5538216992249,0.0 -48.7393145,-27.5537012992249,0.0 -48.7390564,-27.5537012992249,0.0 -48.738523,-27.5537528992249,0.0 -48.7382305,-27.5537528992249,0.0 -48.7380929,-27.5537528992249,0.0 -48.7378348,-27.5536840992249,0.0 -48.7375939,-27.5535808992249,0.0 -48.7371982,-27.5533915992249,0.0 -48.7368541,-27.5533055992249,0.0 -48.736682,-27.5532367992249,0.0 -48.7363551,-27.5530818992249,0.0 -48.7360626,-27.5529786992249,0.0 -48.7358217,-27.5529614992249,0.0 -48.7356153,-27.5530302992249,0.0 -48.7354339,-27.5531418992249,0.0 -48.7353916,-27.5531678992249,0.0 -48.7349271,-27.5533571992249,0.0 -48.7345657,-27.5534431992249,0.0 -48.7343077,-27.5534603992249,0.0 -48.7340066,-27.5535119992249,0.0 -48.7337055,-27.5535636992249,0.0 -48.7334302,-27.5536668992249,0.0 -48.7330689,-27.5537528992249,0.0 -48.732828,-27.5537528992249,0.0 -48.7324474,-27.5537810992249,0.0 -48.7323634,-27.5537872992249,0.0 -48.7319849,-27.5538216992249,0.0 -48.7317785,-27.5538388992249,0.0 -48.731486,-27.5539077992249,0.0 -48.7312607,-27.5539881992249,0.0 -48.7312451,-27.5539937992249,0.0 -48.7310386,-27.5541141992249,0.0 -48.7308494,-27.5541141992249,0.0 -48.730402,-27.5540625992249,0.0 -48.7300407,-27.5539937992249,0.0 -48.7297927,-27.5539023992249,0.0 -48.7297138,-27.5538733992249,0.0 -48.729148,-27.5536345992249,0.0 -48.7285736,-27.5534996992249,0.0 -48.72793,-27.5535268992249,0.0 -48.7275378,-27.5535434992249,0.0 -48.728331,-27.5541473992249,0.0 -48.7286324,-27.5547025992249,0.0 -48.7288377,-27.5553081992249,0.0 -48.7289141,-27.5559545992249,0.0 -48.7290174,-27.5562643992249,0.0 -48.7291895,-27.5564365992248,0.0 -48.72931,-27.5565742992248,0.0 -48.7292928,-27.5567807992248,0.0 -48.7291723,-27.5568840992248,0.0 -48.728983,-27.5570561992248,0.0 -48.7288109,-27.5571594992248,0.0 -48.7286726,-27.5572563992248,0.0 -48.7281876,-27.5578126992248,0.0 -48.7279158,-27.5580889992248,0.0 -48.7278125,-27.5583126992248,0.0 -48.7276921,-27.5585536992248,0.0 -48.7275888,-27.5588290992248,0.0 -48.7275544,-27.5590528992248,0.0 -48.7275544,-27.5594314992248,0.0 -48.7275199,-27.5596036992248,0.0 -48.7274683,-27.5598273992248,0.0 -48.7274167,-27.5600167992248,0.0 -48.7272445,-27.5602060992248,0.0 -48.7270552,-27.5603437992248,0.0 -48.7270036,-27.5604986992248,0.0 -48.7270552,-27.5606707992248,0.0 -48.7272273,-27.5608601992248,0.0 -48.7275027,-27.5609978992248,0.0 -48.7276378,-27.5610822992248,0.0 -48.7277781,-27.5611699992248,0.0 -48.7279675,-27.5614281992247,0.0 -48.7280754,-27.5617400992247,0.0 -48.7281224,-27.5618756992247,0.0 -48.7282084,-27.5619100992247,0.0 -48.7283806,-27.5620305992247,0.0 -48.728594,-27.5620429992247,0.0 -48.7292122,-27.5622101992247,0.0 -48.7295682,-27.5624092992247,0.0 -48.7299125,-27.5625985992247,0.0 -48.730119,-27.5627362992247,0.0 -48.7303428,-27.5628739992247,0.0 -48.7305838,-27.5628912992247,0.0 -48.7307387,-27.5628567992247,0.0 -48.7309969,-27.5629256992247,0.0 -48.7311518,-27.5630633992247,0.0 -48.7312895,-27.5633903992247,0.0 -48.73141,-27.5636829992247,0.0 -48.7314421,-27.5638773992247,0.0 -48.7313067,-27.5640960992247,0.0 -48.7312034,-27.5643714992247,0.0 -48.731169,-27.5645952992247,0.0 -48.731255,-27.5648706992247,0.0 -48.7314294,-27.5651467992247,0.0 -48.7314616,-27.5651976992247,0.0 -48.7315993,-27.5654902992247,0.0 -48.7317198,-27.5657312992247,0.0 -48.7318403,-27.5660066992247,0.0 -48.7319608,-27.5663337992247,0.0 -48.7321501,-27.5667296992247,0.0 -48.7324083,-27.5671599992246,0.0 -48.7324771,-27.5674008992246,0.0 -48.7324599,-27.5675730992246,0.0 -48.7323633,-27.5677183992246,0.0 -48.7322189,-27.5679344992246,0.0 -48.7320985,-27.5681582992246,0.0 -48.7320468,-27.5683992992246,0.0 -48.7320607,-27.5686345992246,0.0 -48.732064,-27.5686918992246,0.0 -48.732064,-27.5691393992246,0.0 -48.7320124,-27.5696557992246,0.0 -48.7319435,-27.5699999992246,0.0 -48.7317886,-27.5702581992246,0.0 -48.7315304,-27.5706024992246,0.0 -48.7314272,-27.5709466992246,0.0 -48.7313927,-27.5711704992246,0.0 -48.7313927,-27.5714974992246,0.0 -48.7314616,-27.5718933992245,0.0 -48.73141,-27.5721515992245,0.0</coordinates>
</LinearRing>
</outerBoundaryIs>
</Polygon>
</MultiGeometry>
</Placemark>
</Folder>
</Document></kml>
