<?xml version='1.0' encoding='UTF-8'?>
<kml xmlns:xsd="http://www.w3.org/2001/XMLSchema" xmlns:gx="http://www.google.com/kml/ext/2.2" xmlns:atom="http://www.w3.org/2005/Atom" xmlns="http://www.opengis.net/kml/2.2">
<Document>
<name>timbo_4218202_localidades_2022</name>
<visibility>1</visibility>
<Schema name="01. Cidade" id="kml_schema_ft_01._Cidade">
<SimpleField type="xsd:string" name="CD_UF">
<displayName>CD_UF</displayName>
</SimpleField>
<SimpleField type="xsd:string" name="NM_UF">
<displayName>NM_UF</displayName>
</SimpleField>
<SimpleField type="xsd:string" name="SIGLA_UF">
<displayName>SIGLA_UF</displayName>
</SimpleField>
<SimpleField type="xsd:string" name="CD_MUN">
<displayName>CD_MUN</displayName>
</SimpleField>
<SimpleField type="xsd:string" name="NM_MUN">
<displayName>NM_MUN</displayName>
</SimpleField>
<SimpleField type="xsd:string" name="CD_RGINT">
<displayName>CD_RGINT</displayName>
</SimpleField>
<SimpleField type="xsd:string" name="NM_RGINT">
<displayName>NM_RGINT</displayName>
</SimpleField>
<SimpleField type="xsd:string" name="CD_RGI">
<displayName>CD_RGI</displayName>
</SimpleField>
<SimpleField type="xsd:string" name="NM_RGI">
<displayName>NM_RGI</displayName>
</SimpleField>
<SimpleField type="xsd:string" name="CT_LOCALIDADE">
<displayName>CT_LOCALIDADE</displayName>
</SimpleField>
<SimpleField type="xsd:string" name="SCT_LOCALIDADE">
<displayName>SCT_LOCALIDADE</displayName>
</SimpleField>
<SimpleField type="xsd:string" name="CD_LOCALIDADE">
<displayName>CD_LOCALIDADE</displayName>
</SimpleField>
<SimpleField type="xsd:string" name="NM_LOCALIDADE">
<displayName>NM_LOCALIDADE</displayName>
</SimpleField>
<SimpleField type="xsd:string" name="LAT_LOCALIDADE">
<displayName>LAT_LOCALIDADE</displayName>
</SimpleField>
<SimpleField type="xsd:string" name="LONG_LOCALIDADE">
<displayName>LONG_LOCALIDADE</displayName>
</SimpleField>
</Schema>
<Schema name="Município" id="kml_schema_ft_Município">
<SimpleField type="xsd:string" name="CD_UF">
<displayName>CD_UF</displayName>
</SimpleField>
<SimpleField type="xsd:string" name="NM_UF">
<displayName>NM_UF</displayName>
</SimpleField>
<SimpleField type="xsd:string" name="CD_MUN">
<displayName>CD_MUN</displayName>
</SimpleField>
<SimpleField type="xsd:string" name="NM_MUN">
<displayName>NM_MUN</displayName>
</SimpleField>
<SimpleField type="xsd:string" name="CD_RGINT">
<displayName>CD_RGINT</displayName>
</SimpleField>
<SimpleField type="xsd:string" name="NM_RGINT">
<displayName>NM_RGINT</displayName>
</SimpleField>
<SimpleField type="xsd:string" name="CD_RGI">
<displayName>CD_RGI</displayName>
</SimpleField>
<SimpleField type="xsd:string" name="NM_RGI">
<displayName>NM_RGI</displayName>
</SimpleField>
</Schema>
<Folder id="01. Cidade">
<name>01. Cidade</name>
<Folder id="01.03. Sede Municipal">
<name>01.03. Sede Municipal</name>
<Placemark id="01.03. Sede Municipal">
<name>Timbó [4218202]</name>
<visibility>1</visibility>
<snippet> </snippet>
<description>&lt;center&gt;&lt;table&gt;&lt;tr&gt;&lt;th colspan='2' align='center'&gt;&lt;em&gt;Atributos&lt;/em&gt;&lt;/th&gt;&lt;/tr&gt;&lt;tr bgcolor="#E3E3F3"&gt;
&lt;th&gt;CD_UF&lt;/th&gt;
&lt;td&gt;42&lt;/td&gt;
&lt;/tr&gt;&lt;tr bgcolor=""&gt;
&lt;th&gt;NM_UF&lt;/th&gt;
&lt;td&gt;Santa Catarina&lt;/td&gt;
&lt;/tr&gt;&lt;tr bgcolor="#E3E3F3"&gt;
&lt;th&gt;SIGLA_UF&lt;/th&gt;
&lt;td&gt;SC&lt;/td&gt;
&lt;/tr&gt;&lt;tr bgcolor=""&gt;
&lt;th&gt;CD_MUN&lt;/th&gt;
&lt;td&gt;4218202&lt;/td&gt;
&lt;/tr&gt;&lt;tr bgcolor="#E3E3F3"&gt;
&lt;th&gt;NM_MUN&lt;/th&gt;
&lt;td&gt;Timbó&lt;/td&gt;
&lt;/tr&gt;&lt;tr bgcolor=""&gt;
&lt;th&gt;CD_RGINT&lt;/th&gt;
&lt;td&gt;4207&lt;/td&gt;
&lt;/tr&gt;&lt;tr bgcolor="#E3E3F3"&gt;
&lt;th&gt;NM_RGINT&lt;/th&gt;
&lt;td&gt;Blumenau&lt;/td&gt;
&lt;/tr&gt;&lt;tr bgcolor=""&gt;
&lt;th&gt;CD_RGI&lt;/th&gt;
&lt;td&gt;420019&lt;/td&gt;
&lt;/tr&gt;&lt;tr bgcolor="#E3E3F3"&gt;
&lt;th&gt;NM_RGI&lt;/th&gt;
&lt;td&gt;Blumenau&lt;/td&gt;
&lt;/tr&gt;&lt;tr bgcolor=""&gt;
&lt;th&gt;CT_LOCALIDADE&lt;/th&gt;
&lt;td&gt;Cidade&lt;/td&gt;
&lt;/tr&gt;&lt;tr bgcolor="#E3E3F3"&gt;
&lt;th&gt;SCT_LOCALIDADE&lt;/th&gt;
&lt;td&gt;Sede Municipal&lt;/td&gt;
&lt;/tr&gt;&lt;tr bgcolor=""&gt;
&lt;th&gt;CD_LOCALIDADE&lt;/th&gt;
&lt;td&gt;4218202&lt;/td&gt;
&lt;/tr&gt;&lt;tr bgcolor="#E3E3F3"&gt;
&lt;th&gt;NM_LOCALIDADE&lt;/th&gt;
&lt;td&gt;Timbó&lt;/td&gt;
&lt;/tr&gt;&lt;tr bgcolor=""&gt;
&lt;th&gt;LAT_LOCALIDADE&lt;/th&gt;
&lt;td&gt;-26.8219&lt;/td&gt;
&lt;/tr&gt;&lt;tr bgcolor="#E3E3F3"&gt;
&lt;th&gt;LONG_LOCALIDADE&lt;/th&gt;
&lt;td&gt;-49.2779&lt;/td&gt;
&lt;/tr&gt;&lt;/table&gt;&lt;/center&gt;</description>
<Style>
<IconStyle>
<color>ff00aaff</color>
<scale>1.0</scale>
<Icon>
<href>http://maps.google.com/mapfiles/kml/shapes/placemark_circle.png</href>
</Icon>
</IconStyle>
<LabelStyle>
<scale>1.0</scale>
</LabelStyle>
<LineStyle>
<color>ffffffff</color>
<width>3</width>
<gx:labelVisibility>1</gx:labelVisibility>
</LineStyle>
<PolyStyle>
<color>00ffffff</color>
</PolyStyle>
</Style>
<ExtendedData>
<SchemaData schemaUrl="#kml_schema_ft_01._Cidade">
<SimpleData name="CD_UF">42</SimpleData>
<SimpleData name="NM_UF">Santa Catarina</SimpleData>
<SimpleData name="SIGLA_UF">SC</SimpleData>
<SimpleData name="CD_MUN">4218202</SimpleData>
<SimpleData name="NM_MUN">Timbó</SimpleData>
<SimpleData name="CD_RGINT">4207</SimpleData>
<SimpleData name="NM_RGINT">Blumenau</SimpleData>
<SimpleData name="CD_RGI">420019</SimpleData>
<SimpleData name="NM_RGI">Blumenau</SimpleData>
<SimpleData name="CT_LOCALIDADE">Cidade</SimpleData>
<SimpleData name="SCT_LOCALIDADE">Sede Municipal</SimpleData>
<SimpleData name="CD_LOCALIDADE">4218202</SimpleData>
<SimpleData name="NM_LOCALIDADE">Timbó</SimpleData>
<SimpleData name="LAT_LOCALIDADE">-26.8219</SimpleData>
<SimpleData name="LONG_LOCALIDADE">-49.2779</SimpleData>
</SchemaData>
</ExtendedData>
<Point>
<extrude>0</extrude>
<coordinates>-49.2779,-26.8218999992389,0.0</coordinates>
</Point>
</Placemark>
</Folder>
</Folder>
<Folder id="13. Referência">
<name>13. Referência</name>
<Placemark id="13. Referência">
<name>Timbó [4218202]</name>
<visibility>1</visibility>
<snippet> </snippet>
<description>&lt;center&gt;&lt;table&gt;&lt;tr&gt;&lt;th colspan='2' align='center'&gt;&lt;em&gt;Attributes&lt;/em&gt;&lt;/th&gt;&lt;/tr&gt;&lt;tr bgcolor="#E3E3F3"&gt;
&lt;th&gt;CD_UF&lt;/th&gt;
&lt;td&gt;42&lt;/td&gt;
&lt;/tr&gt;&lt;tr bgcolor=""&gt;
&lt;th&gt;NM_UF&lt;/th&gt;
&lt;td&gt;Santa Catarina&lt;/td&gt;
&lt;/tr&gt;&lt;tr bgcolor="#E3E3F3"&gt;
&lt;th&gt;CD_MUN&lt;/th&gt;
&lt;td&gt;4218202&lt;/td&gt;
&lt;/tr&gt;&lt;tr bgcolor=""&gt;
&lt;th&gt;NM_MUN&lt;/th&gt;
&lt;td&gt;Timbó&lt;/td&gt;
&lt;/tr&gt;&lt;tr bgcolor="#E3E3F3"&gt;
&lt;th&gt;CD_RGINT&lt;/th&gt;
&lt;td&gt;4207&lt;/td&gt;
&lt;/tr&gt;&lt;tr bgcolor=""&gt;
&lt;th&gt;NM_RGINT&lt;/th&gt;
&lt;td&gt;Blumenau&lt;/td&gt;
&lt;/tr&gt;&lt;tr bgcolor="#E3E3F3"&gt;
&lt;th&gt;CD_RGI&lt;/th&gt;
&lt;td&gt;420019&lt;/td&gt;
&lt;/tr&gt;&lt;tr bgcolor=""&gt;
&lt;th&gt;NM_RGI&lt;/th&gt;
&lt;td&gt;Blumenau&lt;/td&gt;
&lt;/tr&gt;&lt;/table&gt;&lt;/center&gt;</description>
<Style>
<IconStyle>
<scale>0.7</scale>
</IconStyle>
<LabelStyle>
<scale>0.7</scale>
</LabelStyle>
<LineStyle>
<color>ffffffff</color>
<width>3</width>
<gx:labelVisibility>1</gx:labelVisibility>
</LineStyle>
<PolyStyle>
<color>00ffffff</color>
</PolyStyle>
</Style>
<ExtendedData>
<SchemaData schemaUrl="#kml_schema_ft_Município">
<SimpleData name="CD_UF">42</SimpleData>
<SimpleData name="NM_UF">Santa Catarina</SimpleData>
<SimpleData name="CD_MUN">4218202</SimpleData>
<SimpleData name="NM_MUN">Timbó</SimpleData>
<SimpleData name="CD_RGINT">4207</SimpleData>
<SimpleData name="NM_RGINT">Blumenau</SimpleData>
<SimpleData name="CD_RGI">420019</SimpleData>
<SimpleData name="NM_RGI">Blumenau</SimpleData>
</SchemaData>
</ExtendedData>
<MultiGeometry>
<Polygon>
<extrude>0</extrude>
<tessellate>1</tessellate>
<outerBoundaryIs>
<LinearRing>
<coordinates>-49.232459,-26.8517448992383,0.0 -49.2425583,-26.8602351992381,0.0 -49.2454358,-26.8626534992381,0.0 -49.2456227,-26.8628105992381,0.0 -49.2467564,-26.8637633992381,0.0 -49.2516743,-26.867896399238,0.0 -49.2519408,-26.868120399238,0.0 -49.2531073,-26.869100699238,0.0 -49.2534062,-26.869351899238,0.0 -49.2534453,-26.869384799238,0.0 -49.2534666,-26.869402699238,0.0 -49.2542024,-26.870020999238,0.0 -49.2542274,-26.870005799238,0.0 -49.2542555,-26.869991299238,0.0 -49.2542829,-26.869979999238,0.0 -49.2543077,-26.869972899238,0.0 -49.2543316,-26.8699688992379,0.0 -49.2543643,-26.8699665992379,0.0 -49.2543981,-26.8699663992379,0.0 -49.2544317,-26.869967699238,0.0 -49.2544654,-26.869970699238,0.0 -49.2545001,-26.869976299238,0.0 -49.2545436,-26.8699859992379,0.0 -49.2545687,-26.869992399238,0.0 -49.2545849,-26.869997199238,0.0 -49.2546081,-26.870005699238,0.0 -49.2546229,-26.8700122992379,0.0 -49.2546368,-26.8700195992379,0.0 -49.2546614,-26.870034899238,0.0 -49.2546807,-26.8700498992379,0.0 -49.2546964,-26.8700658992379,0.0 -49.2547037,-26.8700746992379,0.0 -49.2547145,-26.870089899238,0.0 -49.2547346,-26.870122199238,0.0 -49.2547576,-26.870163599238,0.0 -49.2547809,-26.870209499238,0.0 -49.2548105,-26.8702709992379,0.0 -49.2548156,-26.8702835992379,0.0 -49.2548198,-26.8702962992379,0.0 -49.2548232,-26.8703097992379,0.0 -49.2548258,-26.870323999238,0.0 -49.2548278,-26.8703463992379,0.0 -49.2548276,-26.8703694992379,0.0 -49.254825,-26.8703923992379,0.0 -49.2548217,-26.8704072992379,0.0 -49.2548172,-26.8704216992379,0.0 -49.2548116,-26.8704352992379,0.0 -49.2547883,-26.8704817992379,0.0 -49.2547774,-26.8705062992379,0.0 -49.2547688,-26.8705307992379,0.0 -49.2547634,-26.8705529992379,0.0 -49.254762,-26.8705689992379,0.0 -49.2547636,-26.8705908992379,0.0 -49.2547688,-26.8706176992379,0.0 -49.2547747,-26.8706358992379,0.0 -49.2547797,-26.8706456992379,0.0 -49.254784,-26.8706520992379,0.0 -49.2547894,-26.8706582992379,0.0 -49.2547962,-26.8706643992379,0.0 -49.2548047,-26.8706702992379,0.0 -49.2548147,-26.8706758992379,0.0 -49.2548255,-26.8706808992379,0.0 -49.2548414,-26.8706869992379,0.0 -49.2548509,-26.8706897992379,0.0 -49.2548635,-26.8706923992379,0.0 -49.2548746,-26.8706936992379,0.0 -49.2548882,-26.8706943992379,0.0 -49.2549062,-26.8706942992379,0.0 -49.2549223,-26.8706933992379,0.0 -49.2549334,-26.8706919992379,0.0 -49.2549422,-26.8706894992379,0.0 -49.2549471,-26.8706872992379,0.0 -49.2549536,-26.8706825992379,0.0 -49.2549598,-26.8706761992379,0.0 -49.2549638,-26.8706708992379,0.0 -49.2549697,-26.8706609992379,0.0 -49.2549736,-26.8706528992379,0.0 -49.2549814,-26.8706325992379,0.0 -49.2550411,-26.8704361992379,0.0 -49.2550946,-26.8702446992379,0.0 -49.255122,-26.8701517992379,0.0 -49.2551358,-26.8701085992379,0.0 -49.2551499,-26.870068099238,0.0 -49.2551644,-26.8700308992379,0.0 -49.2551747,-26.870007599238,0.0 -49.2551917,-26.869973499238,0.0 -49.2552045,-26.869950399238,0.0 -49.2552186,-26.869926999238,0.0 -49.2552485,-26.869881299238,0.0 -49.255278,-26.869840499238,0.0 -49.2552923,-26.8698225992379,0.0 -49.2553063,-26.869806699238,0.0 -49.2553269,-26.869786499238,0.0 -49.2553467,-26.869770899238,0.0 -49.2553591,-26.869762699238,0.0 -49.2553707,-26.869756199238,0.0 -49.2553873,-26.869748999238,0.0 -49.2554109,-26.869742099238,0.0 -49.2554467,-26.869734699238,0.0 -49.25549,-26.869727999238,0.0 -49.2555174,-26.869725199238,0.0 -49.2555467,-26.869723699238,0.0 -49.2555917,-26.869723099238,0.0 -49.2556193,-26.869723999238,0.0 -49.2556385,-26.869725999238,0.0 -49.2556564,-26.869729499238,0.0 -49.2556732,-26.869734399238,0.0 -49.2556943,-26.869742399238,0.0 -49.2557088,-26.869749299238,0.0 -49.2557219,-26.869757099238,0.0 -49.2557329,-26.869765899238,0.0 -49.2557445,-26.869778099238,0.0 -49.2557508,-26.869786899238,0.0 -49.2557554,-26.869795699238,0.0 -49.2557598,-26.869808499238,0.0 -49.2557622,-26.869819299238,0.0 -49.2557634,-26.869830299238,0.0 -49.2557626,-26.8698408992379,0.0 -49.255761,-26.869847599238,0.0 -49.255757,-26.869857999238,0.0 -49.2557509,-26.869869399238,0.0 -49.2557426,-26.869881999238,0.0 -49.2557318,-26.869895599238,0.0 -49.2557184,-26.8699097992379,0.0 -49.255692,-26.869933699238,0.0 -49.2556433,-26.869972699238,0.0 -49.2556295,-26.8699842992379,0.0 -49.2556179,-26.869995499238,0.0 -49.2556088,-26.8700063992379,0.0 -49.2556023,-26.870017299238,0.0 -49.2555994,-26.870024499238,0.0 -49.2555977,-26.8700317992379,0.0 -49.2555973,-26.870042499238,0.0 -49.2555994,-26.870051999238,0.0 -49.2556023,-26.870057199238,0.0 -49.2556063,-26.8700613992379,0.0 -49.2556089,-26.870063199238,0.0 -49.2556154,-26.870066199238,0.0 -49.2556287,-26.870069499238,0.0 -49.2556461,-26.870071699238,0.0 -49.2556716,-26.8700733992379,0.0 -49.2557092,-26.870074399238,0.0 -49.2558387,-26.8700758992379,0.0 -49.2559048,-26.870075999238,0.0 -49.2559927,-26.8700747992379,0.0 -49.2560592,-26.870072299238,0.0 -49.2560941,-26.870069799238,0.0 -49.2561159,-26.870067499238,0.0 -49.2561331,-26.870064699238,0.0 -49.256147,-26.8700612992379,0.0 -49.2561631,-26.870055599238,0.0 -49.256177,-26.8700485992379,0.0 -49.2561886,-26.870040399238,0.0 -49.2561982,-26.870031299238,0.0 -49.2562068,-26.870021299238,0.0 -49.2562126,-26.870013099238,0.0 -49.2562179,-26.870004299238,0.0 -49.2562226,-26.869994599238,0.0 -49.2562264,-26.8699830992379,0.0 -49.2562286,-26.869973999238,0.0 -49.2562322,-26.869946399238,0.0 -49.2562333,-26.869927299238,0.0 -49.2562336,-26.869907099238,0.0 -49.2562328,-26.869886399238,0.0 -49.2562315,-26.869872599238,0.0 -49.2562297,-26.869859299238,0.0 -49.256226,-26.869840999238,0.0 -49.2562218,-26.869826099238,0.0 -49.2562172,-26.869815099238,0.0 -49.2562096,-26.869803699238,0.0 -49.2561996,-26.869793199238,0.0 -49.25619,-26.869785799238,0.0 -49.2561784,-26.869779099238,0.0 -49.2561692,-26.869774999238,0.0 -49.2561532,-26.869769299238,0.0 -49.2560978,-26.869753999238,0.0 -49.2560754,-26.869746999238,0.0 -49.2560533,-26.869738199238,0.0 -49.2560386,-26.8697307992379,0.0 -49.2560238,-26.869721799238,0.0 -49.2560092,-26.869711299238,0.0 -49.2559886,-26.869693699238,0.0 -49.2559764,-26.869681199238,0.0 -49.2559613,-26.869662399238,0.0 -49.2559532,-26.869650099238,0.0 -49.2559463,-26.869638299238,0.0 -49.2559332,-26.869611499238,0.0 -49.2559215,-26.869580799238,0.0 -49.2559133,-26.869552599238,0.0 -49.2559088,-26.869527599238,0.0 -49.2559068,-26.869502299238,0.0 -49.2559069,-26.869490599238,0.0 -49.255908,-26.869479699238,0.0 -49.2559117,-26.869464399238,0.0 -49.255916,-26.869454699238,0.0 -49.255922,-26.869444999238,0.0 -49.2559295,-26.869435399238,0.0 -49.2559385,-26.869426199238,0.0 -49.2559487,-26.869417299238,0.0 -49.2559601,-26.869408799238,0.0 -49.2559796,-26.869396699238,0.0 -49.2560107,-26.869380999238,0.0 -49.256071,-26.869354199238,0.0 -49.2560923,-26.869343699238,0.0 -49.2561162,-26.869330099238,0.0 -49.2561608,-26.869301099238,0.0 -49.2561733,-26.869294199238,0.0 -49.2561933,-26.869284899238,0.0 -49.2562137,-26.869277399238,0.0 -49.2562268,-26.869273699238,0.0 -49.2562392,-26.869271099238,0.0 -49.2562508,-26.869269299238,0.0 -49.2562668,-26.869267699238,0.0 -49.2562958,-26.869266899238,0.0 -49.2563284,-26.869268099238,0.0 -49.2563507,-26.869270299238,0.0 -49.2563655,-26.869273099238,0.0 -49.2563849,-26.869279099238,0.0 -49.2564076,-26.869288599238,0.0 -49.2564326,-26.869301499238,0.0 -49.2564506,-26.869313199238,0.0 -49.2564617,-26.869321799238,0.0 -49.2564721,-26.869330899238,0.0 -49.2564861,-26.869345199238,0.0 -49.2564943,-26.869355299238,0.0 -49.2565047,-26.869371299238,0.0 -49.2565101,-26.869382699238,0.0 -49.2565144,-26.869394699238,0.0 -49.256519,-26.869413199238,0.0 -49.2565247,-26.869452899238,0.0 -49.2565281,-26.869468599238,0.0 -49.2565345,-26.869484899238,0.0 -49.2565407,-26.869495899238,0.0 -49.2565483,-26.869506399238,0.0 -49.2565526,-26.869511299238,0.0 -49.2565621,-26.869519999238,0.0 -49.2565673,-26.869523899238,0.0 -49.2565786,-26.869530699238,0.0 -49.2565975,-26.869539399238,0.0 -49.256634,-26.869552199238,0.0 -49.2567368,-26.869584299238,0.0 -49.2567754,-26.869594999238,0.0 -49.2568386,-26.869611699238,0.0 -49.2569017,-26.869628299238,0.0 -49.2569301,-26.869636299238,0.0 -49.2569826,-26.869651199238,0.0 -49.2570235,-26.8696639992379,0.0 -49.2571025,-26.869690399238,0.0 -49.2571358,-26.869700599238,0.0 -49.2571682,-26.869709099238,0.0 -49.2571884,-26.869713499238,0.0 -49.2572487,-26.869723499238,0.0 -49.2572695,-26.869727599238,0.0 -49.2572872,-26.869731899238,0.0 -49.2573016,-26.869736199238,0.0 -49.257313,-26.869740499238,0.0 -49.2573194,-26.869743599238,0.0 -49.2573307,-26.8697510992379,0.0 -49.2573383,-26.869757899238,0.0 -49.2573449,-26.869765399238,0.0 -49.2573592,-26.869785999238,0.0 -49.257364,-26.869791699238,0.0 -49.2573722,-26.8697980992379,0.0 -49.2573797,-26.869801199238,0.0 -49.257387,-26.869802299238,0.0 -49.2573956,-26.869802199238,0.0 -49.2574053,-26.869800799238,0.0 -49.2574156,-26.8697979992379,0.0 -49.2574297,-26.8697930992379,0.0 -49.2574496,-26.869784999238,0.0 -49.2574811,-26.869769499238,0.0 -49.2574907,-26.869766199238,0.0 -49.2574981,-26.869764399238,0.0 -49.2575177,-26.869761999238,0.0 -49.2575402,-26.869761199238,0.0 -49.257547,-26.869761999238,0.0 -49.2575516,-26.869763199238,0.0 -49.2575606,-26.869767699238,0.0 -49.2575666,-26.869772599238,0.0 -49.2575698,-26.869776599238,0.0 -49.2575723,-26.869780899238,0.0 -49.2575749,-26.869788099238,0.0 -49.2575772,-26.869798299238,0.0 -49.2575783,-26.869808599238,0.0 -49.2575783,-26.869818499238,0.0 -49.2575773,-26.869825499238,0.0 -49.2575751,-26.869832499238,0.0 -49.2575714,-26.8698398992379,0.0 -49.2575402,-26.8698879992379,0.0 -49.2575316,-26.869902699238,0.0 -49.2575267,-26.869912199238,0.0 -49.2575228,-26.8699216992379,0.0 -49.2575199,-26.869931299238,0.0 -49.2575182,-26.869941199238,0.0 -49.2575176,-26.869956699238,0.0 -49.2575199,-26.869985099238,0.0 -49.2575245,-26.870015399238,0.0 -49.2575302,-26.870043099238,0.0 -49.2575366,-26.870065899238,0.0 -49.2575431,-26.8700831992379,0.0 -49.2575504,-26.8700975992379,0.0 -49.2575598,-26.870106399238,0.0 -49.2575764,-26.870111199238,0.0 -49.257587,-26.8701110992379,0.0 -49.2576039,-26.8701086992379,0.0 -49.2576174,-26.870104899238,0.0 -49.257628,-26.870099999238,0.0 -49.2576518,-26.870087699238,0.0 -49.2576666,-26.8700809992379,0.0 -49.2576878,-26.8700728992379,0.0 -49.257735,-26.870056699238,0.0 -49.257754,-26.870048799238,0.0 -49.2577687,-26.870041099238,0.0 -49.2577801,-26.8700338992379,0.0 -49.2577957,-26.870022899238,0.0 -49.2578069,-26.870013699238,0.0 -49.2578247,-26.869996299238,0.0 -49.2578418,-26.869975299238,0.0 -49.2578701,-26.869935299238,0.0 -49.2578787,-26.869921499238,0.0 -49.2578865,-26.869907299238,0.0 -49.2578927,-26.869892999238,0.0 -49.2578972,-26.869878799238,0.0 -49.2579006,-26.869864599238,0.0 -49.2579089,-26.8698228992379,0.0 -49.2579154,-26.869797799238,0.0 -49.257921,-26.869782499238,0.0 -49.2579277,-26.869770599238,0.0 -49.2579359,-26.869761699238,0.0 -49.2579424,-26.869757299238,0.0 -49.2579496,-26.869753799238,0.0 -49.2579571,-26.869751199238,0.0 -49.2579685,-26.869748399238,0.0 -49.2579798,-26.869746499238,0.0 -49.2579916,-26.869745299238,0.0 -49.2580189,-26.869744899238,0.0 -49.2580478,-26.869746599238,0.0 -49.258069,-26.8697495992379,0.0 -49.2580951,-26.869755099238,0.0 -49.2581449,-26.869768199238,0.0 -49.2582051,-26.8697866992379,0.0 -49.2582269,-26.869795199238,0.0 -49.2582378,-26.869800499238,0.0 -49.2582485,-26.869806599238,0.0 -49.258259,-26.869813699238,0.0 -49.2582692,-26.869821899238,0.0 -49.258279,-26.869831299238,0.0 -49.2582883,-26.869841799238,0.0 -49.2582972,-26.869853399238,0.0 -49.2583099,-26.869872999238,0.0 -49.2583177,-26.869887199238,0.0 -49.2583247,-26.869902199238,0.0 -49.2583334,-26.8699256992379,0.0 -49.2583395,-26.8699493992379,0.0 -49.2583435,-26.8699714992379,0.0 -49.2583468,-26.869995499238,0.0 -49.2583509,-26.8700408992379,0.0 -49.2583536,-26.8700507992379,0.0 -49.2583575,-26.870057099238,0.0 -49.2583638,-26.870061799238,0.0 -49.2583724,-26.870064699238,0.0 -49.2583857,-26.8700666992379,0.0 -49.2584026,-26.870066799238,0.0 -49.2584167,-26.8700652992379,0.0 -49.2584356,-26.870061699238,0.0 -49.2584587,-26.870055999238,0.0 -49.258476,-26.870050899238,0.0 -49.2584878,-26.870046499238,0.0 -49.2584994,-26.870040299238,0.0 -49.2585351,-26.870015199238,0.0 -49.2585487,-26.870003699238,0.0 -49.2585614,-26.8699915992379,0.0 -49.2585864,-26.8699645992379,0.0 -49.2586082,-26.8699383992379,0.0 -49.2586292,-26.8699115992379,0.0 -49.2586436,-26.869892599238,0.0 -49.2586571,-26.869873499238,0.0 -49.2586699,-26.8698532992379,0.0 -49.2586821,-26.869831799238,0.0 -49.2586934,-26.869809199238,0.0 -49.2587003,-26.8697936992379,0.0 -49.2587123,-26.869762399238,0.0 -49.2587189,-26.869739699238,0.0 -49.2587234,-26.869717799238,0.0 -49.2587265,-26.869689199238,0.0 -49.2587272,-26.869667099238,0.0 -49.258727,-26.869642599238,0.0 -49.2587235,-26.869524599238,0.0 -49.2587217,-26.869484599238,0.0 -49.2587194,-26.869456299238,0.0 -49.2587142,-26.869418799238,0.0 -49.2587068,-26.869378799238,0.0 -49.2586955,-26.869325099238,0.0 -49.2586855,-26.869280799238,0.0 -49.2586794,-26.869256899238,0.0 -49.2586718,-26.869235299238,0.0 -49.2586637,-26.869219199238,0.0 -49.2586583,-26.869211399238,0.0 -49.2586504,-26.869202499238,0.0 -49.2585844,-26.869135699238,0.0 -49.2585408,-26.869089299238,0.0 -49.258504,-26.869048199238,0.0 -49.2584652,-26.869003299238,0.0 -49.258403,-26.868928499238,0.0 -49.2583461,-26.868858699238,0.0 -49.2583331,-26.868841599238,0.0 -49.2583234,-26.868827399238,0.0 -49.2583167,-26.868815599238,0.0 -49.258312,-26.868805599238,0.0 -49.2583001,-26.868770999238,0.0 -49.2582972,-26.868758499238,0.0 -49.2582962,-26.868750399238,0.0 -49.258296,-26.868735399238,0.0 -49.2582973,-26.868719499238,0.0 -49.2582995,-26.868709299238,0.0 -49.2583023,-26.868702699238,0.0 -49.2583067,-26.868696799238,0.0 -49.2583128,-26.868691399238,0.0 -49.2583209,-26.868686099238,0.0 -49.2583339,-26.868679899238,0.0 -49.2583443,-26.868676299238,0.0 -49.2583554,-26.868673599238,0.0 -49.2583674,-26.868671799238,0.0 -49.2583856,-26.868670299238,0.0 -49.2584208,-26.868669699238,0.0 -49.2584595,-26.868670699238,0.0 -49.2584844,-26.868672899238,0.0 -49.258503,-26.868676299238,0.0 -49.258519,-26.868681399238,0.0 -49.258534,-26.868689099238,0.0 -49.2585504,-26.868700899238,0.0 -49.2585634,-26.868712799238,0.0 -49.2585756,-26.868726899238,0.0 -49.2585848,-26.868739899238,0.0 -49.2586352,-26.868821199238,0.0 -49.2586629,-26.868862699238,0.0 -49.258683,-26.868891399238,0.0 -49.258718,-26.868937199238,0.0 -49.2587834,-26.869017399238,0.0 -49.2588453,-26.869091499238,0.0 -49.2588947,-26.869147699238,0.0 -49.2589738,-26.869233399238,0.0 -49.2591106,-26.869376899238,0.0 -49.2591396,-26.869409799238,0.0 -49.259157,-26.869431699238,0.0 -49.2591722,-26.869452999238,0.0 -49.2591913,-26.869483599238,0.0 -49.2592611,-26.869608099238,0.0 -49.2592975,-26.869670099238,0.0 -49.259327,-26.869716599238,0.0 -49.2593383,-26.869732499238,0.0 -49.2593472,-26.869743799238,0.0 -49.2593573,-26.869754199238,0.0 -49.2593693,-26.869763299238,0.0 -49.2593857,-26.8697730992379,0.0 -49.2593978,-26.869777899238,0.0 -49.2594118,-26.869780099238,0.0 -49.2594406,-26.869780999238,0.0 -49.2594599,-26.869780599238,0.0 -49.2594712,-26.869778399238,0.0 -49.2594821,-26.869774499238,0.0 -49.2594918,-26.869769699238,0.0 -49.259543,-26.869739599238,0.0 -49.2595631,-26.869728499238,0.0 -49.259676,-26.869674399238,0.0 -49.2597181,-26.869652399238,0.0 -49.2597479,-26.869635399238,0.0 -49.2597783,-26.869616499238,0.0 -49.2598091,-26.869595899238,0.0 -49.2600329,-26.869439199238,0.0 -49.2601006,-26.869389499238,0.0 -49.2601703,-26.869335699238,0.0 -49.2602529,-26.869268899238,0.0 -49.2603296,-26.869204199238,0.0 -49.2603547,-26.869180799238,0.0 -49.2603679,-26.869165699238,0.0 -49.2603759,-26.869153999238,0.0 -49.2603866,-26.869136399238,0.0 -49.2603914,-26.869127699238,0.0 -49.2603948,-26.869119599238,0.0 -49.2603968,-26.869109999238,0.0 -49.2603973,-26.869095999238,0.0 -49.260396,-26.869088899238,0.0 -49.2603925,-26.869082299238,0.0 -49.2603898,-26.869079399238,0.0 -49.2603863,-26.869076999238,0.0 -49.2603797,-26.869074299238,0.0 -49.2603684,-26.869072899238,0.0 -49.2603581,-26.869073399238,0.0 -49.2603383,-26.869076999238,0.0 -49.2603254,-26.869080599238,0.0 -49.2603123,-26.869085199238,0.0 -49.2602994,-26.869090399238,0.0 -49.2602523,-26.869113499238,0.0 -49.2602177,-26.869128899238,0.0 -49.2601819,-26.869143099238,0.0 -49.2601508,-26.869153199238,0.0 -49.2601237,-26.869159799238,0.0 -49.2601113,-26.869161999238,0.0 -49.2600938,-26.869164199238,0.0 -49.2600773,-26.869165399238,0.0 -49.2600617,-26.869165699238,0.0 -49.2600282,-26.869164499238,0.0 -49.2600105,-26.869162599238,0.0 -49.2599934,-26.869159199238,0.0 -49.2599773,-26.869154199238,0.0 -49.2599629,-26.869147699238,0.0 -49.2599531,-26.869141899238,0.0 -49.2599436,-26.869135299238,0.0 -49.2599024,-26.869103999238,0.0 -49.2598869,-26.869091399238,0.0 -49.259875,-26.869080199238,0.0 -49.2598582,-26.869060899238,0.0 -49.2598493,-26.869048999238,0.0 -49.259836,-26.869029299238,0.0 -49.2598175,-26.868998299238,0.0 -49.2598096,-26.868981799238,0.0 -49.2598053,-26.868970499238,0.0 -49.2598016,-26.868958299238,0.0 -49.2597967,-26.868938099238,0.0 -49.2597899,-26.868903499238,0.0 -49.2597854,-26.868876399238,0.0 -49.2597825,-26.868854399238,0.0 -49.2597801,-26.868829699238,0.0 -49.2597788,-26.868794499238,0.0 -49.2597793,-26.868776999238,0.0 -49.2597806,-26.868760299238,0.0 -49.2597851,-26.868729599238,0.0 -49.2597894,-26.868709999238,0.0 -49.2597926,-26.868698499238,0.0 -49.2597961,-26.868687799238,0.0 -49.2598025,-26.868672899238,0.0 -49.2598105,-26.868658499238,0.0 -49.2598169,-26.868648799238,0.0 -49.2598334,-26.868628699238,0.0 -49.2598434,-26.868618499238,0.0 -49.2598542,-26.868608499238,0.0 -49.2598719,-26.868594999238,0.0 -49.2598844,-26.868587199238,0.0 -49.2598972,-26.868580499238,0.0 -49.2599101,-26.868574799238,0.0 -49.2599295,-26.868568199238,0.0 -49.2599481,-26.868563399238,0.0 -49.26,-26.868552399238,0.0 -49.2600268,-26.868547499238,0.0 -49.2600437,-26.868545099238,0.0 -49.26006,-26.868543699238,0.0 -49.2600757,-26.868543299238,0.0 -49.2600966,-26.868543799238,0.0 -49.260123,-26.868545299238,0.0 -49.2601433,-26.868547099238,0.0 -49.2601655,-26.868549799238,0.0 -49.2602146,-26.868557799238,0.0 -49.2602432,-26.868563599238,0.0 -49.2602695,-26.868570499238,0.0 -49.2602929,-26.868578399238,0.0 -49.2603223,-26.868591099238,0.0 -49.2603588,-26.868610299238,0.0 -49.2604138,-26.868643299238,0.0 -49.2604479,-26.868662899238,0.0 -49.2604811,-26.868685099238,0.0 -49.2605092,-26.868701999238,0.0 -49.2605337,-26.868714699238,0.0 -49.2605558,-26.868723999238,0.0 -49.2605769,-26.868730999238,0.0 -49.2605873,-26.868733699238,0.0 -49.2606083,-26.868737999238,0.0 -49.2606421,-26.868742199238,0.0 -49.2606937,-26.868745099238,0.0 -49.2607361,-26.868745899238,0.0 -49.2607803,-26.868745799238,0.0 -49.2608259,-26.868744599238,0.0 -49.2608732,-26.868742199238,0.0 -49.2609224,-26.868738599238,0.0 -49.2609877,-26.868732699238,0.0 -49.261078,-26.868723699238,0.0 -49.2611346,-26.868717199238,0.0 -49.2612067,-26.868706999238,0.0 -49.2612696,-26.868695499238,0.0 -49.2613341,-26.868682099238,0.0 -49.2614019,-26.868667099238,0.0 -49.2614336,-26.868659399238,0.0 -49.2614604,-26.868651599238,0.0 -49.2614762,-26.868646199238,0.0 -49.2614973,-26.868637699238,0.0 -49.2615276,-26.868622899238,0.0 -49.2615431,-26.868613499238,0.0 -49.2615522,-26.868606999238,0.0 -49.2615603,-26.868600099238,0.0 -49.2615673,-26.868592899238,0.0 -49.2615734,-26.868585499238,0.0 -49.2615786,-26.868577899238,0.0 -49.261583,-26.868570099238,0.0 -49.2615889,-26.868556999238,0.0 -49.261605,-26.868511199238,0.0 -49.2616168,-26.868471999238,0.0 -49.2616236,-26.868443199238,0.0 -49.2616287,-26.868412399238,0.0 -49.2616338,-26.868367499238,0.0 -49.2616387,-26.868309199238,0.0 -49.2616406,-26.868267499238,0.0 -49.2616412,-26.868185899238,0.0 -49.2616422,-26.868149199238,0.0 -49.2616447,-26.868102499238,0.0 -49.2616509,-26.868014999238,0.0 -49.261653,-26.867928699238,0.0 -49.2616545,-26.867902799238,0.0 -49.2616588,-26.867870199238,0.0 -49.2616619,-26.867857399238,0.0 -49.2616655,-26.867846199238,0.0 -49.2616718,-26.867832799238,0.0 -49.2616768,-26.867826199238,0.0 -49.2616826,-26.867820899238,0.0 -49.2616934,-26.867814699238,0.0 -49.2617064,-26.867809899238,0.0 -49.2617204,-26.867806199238,0.0 -49.2617619,-26.867797699238,0.0 -49.261786,-26.867790599238,0.0 -49.2618069,-26.867782199238,0.0 -49.2618237,-26.867772999238,0.0 -49.2618374,-26.867763899238,0.0 -49.2618484,-26.867755699238,0.0 -49.2618712,-26.867735699238,0.0 -49.2618952,-26.867711699238,0.0 -49.2619515,-26.867652599238,0.0 -49.2619623,-26.867642299238,0.0 -49.261974,-26.867633299238,0.0 -49.2619858,-26.867626199238,0.0 -49.2619964,-26.867621499238,0.0 -49.2620055,-26.867619199238,0.0 -49.2620118,-26.867618799238,0.0 -49.2620157,-26.867619199238,0.0 -49.262021,-26.867620699238,0.0 -49.262024,-26.867622399238,0.0 -49.2620266,-26.867624899238,0.0 -49.2620289,-26.867628299238,0.0 -49.2620319,-26.867636199238,0.0 -49.2620353,-26.867652099238,0.0 -49.2620388,-26.867676899238,0.0 -49.2620397,-26.867689999238,0.0 -49.2620404,-26.867722199238,0.0 -49.2620425,-26.867739999238,0.0 -49.2620494,-26.867773899238,0.0 -49.2620531,-26.867786599238,0.0 -49.2620563,-26.867794599238,0.0 -49.2620603,-26.867801299238,0.0 -49.2620636,-26.867805299238,0.0 -49.2620677,-26.867808799238,0.0 -49.2620726,-26.867811999238,0.0 -49.2620849,-26.867817099238,0.0 -49.2620924,-26.867819199238,0.0 -49.2621048,-26.867821599238,0.0 -49.2621213,-26.867823299238,0.0 -49.2621389,-26.867822799238,0.0 -49.2621538,-26.867819999238,0.0 -49.2621675,-26.867814899238,0.0 -49.2621881,-26.867803699238,0.0 -49.2622083,-26.867790999238,0.0 -49.2622306,-26.867775799238,0.0 -49.2622746,-26.867743599238,0.0 -49.2622952,-26.867730599238,0.0 -49.2623081,-26.867724199238,0.0 -49.2623202,-26.867719199238,0.0 -49.2623363,-26.867713899238,0.0 -49.2623501,-26.867710499238,0.0 -49.2623677,-26.867707899238,0.0 -49.2623886,-26.867706699238,0.0 -49.2624902,-26.867702899238,0.0 -49.2625315,-26.867702199238,0.0 -49.2625624,-26.867702999238,0.0 -49.2625813,-26.867704299238,0.0 -49.2625987,-26.867706399238,0.0 -49.2626217,-26.867710699238,0.0 -49.2626351,-26.867714299238,0.0 -49.2626526,-26.867720699238,0.0 -49.2626629,-26.867725699238,0.0 -49.2626774,-26.867734499238,0.0 -49.2626908,-26.867744399238,0.0 -49.2627026,-26.867754599238,0.0 -49.2627291,-26.867781799238,0.0 -49.2627383,-26.867790499238,0.0 -49.2627489,-26.867798999238,0.0 -49.2627607,-26.867806899238,0.0 -49.2627747,-26.867814199238,0.0 -49.262786,-26.867818999238,0.0 -49.2628159,-26.867829099238,0.0 -49.2628458,-26.867837199238,0.0 -49.2628698,-26.867842599238,0.0 -49.262897,-26.867847799238,0.0 -49.2629426,-26.867854899238,0.0 -49.2629746,-26.867859099238,0.0 -49.2630217,-26.867863999238,0.0 -49.2631364,-26.867872699238,0.0 -49.2631629,-26.867875599238,0.0 -49.2631913,-26.867879999238,0.0 -49.2632193,-26.867886199238,0.0 -49.2632413,-26.867893199238,0.0 -49.2632525,-26.867897799238,0.0 -49.263266,-26.867904499238,0.0 -49.2632755,-26.867910199238,0.0 -49.2632816,-26.867914699238,0.0 -49.2632904,-26.867923099238,0.0 -49.2632982,-26.867932799238,0.0 -49.2633039,-26.867942699238,0.0 -49.2633066,-26.867951799238,0.0 -49.2633066,-26.867960199238,0.0 -49.2633043,-26.867968299238,0.0 -49.2633002,-26.867976199238,0.0 -49.2632947,-26.867983799238,0.0 -49.2632879,-26.867990899238,0.0 -49.2632801,-26.867997499238,0.0 -49.2632648,-26.868006999238,0.0 -49.2632433,-26.868016399238,0.0 -49.2631923,-26.868035299238,0.0 -49.2631792,-26.868041199238,0.0 -49.2631699,-26.868046599238,0.0 -49.2631617,-26.868052999238,0.0 -49.2631551,-26.868060499238,0.0 -49.2631502,-26.868069099238,0.0 -49.2631469,-26.868078899238,0.0 -49.2631449,-26.868093399238,0.0 -49.2631449,-26.868101299238,0.0 -49.263146,-26.868113499238,0.0 -49.2631497,-26.868129799238,0.0 -49.2631525,-26.868137399238,0.0 -49.263156,-26.868144299238,0.0 -49.2631628,-26.868153699238,0.0 -49.2631683,-26.868159499238,0.0 -49.2631748,-26.868165099238,0.0 -49.2631904,-26.868175899238,0.0 -49.2632092,-26.868186299238,0.0 -49.263238,-26.868199499238,0.0 -49.2633423,-26.868240599238,0.0 -49.2634701,-26.868293699238,0.0 -49.2635059,-26.868309499238,0.0 -49.2635314,-26.868322199238,0.0 -49.2635633,-26.868339999238,0.0 -49.2635918,-26.868357599238,0.0 -49.2636498,-26.868396299238,0.0 -49.2636702,-26.868409199238,0.0 -49.2636922,-26.868421899238,0.0 -49.2637253,-26.868439099238,0.0 -49.2637848,-26.868466999238,0.0 -49.2638522,-26.868496399238,0.0 -49.2638871,-26.868509999238,0.0 -49.2639668,-26.868538699238,0.0 -49.2639842,-26.868545599238,0.0 -49.2640068,-26.868555799238,0.0 -49.2640282,-26.868566799238,0.0 -49.2640689,-26.868589199238,0.0 -49.2641552,-26.868639199238,0.0 -49.2642009,-26.868664299238,0.0 -49.2642395,-26.868684099238,0.0 -49.2642918,-26.868709799238,0.0 -49.2644179,-26.868769899238,0.0 -49.2644486,-26.868783499238,0.0 -49.2644717,-26.868792899238,0.0 -49.2644999,-26.868803199238,0.0 -49.2645792,-26.868830299238,0.0 -49.2646047,-26.868840399238,0.0 -49.2646316,-26.868852699238,0.0 -49.2646513,-26.868862499238,0.0 -49.2646839,-26.868880299238,0.0 -49.2647926,-26.868943799238,0.0 -49.2648296,-26.868964299238,0.0 -49.2648482,-26.868973699238,0.0 -49.2648667,-26.868982999238,0.0 -49.2649037,-26.868999499238,0.0 -49.2649401,-26.869013599238,0.0 -49.2649753,-26.869025199238,0.0 -49.265019,-26.869036799238,0.0 -49.2650576,-26.869044599238,0.0 -49.265105,-26.869050899238,0.0 -49.2652675,-26.869067499238,0.0 -49.2653499,-26.869074799238,0.0 -49.2653764,-26.869078699238,0.0 -49.2653903,-26.869082599238,0.0 -49.2654021,-26.869087799238,0.0 -49.2654157,-26.869095699238,0.0 -49.2654297,-26.869106299238,0.0 -49.265439,-26.869115099238,0.0 -49.2654485,-26.869125499238,0.0 -49.2654573,-26.869136799238,0.0 -49.2654624,-26.869144499238,0.0 -49.2654685,-26.869156099238,0.0 -49.2654715,-26.869163699238,0.0 -49.2654737,-26.869171199238,0.0 -49.2654755,-26.869182099238,0.0 -49.2654762,-26.869195299238,0.0 -49.2654758,-26.869209799238,0.0 -49.265474,-26.869224399238,0.0 -49.2654712,-26.869236399238,0.0 -49.2654672,-26.869246799238,0.0 -49.2654623,-26.869254899238,0.0 -49.2654556,-26.869262799238,0.0 -49.2654494,-26.869266999238,0.0 -49.265444,-26.869268699238,0.0 -49.2654381,-26.869269199238,0.0 -49.2654323,-26.869268599238,0.0 -49.2654268,-26.869267199238,0.0 -49.2653652,-26.869240499238,0.0 -49.2653504,-26.869234699238,0.0 -49.2653405,-26.869231999238,0.0 -49.2653208,-26.869230699238,0.0 -49.2652679,-26.869230199238,0.0 -49.2652295,-26.869230799238,0.0 -49.2652,-26.869232199238,0.0 -49.2651717,-26.869234999238,0.0 -49.2651458,-26.869238699238,0.0 -49.2651245,-26.869242899238,0.0 -49.2651001,-26.869249699238,0.0 -49.2650691,-26.869260799238,0.0 -49.2650304,-26.869277199238,0.0 -49.2650095,-26.869288099238,0.0 -49.265002,-26.869293199238,0.0 -49.2649956,-26.869298599238,0.0 -49.2649845,-26.869310799238,0.0 -49.2649797,-26.869317599238,0.0 -49.2649736,-26.869328299238,0.0 -49.2649662,-26.869346599238,0.0 -49.2649633,-26.869356799238,0.0 -49.2649614,-26.869366499238,0.0 -49.2649601,-26.869380899238,0.0 -49.2649604,-26.869400999238,0.0 -49.2649632,-26.869435399238,0.0 -49.2649667,-26.869461899238,0.0 -49.2649681,-26.869488099238,0.0 -49.264964,-26.869492799238,0.0 -49.2649562,-26.869499699238,0.0 -49.264949,-26.869504199238,0.0 -49.2649423,-26.869506899238,0.0 -49.2649296,-26.869509699238,0.0 -49.2649025,-26.869512999238,0.0 -49.2648748,-26.869517299238,0.0 -49.2648619,-26.869520199238,0.0 -49.2648546,-26.869523099238,0.0 -49.2648499,-26.869525899238,0.0 -49.264843,-26.869531399238,0.0 -49.2648348,-26.869540599238,0.0 -49.2648287,-26.869550999238,0.0 -49.2648218,-26.869566899238,0.0 -49.2648173,-26.869579499238,0.0 -49.2648156,-26.869589499238,0.0 -49.2648153,-26.869609299238,0.0 -49.2648168,-26.869618699238,0.0 -49.2648187,-26.869623299238,0.0 -49.2648214,-26.869627799238,0.0 -49.2648292,-26.869636499238,0.0 -49.2648397,-26.869644999238,0.0 -49.2648519,-26.869652599238,0.0 -49.2648648,-26.869658299238,0.0 -49.2648749,-26.869661199238,0.0 -49.264899,-26.869663799238,0.0 -49.2649085,-26.869664199238,0.0 -49.2649318,-26.869663699238,0.0 -49.2649544,-26.869661599238,0.0 -49.2649672,-26.869658899238,0.0 -49.264982,-26.869653799238,0.0 -49.2649992,-26.869645699238,0.0 -49.2650165,-26.869635499238,0.0 -49.2650295,-26.869626399238,0.0 -49.2650563,-26.869604799238,0.0 -49.2650751,-26.869591099238,0.0 -49.2651016,-26.869574199238,0.0 -49.2651414,-26.869551199238,0.0 -49.2652061,-26.869516499238,0.0 -49.2653378,-26.869448399238,0.0 -49.2653592,-26.869438599238,0.0 -49.2653773,-26.869432999238,0.0 -49.2653878,-26.869430999238,0.0 -49.2654017,-26.869429399238,0.0 -49.2654383,-26.869427499238,0.0 -49.2654759,-26.869427099238,0.0 -49.2655458,-26.869428299238,0.0 -49.2655841,-26.869427199238,0.0 -49.2657103,-26.869418799238,0.0 -49.2657879,-26.869411899238,0.0 -49.2658019,-26.869411899238,0.0 -49.2658163,-26.869412799238,0.0 -49.2658301,-26.869414399238,0.0 -49.2658408,-26.869416599238,0.0 -49.2658484,-26.869418899238,0.0 -49.2658615,-26.869424199238,0.0 -49.2659109,-26.869448399238,0.0 -49.2659561,-26.869471799238,0.0 -49.2659877,-26.869490399238,0.0 -49.2660071,-26.869504499238,0.0 -49.2660177,-26.869514699238,0.0 -49.2660228,-26.869521199238,0.0 -49.2660263,-26.869527399238,0.0 -49.2660283,-26.869533399238,0.0 -49.2660291,-26.869539199238,0.0 -49.266029,-26.869547999238,0.0 -49.2660274,-26.869559899238,0.0 -49.2660247,-26.869568999238,0.0 -49.2660219,-26.869574899238,0.0 -49.2660183,-26.869580799238,0.0 -49.2660115,-26.869589799238,0.0 -49.265979,-26.869627599238,0.0 -49.2659694,-26.869640299238,0.0 -49.2659627,-26.869650499238,0.0 -49.2659555,-26.869662499238,0.0 -49.2659433,-26.869685099238,0.0 -49.2659132,-26.869746899238,0.0 -49.2658716,-26.869837799238,0.0 -49.2658467,-26.869897399238,0.0 -49.2658354,-26.869927399238,0.0 -49.2658297,-26.869944599238,0.0 -49.2658253,-26.869959799238,0.0 -49.2658206,-26.869979899238,0.0 -49.2658176,-26.869998099238,0.0 -49.2658158,-26.870015799238,0.0 -49.2658144,-26.870040599238,0.0 -49.2658141,-26.8700608992379,0.0 -49.2658147,-26.8700748992379,0.0 -49.2658164,-26.870088899238,0.0 -49.2658196,-26.8701025992379,0.0 -49.2658242,-26.870115899238,0.0 -49.2658304,-26.870128599238,0.0 -49.2658384,-26.8701405992379,0.0 -49.2658431,-26.8701463992379,0.0 -49.2658536,-26.870157199238,0.0 -49.2658655,-26.870167199238,0.0 -49.2658783,-26.8701764992379,0.0 -49.2658917,-26.8701850992379,0.0 -49.2659057,-26.870193099238,0.0 -49.265978,-26.8702298992379,0.0 -49.2660207,-26.8702500992379,0.0 -49.2660522,-26.8702628992379,0.0 -49.2660676,-26.8702679992379,0.0 -49.2660831,-26.8702723992379,0.0 -49.2661065,-26.8702772992379,0.0 -49.266122,-26.8702793992379,0.0 -49.2661373,-26.8702806992379,0.0 -49.2661522,-26.8702808992379,0.0 -49.2661663,-26.8702800992379,0.0 -49.2661794,-26.8702780992379,0.0 -49.266191,-26.8702750992379,0.0 -49.266201,-26.870270799238,0.0 -49.2662094,-26.8702655992379,0.0 -49.2662168,-26.8702595992379,0.0 -49.2662291,-26.8702459992379,0.0 -49.266239,-26.870230999238,0.0 -49.2662464,-26.8702141992379,0.0 -49.2662521,-26.8701943992379,0.0 -49.2662606,-26.8701545992379,0.0 -49.2662664,-26.870123699238,0.0 -49.266275,-26.870071999238,0.0 -49.2662801,-26.870046299238,0.0 -49.2662862,-26.8700239992379,0.0 -49.2662935,-26.870005099238,0.0 -49.2662978,-26.8699969992379,0.0 -49.2663025,-26.869990199238,0.0 -49.2663076,-26.869984499238,0.0 -49.2663132,-26.869980199238,0.0 -49.2663192,-26.8699769992379,0.0 -49.2663256,-26.869974899238,0.0 -49.2663323,-26.869973799238,0.0 -49.2663426,-26.869973799238,0.0 -49.2663523,-26.869975199238,0.0 -49.2663631,-26.869978699238,0.0 -49.2663708,-26.8699826992379,0.0 -49.2664009,-26.870000799238,0.0 -49.2664109,-26.870005599238,0.0 -49.2664218,-26.8700098992379,0.0 -49.2664395,-26.870015599238,0.0 -49.2665109,-26.870036499238,0.0 -49.2666504,-26.8700703992379,0.0 -49.2667062,-26.870084499238,0.0 -49.2667576,-26.8700982992379,0.0 -49.2668652,-26.870128699238,0.0 -49.2669456,-26.8701494992379,0.0 -49.2670325,-26.8701704992379,0.0 -49.2672134,-26.8702114992379,0.0 -49.267259,-26.8702229992379,0.0 -49.2673102,-26.870237699238,0.0 -49.2673585,-26.8702532992379,0.0 -49.2673941,-26.8702657992379,0.0 -49.2674263,-26.8702779992379,0.0 -49.2674528,-26.8702893992379,0.0 -49.267475,-26.870300399238,0.0 -49.2674948,-26.8703118992379,0.0 -49.26752,-26.8703287992379,0.0 -49.2675391,-26.8703433992379,0.0 -49.2675588,-26.8703599992379,0.0 -49.2675859,-26.8703847992379,0.0 -49.2676137,-26.8704120992379,0.0 -49.2676349,-26.8704346992379,0.0 -49.2676566,-26.8704600992379,0.0 -49.2677109,-26.8705273992379,0.0 -49.2677601,-26.8705820992379,0.0 -49.2677736,-26.8705982992379,0.0 -49.2677843,-26.8706129992379,0.0 -49.2677887,-26.8706199992379,0.0 -49.2677959,-26.8706336992379,0.0 -49.2678037,-26.8706543992379,0.0 -49.2678091,-26.8706769992379,0.0 -49.2678124,-26.8707020992379,0.0 -49.2678133,-26.8707204992379,0.0 -49.2678131,-26.8707401992379,0.0 -49.2678122,-26.8707610992379,0.0 -49.2678054,-26.8708415992379,0.0 -49.2677998,-26.8709145992379,0.0 -49.2677999,-26.8709316992379,0.0 -49.2678016,-26.8709474992379,0.0 -49.2678055,-26.8709629992379,0.0 -49.2678123,-26.8709784992379,0.0 -49.2678187,-26.8709890992379,0.0 -49.2678312,-26.8710046992379,0.0 -49.2678413,-26.8710145992379,0.0 -49.2678527,-26.8710236992379,0.0 -49.2678718,-26.8710358992379,0.0 -49.2678855,-26.8710431992379,0.0 -49.2679068,-26.8710533992379,0.0 -49.2680039,-26.8710951992379,0.0 -49.2680247,-26.8711046992379,0.0 -49.2680434,-26.8711141992379,0.0 -49.2680613,-26.8711242992379,0.0 -49.2680793,-26.8711357992379,0.0 -49.2680976,-26.8711489992379,0.0 -49.2681158,-26.8711638992379,0.0 -49.2681392,-26.8711865992379,0.0 -49.2681566,-26.8712062992379,0.0 -49.2681744,-26.8712288992379,0.0 -49.2681923,-26.8712551992379,0.0 -49.2682036,-26.8712750992379,0.0 -49.2682143,-26.8712970992379,0.0 -49.2682241,-26.8713208992379,0.0 -49.2682369,-26.8713581992379,0.0 -49.2682474,-26.8713948992379,0.0 -49.2682664,-26.8714707992379,0.0 -49.2682746,-26.8714987992379,0.0 -49.2682922,-26.8715534992379,0.0 -49.2682987,-26.8715802992379,0.0 -49.2683014,-26.8716004992379,0.0 -49.2683019,-26.8716285992379,0.0 -49.2682995,-26.8716622992379,0.0 -49.2682958,-26.8716856992379,0.0 -49.2682916,-26.8717004992379,0.0 -49.2682879,-26.8717091992379,0.0 -49.2682834,-26.8717171992379,0.0 -49.2682747,-26.8717289992379,0.0 -49.2682546,-26.8717497992379,0.0 -49.2681907,-26.8718087992379,0.0 -49.2681553,-26.8718451992379,0.0 -49.2681301,-26.8718731992379,0.0 -49.2681123,-26.8718946992379,0.0 -49.2680978,-26.8719143992379,0.0 -49.2680904,-26.8719261992379,0.0 -49.2680823,-26.8719425992379,0.0 -49.2680783,-26.8719533992379,0.0 -49.2680752,-26.8719643992379,0.0 -49.268071,-26.8719861992379,0.0 -49.2680692,-26.8720060992379,0.0 -49.2680697,-26.8720240992379,0.0 -49.2680718,-26.8720375992379,0.0 -49.2680759,-26.8720519992379,0.0 -49.2680828,-26.8720671992379,0.0 -49.2680932,-26.8720828992379,0.0 -49.2681067,-26.8720984992379,0.0 -49.2681168,-26.8721084992379,0.0 -49.2681274,-26.8721177992379,0.0 -49.2681445,-26.8721304992379,0.0 -49.2681637,-26.8721421992379,0.0 -49.2681862,-26.8721535992379,0.0 -49.2682109,-26.8721642992379,0.0 -49.2682353,-26.8721733992379,0.0 -49.2682507,-26.8721781992379,0.0 -49.2682664,-26.8721822992379,0.0 -49.268284,-26.8721857992379,0.0 -49.2683051,-26.8721891992379,0.0 -49.2683592,-26.8721960992379,0.0 -49.2684993,-26.8722121992379,0.0 -49.2685333,-26.8722166992379,0.0 -49.2685539,-26.8722200992379,0.0 -49.2685812,-26.8722263992379,0.0 -49.268597,-26.8722317992379,0.0 -49.2686108,-26.8722384992379,0.0 -49.2686224,-26.8722460992379,0.0 -49.2686274,-26.8722500992379,0.0 -49.2686359,-26.8722581992379,0.0 -49.2686445,-26.8722698992379,0.0 -49.2686492,-26.8722812992379,0.0 -49.268651,-26.8722892992379,0.0 -49.2686528,-26.8723024992379,0.0 -49.2686537,-26.8723177992379,0.0 -49.2686531,-26.8723351992379,0.0 -49.268645,-26.8723985992379,0.0 -49.2686422,-26.8724341992379,0.0 -49.2686421,-26.8724557992379,0.0 -49.2686429,-26.8724638992379,0.0 -49.2686451,-26.8724740992379,0.0 -49.2686504,-26.8724870992379,0.0 -49.2686564,-26.8724974992379,0.0 -49.2686645,-26.8725087992379,0.0 -49.2686752,-26.8725211992379,0.0 -49.2686886,-26.8725341992379,0.0 -49.2686991,-26.8725428992379,0.0 -49.2687234,-26.8725597992379,0.0 -49.2687433,-26.8725715992379,0.0 -49.268757,-26.8725786992379,0.0 -49.2687802,-26.8725892992379,0.0 -49.268799,-26.8725969992379,0.0 -49.2689813,-26.8726634992379,0.0 -49.2690427,-26.8726832992379,0.0 -49.2690625,-26.8726888992379,0.0 -49.2691088,-26.8726991992379,0.0 -49.2691439,-26.8727054992379,0.0 -49.2691633,-26.8727082992379,0.0 -49.26918,-26.8727099992379,0.0 -49.2691971,-26.8727106992379,0.0 -49.2692235,-26.8727094992379,0.0 -49.2692483,-26.8727061992379,0.0 -49.2692772,-26.8727007992379,0.0 -49.2693088,-26.8726933992379,0.0 -49.2693423,-26.8726841992379,0.0 -49.2694581,-26.8726504992379,0.0 -49.2696347,-26.8726007992379,0.0 -49.2697581,-26.8725640992379,0.0 -49.2697876,-26.8725561992379,0.0 -49.2698007,-26.8725535992379,0.0 -49.269813,-26.8725520992379,0.0 -49.2698246,-26.8725513992379,0.0 -49.269836,-26.8725515992379,0.0 -49.2698653,-26.8725540992379,0.0 -49.2698838,-26.8725571992379,0.0 -49.2698962,-26.8725600992379,0.0 -49.2699149,-26.8725658992379,0.0 -49.2699271,-26.8725707992379,0.0 -49.2699392,-26.8725763992379,0.0 -49.2699508,-26.8725828992379,0.0 -49.2699672,-26.8725938992379,0.0 -49.2699771,-26.8726019992379,0.0 -49.2699857,-26.8726105992379,0.0 -49.269993,-26.8726195992379,0.0 -49.2699991,-26.8726289992379,0.0 -49.2700045,-26.8726387992379,0.0 -49.2700192,-26.8726707992379,0.0 -49.2700375,-26.8727165992379,0.0 -49.2700602,-26.8727798992379,0.0 -49.2700742,-26.8728112992379,0.0 -49.2700874,-26.8728361992379,0.0 -49.2700967,-26.8728515992379,0.0 -49.2701059,-26.8728649992379,0.0 -49.2701192,-26.8728809992379,0.0 -49.2701323,-26.8728935992379,0.0 -49.2701502,-26.8729080992379,0.0 -49.2701684,-26.8729205992379,0.0 -49.2701822,-26.8729284992379,0.0 -49.2702008,-26.8729370992379,0.0 -49.2702199,-26.8729438992379,0.0 -49.270235,-26.8729478992379,0.0 -49.2702512,-26.8729504992379,0.0 -49.2702687,-26.8729517992379,0.0 -49.2702919,-26.8729518992379,0.0 -49.270312,-26.8729509992379,0.0 -49.2703324,-26.8729490992379,0.0 -49.2703489,-26.8729460992379,0.0 -49.2703592,-26.8729429992379,0.0 -49.2703667,-26.8729385992379,0.0 -49.270371,-26.8729340992379,0.0 -49.2703744,-26.8729279992379,0.0 -49.270377,-26.8729206992379,0.0 -49.2703801,-26.8729031992379,0.0 -49.2703833,-26.8728527992379,0.0 -49.2703857,-26.8727674992379,0.0 -49.2703881,-26.8727457992379,0.0 -49.2703906,-26.8727336992379,0.0 -49.2703938,-26.8727231992379,0.0 -49.2703975,-26.8727141992379,0.0 -49.270404,-26.8727026992379,0.0 -49.2704112,-26.8726932992379,0.0 -49.2704235,-26.8726806992379,0.0 -49.2704333,-26.8726731992379,0.0 -49.2704409,-26.8726693992379,0.0 -49.2704487,-26.8726668992379,0.0 -49.2704597,-26.8726650992379,0.0 -49.2704795,-26.8726642992379,0.0 -49.2704963,-26.8726648992379,0.0 -49.2705076,-26.8726670992379,0.0 -49.2705169,-26.8726708992379,0.0 -49.2705265,-26.8726770992379,0.0 -49.2705395,-26.8726882992379,0.0 -49.2705507,-26.8726996992379,0.0 -49.2705752,-26.8727274992379,0.0 -49.2705862,-26.8727370992379,0.0 -49.2705944,-26.8727424992379,0.0 -49.2706036,-26.8727468992379,0.0 -49.2706138,-26.8727503992379,0.0 -49.2706314,-26.8727543992379,0.0 -49.2706513,-26.8727568992379,0.0 -49.2706787,-26.8727584992379,0.0 -49.2707049,-26.8727584992379,0.0 -49.2707379,-26.8727565992379,0.0 -49.2707668,-26.8727534992379,0.0 -49.2707904,-26.8727499992379,0.0 -49.2708801,-26.8727323992379,0.0 -49.270901,-26.8727304992379,0.0 -49.2709162,-26.8727310992379,0.0 -49.2709325,-26.8727331992379,0.0 -49.2709586,-26.8727379992379,0.0 -49.2710068,-26.8727482992379,0.0 -49.271028,-26.8727544992379,0.0 -49.2710919,-26.8727761992379,0.0 -49.2711095,-26.8727813992379,0.0 -49.271136,-26.8727880992379,0.0 -49.2711619,-26.8727932992379,0.0 -49.2711864,-26.8727970992379,0.0 -49.2712098,-26.8727999992379,0.0 -49.2712777,-26.8728068992379,0.0 -49.271305,-26.8728108992379,0.0 -49.2713305,-26.8728167992379,0.0 -49.271346,-26.8728217992379,0.0 -49.2713667,-26.8728309992379,0.0 -49.2713731,-26.8728341992379,0.0 -49.2713846,-26.8728414992379,0.0 -49.2713947,-26.8728491992379,0.0 -49.2714035,-26.8728572992379,0.0 -49.2714109,-26.8728656992379,0.0 -49.271417,-26.8728742992379,0.0 -49.2714222,-26.8728831992379,0.0 -49.2714264,-26.8728924992379,0.0 -49.2714302,-26.8729023992379,0.0 -49.2714351,-26.8729185992379,0.0 -49.2714542,-26.8729918992379,0.0 -49.2714723,-26.8730501992379,0.0 -49.2715013,-26.8731363992379,0.0 -49.2715418,-26.8732495992379,0.0 -49.2715501,-26.8732751992379,0.0 -49.2715541,-26.8732912992379,0.0 -49.2715568,-26.8733074992379,0.0 -49.2715584,-26.8733245992379,0.0 -49.2715593,-26.8733438992379,0.0 -49.2715611,-26.8734223992379,0.0 -49.2715615,-26.8734695992379,0.0 -49.2715609,-26.8735164992379,0.0 -49.2715584,-26.8736164992379,0.0 -49.2715586,-26.8736545992379,0.0 -49.2715597,-26.8736785992379,0.0 -49.2715618,-26.8737017992379,0.0 -49.2715671,-26.8737354992379,0.0 -49.2715773,-26.8737803992379,0.0 -49.2716095,-26.8738999992379,0.0 -49.2716237,-26.8739563992379,0.0 -49.2716423,-26.8740366992379,0.0 -49.2716584,-26.8741108992379,0.0 -49.2716818,-26.8741699992379,0.0 -49.2716956,-26.8742010992379,0.0 -49.2717045,-26.8742188992379,0.0 -49.2717147,-26.8742355992379,0.0 -49.2717295,-26.8742559992379,0.0 -49.271741,-26.8742689992379,0.0 -49.2717528,-26.8742790992379,0.0 -49.2717632,-26.8742859992379,0.0 -49.271775,-26.8742926992379,0.0 -49.2717915,-26.8743010992379,0.0 -49.2718085,-26.8743086992379,0.0 -49.2718316,-26.8743167992379,0.0 -49.2718527,-26.8743213992379,0.0 -49.2718643,-26.8743225992379,0.0 -49.2718765,-26.8743229992379,0.0 -49.271889,-26.8743224992379,0.0 -49.2719076,-26.8743206992379,0.0 -49.2719194,-26.8743187992379,0.0 -49.2719358,-26.8743152992379,0.0 -49.2719506,-26.8743110992379,0.0 -49.271964,-26.8743062992379,0.0 -49.2719884,-26.8742958992379,0.0 -49.2719936,-26.8742914992379,0.0 -49.2720027,-26.8742852992379,0.0 -49.2720224,-26.8742688992379,0.0 -49.2720501,-26.8742421992379,0.0 -49.2720594,-26.8742348992379,0.0 -49.2720663,-26.8742303992379,0.0 -49.2720875,-26.8742194992379,0.0 -49.2721438,-26.8741945992379,0.0 -49.2721712,-26.8741805992379,0.0 -49.2721945,-26.8741666992379,0.0 -49.2722191,-26.8741486992379,0.0 -49.2722439,-26.8741276992379,0.0 -49.2722747,-26.8740983992379,0.0 -49.2723054,-26.8740648992379,0.0 -49.2723429,-26.8740201992379,0.0 -49.2723532,-26.8740086992379,0.0 -49.2723899,-26.8739717992379,0.0 -49.2723949,-26.8739673992379,0.0 -49.2724004,-26.8739636992379,0.0 -49.2724191,-26.8739548992379,0.0 -49.2724391,-26.8739480992379,0.0 -49.2724528,-26.8739452992379,0.0 -49.2724735,-26.8739433992379,0.0 -49.2724964,-26.8739432992379,0.0 -49.2725133,-26.8739448992379,0.0 -49.2725375,-26.8739492992379,0.0 -49.2725689,-26.8739570992379,0.0 -49.27259,-26.8739636992379,0.0 -49.2726195,-26.8739746992379,0.0 -49.2726601,-26.8739911992379,0.0 -49.2726955,-26.8740065992379,0.0 -49.2727227,-26.8740194992379,0.0 -49.2727406,-26.8740286992379,0.0 -49.2727656,-26.8740426992379,0.0 -49.2727803,-26.8740518992379,0.0 -49.2727983,-26.8740650992379,0.0 -49.2728128,-26.8740780992379,0.0 -49.2728252,-26.8740916992379,0.0 -49.272853,-26.8741257992379,0.0 -49.2728662,-26.8741400992379,0.0 -49.2728759,-26.8741494992379,0.0 -49.2728983,-26.8741685992379,0.0 -49.272956,-26.8742130992379,0.0 -49.2729728,-26.8742275992379,0.0 -49.2729827,-26.8742371992379,0.0 -49.2729953,-26.8742513992379,0.0 -49.2730055,-26.8742654992379,0.0 -49.2730185,-26.8742877992379,0.0 -49.2730259,-26.8743044992379,0.0 -49.2730297,-26.8743165992379,0.0 -49.2730323,-26.8743288992379,0.0 -49.2730409,-26.8744050992379,0.0 -49.2730445,-26.8744256992379,0.0 -49.2730479,-26.8744355992379,0.0 -49.2730544,-26.8744475992379,0.0 -49.2730632,-26.8744595992379,0.0 -49.2730733,-26.8744695992379,0.0 -49.273081,-26.8744752992379,0.0 -49.2730936,-26.8744824992379,0.0 -49.2731685,-26.8745187992379,0.0 -49.2732126,-26.8745413992379,0.0 -49.2732992,-26.8745901992379,0.0 -49.2733305,-26.8746097992379,0.0 -49.2733767,-26.8746421992379,0.0 -49.2734209,-26.8746715992379,0.0 -49.2734467,-26.8746894992379,0.0 -49.2734579,-26.8746962992379,0.0 -49.2734649,-26.8746997992379,0.0 -49.2734748,-26.8747034992379,0.0 -49.2734841,-26.8747054992379,0.0 -49.2734957,-26.8747059992379,0.0 -49.2735063,-26.8747044992379,0.0 -49.2735135,-26.8747024992379,0.0 -49.2735201,-26.8746996992379,0.0 -49.2735369,-26.8746889992379,0.0 -49.2735451,-26.8746846992379,0.0 -49.2735551,-26.8746806992379,0.0 -49.2735666,-26.8746770992379,0.0 -49.2735793,-26.8746741992379,0.0 -49.273597,-26.8746710992379,0.0 -49.2736616,-26.8746622992379,0.0 -49.2736761,-26.8746584992379,0.0 -49.2736855,-26.8746546992379,0.0 -49.2736906,-26.8746513992379,0.0 -49.273696,-26.8746461992379,0.0 -49.2737007,-26.8746399992379,0.0 -49.273706,-26.8746314992379,0.0 -49.2737134,-26.8746162992379,0.0 -49.2737276,-26.8745791992379,0.0 -49.2737323,-26.8745703992379,0.0 -49.2737383,-26.8745611992379,0.0 -49.2737433,-26.8745550992379,0.0 -49.2737491,-26.8745502992379,0.0 -49.273756,-26.8745469992379,0.0 -49.2737634,-26.8745448992379,0.0 -49.2737712,-26.8745434992379,0.0 -49.2737808,-26.8745428992379,0.0 -49.2738126,-26.8745435992379,0.0 -49.273844,-26.8745460992379,0.0 -49.2738696,-26.8745498992379,0.0 -49.2738922,-26.8745558992379,0.0 -49.2739158,-26.8745636992379,0.0 -49.2739307,-26.8745703992379,0.0 -49.2739522,-26.8745817992379,0.0 -49.2739702,-26.8745943992379,0.0 -49.2739755,-26.8745984992379,0.0 -49.273987,-26.8746085992379,0.0 -49.2739988,-26.8746204992379,0.0 -49.2740146,-26.8746387992379,0.0 -49.2740351,-26.8746640992379,0.0 -49.2740601,-26.8746970992379,0.0 -49.2740762,-26.8747217992379,0.0 -49.2740936,-26.8747517992378,0.0 -49.2741773,-26.8749042992379,0.0 -49.2741919,-26.8749279992379,0.0 -49.2742104,-26.8749540992379,0.0 -49.2742251,-26.8749718992379,0.0 -49.274235,-26.8749807992379,0.0 -49.2742497,-26.8749908992379,0.0 -49.2742719,-26.8750032992379,0.0 -49.27431,-26.8750177992379,0.0 -49.2743559,-26.8750405992379,0.0 -49.2743985,-26.8750661992379,0.0 -49.2744229,-26.8750857992379,0.0 -49.274448,-26.8751116992379,0.0 -49.2744889,-26.8751429992378,0.0 -49.2745205,-26.8751676992378,0.0 -49.274552,-26.8751930992379,0.0 -49.2745946,-26.8752264992378,0.0 -49.2746298,-26.8752493992379,0.0 -49.2746618,-26.8752638992379,0.0 -49.2746851,-26.8752671992378,0.0 -49.2747406,-26.8752733992378,0.0 -49.2747993,-26.8752757992379,0.0 -49.2748444,-26.8752790992379,0.0 -49.2748796,-26.8752868992378,0.0 -49.2749112,-26.8753073992378,0.0 -49.2749464,-26.8753501992378,0.0 -49.2749719,-26.8753756992378,0.0 -49.2750105,-26.8754181992378,0.0 -49.2750489,-26.8754588992379,0.0 -49.2750805,-26.8754834992379,0.0 -49.275122,-26.8755197992378,0.0 -49.2751612,-26.8755525992378,0.0 -49.2751898,-26.8755842992378,0.0 -49.2752162,-26.8756274992378,0.0 -49.2752306,-26.8756698992378,0.0 -49.2752328,-26.8757081992378,0.0 -49.2752312,-26.8757515992378,0.0 -49.2752182,-26.8758016992378,0.0 -49.2752014,-26.8758352992378,0.0 -49.2751684,-26.8758871992378,0.0 -49.2751353,-26.8759234992378,0.0 -49.2751022,-26.8759609992378,0.0 -49.2750688,-26.8759999992378,0.0 -49.2750526,-26.8760292992378,0.0 -49.2750506,-26.8760611992378,0.0 -49.275062,-26.8760929992378,0.0 -49.2750803,-26.8761239992378,0.0 -49.2750998,-26.8761554992378,0.0 -49.2751244,-26.8761904992378,0.0 -49.2751531,-26.8762282992378,0.0 -49.2751808,-26.8762613992378,0.0 -49.2752119,-26.8762961992378,0.0 -49.2752518,-26.8763376992378,0.0 -49.2752951,-26.8763800992378,0.0 -49.2753299,-26.8764093992378,0.0 -49.2753694,-26.8764435992378,0.0 -49.2754052,-26.8764706992378,0.0 -49.2754427,-26.8765038992378,0.0 -49.2754804,-26.8765340992378,0.0 -49.2755239,-26.8765601992378,0.0 -49.2755806,-26.8765837992378,0.0 -49.2756344,-26.8766020992378,0.0 -49.2756986,-26.8766232992378,0.0 -49.2757243,-26.8766376992378,0.0 -49.2757778,-26.8766682992378,0.0 -49.2758176,-26.8766921992378,0.0 -49.2758398,-26.8767098992378,0.0 -49.2758601,-26.8767301992378,0.0 -49.2758754,-26.8767520992378,0.0 -49.2758922,-26.8767707992378,0.0 -49.275907,-26.8767889992378,0.0 -49.2759219,-26.8768066992378,0.0 -49.27593,-26.8768199992378,0.0 -49.2759404,-26.8768333992378,0.0 -49.2759515,-26.8768512992378,0.0 -49.2759537,-26.8768548992378,0.0 -49.275971,-26.8768786992378,0.0 -49.2759881,-26.8768993992378,0.0 -49.27601,-26.8769262992378,0.0 -49.276039,-26.8769465992378,0.0 -49.2760674,-26.8769563992378,0.0 -49.2761051,-26.8769610992378,0.0 -49.2761628,-26.8769713992378,0.0 -49.2762232,-26.8769842992378,0.0 -49.2763392,-26.8769995992378,0.0 -49.2764143,-26.8770141992378,0.0 -49.2764863,-26.8770238992378,0.0 -49.2765514,-26.8770348992378,0.0 -49.2765917,-26.8770395992378,0.0 -49.276638,-26.8770466992378,0.0 -49.2766844,-26.8770547992378,0.0 -49.2767345,-26.8770625992378,0.0 -49.2768343,-26.8770812992378,0.0 -49.2768729,-26.8770913992378,0.0 -49.2769325,-26.8771124992378,0.0 -49.2769671,-26.8771307992378,0.0 -49.2770162,-26.8771566992378,0.0 -49.2770662,-26.8771834992378,0.0 -49.2771244,-26.8772163992378,0.0 -49.2771566,-26.8772350992378,0.0 -49.2772005,-26.8772592992378,0.0 -49.277241,-26.8772823992378,0.0 -49.2773059,-26.8773109992378,0.0 -49.2773756,-26.8773396992378,0.0 -49.2774221,-26.8773599992378,0.0 -49.2774882,-26.8773869992378,0.0 -49.2775352,-26.8774050992378,0.0 -49.2775639,-26.8774205992378,0.0 -49.277606,-26.8774393992378,0.0 -49.2776405,-26.8774595992378,0.0 -49.2776785,-26.8774826992378,0.0 -49.2777142,-26.8775029992378,0.0 -49.2777579,-26.8775249992378,0.0 -49.2778002,-26.8775478992378,0.0 -49.2778351,-26.8775639992378,0.0 -49.2778648,-26.8775779992378,0.0 -49.2778969,-26.8775954992378,0.0 -49.2779407,-26.8776134992378,0.0 -49.2779813,-26.8776330992378,0.0 -49.2780297,-26.8776521992378,0.0 -49.2780895,-26.8776746992378,0.0 -49.2781397,-26.8777001992378,0.0 -49.2781862,-26.8777246992378,0.0 -49.2782278,-26.8777614992378,0.0 -49.278246,-26.8777912992378,0.0 -49.2782725,-26.8778250992378,0.0 -49.278299,-26.8778507992378,0.0 -49.2783456,-26.8778789992378,0.0 -49.2784056,-26.8779046992378,0.0 -49.2784439,-26.8779185992378,0.0 -49.2785062,-26.8779348992378,0.0 -49.2785617,-26.8779449992378,0.0 -49.278597,-26.8779496992378,0.0 -49.2786434,-26.8779584992378,0.0 -49.2786802,-26.8779678992378,0.0 -49.2787171,-26.8779983992378,0.0 -49.2787365,-26.8780371992378,0.0 -49.2787552,-26.8780765992378,0.0 -49.2787712,-26.8781071992378,0.0 -49.2787933,-26.8781447992378,0.0 -49.2788095,-26.8781905992378,0.0 -49.2788184,-26.8782375992378,0.0 -49.2788238,-26.8782840992378,0.0 -49.2788263,-26.8783239992378,0.0 -49.2788277,-26.8783735992378,0.0 -49.2788333,-26.8784331992378,0.0 -49.27885,-26.8784805992378,0.0 -49.2788639,-26.8785147992378,0.0 -49.2788903,-26.8785474992378,0.0 -49.2789074,-26.8785656992378,0.0 -49.2789239,-26.8785708992378,0.0 -49.278943,-26.8785718992378,0.0 -49.2789639,-26.8785721992378,0.0 -49.2789834,-26.8785719992378,0.0 -49.279003,-26.8785691992378,0.0 -49.2790231,-26.8785642992378,0.0 -49.2790423,-26.8785586992378,0.0 -49.2790663,-26.8785519992378,0.0 -49.279107,-26.8785364992378,0.0 -49.2791525,-26.8785089992378,0.0 -49.2791879,-26.8784929992378,0.0 -49.2792115,-26.8784881992378,0.0 -49.2792376,-26.8784818992378,0.0 -49.279269,-26.8784795992378,0.0 -49.2793267,-26.8784882992378,0.0 -49.2793523,-26.8785203992378,0.0 -49.2793553,-26.8785507992378,0.0 -49.279351,-26.8785816992378,0.0 -49.2793532,-26.8786038992378,0.0 -49.2793554,-26.8786358992378,0.0 -49.2793695,-26.8786777992378,0.0 -49.2793952,-26.8787072992378,0.0 -49.2794283,-26.8787287992378,0.0 -49.2794706,-26.8787483992378,0.0 -49.2795033,-26.8787554992378,0.0 -49.2795338,-26.8787562992378,0.0 -49.2795534,-26.8787510992378,0.0 -49.2795753,-26.8787376992378,0.0 -49.2796106,-26.8787073992378,0.0 -49.2796402,-26.8786780992378,0.0 -49.279667,-26.8786546992378,0.0 -49.2796892,-26.8786380992378,0.0 -49.279718,-26.8786270992378,0.0 -49.2797563,-26.8786255992378,0.0 -49.2797914,-26.8786322992378,0.0 -49.2798541,-26.8786369992378,0.0 -49.2798862,-26.8786404992378,0.0 -49.2799318,-26.8786491992378,0.0 -49.2799743,-26.8786563992378,0.0 -49.280003,-26.8786641992378,0.0 -49.2800218,-26.8786830992378,0.0 -49.2800351,-26.8786968992378,0.0 -49.2800463,-26.8787028992378,0.0 -49.2800693,-26.8787085992378,0.0 -49.2800975,-26.8787108992378,0.0 -49.2801262,-26.8787112992378,0.0 -49.2801735,-26.8787172992378,0.0 -49.2802182,-26.8787275992378,0.0 -49.2802715,-26.8787394992378,0.0 -49.2803279,-26.8787448992378,0.0 -49.2803718,-26.8787457992378,0.0 -49.2804186,-26.8787393992378,0.0 -49.2804774,-26.8787263992378,0.0 -49.2805325,-26.8787083992378,0.0 -49.2805781,-26.8786941992378,0.0 -49.2806123,-26.8786750992378,0.0 -49.2806431,-26.8786539992378,0.0 -49.2806775,-26.8786270992378,0.0 -49.2807057,-26.8786031992378,0.0 -49.2807382,-26.8785833992378,0.0 -49.2807877,-26.8785539992378,0.0 -49.2808273,-26.8785355992378,0.0 -49.2808736,-26.8785213992378,0.0 -49.2809268,-26.8785095992378,0.0 -49.2809681,-26.8785096992378,0.0 -49.2809933,-26.8785157992378,0.0 -49.2810261,-26.8785313992378,0.0 -49.28106,-26.8785555992378,0.0 -49.281087,-26.8785839992378,0.0 -49.281114,-26.8786210992378,0.0 -49.281134,-26.8786536992378,0.0 -49.281159,-26.8786921992378,0.0 -49.2811807,-26.8787270992378,0.0 -49.281203,-26.8787785992378,0.0 -49.2812216,-26.8788150992378,0.0 -49.2812338,-26.8788428992378,0.0 -49.2812493,-26.8788840992378,0.0 -49.2812546,-26.8789316992378,0.0 -49.2812481,-26.8789643992378,0.0 -49.2812247,-26.8789882992378,0.0 -49.2811756,-26.8790090992378,0.0 -49.2811409,-26.8790240992378,0.0 -49.2811072,-26.8790396992378,0.0 -49.2810821,-26.8790595992378,0.0 -49.2810649,-26.8790816992378,0.0 -49.2810464,-26.8791238992378,0.0 -49.2810421,-26.8791791992378,0.0 -49.2810458,-26.8792464992378,0.0 -49.2810493,-26.8793014992378,0.0 -49.2810549,-26.8793665992378,0.0 -49.2810558,-26.8793956992378,0.0 -49.2810691,-26.8794648992378,0.0 -49.2810727,-26.8795140992378,0.0 -49.2810737,-26.8795355992378,0.0 -49.281077,-26.8795464992378,0.0 -49.2810821,-26.8795570992378,0.0 -49.2810876,-26.8795633992378,0.0 -49.2810971,-26.8795689992378,0.0 -49.2811092,-26.8795725992378,0.0 -49.2811192,-26.8795738992378,0.0 -49.281134,-26.8795744992378,0.0 -49.2811483,-26.8795738992378,0.0 -49.2811588,-26.8795731992378,0.0 -49.281205,-26.8795639992378,0.0 -49.2813063,-26.8795352992378,0.0 -49.2813679,-26.8795125992378,0.0 -49.2814481,-26.8794897992378,0.0 -49.281508,-26.8794674992378,0.0 -49.2815705,-26.8794506992378,0.0 -49.2816238,-26.8794322992378,0.0 -49.2816755,-26.8794160992378,0.0 -49.2816977,-26.8794136992378,0.0 -49.281732,-26.8794136992378,0.0 -49.2817481,-26.8794138992378,0.0 -49.2817599,-26.8794139992378,0.0 -49.2817746,-26.8794157992378,0.0 -49.281785,-26.8794181992378,0.0 -49.2817971,-26.8794257992378,0.0 -49.2818105,-26.8794317992378,0.0 -49.2818203,-26.8794396992378,0.0 -49.2818496,-26.8794642992378,0.0 -49.2818837,-26.8794892992378,0.0 -49.2819155,-26.8795149992378,0.0 -49.2819412,-26.8795410992378,0.0 -49.2819726,-26.8795636992378,0.0 -49.2820058,-26.8795890992378,0.0 -49.2820397,-26.8796136992378,0.0 -49.2820729,-26.8796370992378,0.0 -49.2821099,-26.8796635992378,0.0 -49.2821418,-26.8796815992378,0.0 -49.2821777,-26.8797026992378,0.0 -49.2822217,-26.8797266992378,0.0 -49.2822678,-26.8797505992378,0.0 -49.2823059,-26.8797733992378,0.0 -49.2823482,-26.8797917992378,0.0 -49.2824065,-26.8798178992378,0.0 -49.2824579,-26.8798426992378,0.0 -49.2825189,-26.8798628992378,0.0 -49.2825489,-26.8798734992378,0.0 -49.2825947,-26.8798915992378,0.0 -49.2826358,-26.8799056992378,0.0 -49.282657,-26.8799136992378,0.0 -49.2826906,-26.8799261992378,0.0 -49.2827314,-26.8799353992378,0.0 -49.2827601,-26.8799448992378,0.0 -49.2827862,-26.8799526992378,0.0 -49.2828104,-26.8799607992378,0.0 -49.2828351,-26.8799675992378,0.0 -49.2828624,-26.8799739992378,0.0 -49.2828907,-26.8799839992378,0.0 -49.2829177,-26.8799922992378,0.0 -49.2829447,-26.8800013992378,0.0 -49.282971,-26.8800085992378,0.0 -49.2829952,-26.8800143992378,0.0 -49.2830174,-26.8800214992378,0.0 -49.2830466,-26.8800316992378,0.0 -49.2830717,-26.8800404992378,0.0 -49.2830953,-26.8800475992378,0.0 -49.2831189,-26.8800555992377,0.0 -49.2831407,-26.8800616992378,0.0 -49.2831687,-26.8800689992378,0.0 -49.2831954,-26.8800778992378,0.0 -49.2832154,-26.8800864992378,0.0 -49.283239,-26.8800948992377,0.0 -49.2832582,-26.8801033992378,0.0 -49.2832796,-26.8801119992378,0.0 -49.2833128,-26.8801277992378,0.0 -49.2833426,-26.8801415992378,0.0 -49.283376,-26.8801568992378,0.0 -49.2834016,-26.8801683992378,0.0 -49.2834227,-26.8801791992378,0.0 -49.2834479,-26.8801917992378,0.0 -49.2834703,-26.8802018992378,0.0 -49.2834892,-26.8802112992378,0.0 -49.2835198,-26.8802246992378,0.0 -49.283565,-26.8802483992378,0.0 -49.2836031,-26.8802674992377,0.0 -49.2836408,-26.8802839992378,0.0 -49.2836737,-26.8802991992377,0.0 -49.2837096,-26.8803168992378,0.0 -49.2837376,-26.8803307992378,0.0 -49.2837667,-26.8803449992377,0.0 -49.283797,-26.8803584992377,0.0 -49.2838231,-26.8803701992377,0.0 -49.283857,-26.8803875992377,0.0 -49.2838874,-26.8804005992377,0.0 -49.2839096,-26.8804132992378,0.0 -49.2839411,-26.8804301992377,0.0 -49.2839736,-26.8804470992377,0.0 -49.2840002,-26.8804604992377,0.0 -49.2840228,-26.8804733992377,0.0 -49.2840523,-26.8804877992378,0.0 -49.2840789,-26.8805004992378,0.0 -49.2841148,-26.8805140992377,0.0 -49.2841573,-26.8805313992377,0.0 -49.2841942,-26.8805424992377,0.0 -49.2842252,-26.8805535992378,0.0 -49.2842599,-26.8805670992377,0.0 -49.2843035,-26.8805823992377,0.0 -49.2843402,-26.8805935992377,0.0 -49.2843695,-26.8806023992378,0.0 -49.2843987,-26.8806112992377,0.0 -49.2844302,-26.8806212992377,0.0 -49.2844571,-26.8806293992378,0.0 -49.2844838,-26.8806365992377,0.0 -49.2845053,-26.8806425992377,0.0 -49.2845321,-26.8806509992377,0.0 -49.2845458,-26.8806542992377,0.0 -49.2845595,-26.8806575992377,0.0 -49.2845831,-26.8806626992377,0.0 -49.2846107,-26.8806698992377,0.0 -49.2846343,-26.8806780992377,0.0 -49.284663,-26.8806888992378,0.0 -49.2846854,-26.8806976992377,0.0 -49.2847134,-26.8807080992377,0.0 -49.2877481,-26.8758167992378,0.0 -49.2894799,-26.8730255992379,0.0 -49.2966527,-26.8614644992381,0.0 -49.3007371,-26.8548811992382,0.0 -49.3050282,-26.8479648992384,0.0 -49.3075834,-26.8402055992385,0.0 -49.3081685,-26.8384288992386,0.0 -49.3082857,-26.8380726992386,0.0 -49.3086363,-26.8370072992386,0.0 -49.3097606,-26.8335906992387,0.0 -49.3097126,-26.8333639992387,0.0 -49.3096848,-26.8333221992387,0.0 -49.3096156,-26.8332037992387,0.0 -49.3095549,-26.8330742992387,0.0 -49.3095142,-26.8329801992387,0.0 -49.3094991,-26.8329201992387,0.0 -49.30949,-26.8328647992387,0.0 -49.3094851,-26.8328177992387,0.0 -49.3094893,-26.8326266992387,0.0 -49.3094991,-26.8324893992387,0.0 -49.3095007,-26.8323799992387,0.0 -49.3095004,-26.8322663992387,0.0 -49.3094978,-26.8322156992387,0.0 -49.3094894,-26.8321691992387,0.0 -49.309449,-26.8320310992387,0.0 -49.3094192,-26.8319293992387,0.0 -49.3094154,-26.8318781992387,0.0 -49.3094175,-26.8318310992387,0.0 -49.309425,-26.8317973992387,0.0 -49.3094624,-26.8316639992387,0.0 -49.3095348,-26.8313708992387,0.0 -49.3095453,-26.8312419992387,0.0 -49.3095502,-26.8311842992387,0.0 -49.3095588,-26.8311454992387,0.0 -49.3095816,-26.8310843992387,0.0 -49.3096235,-26.8309860992387,0.0 -49.3098262,-26.8310248992387,0.0 -49.3099611,-26.8310632992387,0.0 -49.309995,-26.8310664992387,0.0 -49.3100328,-26.8310596992387,0.0 -49.3101428,-26.8310130992387,0.0 -49.3101809,-26.8309889992387,0.0 -49.3101922,-26.8309678992387,0.0 -49.3101927,-26.8309317992387,0.0 -49.3101764,-26.8308681992387,0.0 -49.3100679,-26.8306047992387,0.0 -49.3099969,-26.8304461992387,0.0 -49.3099862,-26.8304039992387,0.0 -49.3099765,-26.8303506992387,0.0 -49.3099765,-26.8302868992387,0.0 -49.3099819,-26.8302574992387,0.0 -49.3099953,-26.8302232992387,0.0 -49.3100761,-26.8300435992387,0.0 -49.3101194,-26.8298859992387,0.0 -49.310163,-26.8297800992387,0.0 -49.3101938,-26.8297219992387,0.0 -49.3102861,-26.8295475992387,0.0 -49.3103983,-26.8293239992387,0.0 -49.3105603,-26.8290484992387,0.0 -49.3106952,-26.8287947992388,0.0 -49.310762,-26.8286435992388,0.0 -49.3107666,-26.8286084992388,0.0 -49.3107526,-26.8285756992388,0.0 -49.3106879,-26.8284787992388,0.0 -49.3105628,-26.8282978992388,0.0 -49.3104613,-26.8281678992388,0.0 -49.3103353,-26.8279697992388,0.0 -49.310321,-26.8279243992388,0.0 -49.3103162,-26.8278831992388,0.0 -49.3103131,-26.8278412992388,0.0 -49.3103141,-26.8277973992388,0.0 -49.3103255,-26.8277479992388,0.0 -49.3103506,-26.8276847992388,0.0 -49.310485,-26.8274965992388,0.0 -49.3106966,-26.8272522992388,0.0 -49.3108569,-26.8270819992388,0.0 -49.3109986,-26.8269144992388,0.0 -49.3110916,-26.8267969992388,0.0 -49.3111484,-26.8267371992388,0.0 -49.3112214,-26.8266726992388,0.0 -49.3112944,-26.8266082992388,0.0 -49.3113613,-26.8266693992388,0.0 -49.3116928,-26.8269991992388,0.0 -49.3119032,-26.8272328992388,0.0 -49.3121712,-26.8274833992388,0.0 -49.3123191,-26.8276141992388,0.0 -49.3125001,-26.8277432992388,0.0 -49.3125751,-26.8277846992388,0.0 -49.3127179,-26.8278611992388,0.0 -49.312898,-26.8279527992388,0.0 -49.3129767,-26.8279913992388,0.0 -49.3130363,-26.8280194992388,0.0 -49.3131497,-26.8280708992388,0.0 -49.313401,-26.8281796992388,0.0 -49.3134891,-26.8282189992388,0.0 -49.3135719,-26.8282579992388,0.0 -49.3136523,-26.8282981992388,0.0 -49.3136927,-26.8283191992388,0.0 -49.3137755,-26.8283640992388,0.0 -49.313863,-26.8284133992388,0.0 -49.3139081,-26.8284395992388,0.0 -49.3139995,-26.8284944992388,0.0 -49.3140453,-26.8285228992388,0.0 -49.3141356,-26.8285810992388,0.0 -49.3141796,-26.8286106992388,0.0 -49.3142225,-26.8286403992388,0.0 -49.3142643,-26.8286701992388,0.0 -49.3143049,-26.8287000992387,0.0 -49.314344,-26.8287299992387,0.0 -49.3143817,-26.8287598992388,0.0 -49.3144273,-26.8287978992388,0.0 -49.3144519,-26.8288191992388,0.0 -49.3144844,-26.8288484992387,0.0 -49.3145151,-26.8288775992388,0.0 -49.3145444,-26.8289065992387,0.0 -49.3145724,-26.8289353992387,0.0 -49.3145992,-26.8289639992388,0.0 -49.3146503,-26.8290208992387,0.0 -49.3147232,-26.8291057992387,0.0 -49.3149149,-26.8293346992387,0.0 -49.3149642,-26.8293906992387,0.0 -49.3149888,-26.8294171992387,0.0 -49.3150131,-26.8294420992387,0.0 -49.3150371,-26.8294650992387,0.0 -49.3150607,-26.8294858992387,0.0 -49.3150838,-26.8295041992387,0.0 -49.3151066,-26.8295200992387,0.0 -49.3151293,-26.8295337992387,0.0 -49.315152,-26.8295456992387,0.0 -49.3151749,-26.8295557992387,0.0 -49.3151982,-26.8295644992387,0.0 -49.3152221,-26.8295718992387,0.0 -49.3152468,-26.8295783992387,0.0 -49.3152724,-26.8295839992387,0.0 -49.315299,-26.8295886992387,0.0 -49.3153267,-26.8295925992387,0.0 -49.3153555,-26.8295953992387,0.0 -49.3153854,-26.8295972992387,0.0 -49.3154166,-26.8295980992387,0.0 -49.315449,-26.8295977992387,0.0 -49.3154827,-26.8295963992387,0.0 -49.3155177,-26.8295936992387,0.0 -49.3155542,-26.8295896992387,0.0 -49.3155922,-26.8295844992387,0.0 -49.3156317,-26.8295778992387,0.0 -49.3156729,-26.8295699992387,0.0 -49.3157157,-26.8295606992387,0.0 -49.3157603,-26.8295499992387,0.0 -49.3158066,-26.8295378992387,0.0 -49.3158548,-26.8295243992387,0.0 -49.315904,-26.8295097992387,0.0 -49.3160025,-26.8294783992387,0.0 -49.316096,-26.8294465992387,0.0 -49.3161389,-26.8294313992387,0.0 -49.3162132,-26.8294036992387,0.0 -49.3162716,-26.8293797992387,0.0 -49.3162957,-26.8293685992387,0.0 -49.3163169,-26.8293577992387,0.0 -49.3163355,-26.8293468992387,0.0 -49.3163519,-26.8293357992387,0.0 -49.3163666,-26.8293240992387,0.0 -49.3163798,-26.8293117992387,0.0 -49.3163917,-26.8292982992387,0.0 -49.3164025,-26.8292831992387,0.0 -49.3164124,-26.8292660992387,0.0 -49.3164215,-26.8292465992387,0.0 -49.3164299,-26.8292241992387,0.0 -49.3164379,-26.8291985992387,0.0 -49.3164456,-26.8291692992387,0.0 -49.3164532,-26.8291359992387,0.0 -49.3164684,-26.8290572992387,0.0 -49.3165341,-26.8286658992388,0.0 -49.316584,-26.8283841992388,0.0 -49.3166367,-26.8280994992388,0.0 -49.3166628,-26.8279667992388,0.0 -49.3166758,-26.8279046992388,0.0 -49.3166888,-26.8278462992388,0.0 -49.3167018,-26.8277919992388,0.0 -49.3167148,-26.8277423992388,0.0 -49.3167278,-26.8276977992388,0.0 -49.3167407,-26.8276576992388,0.0 -49.3167533,-26.8276212992388,0.0 -49.3167881,-26.8275269992388,0.0 -49.3167982,-26.8274979992388,0.0 -49.3168073,-26.8274689992388,0.0 -49.3168154,-26.8274392992388,0.0 -49.3168225,-26.8274084992388,0.0 -49.3168351,-26.8273418992388,0.0 -49.3169033,-26.8269037992388,0.0 -49.3169218,-26.8267792992388,0.0 -49.3169392,-26.8266515992388,0.0 -49.3169842,-26.8262888992388,0.0 -49.3169984,-26.8261888992388,0.0 -49.3170056,-26.8261440992388,0.0 -49.3170201,-26.8260624992388,0.0 -49.3170347,-26.8259880992388,0.0 -49.3170714,-26.8258090992388,0.0 -49.3170835,-26.8257395992388,0.0 -49.3170882,-26.8257062992388,0.0 -49.3170917,-26.8256744992388,0.0 -49.3170939,-26.8256442992388,0.0 -49.3170946,-26.8256159992388,0.0 -49.3170941,-26.8255893992388,0.0 -49.3170927,-26.8255640992388,0.0 -49.3170869,-26.8254935992388,0.0 -49.3170856,-26.8254707992388,0.0 -49.3170852,-26.8254479992388,0.0 -49.317086,-26.8254248992388,0.0 -49.317088,-26.8254010992388,0.0 -49.3170912,-26.8253765992388,0.0 -49.3170956,-26.8253510992388,0.0 -49.3171012,-26.8253243992388,0.0 -49.3171159,-26.8252668992388,0.0 -49.3171352,-26.8252025992388,0.0 -49.3171588,-26.8251327992388,0.0 -49.3171721,-26.8250972992388,0.0 -49.3171864,-26.8250619992388,0.0 -49.3172016,-26.8250275992388,0.0 -49.3172177,-26.8249944992388,0.0 -49.3172347,-26.8249633992388,0.0 -49.3172524,-26.8249346992388,0.0 -49.3172708,-26.8249082992388,0.0 -49.3172899,-26.8248840992388,0.0 -49.3173094,-26.8248619992388,0.0 -49.3173294,-26.8248418992388,0.0 -49.3173497,-26.8248236992388,0.0 -49.3173702,-26.8248071992388,0.0 -49.3173908,-26.8247922992388,0.0 -49.3174115,-26.8247787992388,0.0 -49.3174323,-26.8247666992388,0.0 -49.3174532,-26.8247558992388,0.0 -49.3174744,-26.8247462992388,0.0 -49.317496,-26.8247376992388,0.0 -49.317518,-26.8247300992388,0.0 -49.3175404,-26.8247233992388,0.0 -49.3175634,-26.8247173992388,0.0 -49.317587,-26.8247121992388,0.0 -49.3176114,-26.8247075992388,0.0 -49.3176365,-26.8247034992388,0.0 -49.3176894,-26.8246971992388,0.0 -49.3177174,-26.8246947992388,0.0 -49.3177766,-26.8246914992388,0.0 -49.3178087,-26.8246906992388,0.0 -49.3178408,-26.8246899992388,0.0 -49.3178749,-26.8246900992388,0.0 -49.3179106,-26.8246909992388,0.0 -49.3179479,-26.8246925992388,0.0 -49.3179708,-26.8246734992388,0.0 -49.3183068,-26.8243937992388,0.0 -49.3184577,-26.8242389992388,0.0 -49.3188201,-26.8241060992388,0.0 -49.3189632,-26.8239537992388,0.0 -49.3190842,-26.8238249992388,0.0 -49.3193738,-26.8234672992389,0.0 -49.3198252,-26.8231946992389,0.0 -49.3204748,-26.8230393992389,0.0 -49.3206088,-26.8230072992389,0.0 -49.3211326,-26.8228284992389,0.0 -49.3216564,-26.8226495992389,0.0 -49.3224826,-26.8221725992389,0.0 -49.3229681,-26.8220192992389,0.0 -49.3235558,-26.8218744992389,0.0 -49.3239221,-26.8216700992389,0.0 -49.3242457,-26.8213037992389,0.0 -49.3244416,-26.8210567992389,0.0 -49.324646,-26.8205798992389,0.0 -49.3248164,-26.8201454992389,0.0 -49.3251486,-26.8194129992389,0.0 -49.3252252,-26.8189529992389,0.0 -49.3251315,-26.818510099239,0.0 -49.3251826,-26.818024599239,0.0 -49.3252423,-26.817181399239,0.0 -49.3252763,-26.816661899239,0.0 -49.3256341,-26.815869699239,0.0 -49.3258905,-26.815502099239,0.0 -49.3260291,-26.815303199239,0.0 -49.3260855,-26.815222399239,0.0 -49.3264943,-26.814677299239,0.0 -49.3267243,-26.814200299239,0.0 -49.3269798,-26.8133485992391,0.0 -49.3273035,-26.8126756992391,0.0 -49.3275079,-26.8120283992391,0.0 -49.3276101,-26.8116022992391,0.0 -49.3276612,-26.8113895992391,0.0 -49.3278401,-26.8111340992391,0.0 -49.3280275,-26.8110232992391,0.0 -49.3282652,-26.8109318992391,0.0 -49.3283596,-26.8108955992391,0.0 -49.328661,-26.8105260992391,0.0 -49.3288353,-26.8099960992391,0.0 -49.3291698,-26.8095577992391,0.0 -49.3296358,-26.8087335992391,0.0 -49.3301236,-26.8078451992392,0.0 -49.3302761,-26.8071223992392,0.0 -49.3303697,-26.8064835992392,0.0 -49.3303868,-26.8056147992392,0.0 -49.3302675,-26.8050611992392,0.0 -49.3301102,-26.8043065992392,0.0 -49.3299344,-26.8039325992392,0.0 -49.3298331,-26.8037622992392,0.0 -49.3296884,-26.8036301992392,0.0 -49.3296023,-26.8035903992392,0.0 -49.3294584,-26.8035237992392,0.0 -49.329271,-26.8034470992392,0.0 -49.3289984,-26.8032256992392,0.0 -49.3289133,-26.8029189992393,0.0 -49.3289899,-26.8026719992393,0.0 -49.3291773,-26.8025101992393,0.0 -49.329501,-26.8023994992393,0.0 -49.3298928,-26.8022546992393,0.0 -49.3300972,-26.8021353992393,0.0 -49.3305316,-26.8016243992393,0.0 -49.3308638,-26.8013091992393,0.0 -49.3311619,-26.8011558992393,0.0 -49.3315823,-26.8009524992393,0.0 -49.3316899,-26.8009003992393,0.0 -49.3325587,-26.8005170992393,0.0 -49.3329676,-26.8002530992393,0.0 -49.3331805,-26.7999549992393,0.0 -49.3333338,-26.7997334992393,0.0 -49.333436,-26.7994438992393,0.0 -49.3335127,-26.7990435992393,0.0 -49.3335197,-26.7990057992393,0.0 -49.3336234,-26.7984473992393,0.0 -49.3336489,-26.7980214992394,0.0 -49.3337512,-26.7974933992394,0.0 -49.3338363,-26.7971697992394,0.0 -49.3338023,-26.7968460992394,0.0 -49.3337171,-26.7966757992394,0.0 -49.3335893,-26.7964201992394,0.0 -49.3335127,-26.7962668992394,0.0 -49.3332316,-26.7959261992394,0.0 -49.3329846,-26.7956877992394,0.0 -49.3328228,-26.7954832992394,0.0 -49.3326609,-26.7952788992394,0.0 -49.332559,-26.7949729992394,0.0 -49.3325246,-26.7948700992394,0.0 -49.3323287,-26.7945378992394,0.0 -49.332201,-26.7943930992394,0.0 -49.3318433,-26.7939927992394,0.0 -49.3315962,-26.7937457992394,0.0 -49.3313916,-26.7934682992394,0.0 -49.331247,-26.7933028992394,0.0 -49.331247,-26.7930132992394,0.0 -49.33123,-26.7926725992395,0.0 -49.3312896,-26.7923403992395,0.0 -49.3313492,-26.7920763992395,0.0 -49.3314211,-26.7916183992395,0.0 -49.3313916,-26.7911449992395,0.0 -49.3314211,-26.7906636992395,0.0 -49.3313694,-26.7902773992395,0.0 -49.3312193,-26.7900116992395,0.0 -49.3308221,-26.7895786992395,0.0 -49.3304123,-26.7891718992395,0.0 -49.32949,-26.7885065992395,0.0 -49.3290751,-26.7883158992395,0.0 -49.3288111,-26.7881455992395,0.0 -49.3286918,-26.7879581992395,0.0 -49.3286619,-26.7877576992396,0.0 -49.3286108,-26.7872508992396,0.0 -49.3286364,-26.7866714992396,0.0 -49.3285896,-26.7850409992396,0.0 -49.3286492,-26.7842573992396,0.0 -49.3286953,-26.7838285992396,0.0 -49.3288664,-26.7835598992396,0.0 -49.3291898,-26.7832637992396,0.0 -49.3296171,-26.7830893992396,0.0 -49.3297452,-26.7830371992396,0.0 -49.3300565,-26.7828577992396,0.0 -49.3303679,-26.7826783992397,0.0 -49.3309404,-26.7821961992397,0.0 -49.3311959,-26.7819661992397,0.0 -49.331247,-26.7818128992397,0.0 -49.3312726,-26.7813529992397,0.0 -49.3312811,-26.7807737992397,0.0 -49.3313152,-26.7803989992397,0.0 -49.3313322,-26.7800156992397,0.0 -49.3313748,-26.7797771992397,0.0 -49.3314855,-26.7795727992397,0.0 -49.331724,-26.7793939992397,0.0 -49.3322521,-26.7790532992397,0.0 -49.3324224,-26.7789935992397,0.0 -49.3327717,-26.7788068992397,0.0 -49.3330187,-26.7784655992397,0.0 -49.3332657,-26.7776819992397,0.0 -49.3333423,-26.7770856992398,0.0 -49.3334445,-26.7766683992398,0.0 -49.3335127,-26.7762850992398,0.0 -49.3335978,-26.7760380992398,0.0 -49.3337937,-26.7758080992398,0.0 -49.3339385,-26.7755866992398,0.0 -49.3340322,-26.7753822992398,0.0 -49.3340608,-26.7750302992398,0.0 -49.3339126,-26.7747230992398,0.0 -49.3335848,-26.7744530992398,0.0 -49.33307,-26.7742360992398,0.0 -49.3325509,-26.7741588992398,0.0 -49.3320328,-26.7741194992398,0.0 -49.3313599,-26.7740343992398,0.0 -49.3308574,-26.7739576992398,0.0 -49.3305167,-26.7738639992398,0.0 -49.330176,-26.7738213992398,0.0 -49.3298353,-26.7738895992398,0.0 -49.3293498,-26.7739406992398,0.0 -49.3288984,-26.7738639992398,0.0 -49.3285747,-26.7735573992398,0.0 -49.3284469,-26.7733103992398,0.0 -49.3284214,-26.7730548992398,0.0 -49.328498,-26.7728078992398,0.0 -49.3286343,-26.7722627992399,0.0 -49.3287536,-26.7717857992399,0.0 -49.3289154,-26.7712406992399,0.0 -49.3288898,-26.7708914992399,0.0 -49.3289324,-26.7706209992399,0.0 -49.3289984,-26.7704442992399,0.0 -49.3290637,-26.7703142992399,0.0 -49.3292412,-26.7701844992399,0.0 -49.3294179,-26.7700716992399,0.0 -49.3295712,-26.7700055992399,0.0 -49.3302867,-26.7697330992399,0.0 -49.3309851,-26.7695286992399,0.0 -49.3310038,-26.7695250992399,0.0 -49.3319561,-26.7693412992399,0.0 -49.3325012,-26.7688472992399,0.0 -49.3327567,-26.7684213992399,0.0 -49.3331794,-26.7675653992399,0.0 -49.3337671,-26.76707989924,0.0 -49.3340652,-26.76667109924,0.0 -49.334176,-26.76622819924,0.0 -49.3341504,-26.76600669924,0.0 -49.3340312,-26.76562339924,0.0 -49.3339034,-26.76535939924,0.0 -49.3337756,-26.76509539924,0.0 -49.3336223,-26.76478019924,0.0 -49.3334946,-26.76429469924,0.0 -49.3334903,-26.76415419924,0.0 -49.333486,-26.76401359924,0.0 -49.3335797,-26.76363039924,0.0 -49.3336479,-26.76311929924,0.0 -49.3338373,-26.76279299924,0.0 -49.3339279,-26.76263699924,0.0 -49.3341036,-26.76245599924,0.0 -49.3348622,-26.7617536992401,0.0 -49.3353381,-26.7613534992401,0.0 -49.3355761,-26.7608559992401,0.0 -49.3357275,-26.7603692992401,0.0 -49.3359222,-26.7596878992401,0.0 -49.3362896,-26.7589916992401,0.0 -49.3366527,-26.7582370992401,0.0 -49.3370333,-26.7576779992401,0.0 -49.33762,-26.7572872992402,0.0 -49.3385925,-26.7565014992402,0.0 -49.3387398,-26.7563071992402,0.0 -49.3386265,-26.7561354992402,0.0 -49.3383557,-26.7559239992402,0.0 -49.3380204,-26.7558482992402,0.0 -49.337577,-26.7557833992402,0.0 -49.3372633,-26.7556319992402,0.0 -49.336636,-26.7551235992402,0.0 -49.3359005,-26.7544746992402,0.0 -49.3353381,-26.7536310992402,0.0 -49.3350028,-26.7528955992402,0.0 -49.3348406,-26.7524953992402,0.0 -49.3346135,-26.7522033992402,0.0 -49.3343623,-26.7519317992402,0.0 -49.3342133,-26.7517707992403,0.0 -49.3341051,-26.7512623992403,0.0 -49.3340746,-26.7508038992403,0.0 -49.3342067,-26.7500090992403,0.0 -49.3343322,-26.7497265992403,0.0 -49.3344729,-26.7494128992403,0.0 -49.3346783,-26.7492073992403,0.0 -49.3349704,-26.7491532992403,0.0 -49.3355003,-26.7490667992403,0.0 -49.3357599,-26.7490126992403,0.0 -49.3359871,-26.7488071992403,0.0 -49.3360411,-26.7484935992403,0.0 -49.3360195,-26.7482555992403,0.0 -49.3358573,-26.7479202992403,0.0 -49.3355664,-26.7474167992403,0.0 -49.3354348,-26.7471194992403,0.0 -49.3353411,-26.7467928992403,0.0 -49.3352592,-26.7465298992404,0.0 -49.3351638,-26.7463032992404,0.0 -49.3350065,-26.7461027992404,0.0 -49.2854597,-26.7601737992401,0.0 -49.2750941,-26.76311749924,0.0 -49.2724286,-26.76387449924,0.0 -49.2704367,-26.76425029924,0.0 -49.2699483,-26.76434249924,0.0 -49.2384893,-26.7702777992399,0.0 -49.227012,-26.7724431992399,0.0 -49.2240274,-26.7730062992398,0.0 -49.2140123,-26.7552195992402,0.0 -49.2136773,-26.7554282992402,0.0 -49.2133423,-26.7556368992402,0.0 -49.212655,-26.7560970992402,0.0 -49.2118871,-26.7565296992402,0.0 -49.2115194,-26.7566269992402,0.0 -49.2109353,-26.7567675992402,0.0 -49.2102972,-26.7568216992402,0.0 -49.2098213,-26.7569514992402,0.0 -49.2094103,-26.7572110992401,0.0 -49.2090317,-26.7573408992401,0.0 -49.2085126,-26.7574381992401,0.0 -49.2078076,-26.7576492992401,0.0 -49.2071554,-26.7579553992401,0.0 -49.206436,-26.7580222992401,0.0 -49.2058735,-26.7581736992401,0.0 -49.2054193,-26.7583574992401,0.0 -49.2049866,-26.7587684992401,0.0 -49.2047163,-26.7593417992401,0.0 -49.2045216,-26.7598284992401,0.0 -49.2044675,-26.7603584992401,0.0 -49.204554,-26.7609316992401,0.0 -49.2046405,-26.7615481992401,0.0 -49.2045862,-26.7618304992401,0.0 -49.2045119,-26.7622876992401,0.0 -49.2044675,-26.76274179924,0.0 -49.2046101,-26.76329949924,0.0 -49.2048014,-26.76374159924,0.0 -49.2052211,-26.76382619924,0.0 -49.2056307,-26.76383799924,0.0 -49.2060502,-26.76376289924,0.0 -49.2062558,-26.76386179924,0.0 -49.2061604,-26.76414319924,0.0 -49.2058784,-26.76452289924,0.0 -49.205531,-26.76509599924,0.0 -49.2055363,-26.76547599924,0.0 -49.2055422,-26.76590079924,0.0 -49.205548,-26.76631699924,0.0 -49.205787,-26.76688039924,0.0 -49.2059709,-26.7673021992399,0.0 -49.206547,-26.7682409992399,0.0 -49.2075932,-26.7692381992399,0.0 -49.2080475,-26.7698005992399,0.0 -49.2081773,-26.7700493992399,0.0 -49.2083395,-26.7704495992399,0.0 -49.2082963,-26.7707307992399,0.0 -49.2079393,-26.7711849992399,0.0 -49.207167,-26.7717649992399,0.0 -49.2067388,-26.7726451992399,0.0 -49.2064468,-26.7731750992398,0.0 -49.2058086,-26.7743972992398,0.0 -49.205495,-26.7747974992398,0.0 -49.2053003,-26.7751327992398,0.0 -49.2051501,-26.7757176992398,0.0 -49.2050948,-26.7759330992398,0.0 -49.2050083,-26.7763008992398,0.0 -49.2050732,-26.7765712992398,0.0 -49.2053976,-26.7768632992398,0.0 -49.2055941,-26.7770331992398,0.0 -49.2057978,-26.7772093992398,0.0 -49.2058735,-26.7774256992397,0.0 -49.2058195,-26.7776744992398,0.0 -49.2055383,-26.7779015992397,0.0 -49.2050624,-26.7782260992397,0.0 -49.2046189,-26.7788100992397,0.0 -49.2041646,-26.7792967992397,0.0 -49.203851,-26.7795996992397,0.0 -49.2034184,-26.7798592992397,0.0 -49.202789,-26.7804229992397,0.0 -49.2023368,-26.7809840992397,0.0 -49.2019258,-26.7813301992397,0.0 -49.2013958,-26.7821088992397,0.0 -49.2010822,-26.7824982992397,0.0 -49.200823,-26.7826989992396,0.0 -49.2004657,-26.7829417992396,0.0 -49.2004008,-26.7830606992396,0.0 -49.2003359,-26.7831796992396,0.0 -49.2001412,-26.7838069992396,0.0 -49.199806,-26.7847289992396,0.0 -49.19956,-26.7851319992396,0.0 -49.199391,-26.7854229992396,0.0 -49.1993045,-26.7857099992396,0.0 -49.1992612,-26.7858534992396,0.0 -49.199218,-26.7859969992396,0.0 -49.1990921,-26.7861215992396,0.0 -49.1988649,-26.7863703992396,0.0 -49.1984323,-26.7864676992396,0.0 -49.197805,-26.7865000992396,0.0 -49.1974156,-26.7867164992396,0.0 -49.1971993,-26.7870516992396,0.0 -49.1971777,-26.7872896992396,0.0 -49.1971236,-26.7877655992396,0.0 -49.1968316,-26.7884361992395,0.0 -49.1965179,-26.7889660992395,0.0 -49.1962151,-26.7895176992395,0.0 -49.1961934,-26.7901666992395,0.0 -49.1961934,-26.7905776992395,0.0 -49.1958582,-26.7912049992395,0.0 -49.1955337,-26.7917132992395,0.0 -49.1954702,-26.7918926992395,0.0 -49.1953498,-26.7922324992395,0.0 -49.1953768,-26.7924379992395,0.0 -49.1954039,-26.7926434992395,0.0 -49.1956418,-26.7929462992394,0.0 -49.195923,-26.7932707992394,0.0 -49.1964963,-26.7938223992394,0.0 -49.1970911,-26.7941143992394,0.0 -49.197567,-26.7942549992394,0.0 -49.1981835,-26.7947741992394,0.0 -49.1983999,-26.7952500992394,0.0 -49.1986702,-26.7962775992394,0.0 -49.198919,-26.7967209992394,0.0 -49.1992435,-26.7969481992394,0.0 -49.1994165,-26.7969697992394,0.0 -49.1999357,-26.7969805992394,0.0 -49.2005365,-26.7968795992394,0.0 -49.2012768,-26.7969913992394,0.0 -49.201677,-26.7972076992394,0.0 -49.2022503,-26.7976727992394,0.0 -49.2028207,-26.7978605992393,0.0 -49.2029426,-26.7979007992394,0.0 -49.2031372,-26.7979647992394,0.0 -49.2036563,-26.7980404992394,0.0 -49.204143,-26.7980513992393,0.0 -49.2045216,-26.7980188992394,0.0 -49.2049218,-26.7980837992394,0.0 -49.2054301,-26.7983108992394,0.0 -49.20571,-26.7985441992393,0.0 -49.2058195,-26.7986353992393,0.0 -49.2063386,-26.7989165992393,0.0 -49.2070741,-26.7991869992393,0.0 -49.2073445,-26.7995330992393,0.0 -49.2075716,-26.8000089992393,0.0 -49.2075932,-26.8004415992393,0.0 -49.207497,-26.8010716992393,0.0 -49.2076149,-26.8017503992393,0.0 -49.2077555,-26.8020639992393,0.0 -49.2080634,-26.8024807992393,0.0 -49.2084279,-26.8028731992393,0.0 -49.2088353,-26.8034955992392,0.0 -49.2089666,-26.8039552992392,0.0 -49.209194,-26.8044326992392,0.0 -49.2093132,-26.8047098992392,0.0 -49.2097888,-26.8052113992392,0.0 -49.2100809,-26.8055466992392,0.0 -49.2101241,-26.8059251992392,0.0 -49.2100052,-26.8064876992392,0.0 -49.2098488,-26.8067145992392,0.0 -49.209605,-26.8069743992392,0.0 -49.2093129,-26.8072771992392,0.0 -49.2088911,-26.8075908992392,0.0 -49.2083179,-26.8081207992392,0.0 -49.2078528,-26.8085317992391,0.0 -49.20755,-26.8088995992391,0.0 -49.2074743,-26.8092456992391,0.0 -49.2075175,-26.8093970992391,0.0 -49.2075608,-26.8095484992391,0.0 -49.2078204,-26.8097864992391,0.0 -49.2081665,-26.8101108992391,0.0 -49.2087346,-26.8104919992391,0.0 -49.208956,-26.8108896992391,0.0 -49.2090858,-26.8113546992391,0.0 -49.209075,-26.8115710992391,0.0 -49.2086316,-26.8123064992391,0.0 -49.2081881,-26.8128040992391,0.0 -49.2078096,-26.8131392992391,0.0 -49.2076556,-26.813479699239,0.0 -49.2076041,-26.813593599239,0.0 -49.2075392,-26.814220899239,0.0 -49.2073769,-26.814956399239,0.0 -49.2070731,-26.815506599239,0.0 -49.2069767,-26.815680999239,0.0 -49.2067712,-26.815918999239,0.0 -49.2061331,-26.816351599239,0.0 -49.2054245,-26.816954899239,0.0 -49.2053328,-26.817032999239,0.0 -49.2048785,-26.817324999239,0.0 -49.204143,-26.817584599239,0.0 -49.2037428,-26.817854999239,0.0 -49.2031696,-26.8186877992389,0.0 -49.2028559,-26.8194448992389,0.0 -49.2027262,-26.8199315992389,0.0 -49.2027694,-26.8202993992389,0.0 -49.2026665,-26.8206492992389,0.0 -49.2024325,-26.8208176992389,0.0 -49.2020556,-26.8210888992389,0.0 -49.2016662,-26.8213268992389,0.0 -49.201493,-26.8216039992389,0.0 -49.201493,-26.8216169992389,0.0 -49.2014932,-26.8220082992389,0.0 -49.2018284,-26.8225057992389,0.0 -49.2021746,-26.8228951992389,0.0 -49.2026288,-26.8233601992389,0.0 -49.2027802,-26.8235548992389,0.0 -49.2030138,-26.8240280992388,0.0 -49.203202,-26.8244093992388,0.0 -49.2034714,-26.8251062992388,0.0 -49.2036779,-26.8255016992388,0.0 -49.2040349,-26.8259559992388,0.0 -49.2044673,-26.8263917992388,0.0 -49.2049346,-26.8266326992388,0.0 -49.205357,-26.8269389992388,0.0 -49.205691,-26.8272939992388,0.0 -49.206013,-26.8276149992388,0.0 -49.206409,-26.8280049992388,0.0 -49.206732,-26.8282699992388,0.0 -49.206929,-26.8285669992388,0.0 -49.207035,-26.8289979992387,0.0 -49.207128,-26.8294289992387,0.0 -49.2070694,-26.8304099992387,0.0 -49.2075374,-26.8308032992387,0.0 -49.2260747,-26.8463821992384,0.0 -49.2267565,-26.8469551992384,0.0 -49.2286595,-26.8485544992384,0.0 -49.229827,-26.8495356992383,0.0 -49.2298613,-26.8495645992383,0.0 -49.2298593,-26.8495593992383,0.0 -49.232459,-26.8517448992383,0.0</coordinates>
</LinearRing>
</outerBoundaryIs>
</Polygon>
</MultiGeometry>
</Placemark>
</Folder>
</Document></kml>
