<?xml version='1.0' encoding='UTF-8'?>
<kml xmlns:xsd="http://www.w3.org/2001/XMLSchema" xmlns:gx="http://www.google.com/kml/ext/2.2" xmlns:atom="http://www.w3.org/2005/Atom" xmlns="http://www.opengis.net/kml/2.2">
<Document>
<name>treviso_4218350_localidades_2022</name>
<visibility>1</visibility>
<Schema name="Povoados" id="kml_schema_ft_Povoados">
<SimpleField type="xsd:string" name="CD_UF">
<displayName>CD_UF</displayName>
</SimpleField>
<SimpleField type="xsd:string" name="NM_UF">
<displayName>NM_UF</displayName>
</SimpleField>
<SimpleField type="xsd:string" name="SIGLA_UF">
<displayName>SIGLA_UF</displayName>
</SimpleField>
<SimpleField type="xsd:string" name="CD_MUN">
<displayName>CD_MUN</displayName>
</SimpleField>
<SimpleField type="xsd:string" name="NM_MUN">
<displayName>NM_MUN</displayName>
</SimpleField>
<SimpleField type="xsd:string" name="CD_RGINT">
<displayName>CD_RGINT</displayName>
</SimpleField>
<SimpleField type="xsd:string" name="NM_RGINT">
<displayName>NM_RGINT</displayName>
</SimpleField>
<SimpleField type="xsd:string" name="CD_RGI">
<displayName>CD_RGI</displayName>
</SimpleField>
<SimpleField type="xsd:string" name="NM_RGI">
<displayName>NM_RGI</displayName>
</SimpleField>
<SimpleField type="xsd:string" name="CT_LOCALIDADE">
<displayName>CT_LOCALIDADE</displayName>
</SimpleField>
<SimpleField type="xsd:string" name="CD_LOCALIDADE">
<displayName>CD_LOCALIDADE</displayName>
</SimpleField>
<SimpleField type="xsd:string" name="NM_LOCALIDADE">
<displayName>NM_LOCALIDADE</displayName>
</SimpleField>
<SimpleField type="xsd:string" name="LAT_LOCALIDADE">
<displayName>LAT_LOCALIDADE</displayName>
</SimpleField>
<SimpleField type="xsd:string" name="LONG_LOCALIDADE">
<displayName>LONG_LOCALIDADE</displayName>
</SimpleField>
</Schema>
<Schema name="Lugarejos" id="kml_schema_ft_Lugarejos">
<SimpleField type="xsd:string" name="CD_UF">
<displayName>CD_UF</displayName>
</SimpleField>
<SimpleField type="xsd:string" name="NM_UF">
<displayName>NM_UF</displayName>
</SimpleField>
<SimpleField type="xsd:string" name="SIGLA_UF">
<displayName>SIGLA_UF</displayName>
</SimpleField>
<SimpleField type="xsd:string" name="CD_MUN">
<displayName>CD_MUN</displayName>
</SimpleField>
<SimpleField type="xsd:string" name="NM_MUN">
<displayName>NM_MUN</displayName>
</SimpleField>
<SimpleField type="xsd:string" name="CD_RGINT">
<displayName>CD_RGINT</displayName>
</SimpleField>
<SimpleField type="xsd:string" name="NM_RGINT">
<displayName>NM_RGINT</displayName>
</SimpleField>
<SimpleField type="xsd:string" name="CD_RGI">
<displayName>CD_RGI</displayName>
</SimpleField>
<SimpleField type="xsd:string" name="NM_RGI">
<displayName>NM_RGI</displayName>
</SimpleField>
<SimpleField type="xsd:string" name="CT_LOCALIDADE">
<displayName>CT_LOCALIDADE</displayName>
</SimpleField>
<SimpleField type="xsd:string" name="CD_LOCALIDADE">
<displayName>CD_LOCALIDADE</displayName>
</SimpleField>
<SimpleField type="xsd:string" name="NM_LOCALIDADE">
<displayName>NM_LOCALIDADE</displayName>
</SimpleField>
<SimpleField type="xsd:string" name="LAT_LOCALIDADE">
<displayName>LAT_LOCALIDADE</displayName>
</SimpleField>
<SimpleField type="xsd:string" name="LONG_LOCALIDADE">
<displayName>LONG_LOCALIDADE</displayName>
</SimpleField>
</Schema>
<Schema name="01. Cidade" id="kml_schema_ft_01._Cidade">
<SimpleField type="xsd:string" name="CD_UF">
<displayName>CD_UF</displayName>
</SimpleField>
<SimpleField type="xsd:string" name="NM_UF">
<displayName>NM_UF</displayName>
</SimpleField>
<SimpleField type="xsd:string" name="SIGLA_UF">
<displayName>SIGLA_UF</displayName>
</SimpleField>
<SimpleField type="xsd:string" name="CD_MUN">
<displayName>CD_MUN</displayName>
</SimpleField>
<SimpleField type="xsd:string" name="NM_MUN">
<displayName>NM_MUN</displayName>
</SimpleField>
<SimpleField type="xsd:string" name="CD_RGINT">
<displayName>CD_RGINT</displayName>
</SimpleField>
<SimpleField type="xsd:string" name="NM_RGINT">
<displayName>NM_RGINT</displayName>
</SimpleField>
<SimpleField type="xsd:string" name="CD_RGI">
<displayName>CD_RGI</displayName>
</SimpleField>
<SimpleField type="xsd:string" name="NM_RGI">
<displayName>NM_RGI</displayName>
</SimpleField>
<SimpleField type="xsd:string" name="CT_LOCALIDADE">
<displayName>CT_LOCALIDADE</displayName>
</SimpleField>
<SimpleField type="xsd:string" name="SCT_LOCALIDADE">
<displayName>SCT_LOCALIDADE</displayName>
</SimpleField>
<SimpleField type="xsd:string" name="CD_LOCALIDADE">
<displayName>CD_LOCALIDADE</displayName>
</SimpleField>
<SimpleField type="xsd:string" name="NM_LOCALIDADE">
<displayName>NM_LOCALIDADE</displayName>
</SimpleField>
<SimpleField type="xsd:string" name="LAT_LOCALIDADE">
<displayName>LAT_LOCALIDADE</displayName>
</SimpleField>
<SimpleField type="xsd:string" name="LONG_LOCALIDADE">
<displayName>LONG_LOCALIDADE</displayName>
</SimpleField>
</Schema>
<Schema name="Município" id="kml_schema_ft_Município">
<SimpleField type="xsd:string" name="CD_UF">
<displayName>CD_UF</displayName>
</SimpleField>
<SimpleField type="xsd:string" name="NM_UF">
<displayName>NM_UF</displayName>
</SimpleField>
<SimpleField type="xsd:string" name="CD_MUN">
<displayName>CD_MUN</displayName>
</SimpleField>
<SimpleField type="xsd:string" name="NM_MUN">
<displayName>NM_MUN</displayName>
</SimpleField>
<SimpleField type="xsd:string" name="CD_RGINT">
<displayName>CD_RGINT</displayName>
</SimpleField>
<SimpleField type="xsd:string" name="NM_RGINT">
<displayName>NM_RGINT</displayName>
</SimpleField>
<SimpleField type="xsd:string" name="CD_RGI">
<displayName>CD_RGI</displayName>
</SimpleField>
<SimpleField type="xsd:string" name="NM_RGI">
<displayName>NM_RGI</displayName>
</SimpleField>
</Schema>
<Folder id="01. Cidade">
<name>01. Cidade</name>
<Folder id="01.03. Sede Municipal">
<name>01.03. Sede Municipal</name>
<Placemark id="01.03. Sede Municipal">
<name>Treviso [4218350]</name>
<visibility>1</visibility>
<snippet> </snippet>
<description>&lt;center&gt;&lt;table&gt;&lt;tr&gt;&lt;th colspan='2' align='center'&gt;&lt;em&gt;Atributos&lt;/em&gt;&lt;/th&gt;&lt;/tr&gt;&lt;tr bgcolor="#E3E3F3"&gt;
&lt;th&gt;CD_UF&lt;/th&gt;
&lt;td&gt;42&lt;/td&gt;
&lt;/tr&gt;&lt;tr bgcolor=""&gt;
&lt;th&gt;NM_UF&lt;/th&gt;
&lt;td&gt;Santa Catarina&lt;/td&gt;
&lt;/tr&gt;&lt;tr bgcolor="#E3E3F3"&gt;
&lt;th&gt;SIGLA_UF&lt;/th&gt;
&lt;td&gt;SC&lt;/td&gt;
&lt;/tr&gt;&lt;tr bgcolor=""&gt;
&lt;th&gt;CD_MUN&lt;/th&gt;
&lt;td&gt;4218350&lt;/td&gt;
&lt;/tr&gt;&lt;tr bgcolor="#E3E3F3"&gt;
&lt;th&gt;NM_MUN&lt;/th&gt;
&lt;td&gt;Treviso&lt;/td&gt;
&lt;/tr&gt;&lt;tr bgcolor=""&gt;
&lt;th&gt;CD_RGINT&lt;/th&gt;
&lt;td&gt;4202&lt;/td&gt;
&lt;/tr&gt;&lt;tr bgcolor="#E3E3F3"&gt;
&lt;th&gt;NM_RGINT&lt;/th&gt;
&lt;td&gt;Criciúma&lt;/td&gt;
&lt;/tr&gt;&lt;tr bgcolor=""&gt;
&lt;th&gt;CD_RGI&lt;/th&gt;
&lt;td&gt;420002&lt;/td&gt;
&lt;/tr&gt;&lt;tr bgcolor="#E3E3F3"&gt;
&lt;th&gt;NM_RGI&lt;/th&gt;
&lt;td&gt;Criciúma&lt;/td&gt;
&lt;/tr&gt;&lt;tr bgcolor=""&gt;
&lt;th&gt;CT_LOCALIDADE&lt;/th&gt;
&lt;td&gt;Cidade&lt;/td&gt;
&lt;/tr&gt;&lt;tr bgcolor="#E3E3F3"&gt;
&lt;th&gt;SCT_LOCALIDADE&lt;/th&gt;
&lt;td&gt;Sede Municipal&lt;/td&gt;
&lt;/tr&gt;&lt;tr bgcolor=""&gt;
&lt;th&gt;CD_LOCALIDADE&lt;/th&gt;
&lt;td&gt;4218350&lt;/td&gt;
&lt;/tr&gt;&lt;tr bgcolor="#E3E3F3"&gt;
&lt;th&gt;NM_LOCALIDADE&lt;/th&gt;
&lt;td&gt;Treviso&lt;/td&gt;
&lt;/tr&gt;&lt;tr bgcolor=""&gt;
&lt;th&gt;LAT_LOCALIDADE&lt;/th&gt;
&lt;td&gt;-28.5149&lt;/td&gt;
&lt;/tr&gt;&lt;tr bgcolor="#E3E3F3"&gt;
&lt;th&gt;LONG_LOCALIDADE&lt;/th&gt;
&lt;td&gt;-49.4576&lt;/td&gt;
&lt;/tr&gt;&lt;/table&gt;&lt;/center&gt;</description>
<Style>
<IconStyle>
<color>ff00aaff</color>
<scale>1.0</scale>
<Icon>
<href>http://maps.google.com/mapfiles/kml/shapes/placemark_circle.png</href>
</Icon>
</IconStyle>
<LabelStyle>
<scale>1.0</scale>
</LabelStyle>
<LineStyle>
<color>ffffffff</color>
<width>3</width>
<gx:labelVisibility>1</gx:labelVisibility>
</LineStyle>
<PolyStyle>
<color>00ffffff</color>
</PolyStyle>
</Style>
<ExtendedData>
<SchemaData schemaUrl="#kml_schema_ft_01._Cidade">
<SimpleData name="CD_UF">42</SimpleData>
<SimpleData name="NM_UF">Santa Catarina</SimpleData>
<SimpleData name="SIGLA_UF">SC</SimpleData>
<SimpleData name="CD_MUN">4218350</SimpleData>
<SimpleData name="NM_MUN">Treviso</SimpleData>
<SimpleData name="CD_RGINT">4202</SimpleData>
<SimpleData name="NM_RGINT">Criciúma</SimpleData>
<SimpleData name="CD_RGI">420002</SimpleData>
<SimpleData name="NM_RGI">Criciúma</SimpleData>
<SimpleData name="CT_LOCALIDADE">Cidade</SimpleData>
<SimpleData name="SCT_LOCALIDADE">Sede Municipal</SimpleData>
<SimpleData name="CD_LOCALIDADE">4218350</SimpleData>
<SimpleData name="NM_LOCALIDADE">Treviso</SimpleData>
<SimpleData name="LAT_LOCALIDADE">-28.5149</SimpleData>
<SimpleData name="LONG_LOCALIDADE">-49.4576</SimpleData>
</SchemaData>
</ExtendedData>
<Point>
<extrude>0</extrude>
<coordinates>-49.4576,-28.5148999992073,0.0</coordinates>
</Point>
</Placemark>
</Folder>
</Folder>
<Folder id="06. Povoados">
<name>06. Povoados</name>
<Placemark id="06. Povoados">
<name>Rio Manin [421835000001]</name>
<visibility>1</visibility>
<snippet> </snippet>
<description>&lt;center&gt;&lt;table&gt;&lt;tr&gt;&lt;th colspan='2' align='center'&gt;&lt;em&gt;Atributos&lt;/em&gt;&lt;/th&gt;&lt;/tr&gt;&lt;tr bgcolor="#E3E3F3"&gt;
&lt;th&gt;CD_UF&lt;/th&gt;
&lt;td&gt;42&lt;/td&gt;
&lt;/tr&gt;&lt;tr bgcolor=""&gt;
&lt;th&gt;NM_UF&lt;/th&gt;
&lt;td&gt;Santa Catarina&lt;/td&gt;
&lt;/tr&gt;&lt;tr bgcolor="#E3E3F3"&gt;
&lt;th&gt;SIGLA_UF&lt;/th&gt;
&lt;td&gt;SC&lt;/td&gt;
&lt;/tr&gt;&lt;tr bgcolor=""&gt;
&lt;th&gt;CD_MUN&lt;/th&gt;
&lt;td&gt;4218350&lt;/td&gt;
&lt;/tr&gt;&lt;tr bgcolor="#E3E3F3"&gt;
&lt;th&gt;NM_MUN&lt;/th&gt;
&lt;td&gt;Treviso&lt;/td&gt;
&lt;/tr&gt;&lt;tr bgcolor=""&gt;
&lt;th&gt;CD_RGINT&lt;/th&gt;
&lt;td&gt;4202&lt;/td&gt;
&lt;/tr&gt;&lt;tr bgcolor="#E3E3F3"&gt;
&lt;th&gt;NM_RGINT&lt;/th&gt;
&lt;td&gt;Criciúma&lt;/td&gt;
&lt;/tr&gt;&lt;tr bgcolor=""&gt;
&lt;th&gt;CD_RGI&lt;/th&gt;
&lt;td&gt;420002&lt;/td&gt;
&lt;/tr&gt;&lt;tr bgcolor="#E3E3F3"&gt;
&lt;th&gt;NM_RGI&lt;/th&gt;
&lt;td&gt;Criciúma&lt;/td&gt;
&lt;/tr&gt;&lt;tr bgcolor=""&gt;
&lt;th&gt;CT_LOCALIDADE&lt;/th&gt;
&lt;td&gt;Povoado&lt;/td&gt;
&lt;/tr&gt;&lt;tr bgcolor="#E3E3F3"&gt;
&lt;th&gt;CD_LOCALIDADE&lt;/th&gt;
&lt;td&gt;421835000001&lt;/td&gt;
&lt;/tr&gt;&lt;tr bgcolor=""&gt;
&lt;th&gt;NM_LOCALIDADE&lt;/th&gt;
&lt;td&gt;Rio Manin&lt;/td&gt;
&lt;/tr&gt;&lt;tr bgcolor="#E3E3F3"&gt;
&lt;th&gt;LAT_LOCALIDADE&lt;/th&gt;
&lt;td&gt;-28.5468&lt;/td&gt;
&lt;/tr&gt;&lt;tr bgcolor=""&gt;
&lt;th&gt;LONG_LOCALIDADE&lt;/th&gt;
&lt;td&gt;-49.4942&lt;/td&gt;
&lt;/tr&gt;&lt;/table&gt;&lt;/center&gt;</description>
<Style>
<IconStyle>
<color>ff00ff54</color>
<scale>0.8</scale>
<Icon>
<href>http://maps.google.com/mapfiles/kml/shapes/placemark_circle.png</href>
</Icon>
</IconStyle>
<LabelStyle>
<scale>0.8</scale>
</LabelStyle>
<LineStyle>
<color>72ff54ff</color>
<width>1.0</width>
<gx:labelVisibility>1</gx:labelVisibility>
</LineStyle>
<PolyStyle>
<color>66ff54ff</color>
</PolyStyle>
</Style>
<ExtendedData>
<SchemaData schemaUrl="#kml_schema_ft_Povoados">
<SimpleData name="CD_UF">42</SimpleData>
<SimpleData name="NM_UF">Santa Catarina</SimpleData>
<SimpleData name="SIGLA_UF">SC</SimpleData>
<SimpleData name="CD_MUN">4218350</SimpleData>
<SimpleData name="NM_MUN">Treviso</SimpleData>
<SimpleData name="CD_RGINT">4202</SimpleData>
<SimpleData name="NM_RGINT">Criciúma</SimpleData>
<SimpleData name="CD_RGI">420002</SimpleData>
<SimpleData name="NM_RGI">Criciúma</SimpleData>
<SimpleData name="CT_LOCALIDADE">Povoado</SimpleData>
<SimpleData name="CD_LOCALIDADE">421835000001</SimpleData>
<SimpleData name="NM_LOCALIDADE">Rio Manin</SimpleData>
<SimpleData name="LAT_LOCALIDADE">-28.5468</SimpleData>
<SimpleData name="LONG_LOCALIDADE">-49.4942</SimpleData>
</SchemaData>
</ExtendedData>
<Point>
<extrude>0</extrude>
<coordinates>-49.494235,-28.5467879992067,0.0</coordinates>
</Point>
</Placemark>
</Folder>
<Folder id="08. Lugarejos">
<name>08. Lugarejos</name>
<Placemark id="localidades">
<name>Loteamento Bonazza [421835000002]</name>
<visibility>1</visibility>
<snippet> </snippet>
<description>&lt;center&gt;&lt;table&gt;&lt;tr&gt;&lt;th colspan='2' align='center'&gt;&lt;em&gt;Attributes&lt;/em&gt;&lt;/th&gt;&lt;/tr&gt;&lt;tr bgcolor="#E3E3F3"&gt;
&lt;th&gt;CD_UF&lt;/th&gt;
&lt;td&gt;42&lt;/td&gt;
&lt;/tr&gt;&lt;tr bgcolor=""&gt;
&lt;th&gt;NM_UF&lt;/th&gt;
&lt;td&gt;Santa Catarina&lt;/td&gt;
&lt;/tr&gt;&lt;tr bgcolor="#E3E3F3"&gt;
&lt;th&gt;SIGLA_UF&lt;/th&gt;
&lt;td&gt;SC&lt;/td&gt;
&lt;/tr&gt;&lt;tr bgcolor=""&gt;
&lt;th&gt;CD_MUN&lt;/th&gt;
&lt;td&gt;4218350&lt;/td&gt;
&lt;/tr&gt;&lt;tr bgcolor="#E3E3F3"&gt;
&lt;th&gt;NM_MUN&lt;/th&gt;
&lt;td&gt;Treviso&lt;/td&gt;
&lt;/tr&gt;&lt;tr bgcolor=""&gt;
&lt;th&gt;CD_RGINT&lt;/th&gt;
&lt;td&gt;4202&lt;/td&gt;
&lt;/tr&gt;&lt;tr bgcolor="#E3E3F3"&gt;
&lt;th&gt;NM_RGINT&lt;/th&gt;
&lt;td&gt;Criciúma&lt;/td&gt;
&lt;/tr&gt;&lt;tr bgcolor=""&gt;
&lt;th&gt;CD_RGI&lt;/th&gt;
&lt;td&gt;420002&lt;/td&gt;
&lt;/tr&gt;&lt;tr bgcolor="#E3E3F3"&gt;
&lt;th&gt;NM_RGI&lt;/th&gt;
&lt;td&gt;Criciúma&lt;/td&gt;
&lt;/tr&gt;&lt;tr bgcolor=""&gt;
&lt;th&gt;CT_LOCALIDADE&lt;/th&gt;
&lt;td&gt;Lugarejo&lt;/td&gt;
&lt;/tr&gt;&lt;tr bgcolor="#E3E3F3"&gt;
&lt;th&gt;CD_LOCALIDADE&lt;/th&gt;
&lt;td&gt;421835000002&lt;/td&gt;
&lt;/tr&gt;&lt;tr bgcolor=""&gt;
&lt;th&gt;NM_LOCALIDADE&lt;/th&gt;
&lt;td&gt;Loteamento Bonazza&lt;/td&gt;
&lt;/tr&gt;&lt;tr bgcolor="#E3E3F3"&gt;
&lt;th&gt;LAT_LOCALIDADE&lt;/th&gt;
&lt;td&gt;-28.5263&lt;/td&gt;
&lt;/tr&gt;&lt;tr bgcolor=""&gt;
&lt;th&gt;LONG_LOCALIDADE&lt;/th&gt;
&lt;td&gt;-49.4706&lt;/td&gt;
&lt;/tr&gt;&lt;/table&gt;&lt;/center&gt;</description>
<Style>
<IconStyle>
<color>ffffff00</color>
<scale>0.8</scale>
<Icon>
<href>http://maps.google.com/mapfiles/kml/shapes/placemark_circle.png</href>
</Icon>
</IconStyle>
<LabelStyle>
<scale>0.8</scale>
</LabelStyle>
<LineStyle>
<color>72ff54ff</color>
<width>1.0</width>
<gx:labelVisibility>1</gx:labelVisibility>
</LineStyle>
<PolyStyle>
<color>66ff54ff</color>
</PolyStyle>
</Style>
<ExtendedData>
<SchemaData schemaUrl="#kml_schema_ft_Lugarejos">
<SimpleData name="CD_UF">42</SimpleData>
<SimpleData name="NM_UF">Santa Catarina</SimpleData>
<SimpleData name="SIGLA_UF">SC</SimpleData>
<SimpleData name="CD_MUN">4218350</SimpleData>
<SimpleData name="NM_MUN">Treviso</SimpleData>
<SimpleData name="CD_RGINT">4202</SimpleData>
<SimpleData name="NM_RGINT">Criciúma</SimpleData>
<SimpleData name="CD_RGI">420002</SimpleData>
<SimpleData name="NM_RGI">Criciúma</SimpleData>
<SimpleData name="CT_LOCALIDADE">Lugarejo</SimpleData>
<SimpleData name="CD_LOCALIDADE">421835000002</SimpleData>
<SimpleData name="NM_LOCALIDADE">Loteamento Bonazza</SimpleData>
<SimpleData name="LAT_LOCALIDADE">-28.5263</SimpleData>
<SimpleData name="LONG_LOCALIDADE">-49.4706</SimpleData>
</SchemaData>
</ExtendedData>
<Point>
<extrude>0</extrude>
<coordinates>-49.4706358,-28.5262875706356,0.0</coordinates>
</Point>
</Placemark>
</Folder>
<Folder id="13. Referência">
<name>13. Referência</name>
<Placemark id="13. Referência">
<name>Treviso [4218350]</name>
<visibility>1</visibility>
<snippet> </snippet>
<description>&lt;center&gt;&lt;table&gt;&lt;tr&gt;&lt;th colspan='2' align='center'&gt;&lt;em&gt;Attributes&lt;/em&gt;&lt;/th&gt;&lt;/tr&gt;&lt;tr bgcolor="#E3E3F3"&gt;
&lt;th&gt;CD_UF&lt;/th&gt;
&lt;td&gt;42&lt;/td&gt;
&lt;/tr&gt;&lt;tr bgcolor=""&gt;
&lt;th&gt;NM_UF&lt;/th&gt;
&lt;td&gt;Santa Catarina&lt;/td&gt;
&lt;/tr&gt;&lt;tr bgcolor="#E3E3F3"&gt;
&lt;th&gt;CD_MUN&lt;/th&gt;
&lt;td&gt;4218350&lt;/td&gt;
&lt;/tr&gt;&lt;tr bgcolor=""&gt;
&lt;th&gt;NM_MUN&lt;/th&gt;
&lt;td&gt;Treviso&lt;/td&gt;
&lt;/tr&gt;&lt;tr bgcolor="#E3E3F3"&gt;
&lt;th&gt;CD_RGINT&lt;/th&gt;
&lt;td&gt;4202&lt;/td&gt;
&lt;/tr&gt;&lt;tr bgcolor=""&gt;
&lt;th&gt;NM_RGINT&lt;/th&gt;
&lt;td&gt;Criciúma&lt;/td&gt;
&lt;/tr&gt;&lt;tr bgcolor="#E3E3F3"&gt;
&lt;th&gt;CD_RGI&lt;/th&gt;
&lt;td&gt;420002&lt;/td&gt;
&lt;/tr&gt;&lt;tr bgcolor=""&gt;
&lt;th&gt;NM_RGI&lt;/th&gt;
&lt;td&gt;Criciúma&lt;/td&gt;
&lt;/tr&gt;&lt;/table&gt;&lt;/center&gt;</description>
<Style>
<IconStyle>
<scale>0.7</scale>
</IconStyle>
<LabelStyle>
<scale>0.7</scale>
</LabelStyle>
<LineStyle>
<color>ffffffff</color>
<width>3</width>
<gx:labelVisibility>1</gx:labelVisibility>
</LineStyle>
<PolyStyle>
<color>00ffffff</color>
</PolyStyle>
</Style>
<ExtendedData>
<SchemaData schemaUrl="#kml_schema_ft_Município">
<SimpleData name="CD_UF">42</SimpleData>
<SimpleData name="NM_UF">Santa Catarina</SimpleData>
<SimpleData name="CD_MUN">4218350</SimpleData>
<SimpleData name="NM_MUN">Treviso</SimpleData>
<SimpleData name="CD_RGINT">4202</SimpleData>
<SimpleData name="NM_RGINT">Criciúma</SimpleData>
<SimpleData name="CD_RGI">420002</SimpleData>
<SimpleData name="NM_RGI">Criciúma</SimpleData>
</SchemaData>
</ExtendedData>
<MultiGeometry>
<Polygon>
<extrude>0</extrude>
<tessellate>1</tessellate>
<outerBoundaryIs>
<LinearRing>
<coordinates>-49.4886108,-28.5521688992066,0.0 -49.4886114,-28.5521681992066,0.0 -49.4886908,-28.5521312992066,0.0 -49.4889957,-28.5520335992066,0.0 -49.4890634,-28.5520113992066,0.0 -49.4892458,-28.5519514992066,0.0 -49.4893645,-28.5519204992066,0.0 -49.4894656,-28.5519222992066,0.0 -49.4895134,-28.5519502992066,0.0 -49.4898061,-28.5522785992066,0.0 -49.490057,-28.5525326992066,0.0 -49.4901742,-28.5526047992066,0.0 -49.4902996,-28.5526485992066,0.0 -49.490409,-28.5526798992066,0.0 -49.4905154,-28.5526866992066,0.0 -49.4906214,-28.5526796992066,0.0 -49.4908162,-28.5526310992066,0.0 -49.49097,-28.5525952992066,0.0 -49.4910635,-28.5525781992066,0.0 -49.4912033,-28.5525500992066,0.0 -49.4913634,-28.5525468992066,0.0 -49.4914429,-28.5525343992066,0.0 -49.491525,-28.5524974992066,0.0 -49.4915692,-28.5524409992066,0.0 -49.4915732,-28.5523752992066,0.0 -49.4915509,-28.5522447992066,0.0 -49.4915319,-28.5519844992066,0.0 -49.4915353,-28.5518538992066,0.0 -49.4915107,-28.5517337992066,0.0 -49.4914505,-28.5514407992066,0.0 -49.4914181,-28.5511970992066,0.0 -49.4914421,-28.5510012992066,0.0 -49.4914572,-28.5509126992066,0.0 -49.4981839,-28.5509428992066,0.0 -49.5104481,-28.5509978992066,0.0 -49.5272576,-28.5510733992066,0.0 -49.527284,-28.5508968992067,0.0 -49.5273042,-28.5507499992066,0.0 -49.5273255,-28.5506193992067,0.0 -49.5273456,-28.5504839992067,0.0 -49.5273416,-28.5502483992067,0.0 -49.5272954,-28.5498144992067,0.0 -49.5272493,-28.5493805992067,0.0 -49.527278,-28.5487141992067,0.0 -49.5273169,-28.5485312992067,0.0 -49.5274928,-28.5482799992067,0.0 -49.5277082,-28.5480140992067,0.0 -49.5285588,-28.5473519992067,0.0 -49.5287748,-28.5470416992067,0.0 -49.5288232,-28.5468953992067,0.0 -49.5288717,-28.5467489992067,0.0 -49.5289023,-28.5465141992067,0.0 -49.5288993,-28.5461774992067,0.0 -49.5288576,-28.5459639992067,0.0 -49.5288244,-28.5455987992067,0.0 -49.5286868,-28.5448635992068,0.0 -49.528695,-28.5447745992068,0.0 -49.528747,-28.5447016992068,0.0 -49.5288774,-28.5446471992068,0.0 -49.5289437,-28.5446302992068,0.0 -49.5288953,-28.5441413992068,0.0 -49.5287542,-28.5438338992068,0.0 -49.5287518,-28.5437346992068,0.0 -49.5287934,-28.5435663992068,0.0 -49.5288888,-28.5434466992068,0.0 -49.5290592,-28.5432325992068,0.0 -49.5291115,-28.5429944992068,0.0 -49.5293761,-28.5426665992068,0.0 -49.5298183,-28.5422589992068,0.0 -49.5301475,-28.5418535992068,0.0 -49.5302384,-28.5416702992068,0.0 -49.5304326,-28.5412787992068,0.0 -49.5305938,-28.5408001992068,0.0 -49.5305804,-28.5402543992068,0.0 -49.5306224,-28.5397955992068,0.0 -49.5308696,-28.5395737992068,0.0 -49.5315418,-28.5390561992069,0.0 -49.5327044,-28.5382006992069,0.0 -49.5331371,-28.5378210992069,0.0 -49.5336483,-28.5373726992069,0.0 -49.5339663,-28.5369579992069,0.0 -49.5343832,-28.5364312992069,0.0 -49.5344169,-28.5363609992069,0.0 -49.5344229,-28.5362916992069,0.0 -49.5344548,-28.5362073992069,0.0 -49.5345653,-28.5361572992069,0.0 -49.5347928,-28.5362724992069,0.0 -49.5349786,-28.5363297992069,0.0 -49.5351391,-28.5364046992069,0.0 -49.5352543,-28.5364466992069,0.0 -49.5353526,-28.5364575992069,0.0 -49.5355056,-28.5364286992069,0.0 -49.5356967,-28.5363594992069,0.0 -49.5360205,-28.5362348992069,0.0 -49.5361539,-28.5361847992069,0.0 -49.53632,-28.5360894992069,0.0 -49.5366224,-28.5359522992069,0.0 -49.5368089,-28.5358149992069,0.0 -49.5369334,-28.5357149992069,0.0 -49.5370376,-28.5355862992069,0.0 -49.5371573,-28.5354347992069,0.0 -49.537226,-28.5353555992069,0.0 -49.5373138,-28.5352477992069,0.0 -49.5374915,-28.5350831992069,0.0 -49.5377202,-28.5348544992069,0.0 -49.5378924,-28.5346687992069,0.0 -49.5379866,-28.5345261992069,0.0 -49.5380862,-28.5344427992069,0.0 -49.5382122,-28.5343423992069,0.0 -49.5383079,-28.534302099207,0.0 -49.5384978,-28.5342035992069,0.0 -49.5387077,-28.5340687992069,0.0 -49.5388376,-28.5340043992069,0.0 -49.5389481,-28.533999599207,0.0 -49.5390887,-28.534032099207,0.0 -49.5392261,-28.5340355992069,0.0 -49.5394359,-28.5340254992069,0.0 -49.539523,-28.533974499207,0.0 -49.5395921,-28.533897399207,0.0 -49.5396552,-28.533795699207,0.0 -49.5397648,-28.533731899207,0.0 -49.5400831,-28.533583899207,0.0 -49.5403076,-28.533460499207,0.0 -49.5405537,-28.533343299207,0.0 -49.5408044,-28.533279699207,0.0 -49.5411293,-28.533259099207,0.0 -49.5414678,-28.533259499207,0.0 -49.541793,-28.533297499207,0.0 -49.5419704,-28.533282599207,0.0 -49.5420882,-28.533237599207,0.0 -49.5422203,-28.533218699207,0.0 -49.5423313,-28.533230799207,0.0 -49.5424188,-28.533271699207,0.0 -49.5424895,-28.533345999207,0.0 -49.5425723,-28.533384099207,0.0 -49.542688,-28.533407899207,0.0 -49.5428583,-28.533386799207,0.0 -49.5429808,-28.533358999207,0.0 -49.5430975,-28.533252399207,0.0 -49.5431247,-28.533141499207,0.0 -49.5432724,-28.532994499207,0.0 -49.5433799,-28.532929099207,0.0 -49.5435127,-28.532890499207,0.0 -49.5437223,-28.532919999207,0.0 -49.5438324,-28.532996499207,0.0 -49.543969,-28.533005599207,0.0 -49.5443047,-28.532938699207,0.0 -49.5446008,-28.532885699207,0.0 -49.5448894,-28.532850899207,0.0 -49.5452051,-28.532824499207,0.0 -49.5454289,-28.532825099207,0.0 -49.5456417,-28.532839199207,0.0 -49.5459143,-28.532841399207,0.0 -49.546093,-28.532794899207,0.0 -49.5462568,-28.532764099207,0.0 -49.5464717,-28.532745999207,0.0 -49.5465822,-28.532767899207,0.0 -49.546715,-28.532760899207,0.0 -49.5468619,-28.532782999207,0.0 -49.5469603,-28.532750399207,0.0 -49.5469877,-28.532710899207,0.0 -49.5473,-28.532398599207,0.0 -49.5475521,-28.532107399207,0.0 -49.5478091,-28.531953199207,0.0 -49.5479118,-28.531834199207,0.0 -49.5479676,-28.531645199207,0.0 -49.5480498,-28.531458299207,0.0 -49.5481545,-28.531305399207,0.0 -49.5482206,-28.531210699207,0.0 -49.5483277,-28.531138499207,0.0 -49.5483415,-28.531048599207,0.0 -49.548319,-28.530951699207,0.0 -49.5482389,-28.530642399207,0.0 -49.5482178,-28.530561199207,0.0 -49.5481166,-28.530372999207,0.0 -49.5480385,-28.530158299207,0.0 -49.5479873,-28.529918199207,0.0 -49.5479168,-28.529769399207,0.0 -49.5479171,-28.529675499207,0.0 -49.5479527,-28.529495699207,0.0 -49.5480393,-28.529216399207,0.0 -49.5480997,-28.528969199207,0.0 -49.5481126,-28.528907399207,0.0 -49.5481668,-28.528868999207,0.0 -49.5482047,-28.528535099207,0.0 -49.5482845,-28.528435699207,0.0 -49.5484717,-28.5283151992071,0.0 -49.5485435,-28.5282151992071,0.0 -49.5485432,-28.5280932992071,0.0 -49.5484998,-28.5279561992071,0.0 -49.5483813,-28.5278073992071,0.0 -49.5482865,-28.5276272992071,0.0 -49.5482556,-28.5274980992071,0.0 -49.5482593,-28.5273586992071,0.0 -49.5482094,-28.5272473992071,0.0 -49.5481951,-28.5271240992071,0.0 -49.5482041,-28.5269482992071,0.0 -49.5482667,-28.5266538992071,0.0 -49.548269,-28.5264809992071,0.0 -49.5483178,-28.5261980992071,0.0 -49.548324,-28.5259956992071,0.0 -49.5482991,-28.5257244992071,0.0 -49.5481324,-28.5249205992071,0.0 -49.5480794,-28.5247670992071,0.0 -49.5480439,-28.5246467992071,0.0 -49.5480783,-28.5245470992071,0.0 -49.548297,-28.5242598992071,0.0 -49.5483385,-28.5241655992071,0.0 -49.5483594,-28.5241018992071,0.0 -49.5484207,-28.5240383992071,0.0 -49.5484796,-28.5240151992071,0.0 -49.5485443,-28.5240188992071,0.0 -49.5486525,-28.5239527992071,0.0 -49.5488014,-28.5238914992071,0.0 -49.5488317,-28.5237804992071,0.0 -49.5488822,-28.5236347992071,0.0 -49.5489727,-28.5235104992071,0.0 -49.5495342,-28.5230699992071,0.0 -49.5496588,-28.5229615992071,0.0 -49.5497896,-28.5228593992071,0.0 -49.5500196,-28.5227151992071,0.0 -49.5500991,-28.5226679992071,0.0 -49.5501786,-28.5226207992072,0.0 -49.5502799,-28.5225220992072,0.0 -49.5503484,-28.5224126992072,0.0 -49.5504482,-28.5222714992072,0.0 -49.5506079,-28.5220885992072,0.0 -49.5507286,-28.5219308992072,0.0 -49.550828,-28.5217917992072,0.0 -49.5509475,-28.5216954992072,0.0 -49.5510946,-28.5215508992072,0.0 -49.5512971,-28.5214838992072,0.0 -49.5514966,-28.5213763992072,0.0 -49.5519253,-28.5211012992072,0.0 -49.5522421,-28.5208719992072,0.0 -49.5523512,-28.5207541992072,0.0 -49.5524452,-28.5206294992072,0.0 -49.552605,-28.5204765992072,0.0 -49.5527762,-28.5202820992072,0.0 -49.5530378,-28.5200864992072,0.0 -49.5532915,-28.5198785992072,0.0 -49.5534483,-28.5197020992072,0.0 -49.5535608,-28.5195040992072,0.0 -49.5536545,-28.5193143992072,0.0 -49.5537205,-28.5190891992072,0.0 -49.5538278,-28.5187888992072,0.0 -49.553848,-28.5186478992072,0.0 -49.5537874,-28.5184797992072,0.0 -49.5537591,-28.5183581992072,0.0 -49.5537616,-28.5182516992072,0.0 -49.5537997,-28.5181202992072,0.0 -49.554154,-28.5172094992072,0.0 -49.5542506,-28.5170929992072,0.0 -49.554386,-28.5169723992073,0.0 -49.5545202,-28.5168517992073,0.0 -49.5547288,-28.5167053992073,0.0 -49.5549645,-28.5165318992073,0.0 -49.5552911,-28.5164876992073,0.0 -49.5554698,-28.5164743992073,0.0 -49.5558622,-28.5163943992073,0.0 -49.5560133,-28.5163087992073,0.0 -49.556128,-28.5162437992073,0.0 -49.5562823,-28.5159779992073,0.0 -49.5563915,-28.5158572992073,0.0 -49.5565662,-28.5156911992073,0.0 -49.5567609,-28.5154670992073,0.0 -49.5567988,-28.5154234992073,0.0 -49.5569857,-28.5152967992073,0.0 -49.5571672,-28.5152747992073,0.0 -49.5572976,-28.5152769992073,0.0 -49.5574519,-28.5152718992073,0.0 -49.5577872,-28.5152188992073,0.0 -49.5579723,-28.5151538992073,0.0 -49.5581408,-28.5150404992073,0.0 -49.5581892,-28.5150212992073,0.0 -49.5583344,-28.5149635992073,0.0 -49.5585076,-28.5149591992073,0.0 -49.5586939,-28.5149114992073,0.0 -49.5589092,-28.5148629992073,0.0 -49.5590931,-28.5148188992073,0.0 -49.5593494,-28.5148140992073,0.0 -49.5595078,-28.5147065992073,0.0 -49.559582,-28.5146014992073,0.0 -49.5596432,-28.5145206992073,0.0 -49.5598407,-28.5143883992073,0.0 -49.5599437,-28.5142890992073,0.0 -49.5600597,-28.5142288992073,0.0 -49.5602942,-28.5142062992073,0.0 -49.5604654,-28.5141713992073,0.0 -49.5606228,-28.5141665992073,0.0 -49.5608772,-28.5142350992073,0.0 -49.5612314,-28.5143061992073,0.0 -49.5616269,-28.5143093992073,0.0 -49.5620288,-28.5143187992073,0.0 -49.562369,-28.5143006992073,0.0 -49.5629643,-28.5141628992073,0.0 -49.5631525,-28.5140985992073,0.0 -49.5633388,-28.5140202992073,0.0 -49.5635397,-28.5139735992073,0.0 -49.5638395,-28.5139373992073,0.0 -49.5641907,-28.5138470992073,0.0 -49.5648307,-28.5136692992073,0.0 -49.5653507,-28.5135468992073,0.0 -49.5656611,-28.5134700992073,0.0 -49.5659054,-28.5134304992073,0.0 -49.5661584,-28.5133386992073,0.0 -49.5666156,-28.5132040992073,0.0 -49.5668422,-28.5131111992073,0.0 -49.5671363,-28.5129313992073,0.0 -49.5674575,-28.5126984992073,0.0 -49.5675455,-28.5126381992073,0.0 -49.5677616,-28.5125391992073,0.0 -49.5679342,-28.5124519992073,0.0 -49.5680437,-28.5123591992073,0.0 -49.5680911,-28.5122773992073,0.0 -49.5681384,-28.5121665992073,0.0 -49.5681854,-28.5120770992073,0.0 -49.5683074,-28.5119016992073,0.0 -49.5684112,-28.5117544992073,0.0 -49.5685011,-28.5116521992073,0.0 -49.5686127,-28.5115164992073,0.0 -49.568693,-28.5113962992074,0.0 -49.568753,-28.5112749992074,0.0 -49.5688954,-28.5109440992074,0.0 -49.5689388,-28.5107874992074,0.0 -49.5689866,-28.5106727992074,0.0 -49.5690094,-28.5105650992074,0.0 -49.5689844,-28.5104854992074,0.0 -49.5689237,-28.5103972992074,0.0 -49.5688585,-28.5102591992074,0.0 -49.5687969,-28.5101746992074,0.0 -49.5687473,-28.5100606992074,0.0 -49.5687273,-28.5099537992074,0.0 -49.5687094,-28.5098532992074,0.0 -49.5687263,-28.5097192992074,0.0 -49.5686816,-28.5096032992074,0.0 -49.5685971,-28.5094885992074,0.0 -49.568528,-28.5094244992074,0.0 -49.5684373,-28.5093419992074,0.0 -49.5682791,-28.5092003992074,0.0 -49.5681384,-28.5090103992074,0.0 -49.5678852,-28.5087257992074,0.0 -49.5676527,-28.5083032992074,0.0 -49.5675548,-28.5081690992074,0.0 -49.5674957,-28.5080250992074,0.0 -49.5674482,-28.5078252992074,0.0 -49.5673526,-28.5076070992074,0.0 -49.5672603,-28.5074512992074,0.0 -49.5671382,-28.5072302992074,0.0 -49.5670581,-28.5071272992074,0.0 -49.5669314,-28.5069501992074,0.0 -49.5667287,-28.5068227992074,0.0 -49.5666801,-28.5067597992074,0.0 -49.5666944,-28.5066763992074,0.0 -49.5667985,-28.5065041992074,0.0 -49.5668534,-28.5062726992075,0.0 -49.5669356,-28.5061367992074,0.0 -49.5669744,-28.5058491992075,0.0 -49.5670386,-28.5056631992075,0.0 -49.5670933,-28.5054879992075,0.0 -49.567175,-28.5053804992075,0.0 -49.5673562,-28.5051914992075,0.0 -49.5674659,-28.5050880992075,0.0 -49.5676918,-28.5048062992075,0.0 -49.5677538,-28.5046364992075,0.0 -49.567903,-28.5044639992075,0.0 -49.5680043,-28.5043666992075,0.0 -49.5682454,-28.5042893992075,0.0 -49.5683406,-28.5042084992075,0.0 -49.5684358,-28.5041275992075,0.0 -49.568685,-28.5039184992075,0.0 -49.5689327,-28.5037316992075,0.0 -49.5693147,-28.5034250992075,0.0 -49.5694468,-28.5032739992075,0.0 -49.5694595,-28.5032595992075,0.0 -49.5695069,-28.5030766992075,0.0 -49.5695193,-28.5028947992075,0.0 -49.5695121,-28.5027202992075,0.0 -49.5695083,-28.5026291992075,0.0 -49.5694899,-28.5025977992075,0.0 -49.5694309,-28.5024974992075,0.0 -49.5693192,-28.5023853992075,0.0 -49.5691297,-28.5023645992075,0.0 -49.5690212,-28.5023592992075,0.0 -49.5689545,-28.5023100992075,0.0 -49.5688559,-28.5022047992075,0.0 -49.5687417,-28.5021671992075,0.0 -49.5686838,-28.5021074992075,0.0 -49.5686159,-28.5020518992075,0.0 -49.5685026,-28.5020578992075,0.0 -49.5684747,-28.5019583992075,0.0 -49.5683885,-28.5018692992075,0.0 -49.5682931,-28.5017113992075,0.0 -49.5681453,-28.5015467992075,0.0 -49.5680709,-28.5014090992075,0.0 -49.5680042,-28.5012123992075,0.0 -49.5679174,-28.5011309992075,0.0 -49.5678306,-28.5010494992075,0.0 -49.5676741,-28.5008563992075,0.0 -49.5674665,-28.5006579992075,0.0 -49.5672949,-28.5005775992075,0.0 -49.5671964,-28.5004341992076,0.0 -49.5672906,-28.5000267992076,0.0 -49.5672036,-28.4996804992076,0.0 -49.5669969,-28.4994459992076,0.0 -49.5668125,-28.4993355992076,0.0 -49.5664564,-28.4992846992076,0.0 -49.5664409,-28.4991599992076,0.0 -49.5665759,-28.4989617992076,0.0 -49.5666211,-28.4987185992076,0.0 -49.5665465,-28.4985064992076,0.0 -49.5662935,-28.4981564992076,0.0 -49.5660891,-28.4978937992076,0.0 -49.565903,-28.4977612992076,0.0 -49.5654326,-28.4975105992076,0.0 -49.56506,-28.4974887992076,0.0 -49.5648585,-28.4974429992076,0.0 -49.5647862,-28.4972790992076,0.0 -49.5647785,-28.4969681992076,0.0 -49.5647088,-28.4967662992076,0.0 -49.564546,-28.4965171992076,0.0 -49.5643756,-28.4962211992076,0.0 -49.5641336,-28.4959786992076,0.0 -49.5637999,-28.4957989992076,0.0 -49.5633389,-28.4957210992076,0.0 -49.5632313,-28.4956436992076,0.0 -49.5631108,-28.4954862992076,0.0 -49.5629995,-28.4953397992076,0.0 -49.5627346,-28.4951699992076,0.0 -49.5625404,-28.4950880992076,0.0 -49.5623102,-28.4950671992076,0.0 -49.56222,-28.4950062992076,0.0 -49.5619868,-28.4949703992076,0.0 -49.5617697,-28.4949083992077,0.0 -49.5615845,-28.4947475992076,0.0 -49.5613613,-28.4946744992077,0.0 -49.5611448,-28.4947335992076,0.0 -49.5609325,-28.4946748992076,0.0 -49.5605584,-28.4945306992077,0.0 -49.5603644,-28.4945571992077,0.0 -49.5601947,-28.4946985992076,0.0 -49.5600573,-28.4948228992077,0.0 -49.5599561,-28.4949320992076,0.0 -49.5598993,-28.4951721992076,0.0 -49.5598045,-28.4953626992076,0.0 -49.5597267,-28.4954570992076,0.0 -49.5596635,-28.4954704992076,0.0 -49.5596003,-28.4954837992076,0.0 -49.559479,-28.4954659992076,0.0 -49.5592722,-28.4955480992076,0.0 -49.5591293,-28.4955839992076,0.0 -49.5587349,-28.4954570992076,0.0 -49.5585617,-28.4954298992076,0.0 -49.5583766,-28.4954566992076,0.0 -49.5581251,-28.4955367992076,0.0 -49.5579179,-28.4956113992076,0.0 -49.5577395,-28.4956974992076,0.0 -49.557638,-28.4957891992076,0.0 -49.5576391,-28.4959533992076,0.0 -49.557566,-28.4959794992076,0.0 -49.5574032,-28.4958367992076,0.0 -49.5572711,-28.4957375992076,0.0 -49.5571062,-28.4955905992076,0.0 -49.5567819,-28.4955047992076,0.0 -49.5562699,-28.4954482992076,0.0 -49.5556818,-28.4954481992076,0.0 -49.5552188,-28.4954049992076,0.0 -49.5548968,-28.4953169992076,0.0 -49.5547019,-28.4952159992076,0.0 -49.5544778,-28.4950549992076,0.0 -49.5541865,-28.4949312992076,0.0 -49.5542826,-28.4948705992076,0.0 -49.5544424,-28.4947337992076,0.0 -49.5544655,-28.4945124992077,0.0 -49.5545273,-28.4943252992077,0.0 -49.5546552,-28.4941622992077,0.0 -49.5548902,-28.4938711992077,0.0 -49.555017,-28.4937187992077,0.0 -49.5551681,-28.4936084992077,0.0 -49.5552703,-28.4934924992077,0.0 -49.5552584,-28.4933278992077,0.0 -49.5551813,-28.4932335992077,0.0 -49.5551967,-28.4930594992077,0.0 -49.5551478,-28.4929406992077,0.0 -49.5551782,-28.4928361992077,0.0 -49.5551653,-28.4926642992077,0.0 -49.555216,-28.4925554992077,0.0 -49.5552813,-28.4924308992077,0.0 -49.5553901,-28.4915876992077,0.0 -49.555463,-28.4911324992077,0.0 -49.5554381,-28.4908255992077,0.0 -49.5554262,-28.4905997992077,0.0 -49.5553282,-28.4904644992077,0.0 -49.5552303,-28.4903292992077,0.0 -49.5548691,-28.4903461992077,0.0 -49.554514,-28.4903518992077,0.0 -49.554332,-28.4903814992077,0.0 -49.5541664,-28.4903504992077,0.0 -49.5540424,-28.4902889992077,0.0 -49.5540482,-28.4901541992077,0.0 -49.5540658,-28.4897751992077,0.0 -49.5540438,-28.4896069992077,0.0 -49.5539946,-28.4894987992077,0.0 -49.5538687,-28.4893725992077,0.0 -49.5535267,-28.4892814992077,0.0 -49.5534923,-28.4892401992078,0.0 -49.5535735,-28.4891045992078,0.0 -49.5535427,-28.4889720992077,0.0 -49.5534575,-28.4888614992078,0.0 -49.5533808,-28.4887181992078,0.0 -49.5532384,-28.4885036992078,0.0 -49.5531191,-28.4883462992078,0.0 -49.5530753,-28.4882313992078,0.0 -49.5531045,-28.4877931992078,0.0 -49.5530559,-28.4875664992078,0.0 -49.5528563,-28.4874509992078,0.0 -49.5525249,-28.4874441992078,0.0 -49.5524309,-28.4873823992078,0.0 -49.5522954,-28.4872260992078,0.0 -49.5521206,-28.4871165992078,0.0 -49.5519527,-28.4871048992078,0.0 -49.5517057,-28.4870395992078,0.0 -49.5514587,-28.4869742992078,0.0 -49.5511556,-28.4868317992078,0.0 -49.5509682,-28.4866474992078,0.0 -49.5507783,-28.4865074992078,0.0 -49.5506248,-28.4865373992078,0.0 -49.5504335,-28.4866610992078,0.0 -49.5503052,-28.4867004992078,0.0 -49.5501904,-28.4866543992078,0.0 -49.5501388,-28.4865479992078,0.0 -49.5498729,-28.4860265992078,0.0 -49.5497981,-28.4858376992078,0.0 -49.5494635,-28.4857886992078,0.0 -49.5492387,-28.4857192992078,0.0 -49.5490677,-28.4856014992078,0.0 -49.5489731,-28.4853524992078,0.0 -49.5481289,-28.4838662992078,0.0 -49.5481591,-28.4837069992078,0.0 -49.5483158,-28.4836171992078,0.0 -49.5484327,-28.4837100992079,0.0 -49.5484967,-28.4838290992078,0.0 -49.5488509,-28.4840004992078,0.0 -49.5489911,-28.4841534992078,0.0 -49.5490722,-28.4843308992078,0.0 -49.5492896,-28.4845360992078,0.0 -49.5495057,-28.4846270992078,0.0 -49.5496291,-28.4848281992078,0.0 -49.5497715,-28.4848472992078,0.0 -49.5498876,-28.4849453992078,0.0 -49.5499304,-28.4851533992078,0.0 -49.5498112,-28.4853468992078,0.0 -49.549892,-28.4855264992078,0.0 -49.5500503,-28.4856042992078,0.0 -49.5504071,-28.4855140992078,0.0 -49.5506094,-28.4855091992078,0.0 -49.5507343,-28.4855061992078,0.0 -49.550947,-28.4854311992078,0.0 -49.5511057,-28.4854069992078,0.0 -49.5512388,-28.4853338992078,0.0 -49.5513531,-28.4852293992078,0.0 -49.5514509,-28.4851066992078,0.0 -49.551696,-28.4848883992078,0.0 -49.5517628,-28.4847409992078,0.0 -49.5519186,-28.4843618992078,0.0 -49.5518688,-28.4840904992078,0.0 -49.5517979,-28.4839742992078,0.0 -49.551809,-28.4838448992078,0.0 -49.5519266,-28.4837143992078,0.0 -49.5521877,-28.4836346992079,0.0 -49.5522463,-28.4836167992079,0.0 -49.5524338,-28.4834460992079,0.0 -49.5527282,-28.4832148992079,0.0 -49.5532668,-28.4827919992079,0.0 -49.5533727,-28.4825517992079,0.0 -49.5536102,-28.4822660992079,0.0 -49.5537951,-28.4820044992079,0.0 -49.5540845,-28.4816956992079,0.0 -49.5542456,-28.4814971992079,0.0 -49.5543676,-28.4813082992079,0.0 -49.5544704,-28.4809134992079,0.0 -49.554459,-28.4807955992079,0.0 -49.5544476,-28.4806775992079,0.0 -49.5542896,-28.4804983992079,0.0 -49.5541295,-28.4802772992079,0.0 -49.5540764,-28.4800206992079,0.0 -49.5540824,-28.4798102992079,0.0 -49.554199,-28.4795787992079,0.0 -49.5542943,-28.4794078992079,0.0 -49.5543489,-28.4790952992079,0.0 -49.5545279,-28.4784637992079,0.0 -49.5549205,-28.4780854992079,0.0 -49.5551994,-28.477869499208,0.0 -49.5553963,-28.477582599208,0.0 -49.5553852,-28.477083899208,0.0 -49.5554063,-28.476741199208,0.0 -49.5554345,-28.476535999208,0.0 -49.5553581,-28.476341199208,0.0 -49.5552648,-28.476103399208,0.0 -49.5551746,-28.475875399208,0.0 -49.5550861,-28.475610199208,0.0 -49.5550105,-28.475435899208,0.0 -49.5549436,-28.475388099208,0.0 -49.5548768,-28.475340399208,0.0 -49.5547791,-28.475233099208,0.0 -49.5549265,-28.475201699208,0.0 -49.555102,-28.475164299208,0.0 -49.5553005,-28.475122099208,0.0 -49.5555703,-28.475081599208,0.0 -49.5557551,-28.475088999208,0.0 -49.5559527,-28.475108699208,0.0 -49.5560512,-28.475018599208,0.0 -49.5561403,-28.474899199208,0.0 -49.5563017,-28.474774099208,0.0 -49.5564805,-28.474638399208,0.0 -49.5566437,-28.474501199208,0.0 -49.5568182,-28.474269099208,0.0 -49.556919,-28.474098499208,0.0 -49.5570427,-28.474006099208,0.0 -49.5570331,-28.474191199208,0.0 -49.5570313,-28.474407699208,0.0 -49.5570382,-28.474642799208,0.0 -49.5570843,-28.474860499208,0.0 -49.5572096,-28.475259699208,0.0 -49.5572596,-28.475484099208,0.0 -49.5573796,-28.475755099208,0.0 -49.5574448,-28.475581999208,0.0 -49.5575374,-28.475382699208,0.0 -49.5576672,-28.475157299208,0.0 -49.5578196,-28.474966799208,0.0 -49.5579587,-28.474838799208,0.0 -49.5580683,-28.474646999208,0.0 -49.5581905,-28.474364099208,0.0 -49.5582961,-28.474151699208,0.0 -49.5583875,-28.473926099208,0.0 -49.5584481,-28.473707599208,0.0 -49.5585345,-28.473500399208,0.0 -49.5586183,-28.473234899208,0.0 -49.558756,-28.473003899208,0.0 -49.5587807,-28.472988399208,0.0 -49.5591066,-28.4727836992081,0.0 -49.5593492,-28.472623899208,0.0 -49.559576,-28.4725008992081,0.0 -49.5598166,-28.472346699208,0.0 -49.5600124,-28.4722212992081,0.0 -49.5601417,-28.4719602992081,0.0 -49.5601278,-28.4717212992081,0.0 -49.5601663,-28.4715597992081,0.0 -49.5603108,-28.4714930992081,0.0 -49.5604568,-28.4713847992081,0.0 -49.5605731,-28.4712588992081,0.0 -49.5607336,-28.4711172992081,0.0 -49.5609681,-28.4709794992081,0.0 -49.5611422,-28.4708962992081,0.0 -49.5613037,-28.4707076992081,0.0 -49.5613083,-28.4705059992081,0.0 -49.5613793,-28.4703409992081,0.0 -49.5614642,-28.4701213992081,0.0 -49.5614006,-28.4699842992081,0.0 -49.5614847,-28.4698503992081,0.0 -49.5616376,-28.4696785992081,0.0 -49.5617692,-28.4694461992081,0.0 -49.5618766,-28.4691515992081,0.0 -49.561885,-28.4689996992081,0.0 -49.5619015,-28.4688987992081,0.0 -49.561918,-28.4687977992081,0.0 -49.5620457,-28.4686395992081,0.0 -49.562217,-28.4684273992081,0.0 -49.5623953,-28.4682064992081,0.0 -49.5625003,-28.4680433992081,0.0 -49.5625831,-28.4679582992081,0.0 -49.5626544,-28.4678032992081,0.0 -49.5624816,-28.4675229992081,0.0 -49.5622492,-28.4673898992081,0.0 -49.5620235,-28.4673395992081,0.0 -49.5617697,-28.4673375992081,0.0 -49.5615119,-28.4672681992081,0.0 -49.5612069,-28.4672001992081,0.0 -49.5609404,-28.4671428992081,0.0 -49.56069,-28.4671381992082,0.0 -49.5603673,-28.4671139992081,0.0 -49.5599536,-28.4670131992081,0.0 -49.5597135,-28.4668343992081,0.0 -49.5595365,-28.4666616992082,0.0 -49.559188,-28.4665935992082,0.0 -49.558796,-28.4664900992082,0.0 -49.5585416,-28.4664992992082,0.0 -49.5584587,-28.4665162992082,0.0 -49.5583757,-28.4665331992082,0.0 -49.5582508,-28.4664713992081,0.0 -49.5582241,-28.4662921992082,0.0 -49.5582702,-28.4660730992082,0.0 -49.5583423,-28.4659305992082,0.0 -49.5584649,-28.4657102992082,0.0 -49.5585281,-28.4654373992082,0.0 -49.5585546,-28.4651820992082,0.0 -49.5586206,-28.4649796992082,0.0 -49.5587837,-28.4647987992082,0.0 -49.5590224,-28.4644965992082,0.0 -49.5592793,-28.4641713992082,0.0 -49.5595228,-28.4639503992082,0.0 -49.559766,-28.4637295992082,0.0 -49.5599208,-28.4635052992082,0.0 -49.5600649,-28.4632907992082,0.0 -49.5600992,-28.4630713992082,0.0 -49.5601255,-28.4628745992082,0.0 -49.5600206,-28.4627061992082,0.0 -49.5599426,-28.4624947992082,0.0 -49.5598901,-28.4622589992082,0.0 -49.5598373,-28.4620797992082,0.0 -49.5596887,-28.4619167992082,0.0 -49.5595412,-28.4618358992082,0.0 -49.5594379,-28.4617228992082,0.0 -49.5594594,-28.4615211992082,0.0 -49.5595156,-28.4612830992082,0.0 -49.559425,-28.4611865992082,0.0 -49.559247,-28.4613040992082,0.0 -49.5590888,-28.4614664992082,0.0 -49.5589495,-28.4617268992082,0.0 -49.5586499,-28.4618698992082,0.0 -49.5584519,-28.4619643992082,0.0 -49.558214,-28.4619810992082,0.0 -49.5581208,-28.4619868992082,0.0 -49.5579123,-28.4619998992082,0.0 -49.5576696,-28.4621139992082,0.0 -49.5574518,-28.4622373992082,0.0 -49.5572117,-28.4621582992082,0.0 -49.5570657,-28.4620070992082,0.0 -49.5568698,-28.4619157992082,0.0 -49.5567393,-28.4617091992082,0.0 -49.5565738,-28.4615212992082,0.0 -49.5564074,-28.4615415992082,0.0 -49.5562833,-28.4616534992082,0.0 -49.5558338,-28.4617036992082,0.0 -49.5555852,-28.4616205992082,0.0 -49.5553381,-28.4613064992082,0.0 -49.5551516,-28.4611062992083,0.0 -49.5550472,-28.4610682992083,0.0 -49.5548495,-28.4609961992083,0.0 -49.5546695,-28.4609208992083,0.0 -49.554559,-28.4607615992083,0.0 -49.5545679,-28.4604289992083,0.0 -49.5547146,-28.4600303992083,0.0 -49.5549638,-28.4595938992083,0.0 -49.5550987,-28.4591509992083,0.0 -49.5552851,-28.4588344992083,0.0 -49.5553806,-28.4585402992083,0.0 -49.5554206,-28.4580833992083,0.0 -49.5554465,-28.4577878992083,0.0 -49.5553736,-28.4576050992083,0.0 -49.5551417,-28.4574227992083,0.0 -49.5549343,-28.4573265992083,0.0 -49.55463,-28.4573447992083,0.0 -49.554408,-28.4573348992083,0.0 -49.554147,-28.4572114992083,0.0 -49.5540179,-28.4570570992083,0.0 -49.5538984,-28.4568299992083,0.0 -49.5538277,-28.4564235992083,0.0 -49.5537216,-28.4559672992083,0.0 -49.5536071,-28.4556254992084,0.0 -49.5533775,-28.4553525992084,0.0 -49.5532358,-28.4550656992084,0.0 -49.5530015,-28.4549596992084,0.0 -49.5527005,-28.4548990992084,0.0 -49.5525502,-28.4548050992084,0.0 -49.5524947,-28.4544388992084,0.0 -49.5523998,-28.4541554992084,0.0 -49.5523402,-28.4539314992084,0.0 -49.5521458,-28.4535374992084,0.0 -49.5518506,-28.4532480992084,0.0 -49.5516531,-28.4529499992084,0.0 -49.5513384,-28.4526563992084,0.0 -49.5507957,-28.4522166992084,0.0 -49.5504712,-28.4519535992084,0.0 -49.5502861,-28.4519629992084,0.0 -49.5501731,-28.4522018992084,0.0 -49.5500168,-28.4525325992084,0.0 -49.5498887,-28.4528037992084,0.0 -49.5497366,-28.4532104992084,0.0 -49.5496358,-28.4535959992084,0.0 -49.549389,-28.4539371992084,0.0 -49.5490839,-28.4543590992084,0.0 -49.5487887,-28.4545460992084,0.0 -49.5487314,-28.4545614992084,0.0 -49.5485105,-28.4546210992084,0.0 -49.5482116,-28.4546889992084,0.0 -49.5478261,-28.4546889992084,0.0 -49.5474488,-28.4546889992084,0.0 -49.5471401,-28.4546889992084,0.0 -49.5466938,-28.4547422992084,0.0 -49.5459579,-28.4547186992084,0.0 -49.5455128,-28.4547861992084,0.0 -49.545185,-28.4548945992084,0.0 -49.5449232,-28.4549700992084,0.0 -49.5446007,-28.4549628992084,0.0 -49.5449013,-28.4547745992084,0.0 -49.5452224,-28.4546076992084,0.0 -49.5454939,-28.4543865992084,0.0 -49.5459922,-28.4539809992084,0.0 -49.5461737,-28.4537037992084,0.0 -49.5464977,-28.4533992992084,0.0 -49.5469956,-28.4531428992084,0.0 -49.5473204,-28.4528736992084,0.0 -49.5474842,-28.4526344992084,0.0 -49.5474722,-28.4523133992084,0.0 -49.5472896,-28.4520471992084,0.0 -49.5469928,-28.4517570992084,0.0 -49.5467277,-28.4514978992084,0.0 -49.5464123,-28.4513587992084,0.0 -49.5460849,-28.4513026992084,0.0 -49.5462093,-28.4511633992084,0.0 -49.5464645,-28.4510578992084,0.0 -49.5466686,-28.4509986992084,0.0 -49.5470084,-28.4508643992084,0.0 -49.5472712,-28.4507799992084,0.0 -49.5474906,-28.4505481992084,0.0 -49.5478741,-28.4502343992084,0.0 -49.5481477,-28.4499946992084,0.0 -49.5485509,-28.4496698992085,0.0 -49.5487673,-28.4494271992085,0.0 -49.5488545,-28.4491148992085,0.0 -49.5488295,-28.4488355992085,0.0 -49.5486852,-28.4485069992085,0.0 -49.5484897,-28.4483121992085,0.0 -49.5481311,-28.4481774992085,0.0 -49.5477414,-28.4481262992085,0.0 -49.5473886,-28.4480355992085,0.0 -49.5466833,-28.4479659992085,0.0 -49.5461757,-28.4478559992085,0.0 -49.5458521,-28.4477451992085,0.0 -49.5458456,-28.4476151992085,0.0 -49.5460582,-28.4475588992085,0.0 -49.5463273,-28.4475774992085,0.0 -49.5466656,-28.4475693992085,0.0 -49.5471553,-28.4475576992085,0.0 -49.547851,-28.4475409992085,0.0 -49.548076,-28.4474253992085,0.0 -49.5481054,-28.4471483992085,0.0 -49.5480084,-28.4469029992085,0.0 -49.5477857,-28.4465635992085,0.0 -49.5476562,-28.4463661992085,0.0 -49.547568,-28.4462576992085,0.0 -49.5474798,-28.4461491992085,0.0 -49.5473838,-28.4459428992085,0.0 -49.5472207,-28.4457214992085,0.0 -49.5470877,-28.4455409992085,0.0 -49.5470471,-28.4451893992085,0.0 -49.5470215,-28.4448971992085,0.0 -49.5469245,-28.4445525992085,0.0 -49.5469457,-28.4442737992086,0.0 -49.5467829,-28.4439970992086,0.0 -49.5466762,-28.4437164992086,0.0 -49.5466502,-28.4433416992086,0.0 -49.5466225,-28.4429433992086,0.0 -49.5466051,-28.4427248992086,0.0 -49.5464933,-28.4425194992086,0.0 -49.546282,-28.4424338992086,0.0 -49.5460474,-28.4423766992086,0.0 -49.5457452,-28.4423729992086,0.0 -49.5457091,-28.4423764992086,0.0 -49.5454441,-28.4424018992086,0.0 -49.5450887,-28.4425493992086,0.0 -49.5449909,-28.4426203992086,0.0 -49.5447742,-28.4427774992086,0.0 -49.5445541,-28.4429370992086,0.0 -49.5442986,-28.4429453992086,0.0 -49.5440422,-28.4428480992086,0.0 -49.5438399,-28.4427516992086,0.0 -49.5435756,-28.4427466992086,0.0 -49.5433346,-28.4427916992086,0.0 -49.5433492,-28.4425789992086,0.0 -49.5434287,-28.4423239992086,0.0 -49.5435506,-28.4421402992086,0.0 -49.5436269,-28.4419604992086,0.0 -49.5436761,-28.4417359992086,0.0 -49.5436559,-28.4415411992086,0.0 -49.5434625,-28.4413738992086,0.0 -49.5431865,-28.4411970992086,0.0 -49.5429774,-28.4410916992086,0.0 -49.5427632,-28.4411233992086,0.0 -49.5426947,-28.4409636992086,0.0 -49.5426288,-28.4408102992086,0.0 -49.5424455,-28.4406413992086,0.0 -49.5422603,-28.4404659992086,0.0 -49.5421597,-28.4402229992086,0.0 -49.5422645,-28.4397811992086,0.0 -49.5422315,-28.4395820992086,0.0 -49.5423841,-28.4394154992086,0.0 -49.5425816,-28.4391459992086,0.0 -49.5426283,-28.4390820992087,0.0 -49.5427575,-28.4389057992087,0.0 -49.5428891,-28.4385787992087,0.0 -49.5428467,-28.4382909992087,0.0 -49.5426272,-28.4381310992087,0.0 -49.5426703,-28.4378394992087,0.0 -49.542546,-28.4375875992087,0.0 -49.5422845,-28.4373809992087,0.0 -49.5419559,-28.4372562992087,0.0 -49.5413841,-28.4368768992087,0.0 -49.5407647,-28.4368316992087,0.0 -49.5400459,-28.4368831992087,0.0 -49.5398036,-28.4369368992087,0.0 -49.5393976,-28.4367341992087,0.0 -49.5390794,-28.4366697992087,0.0 -49.5386714,-28.4366244992087,0.0 -49.5382928,-28.4366479992087,0.0 -49.5380059,-28.4367258992087,0.0 -49.5377309,-28.4368494992087,0.0 -49.5375421,-28.4370603992087,0.0 -49.5373314,-28.4373407992087,0.0 -49.537151,-28.4372342992087,0.0 -49.5370271,-28.4372023992087,0.0 -49.5368583,-28.4371588992087,0.0 -49.5368199,-28.4370731992087,0.0 -49.5369309,-28.4369600992087,0.0 -49.5369465,-28.4367950992087,0.0 -49.536778,-28.4367616992087,0.0 -49.5365137,-28.4367778992087,0.0 -49.5363917,-28.4367853992087,0.0 -49.5360436,-28.4367087992087,0.0 -49.5356876,-28.4366569992087,0.0 -49.5354927,-28.4363804992087,0.0 -49.5352978,-28.4361040992087,0.0 -49.5350152,-28.4360513992087,0.0 -49.5347809,-28.4359880992087,0.0 -49.5346039,-28.4359663992087,0.0 -49.5344379,-28.4359483992087,0.0 -49.5343304,-28.4359428992087,0.0 -49.5342215,-28.4359775992087,0.0 -49.5341155,-28.4360241992087,0.0 -49.5339619,-28.4360848992087,0.0 -49.5338523,-28.4361516992087,0.0 -49.5337996,-28.4362433992087,0.0 -49.5337912,-28.4363934992087,0.0 -49.5338867,-28.4364798992087,0.0 -49.5339759,-28.4365825992087,0.0 -49.5340214,-28.4366715992087,0.0 -49.534038,-28.4368027992087,0.0 -49.5339878,-28.4369344992087,0.0 -49.5339448,-28.4370441992087,0.0 -49.5338765,-28.4371205992087,0.0 -49.5337886,-28.4371028992087,0.0 -49.5336946,-28.4370901992087,0.0 -49.5335698,-28.4371130992087,0.0 -49.5334851,-28.4371718992087,0.0 -49.5332553,-28.4373897992087,0.0 -49.5331325,-28.4375035992087,0.0 -49.5330449,-28.4375854992087,0.0 -49.5329157,-28.4376828992087,0.0 -49.5328101,-28.4377860992087,0.0 -49.5326291,-28.4379719992087,0.0 -49.5324635,-28.4381780992087,0.0 -49.5324055,-28.4383353992087,0.0 -49.532316,-28.4385736992087,0.0 -49.5322818,-28.4386910992086,0.0 -49.5322321,-28.4387921992087,0.0 -49.5321546,-28.4388685992086,0.0 -49.5320526,-28.4388930992086,0.0 -49.5319449,-28.4389147992086,0.0 -49.5318907,-28.4389576992086,0.0 -49.5317586,-28.4390068992086,0.0 -49.5316981,-28.4390275992086,0.0 -49.5316375,-28.4390482992086,0.0 -49.5315744,-28.4391423992086,0.0 -49.5315089,-28.4392271992087,0.0 -49.5314355,-28.4392927992086,0.0 -49.5313188,-28.4393332992086,0.0 -49.5312105,-28.4393641992086,0.0 -49.5311134,-28.4394571992086,0.0 -49.531026,-28.4395150992086,0.0 -49.5309247,-28.4395398992086,0.0 -49.5307946,-28.4395471992086,0.0 -49.5306933,-28.4395625992086,0.0 -49.5305989,-28.4395863992086,0.0 -49.5304375,-28.4395618992086,0.0 -49.5302663,-28.4395276992086,0.0 -49.5300559,-28.4395080992086,0.0 -49.5298966,-28.4394894992086,0.0 -49.5297917,-28.4394835992086,0.0 -49.5296156,-28.4394444992086,0.0 -49.5292536,-28.4393955992086,0.0 -49.528965,-28.4393563992086,0.0 -49.5286736,-28.4393292992086,0.0 -49.5285443,-28.4393172992086,0.0 -49.528366,-28.4392853992086,0.0 -49.5282361,-28.4392487992087,0.0 -49.5280746,-28.4391851992086,0.0 -49.5280156,-28.4391598992086,0.0 -49.5278692,-28.4390971992086,0.0 -49.5276295,-28.4389845992087,0.0 -49.5273849,-28.4388867992086,0.0 -49.5271802,-28.4388022992086,0.0 -49.5269544,-28.4387302992087,0.0 -49.5266315,-28.4386617992087,0.0 -49.5264721,-28.4386142992086,0.0 -49.5262503,-28.4385705992087,0.0 -49.5260285,-28.4385268992087,0.0 -49.5252627,-28.4383379992087,0.0 -49.5245842,-28.4381790992087,0.0 -49.5241366,-28.4380697992087,0.0 -49.5238382,-28.4380012992087,0.0 -49.5235241,-28.4379441992087,0.0 -49.5231302,-28.4378747992087,0.0 -49.5228614,-28.4378528992087,0.0 -49.5227067,-28.4378426992087,0.0 -49.5225418,-28.4378398992087,0.0 -49.5223769,-28.4378461992087,0.0 -49.5222434,-28.4378545992087,0.0 -49.5220428,-28.4378692992087,0.0 -49.5218372,-28.4378720992087,0.0 -49.5217238,-28.4378796992087,0.0 -49.5216402,-28.4378720992087,0.0 -49.5215724,-28.4378049992087,0.0 -49.5215053,-28.4377301992087,0.0 -49.5214235,-28.4376585992087,0.0 -49.5212747,-28.4374925992087,0.0 -49.5210644,-28.4372723992087,0.0 -49.5208177,-28.4370800992087,0.0 -49.5207122,-28.4370033992087,0.0 -49.5205654,-28.4368859992087,0.0 -49.5203404,-28.4367293992087,0.0 -49.5201594,-28.4366462992087,0.0 -49.5200077,-28.4366119992087,0.0 -49.5199238,-28.4366086992087,0.0 -49.5197582,-28.4366021992087,0.0 -49.5195527,-28.4365972992087,0.0 -49.5193954,-28.4366035992087,0.0 -49.5191995,-28.4366028992087,0.0 -49.5190195,-28.4366021992087,0.0 -49.5188654,-28.4366266992087,0.0 -49.5187113,-28.4366510992087,0.0 -49.5185303,-28.4367146992087,0.0 -49.518364,-28.4367489992087,0.0 -49.5182221,-28.4367929992087,0.0 -49.5179824,-28.4368565992087,0.0 -49.5176329,-28.4369213992087,0.0 -49.5174798,-28.4369920992087,0.0 -49.5173387,-28.4371029992087,0.0 -49.5172144,-28.4372220992087,0.0 -49.5168964,-28.4374974992087,0.0 -49.5166616,-28.4377518992087,0.0 -49.5165197,-28.4378936992087,0.0 -49.5164659,-28.4379376992087,0.0 -49.5162821,-28.4379747992087,0.0 -49.5160256,-28.4380355992087,0.0 -49.51585,-28.4380699992087,0.0 -49.5157125,-28.4381089992087,0.0 -49.5155951,-28.4381725992087,0.0 -49.5154973,-28.4382214992087,0.0 -49.5153505,-28.4383241992087,0.0 -49.5152135,-28.4384269992087,0.0 -49.5149836,-28.4385540992087,0.0 -49.5148501,-28.4386037992087,0.0 -49.5147166,-28.4386165992087,0.0 -49.5145531,-28.4386169992087,0.0 -49.5142561,-28.4386119992087,0.0 -49.5141342,-28.4386197992087,0.0 -49.5140296,-28.4386176992087,0.0 -49.5133526,-28.4386552992087,0.0 -49.513201,-28.4386444992087,0.0 -49.5130818,-28.4386119992087,0.0 -49.5129518,-28.4385036992087,0.0 -49.5128705,-28.4384061992087,0.0 -49.512773,-28.4382652992087,0.0 -49.5127026,-28.4381514992087,0.0 -49.5126213,-28.4380323992087,0.0 -49.5125617,-28.4379131992087,0.0 -49.512489,-28.4378545992087,0.0 -49.5123667,-28.4377560992087,0.0 -49.5122367,-28.4377018992087,0.0 -49.5119333,-28.4375881992087,0.0 -49.5117004,-28.4375447992087,0.0 -49.5115172,-28.4375388992087,0.0 -49.5112833,-28.4375393992087,0.0 -49.5109962,-28.4375826992087,0.0 -49.5108054,-28.4376355992087,0.0 -49.510644,-28.4376801992087,0.0 -49.5103948,-28.4377343992087,0.0 -49.5100896,-28.4377459992087,0.0 -49.509927,-28.4377467992087,0.0 -49.5098103,-28.4377946992087,0.0 -49.5097369,-28.4378261992087,0.0 -49.5096582,-28.4378663992087,0.0 -49.5095404,-28.4379019992087,0.0 -49.5093331,-28.4379564992087,0.0 -49.5091868,-28.4380160992087,0.0 -49.509073,-28.4380973992087,0.0 -49.5089159,-28.4381839992087,0.0 -49.5087805,-28.4382598992087,0.0 -49.5086342,-28.4383356992087,0.0 -49.5084934,-28.4384006992087,0.0 -49.5083092,-28.4384927992087,0.0 -49.5079723,-28.4386703992087,0.0 -49.5077296,-28.4387961992086,0.0 -49.5075454,-28.4389099992087,0.0 -49.5073774,-28.4390019992086,0.0 -49.5072742,-28.4390561992087,0.0 -49.5071604,-28.4390975992086,0.0 -49.5069549,-28.4391374992086,0.0 -49.506787,-28.4391753992086,0.0 -49.5067436,-28.4392078992086,0.0 -49.5066786,-28.4392511992086,0.0 -49.5066052,-28.4393417992086,0.0 -49.5065393,-28.4393769992086,0.0 -49.5064294,-28.4393270992086,0.0 -49.5062844,-28.4392655992086,0.0 -49.5060946,-28.4391871992086,0.0 -49.50591,-28.4391328992086,0.0 -49.5056801,-28.4390300992087,0.0 -49.5055606,-28.4389638992086,0.0 -49.5054378,-28.4389144992087,0.0 -49.5049971,-28.4386555992087,0.0 -49.5048201,-28.4385183992087,0.0 -49.5045117,-28.4382977992087,0.0 -49.5042896,-28.4380756992087,0.0 -49.5041217,-28.4379023992087,0.0 -49.5039917,-28.4377722992087,0.0 -49.5039213,-28.4376531992087,0.0 -49.5038454,-28.4375176992087,0.0 -49.5037046,-28.4374093992087,0.0 -49.5036007,-28.4373884992087,0.0 -49.5034879,-28.4373876992087,0.0 -49.5032441,-28.4373857992087,0.0 -49.5030982,-28.4374058992087,0.0 -49.5029787,-28.4374526992087,0.0 -49.5028567,-28.4375150992087,0.0 -49.5025294,-28.4376876992087,0.0 -49.5023141,-28.4377709992087,0.0 -49.5020268,-28.4378900992087,0.0 -49.5016895,-28.4380038992087,0.0 -49.5014491,-28.4380491992087,0.0 -49.5011519,-28.4381002992087,0.0 -49.5008956,-28.4381179992087,0.0 -49.5006513,-28.4381246992087,0.0 -49.5004385,-28.4380951992087,0.0 -49.5001681,-28.4380862992087,0.0 -49.499992,-28.4380662992087,0.0 -49.499839,-28.4380430992087,0.0 -49.4996501,-28.4380161992087,0.0 -49.4994559,-28.4379891992087,0.0 -49.4992239,-28.4379675992087,0.0 -49.4990782,-28.4379945992087,0.0 -49.4989541,-28.4380430992087,0.0 -49.498884,-28.4380970992087,0.0 -49.4988283,-28.4381459992087,0.0 -49.4987059,-28.4382535992087,0.0 -49.4984361,-28.4384747992087,0.0 -49.4982311,-28.4386366992087,0.0 -49.4981508,-28.4387127992087,0.0 -49.498052,-28.4387777992086,0.0 -49.4979505,-28.4388200992086,0.0 -49.4976741,-28.4388384992087,0.0 -49.4974094,-28.4388689992086,0.0 -49.4971317,-28.4388901992086,0.0 -49.4968714,-28.4389171992087,0.0 -49.4965855,-28.4389117992086,0.0 -49.4962563,-28.4388740992087,0.0 -49.4959542,-28.4388740992087,0.0 -49.4956628,-28.4388794992086,0.0 -49.4954632,-28.4389063992087,0.0 -49.4953013,-28.4389603992086,0.0 -49.4951718,-28.4389927992086,0.0 -49.4950207,-28.4390466992086,0.0 -49.4948721,-28.4391078992087,0.0 -49.4948373,-28.4391222992086,0.0 -49.494704,-28.4392036992086,0.0 -49.4945783,-28.4393002992086,0.0 -49.4942276,-28.4394675992086,0.0 -49.4941713,-28.4394849992086,0.0 -49.4940997,-28.4395237992086,0.0 -49.4939586,-28.4395503992086,0.0 -49.493902,-28.4395017992086,0.0 -49.493843,-28.4394521992086,0.0 -49.4936946,-28.4394026992086,0.0 -49.4936054,-28.4393903992086,0.0 -49.4935107,-28.4393778992086,0.0 -49.4933889,-28.4393753992086,0.0 -49.493037,-28.4393381992087,0.0 -49.4929812,-28.4393419992086,0.0 -49.4928705,-28.4393551992086,0.0 -49.4928084,-28.4394061992086,0.0 -49.4927438,-28.4394944992086,0.0 -49.4925954,-28.4396261992086,0.0 -49.4925499,-28.4396814992086,0.0 -49.4924634,-28.4397682992086,0.0 -49.4923773,-28.4398446992086,0.0 -49.4921973,-28.4400173992086,0.0 -49.4920912,-28.4400956992086,0.0 -49.4920058,-28.4401451992086,0.0 -49.4919246,-28.4402066992086,0.0 -49.4918691,-28.4402576992086,0.0 -49.4917594,-28.4403946992086,0.0 -49.4916668,-28.4404570992086,0.0 -49.4914705,-28.4405520992086,0.0 -49.4912813,-28.4405984992086,0.0 -49.4910928,-28.4406167992086,0.0 -49.4908746,-28.4405995992086,0.0 -49.490651,-28.4405785992086,0.0 -49.4905315,-28.4405531992086,0.0 -49.4904325,-28.4405154992086,0.0 -49.490338,-28.4405047992086,0.0 -49.4902494,-28.4404866992086,0.0 -49.4901837,-28.4404820992086,0.0 -49.490094,-28.4404727992086,0.0 -49.4900211,-28.4404681992086,0.0 -49.489841,-28.4404872992086,0.0 -49.4897467,-28.4404901992086,0.0 -49.4896712,-28.4405040992086,0.0 -49.4895706,-28.4405193992086,0.0 -49.4894557,-28.4405471992086,0.0 -49.4893274,-28.4405702992086,0.0 -49.489188,-28.4405811992086,0.0 -49.4890391,-28.4405753992086,0.0 -49.4888652,-28.4405495992086,0.0 -49.4887158,-28.4405652992086,0.0 -49.4885173,-28.4406223992086,0.0 -49.488331,-28.4407013992086,0.0 -49.4881684,-28.4407786992086,0.0 -49.4880103,-28.4408413992086,0.0 -49.4878283,-28.4409439992086,0.0 -49.4877571,-28.4409893992086,0.0 -49.4877029,-28.4410649992086,0.0 -49.4876904,-28.4411953992086,0.0 -49.4876834,-28.4413666992086,0.0 -49.4876828,-28.4417066992086,0.0 -49.4875895,-28.4421195992086,0.0 -49.4874965,-28.4423231992086,0.0 -49.487373,-28.4424718992086,0.0 -49.4870826,-28.4425099992086,0.0 -49.4868597,-28.4425446992086,0.0 -49.4866368,-28.4425793992086,0.0 -49.4864078,-28.4425502992086,0.0 -49.4861139,-28.4425302992086,0.0 -49.4858798,-28.4424659992086,0.0 -49.4856826,-28.4422976992086,0.0 -49.4854735,-28.4421065992086,0.0 -49.4853002,-28.4419571992086,0.0 -49.4850706,-28.4416655992086,0.0 -49.4849693,-28.4415801992086,0.0 -49.4846292,-28.4415016992086,0.0 -49.4843993,-28.4414493992086,0.0 -49.4839965,-28.4413866992086,0.0 -49.4838189,-28.4413667992086,0.0 -49.4835625,-28.4412291992086,0.0 -49.4834526,-28.4411239992086,0.0 -49.4832282,-28.4409415992086,0.0 -49.4831289,-28.4409081992086,0.0 -49.4829131,-28.4408865992086,0.0 -49.4827769,-28.4409459992086,0.0 -49.4826109,-28.4411685992086,0.0 -49.4824218,-28.4413046992086,0.0 -49.4823088,-28.4413613992086,0.0 -49.4820764,-28.4413857992086,0.0 -49.4818777,-28.4414083992086,0.0 -49.4817232,-28.4414483992086,0.0 -49.4816092,-28.4414604992086,0.0 -49.4813191,-28.4414746992086,0.0 -49.4811218,-28.4414600992086,0.0 -49.4809211,-28.4414432992086,0.0 -49.4806707,-28.4414683992086,0.0 -49.4803352,-28.4415263992086,0.0 -49.4801147,-28.4415705992086,0.0 -49.479905,-28.4415321992086,0.0 -49.4797235,-28.4415464992086,0.0 -49.47947,-28.4416059992086,0.0 -49.4792273,-28.4417212992086,0.0 -49.4789546,-28.4418945992086,0.0 -49.4785372,-28.4422282992086,0.0 -49.4781857,-28.4425092992086,0.0 -49.4778343,-28.4427902992086,0.0 -49.4776038,-28.4429800992086,0.0 -49.477388,-28.4431311992086,0.0 -49.4771075,-28.4432174992086,0.0 -49.4769132,-28.4433685992086,0.0 -49.4766326,-28.4436275992086,0.0 -49.4763305,-28.4436706992086,0.0 -49.4761147,-28.4435195992086,0.0 -49.4758125,-28.4430231992086,0.0 -49.4755535,-28.4428505992086,0.0 -49.4753809,-28.4426347992086,0.0 -49.4753161,-28.4420088992086,0.0 -49.475165,-28.4416635992086,0.0 -49.4749924,-28.4412750992086,0.0 -49.4748197,-28.4411239992086,0.0 -49.4745392,-28.4410160992086,0.0 -49.4741938,-28.4409297992086,0.0 -49.4739564,-28.4408002992086,0.0 -49.4737406,-28.4405412992086,0.0 -49.473568,-28.4403254992086,0.0 -49.4731795,-28.4399585992086,0.0 -49.472996,-28.4398721992086,0.0 -49.4728126,-28.4397858992086,0.0 -49.4721867,-28.4396255992086,0.0 -49.4716292,-28.4393926992086,0.0 -49.4714378,-28.4393790992086,0.0 -49.4713813,-28.4396823992086,0.0 -49.4712273,-28.4398664992086,0.0 -49.4710305,-28.4398423992086,0.0 -49.4706863,-28.4397868992086,0.0 -49.4705004,-28.4397183992086,0.0 -49.4703642,-28.4394818992086,0.0 -49.4702659,-28.4392031992086,0.0 -49.4700932,-28.4389225992086,0.0 -49.4697381,-28.4386546992087,0.0 -49.4694365,-28.4386039992087,0.0 -49.4690563,-28.4384137992087,0.0 -49.4689175,-28.4381069992087,0.0 -49.4688291,-28.4379202992087,0.0 -49.468793,-28.4378440992087,0.0 -49.4684583,-28.4375570992087,0.0 -49.4682606,-28.4374938992087,0.0 -49.4677552,-28.4376210992087,0.0 -49.467302,-28.4377292992087,0.0 -49.4667069,-28.4378398992087,0.0 -49.4663034,-28.4380682992087,0.0 -49.4661812,-28.4381380992087,0.0 -49.4661114,-28.4382428992087,0.0 -49.4660765,-28.4383999992087,0.0 -49.4662685,-28.4387751992087,0.0 -49.4665093,-28.4392640992086,0.0 -49.4664049,-28.4398384992086,0.0 -49.4661706,-28.4399998992086,0.0 -49.4659393,-28.4402908992086,0.0 -49.4657104,-28.4405173992086,0.0 -49.4656942,-28.4405189992086,0.0 -49.4654661,-28.4405417992086,0.0 -49.4652898,-28.4405118992086,0.0 -49.4649528,-28.4403332992086,0.0 -49.4647893,-28.4402466992086,0.0 -49.4642492,-28.4398851992086,0.0 -49.4639801,-28.4399294992086,0.0 -49.4636676,-28.4402234992086,0.0 -49.4632728,-28.4412079992086,0.0 -49.4632728,-28.4414348992086,0.0 -49.4631965,-28.4416290992086,0.0 -49.4627427,-28.4416290992086,0.0 -49.4624285,-28.4416813992086,0.0 -49.4622539,-28.4419432992086,0.0 -49.462411,-28.4422224992086,0.0 -49.4624459,-28.4425192992086,0.0 -49.4622539,-28.4425890992086,0.0 -49.4619921,-28.4426413992086,0.0 -49.4618196,-28.4427010992086,0.0 -49.4616471,-28.4427608992086,0.0 -49.4615383,-28.4427984992086,0.0 -49.4614336,-28.4428682992086,0.0 -49.4612939,-28.4430952992086,0.0 -49.4612007,-28.4432815992086,0.0 -49.4611717,-28.4433395992086,0.0 -49.4608726,-28.4436644992086,0.0 -49.4606481,-28.4437410992086,0.0 -49.4603688,-28.4435926992086,0.0 -49.4600721,-28.4434355992086,0.0 -49.4597575,-28.4432797992086,0.0 -49.4596352,-28.4432259992086,0.0 -49.4595129,-28.4431721992086,0.0 -49.459453,-28.4430948992086,0.0 -49.4590841,-28.4430667992086,0.0 -49.4587176,-28.4431400992086,0.0 -49.4582534,-28.4433355992086,0.0 -49.4580051,-28.4437827992086,0.0 -49.4578919,-28.4439867992086,0.0 -49.4577209,-28.4443777992085,0.0 -49.4575499,-28.4447686992085,0.0 -49.4574757,-28.4448799992085,0.0 -49.4571589,-28.4453550992085,0.0 -49.4564748,-28.4456726992085,0.0 -49.4557433,-28.4458110992085,0.0 -49.4555708,-28.4458436992085,0.0 -49.4547645,-28.4459169992085,0.0 -49.4547038,-28.4459574992085,0.0 -49.4539582,-28.4464545992085,0.0 -49.4536691,-28.4466593992085,0.0 -49.4533719,-28.4468698992085,0.0 -49.4525167,-28.4470164992085,0.0 -49.4522124,-28.4470164992085,0.0 -49.4519792,-28.4470164992085,0.0 -49.451515,-28.4469431992085,0.0 -49.450953,-28.4469675992085,0.0 -49.4506721,-28.4469793992085,0.0 -49.4502239,-28.4474278992085,0.0 -49.4501223,-28.4475295992085,0.0 -49.4495476,-28.4481306992085,0.0 -49.4493132,-28.4482215992085,0.0 -49.4492235,-28.4485232992085,0.0 -49.4492535,-28.4489906992085,0.0 -49.4491717,-28.4496412992085,0.0 -49.4489085,-28.4499449992085,0.0 -49.448267,-28.4499990992085,0.0 -49.4475501,-28.4499423992085,0.0 -49.4472964,-28.4499356992084,0.0 -49.4471149,-28.4500558992084,0.0 -49.4469637,-28.4502254992084,0.0 -49.446763,-28.4503859992085,0.0 -49.4465205,-28.4505164992084,0.0 -49.4461979,-28.4506551992084,0.0 -49.4460052,-28.4508383992084,0.0 -49.4460883,-28.4510294992084,0.0 -49.4461417,-28.4512880992084,0.0 -49.4459819,-28.4517829992084,0.0 -49.4458761,-28.4519384992084,0.0 -49.4457139,-28.4519900992084,0.0 -49.4455469,-28.4520952992084,0.0 -49.4454461,-28.4521958992084,0.0 -49.4453312,-28.4522764992084,0.0 -49.4451571,-28.4523982992084,0.0 -49.4449857,-28.4524149992084,0.0 -49.4447976,-28.4524596992084,0.0 -49.4446558,-28.4524832992084,0.0 -49.4445166,-28.4525346992084,0.0 -49.4441081,-28.4526760992084,0.0 -49.4439912,-28.4527301992084,0.0 -49.4438579,-28.4527815992084,0.0 -49.443691,-28.4527912992084,0.0 -49.4433768,-28.4528348992084,0.0 -49.4431551,-28.4528774992084,0.0 -49.442984,-28.4529273992084,0.0 -49.4428322,-28.4529692992084,0.0 -49.4425896,-28.4530059992084,0.0 -49.442401,-28.4530094992084,0.0 -49.4422308,-28.4530085992084,0.0 -49.4421009,-28.4530081992084,0.0 -49.4419136,-28.4530039992084,0.0 -49.4417837,-28.4530463992084,0.0 -49.4416448,-28.4531213992084,0.0 -49.4415305,-28.4532263992084,0.0 -49.4414724,-28.4533167992084,0.0 -49.4414176,-28.4534741992084,0.0 -49.4413349,-28.4535797992084,0.0 -49.4412692,-28.4537508992084,0.0 -49.4412069,-28.4538498992084,0.0 -49.4411146,-28.4539116992084,0.0 -49.4409323,-28.4539740992084,0.0 -49.4407508,-28.4540018992084,0.0 -49.4406109,-28.4539858992084,0.0 -49.440415,-28.4539760992084,0.0 -49.4402315,-28.4539447992084,0.0 -49.4398824,-28.4539188992084,0.0 -49.4396487,-28.4539488992084,0.0 -49.4394645,-28.4540338992084,0.0 -49.4393328,-28.4542176992084,0.0 -49.4392912,-28.4544181992084,0.0 -49.4392463,-28.4547125992084,0.0 -49.4392099,-28.4548238992084,0.0 -49.4391203,-28.4549481992084,0.0 -49.4390306,-28.4550690992084,0.0 -49.4388274,-28.4552033992084,0.0 -49.4386698,-28.4553527992084,0.0 -49.4385415,-28.4554888992084,0.0 -49.4384201,-28.4556038992084,0.0 -49.4383545,-28.4556681992083,0.0 -49.4382319,-28.4557364992083,0.0 -49.4380658,-28.4558553992083,0.0 -49.4378523,-28.4559571992083,0.0 -49.4377081,-28.4559840992083,0.0 -49.4375632,-28.4559767992083,0.0 -49.4373242,-28.4559870992083,0.0 -49.4371105,-28.4560232992083,0.0 -49.4369503,-28.4560793992083,0.0 -49.4366597,-28.4561690992083,0.0 -49.4365444,-28.4561928992083,0.0 -49.4361351,-28.4562652992083,0.0 -49.4356312,-28.4564429992083,0.0 -49.435434,-28.4567445992083,0.0 -49.4353465,-28.4571921992083,0.0 -49.4350552,-28.4576087992083,0.0 -49.434725,-28.4578365992083,0.0 -49.4337554,-28.4582084992083,0.0 -49.4329442,-28.4583541992083,0.0 -49.4328033,-28.4583641992083,0.0 -49.432729,-28.4584426992083,0.0 -49.4325907,-28.4584649992083,0.0 -49.4323729,-28.4584810992083,0.0 -49.4321919,-28.4584503992083,0.0 -49.4320519,-28.4584177992083,0.0 -49.4318812,-28.4583729992083,0.0 -49.4316245,-28.4583893992083,0.0 -49.4314815,-28.4584029992083,0.0 -49.4312852,-28.4583722992083,0.0 -49.4311393,-28.4583191992083,0.0 -49.4310206,-28.4582370992083,0.0 -49.4309449,-28.4581255992083,0.0 -49.4308636,-28.4580380992083,0.0 -49.4307658,-28.4579298992083,0.0 -49.430593,-28.4578338992083,0.0 -49.4304712,-28.4578014992083,0.0 -49.4302088,-28.4578151992083,0.0 -49.4300547,-28.4578521992083,0.0 -49.4299136,-28.4578944992083,0.0 -49.4297194,-28.4579625992083,0.0 -49.4295647,-28.4580284992083,0.0 -49.4293793,-28.4581209992083,0.0 -49.4292565,-28.4582863992083,0.0 -49.4291481,-28.4585012992083,0.0 -49.4289521,-28.4585591992083,0.0 -49.4287082,-28.4586205992083,0.0 -49.4284149,-28.4587240992083,0.0 -49.4279541,-28.4589015992083,0.0 -49.427738,-28.4702976992081,0.0 -49.4263527,-28.4702887992081,0.0 -49.4263454,-28.4715650992081,0.0 -49.426295,-28.4804260992079,0.0 -49.4262762,-28.4837140992078,0.0 -49.426237,-28.4906051992077,0.0 -49.4262038,-28.4964303992076,0.0 -49.42613,-28.5093818992074,0.0 -49.4216567,-28.5093475992074,0.0 -49.4217366,-28.5209984992072,0.0 -49.4217864,-28.5212539992072,0.0 -49.4217899,-28.5215829992072,0.0 -49.4219143,-28.533046899207,0.0 -49.4219324,-28.5346851992069,0.0 -49.4219539,-28.5366281992069,0.0 -49.4220268,-28.5366014992069,0.0 -49.422233,-28.5365258992069,0.0 -49.4224652,-28.5365223992069,0.0 -49.4226835,-28.5366386992069,0.0 -49.4227485,-28.5367955992069,0.0 -49.4228987,-28.5369931992069,0.0 -49.423069,-28.5373967992069,0.0 -49.423313,-28.5374715992069,0.0 -49.4235124,-28.5375433992069,0.0 -49.4236744,-28.5377633992069,0.0 -49.4238235,-28.5380105992069,0.0 -49.4239791,-28.5382572992069,0.0 -49.4240576,-28.5384004992069,0.0 -49.424205,-28.5386000992069,0.0 -49.4244879,-28.5385766992069,0.0 -49.4247015,-28.5384800992069,0.0 -49.4248467,-28.5383458992069,0.0 -49.4249901,-28.5382694992069,0.0 -49.4251395,-28.5382183992069,0.0 -49.4253483,-28.5381779992069,0.0 -49.425422,-28.5381824992069,0.0 -49.4254607,-28.5381987992069,0.0 -49.4255022,-28.5382355992069,0.0 -49.4257288,-28.5385041992069,0.0 -49.4263259,-28.5394140992069,0.0 -49.4270184,-28.5403361992068,0.0 -49.4273456,-28.5406636992068,0.0 -49.4275166,-28.5409293992068,0.0 -49.4276557,-28.5411002992068,0.0 -49.4277509,-28.5412102992068,0.0 -49.427777,-28.5413238992068,0.0 -49.4278328,-28.5417460992068,0.0 -49.4279465,-28.5420014992068,0.0 -49.4280622,-28.5421725992068,0.0 -49.4285681,-28.5426199992068,0.0 -49.4287865,-28.5427475992068,0.0 -49.4290565,-28.5429011992068,0.0 -49.4293937,-28.5430809992068,0.0 -49.4296625,-28.5432240992068,0.0 -49.4299154,-28.5433860992068,0.0 -49.4302347,-28.5436859992068,0.0 -49.4304728,-28.5439135992068,0.0 -49.4306854,-28.5441364992068,0.0 -49.4309594,-28.5444073992068,0.0 -49.4313869,-28.5447309992068,0.0 -49.4319715,-28.5451508992067,0.0 -49.4326892,-28.5455962992067,0.0 -49.4333977,-28.5460598992067,0.0 -49.4338784,-28.5462865992067,0.0 -49.4343971,-28.5465714992067,0.0 -49.4347028,-28.5468778992067,0.0 -49.4349251,-28.5470273992067,0.0 -49.4351029,-28.5471110992067,0.0 -49.4353268,-28.5472922992067,0.0 -49.4355639,-28.5474877992067,0.0 -49.4357697,-28.5477750992067,0.0 -49.435782,-28.5478961992067,0.0 -49.4357306,-28.5482457992067,0.0 -49.4357588,-28.5483865992067,0.0 -49.4359254,-28.5486785992067,0.0 -49.4359874,-28.5489575992067,0.0 -49.4360583,-28.5492657992067,0.0 -49.4361662,-28.5496174992067,0.0 -49.436434,-28.5499219992067,0.0 -49.436851,-28.5503821992067,0.0 -49.4370388,-28.5505411992067,0.0 -49.4373657,-28.5507146992067,0.0 -49.4375599,-28.5508132992066,0.0 -49.437778,-28.5509601992066,0.0 -49.438258,-28.5514178992066,0.0 -49.4386745,-28.5518009992066,0.0 -49.4393027,-28.5524442992066,0.0 -49.4396596,-28.5528187992066,0.0 -49.4401046,-28.5532857992066,0.0 -49.440652,-28.5538362992066,0.0 -49.4408595,-28.5540124992066,0.0 -49.4413284,-28.5544335992066,0.0 -49.4417862,-28.5548609992066,0.0 -49.4419475,-28.5550842992066,0.0 -49.4421001,-28.5553483992066,0.0 -49.4421435,-28.5555201992066,0.0 -49.4421789,-28.5556727992066,0.0 -49.4422392,-28.5561979992066,0.0 -49.4423637,-28.5566296992065,0.0 -49.4425804,-28.5570070992065,0.0 -49.4427589,-28.5573453992065,0.0 -49.4429187,-28.5576558992065,0.0 -49.4430838,-28.5580606992065,0.0 -49.4432008,-28.5584027992065,0.0 -49.4432726,-28.5587239992065,0.0 -49.4433008,-28.5588497992065,0.0 -49.4432414,-28.5592571992065,0.0 -49.4432435,-28.5596867992065,0.0 -49.4433766,-28.5599636992065,0.0 -49.4435326,-28.5602228992065,0.0 -49.4435906,-28.5604584992065,0.0 -49.4436206,-28.5608219992065,0.0 -49.4436737,-28.5609721992065,0.0 -49.4437614,-28.5611072992065,0.0 -49.4438828,-28.5611947992065,0.0 -49.4440283,-28.5612579992065,0.0 -49.4442549,-28.5614942992065,0.0 -49.4444967,-28.5616935992065,0.0 -49.4446415,-28.5620293992064,0.0 -49.4448641,-28.5623878992065,0.0 -49.444945,-28.5626902992064,0.0 -49.4450028,-28.5627952992064,0.0 -49.4451731,-28.5629851992064,0.0 -49.4455866,-28.5632867992064,0.0 -49.445867,-28.5633189992064,0.0 -49.4464049,-28.5635039992064,0.0 -49.4468425,-28.5636152992064,0.0 -49.4478631,-28.5639896992064,0.0 -49.4480331,-28.5639250992064,0.0 -49.4481828,-28.5638975992064,0.0 -49.4483622,-28.5639214992064,0.0 -49.4485281,-28.5639799992064,0.0 -49.4487758,-28.5641366992064,0.0 -49.4490869,-28.5642813992064,0.0 -49.4493775,-28.5644800992064,0.0 -49.4495975,-28.5645941992064,0.0 -49.4498059,-28.5646918992064,0.0 -49.449997,-28.5647232992064,0.0 -49.4504666,-28.5647053992064,0.0 -49.4505651,-28.5646715992064,0.0 -49.4506551,-28.5645953992064,0.0 -49.4508015,-28.5645246992064,0.0 -49.4509732,-28.5644994992064,0.0 -49.4517464,-28.5645596992064,0.0 -49.4519277,-28.5645659992064,0.0 -49.4521084,-28.5646186992064,0.0 -49.4522789,-28.5647409992064,0.0 -49.4528618,-28.5649752992064,0.0 -49.453148,-28.5650876992064,0.0 -49.4534661,-28.5648938992064,0.0 -49.453512,-28.5647724992064,0.0 -49.4535838,-28.5646515992064,0.0 -49.453604,-28.5645146992064,0.0 -49.4536656,-28.5643961992064,0.0 -49.4539416,-28.5643452992064,0.0 -49.4542226,-28.5643444992064,0.0 -49.4545901,-28.5643381992064,0.0 -49.454909,-28.5643259992064,0.0 -49.4551764,-28.5642113992064,0.0 -49.4554962,-28.5641101992064,0.0 -49.4556872,-28.5641701992064,0.0 -49.4558328,-28.5643214992064,0.0 -49.4560125,-28.5644855992064,0.0 -49.4562442,-28.5645439992064,0.0 -49.4564287,-28.5645039992064,0.0 -49.4566113,-28.5644511992064,0.0 -49.4569279,-28.5642906992064,0.0 -49.4570685,-28.5642033992064,0.0 -49.4572049,-28.5641304992064,0.0 -49.457508,-28.5639901992064,0.0 -49.4577986,-28.5638798992064,0.0 -49.4581501,-28.5637861992064,0.0 -49.4591922,-28.5629779992064,0.0 -49.464636,-28.5587556992065,0.0 -49.464772,-28.5589827992065,0.0 -49.4650714,-28.5596263992065,0.0 -49.4651165,-28.5599815992065,0.0 -49.4650911,-28.5606205992065,0.0 -49.4649934,-28.5609043992065,0.0 -49.4647735,-28.5613719992065,0.0 -49.4644164,-28.5620747992064,0.0 -49.4642873,-28.5623851992064,0.0 -49.4642716,-28.5626723992064,0.0 -49.4643239,-28.5629688992064,0.0 -49.4644425,-28.5632286992064,0.0 -49.4645909,-28.5634602992064,0.0 -49.4647292,-28.5636117992064,0.0 -49.4648123,-28.5636607992064,0.0 -49.4649773,-28.5636905992064,0.0 -49.4652744,-28.5637262992064,0.0 -49.4655486,-28.5637193992064,0.0 -49.4657977,-28.5637321992064,0.0 -49.4660352,-28.5637568992064,0.0 -49.4662878,-28.5638376992064,0.0 -49.4669701,-28.5640360992064,0.0 -49.4675134,-28.5643044992064,0.0 -49.4677497,-28.5645021992064,0.0 -49.4679158,-28.5647102992064,0.0 -49.468047,-28.5651186992064,0.0 -49.4681607,-28.5657290992064,0.0 -49.4682007,-28.5665411992064,0.0 -49.4681506,-28.5670171992063,0.0 -49.4680956,-28.5672913992064,0.0 -49.4680094,-28.5673777992064,0.0 -49.4677848,-28.5675404992063,0.0 -49.467632,-28.5676924992063,0.0 -49.4671409,-28.5680610992063,0.0 -49.4666613,-28.5684237992063,0.0 -49.4664229,-28.5686810992063,0.0 -49.4662577,-28.5689382992063,0.0 -49.4661073,-28.5692223992063,0.0 -49.4660826,-28.5692689992063,0.0 -49.465859,-28.5698886992063,0.0 -49.4658425,-28.5702727992063,0.0 -49.4658318,-28.5705607992063,0.0 -49.4659761,-28.5711823992063,0.0 -49.4661462,-28.5715747992063,0.0 -49.4663189,-28.5717702992063,0.0 -49.4665081,-28.5719587992063,0.0 -49.466907,-28.5720969992063,0.0 -49.4673476,-28.5721576992063,0.0 -49.4678568,-28.5721126992063,0.0 -49.4681192,-28.5719800992063,0.0 -49.4690119,-28.5713102992063,0.0 -49.4693283,-28.5711361992063,0.0 -49.4697196,-28.5710074992063,0.0 -49.4701574,-28.5708769992063,0.0 -49.4705912,-28.5708455992063,0.0 -49.4711908,-28.5708182992063,0.0 -49.4716514,-28.5708259992063,0.0 -49.4723244,-28.5709326992063,0.0 -49.4729213,-28.5710979992063,0.0 -49.4734863,-28.5714167992063,0.0 -49.4735063,-28.5714298992063,0.0 -49.4737941,-28.5716196992063,0.0 -49.4740035,-28.5717577992063,0.0 -49.4741531,-28.5719257992063,0.0 -49.4742238,-28.5720912992063,0.0 -49.4741957,-28.5724866992063,0.0 -49.4740761,-28.5727144992063,0.0 -49.4738956,-28.5728663992063,0.0 -49.4735839,-28.5730064992063,0.0 -49.4732013,-28.5731534992063,0.0 -49.4727104,-28.5733908992062,0.0 -49.4723401,-28.5736128992062,0.0 -49.471914,-28.5739164992062,0.0 -49.4716469,-28.5740968992062,0.0 -49.4714549,-28.5743137992062,0.0 -49.4712443,-28.5746821992062,0.0 -49.4711648,-28.5750512992062,0.0 -49.4711829,-28.5753688992062,0.0 -49.4712532,-28.5755496992062,0.0 -49.4714101,-28.5757296992062,0.0 -49.4715823,-28.5759854992062,0.0 -49.4717992,-28.5761562992062,0.0 -49.4720318,-28.5762834992062,0.0 -49.4722661,-28.5763646992062,0.0 -49.4727196,-28.5765028992062,0.0 -49.4729326,-28.5765391992062,0.0 -49.4733214,-28.5766054992062,0.0 -49.4739916,-28.5767528992062,0.0 -49.4742252,-28.5768838992062,0.0 -49.4744366,-28.5770676992062,0.0 -49.4750512,-28.5778267992062,0.0 -49.4754073,-28.5781846992062,0.0 -49.475691,-28.5784010992062,0.0 -49.4770346,-28.5791751992061,0.0 -49.4776071,-28.5795132992061,0.0 -49.4778769,-28.5796516992061,0.0 -49.4783438,-28.5799701992061,0.0 -49.4784917,-28.5801006992061,0.0 -49.4787597,-28.5804194992061,0.0 -49.4791556,-28.5807876992061,0.0 -49.4795931,-28.5811261992061,0.0 -49.4801775,-28.5815875992061,0.0 -49.480353,-28.5818545992061,0.0 -49.4805276,-28.5821893992061,0.0 -49.4807872,-28.5827808992061,0.0 -49.4810169,-28.5833363992061,0.0 -49.4811484,-28.5834144992061,0.0 -49.4811737,-28.5834294992061,0.0 -49.4813165,-28.5834682992061,0.0 -49.4814868,-28.5834961992061,0.0 -49.4816469,-28.5835091992061,0.0 -49.4818201,-28.5834850992061,0.0 -49.4819677,-28.5834566992061,0.0 -49.482369,-28.5833362992061,0.0 -49.4829852,-28.5829521992061,0.0 -49.483573,-28.5825383992061,0.0 -49.4839185,-28.5822639992061,0.0 -49.4841949,-28.5819804992061,0.0 -49.4844518,-28.5816306992061,0.0 -49.4847214,-28.5814370992061,0.0 -49.48503,-28.5813739992061,0.0 -49.4853125,-28.5813725992061,0.0 -49.4851175,-28.5812506992061,0.0 -49.4849128,-28.5810945992061,0.0 -49.4849063,-28.5810863992061,0.0 -49.4848927,-28.5810703992061,0.0 -49.484888,-28.5810651992061,0.0 -49.4848784,-28.5810548992061,0.0 -49.4848684,-28.5810448992061,0.0 -49.4848614,-28.5810383992061,0.0 -49.4848476,-28.5810253992061,0.0 -49.4848434,-28.5810216992061,0.0 -49.4848314,-28.5810112992061,0.0 -49.4848128,-28.5809960992061,0.0 -49.4847979,-28.5809843992061,0.0 -49.484786,-28.5809753992061,0.0 -49.4847624,-28.5809581992061,0.0 -49.4847385,-28.5809412992061,0.0 -49.4846904,-28.5809080992061,0.0 -49.4846458,-28.5808775992061,0.0 -49.4846011,-28.5808470992061,0.0 -49.4845564,-28.5808167992061,0.0 -49.4844893,-28.5807714992061,0.0 -49.4844219,-28.5807264992061,0.0 -49.4843881,-28.5807041992061,0.0 -49.4843204,-28.5806598992061,0.0 -49.4842864,-28.5806377992061,0.0 -49.4842352,-28.5806049992061,0.0 -49.4841666,-28.5805616992061,0.0 -49.4841321,-28.5805402992061,0.0 -49.4840801,-28.5805083992061,0.0 -49.4840278,-28.5804767992061,0.0 -49.4840016,-28.5804611992061,0.0 -49.4839708,-28.5804429992061,0.0 -49.483909,-28.5804069992061,0.0 -49.483847,-28.5803712992061,0.0 -49.4837227,-28.5803002992061,0.0 -49.4837134,-28.5802949992061,0.0 -49.4836944,-28.5802847992061,0.0 -49.4836369,-28.5802550992061,0.0 -49.4836178,-28.5802449992061,0.0 -49.4836083,-28.5802398992061,0.0 -49.4835943,-28.5802319992061,0.0 -49.4835931,-28.5802311992061,0.0 -49.483592,-28.5802304992061,0.0 -49.4835876,-28.5802273992061,0.0 -49.4835835,-28.5802239992061,0.0 -49.4835809,-28.5802215992061,0.0 -49.4835762,-28.5802163992061,0.0 -49.483574,-28.5802135992061,0.0 -49.4835698,-28.5802078992061,0.0 -49.4835659,-28.5802019992061,0.0 -49.4835585,-28.5801896992061,0.0 -49.4835501,-28.5801757992061,0.0 -49.483544,-28.5801670992061,0.0 -49.4835406,-28.5801629992061,0.0 -49.4835352,-28.5801571992061,0.0 -49.4835332,-28.5801553992061,0.0 -49.4835312,-28.5801535992061,0.0 -49.4835291,-28.5801518992061,0.0 -49.4835258,-28.5801495992061,0.0 -49.4835149,-28.5801424992061,0.0 -49.4834927,-28.5801288992061,0.0 -49.4834777,-28.5801200992061,0.0 -49.4834473,-28.5801028992061,0.0 -49.4834246,-28.5800899992061,0.0 -49.483402,-28.5800767992061,0.0 -49.4833909,-28.5800699992061,0.0 -49.4833744,-28.5800594992061,0.0 -49.4833076,-28.5800152992061,0.0 -49.4832743,-28.5799931992061,0.0 -49.4832244,-28.5799597992061,0.0 -49.4831499,-28.5799093992061,0.0 -49.4830758,-28.5798583992061,0.0 -49.4830389,-28.5798326992061,0.0 -49.4829898,-28.5797981992061,0.0 -49.4829653,-28.5797807992061,0.0 -49.4829287,-28.5797544992061,0.0 -49.4828741,-28.5797145992061,0.0 -49.4828572,-28.5797020992061,0.0 -49.4828461,-28.5796935992061,0.0 -49.4828241,-28.5796765992061,0.0 -49.4827917,-28.5796506992061,0.0 -49.4827706,-28.5796330992061,0.0 -49.4827566,-28.5796212992061,0.0 -49.4827291,-28.5795972992061,0.0 -49.4826988,-28.5795698992061,0.0 -49.4826789,-28.5795512992061,0.0 -49.4826657,-28.5795387992061,0.0 -49.4826396,-28.5795134992061,0.0 -49.4826299,-28.5795037992061,0.0 -49.4826202,-28.5794941992061,0.0 -49.4826074,-28.5794811992061,0.0 -49.482582,-28.5794549992061,0.0 -49.4825694,-28.5794416992061,0.0 -49.4825442,-28.5794147992061,0.0 -49.4825192,-28.5793874992061,0.0 -49.4825026,-28.5793689992061,0.0 -49.4824695,-28.5793314992061,0.0 -49.4824613,-28.5793215992061,0.0 -49.4824562,-28.5793147992061,0.0 -49.4824529,-28.5793101992061,0.0 -49.4824469,-28.5793008992061,0.0 -49.4824426,-28.5792937992061,0.0 -49.4824399,-28.5792889992061,0.0 -49.4824349,-28.5792793992061,0.0 -49.4824326,-28.5792744992061,0.0 -49.4824282,-28.5792646992061,0.0 -49.4824241,-28.5792546992061,0.0 -49.4824216,-28.5792479992061,0.0 -49.4824171,-28.5792344992061,0.0 -49.482414,-28.5792233992061,0.0 -49.4824128,-28.5792176992062,0.0 -49.4824114,-28.5792088992061,0.0 -49.4824105,-28.5792000992061,0.0 -49.4824104,-28.5791956992061,0.0 -49.4824105,-28.5791867992061,0.0 -49.4824108,-28.5791823992061,0.0 -49.4824117,-28.5791758992061,0.0 -49.4824135,-28.5791672992061,0.0 -49.4824147,-28.5791631992061,0.0 -49.482417,-28.5791569992061,0.0 -49.4824198,-28.5791510992061,0.0 -49.4824214,-28.5791481992061,0.0 -49.482425,-28.5791421992061,0.0 -49.4824325,-28.5791303992061,0.0 -49.4824403,-28.5791187992061,0.0 -49.4824457,-28.5791111992061,0.0 -49.4824568,-28.5790959992061,0.0 -49.4824661,-28.5790828992061,0.0 -49.4824838,-28.5790562992061,0.0 -49.4824931,-28.5790432992061,0.0 -49.4824979,-28.5790370992061,0.0 -49.4825048,-28.5790288992061,0.0 -49.4825085,-28.5790249992061,0.0 -49.4825142,-28.5790192992061,0.0 -49.4825204,-28.5790138992061,0.0 -49.4825236,-28.5790112992062,0.0 -49.482528,-28.5790078992061,0.0 -49.482537,-28.5790014992062,0.0 -49.4825462,-28.5789953992061,0.0 -49.4825649,-28.5789835992061,0.0 -49.4825789,-28.5789746992062,0.0 -49.4825859,-28.5789700992062,0.0 -49.4825906,-28.5789667992061,0.0 -49.4825996,-28.5789593992061,0.0 -49.4826173,-28.5789439992061,0.0 -49.4826234,-28.5789391992062,0.0 -49.4826265,-28.5789369992061,0.0 -49.482633,-28.5789327992062,0.0 -49.4826364,-28.5789309992061,0.0 -49.4826416,-28.5789284992061,0.0 -49.4826472,-28.5789264992062,0.0 -49.48265,-28.5789256992061,0.0 -49.4826683,-28.5789212992062,0.0 -49.4826805,-28.5789185992062,0.0 -49.482705,-28.5789135992061,0.0 -49.4827296,-28.5789088992061,0.0 -49.4827788,-28.5789001992061,0.0 -49.4828157,-28.5788933992061,0.0 -49.4829757,-28.5788625992062,0.0 -49.4829903,-28.5788592992062,0.0 -49.4829998,-28.5788566992061,0.0 -49.4830061,-28.5788547992061,0.0 -49.4830186,-28.5788506992061,0.0 -49.4830279,-28.5788472992062,0.0 -49.483034,-28.5788448992061,0.0 -49.4830461,-28.5788397992062,0.0 -49.4830474,-28.5788390992062,0.0 -49.4830641,-28.5788314992062,0.0 -49.483076,-28.5788255992062,0.0 -49.4830996,-28.5788131992061,0.0 -49.483111,-28.5788066992062,0.0 -49.4831182,-28.5788022992061,0.0 -49.4831229,-28.5787991992062,0.0 -49.483132,-28.5787928992061,0.0 -49.4831386,-28.5787879992061,0.0 -49.4831429,-28.5787846992062,0.0 -49.4831513,-28.5787776992062,0.0 -49.4831636,-28.5787665992062,0.0 -49.4831717,-28.5787587992062,0.0 -49.483177,-28.5787532992061,0.0 -49.4831876,-28.5787418992062,0.0 -49.4831967,-28.5787315992062,0.0 -49.4832011,-28.5787262992061,0.0 -49.4832073,-28.5787183992062,0.0 -49.4832131,-28.5787103992061,0.0 -49.4832158,-28.5787063992062,0.0 -49.4832208,-28.5786982992062,0.0 -49.4832231,-28.5786941992062,0.0 -49.4832261,-28.5786879992062,0.0 -49.4832324,-28.5786690992062,0.0 -49.4832335,-28.5786625992062,0.0 -49.4832338,-28.5786593992061,0.0 -49.483234,-28.5786557992062,0.0 -49.483234,-28.5786483992062,0.0 -49.4832336,-28.5786409992062,0.0 -49.483233,-28.5786359992062,0.0 -49.4832314,-28.5786259992061,0.0 -49.4832297,-28.5786183992062,0.0 -49.4832284,-28.5786133992062,0.0 -49.4832253,-28.5786032992062,0.0 -49.4832236,-28.5785982992062,0.0 -49.4832199,-28.5785881992062,0.0 -49.4832157,-28.5785782992062,0.0 -49.4832128,-28.5785716992062,0.0 -49.4832066,-28.5785586992062,0.0 -49.4831634,-28.5784695992062,0.0 -49.4831506,-28.5784443992062,0.0 -49.4831486,-28.5784401992062,0.0 -49.4831412,-28.5784261992062,0.0 -49.4831257,-28.5783977992062,0.0 -49.4831177,-28.5783836992062,0.0 -49.4831051,-28.5783628992062,0.0 -49.4830934,-28.5783445992062,0.0 -49.4830873,-28.5783355992062,0.0 -49.4830779,-28.5783221992062,0.0 -49.4830682,-28.5783088992062,0.0 -49.4830631,-28.5783022992062,0.0 -49.4830527,-28.5782892992062,0.0 -49.4830504,-28.5782865992062,0.0 -49.4830474,-28.5782828992062,0.0 -49.4830391,-28.5782732992062,0.0 -49.4830237,-28.5782560992062,0.0 -49.4830133,-28.5782448992062,0.0 -49.4829923,-28.5782225992062,0.0 -49.4829816,-28.5782116992062,0.0 -49.4829601,-28.5781899992062,0.0 -49.4829384,-28.5781684992062,0.0 -49.4828943,-28.5781256992062,0.0 -49.4828901,-28.5781215992062,0.0 -49.4828818,-28.5781130992062,0.0 -49.4828736,-28.5781044992062,0.0 -49.4828573,-28.5780872992062,0.0 -49.4828446,-28.5780748992062,0.0 -49.4828381,-28.5780688992062,0.0 -49.482829,-28.5780612992062,0.0 -49.4828242,-28.5780576992062,0.0 -49.4828169,-28.5780525992062,0.0 -49.4828092,-28.5780477992062,0.0 -49.4828053,-28.5780455992062,0.0 -49.4827844,-28.5780342992062,0.0 -49.4827659,-28.5780244992062,0.0 -49.4827425,-28.5780120992062,0.0 -49.4827004,-28.5779900992062,0.0 -49.4826937,-28.5779866992062,0.0 -49.4826762,-28.5779776992062,0.0 -49.4826723,-28.5779756992062,0.0 -49.4826158,-28.5779470992062,0.0 -49.4825307,-28.5779049992062,0.0 -49.4824737,-28.5778771992062,0.0 -49.4823596,-28.5778219992062,0.0 -49.4822312,-28.5777597992062,0.0 -49.4821698,-28.5777298992062,0.0 -49.4821289,-28.5777099992062,0.0 -49.4820471,-28.5776700992062,0.0 -49.4820358,-28.5776647992062,0.0 -49.482013,-28.5776546992062,0.0 -49.4820017,-28.5776493992062,0.0 -49.4819961,-28.5776465992062,0.0 -49.481985,-28.5776403992062,0.0 -49.4819795,-28.5776368992062,0.0 -49.4819714,-28.5776311992062,0.0 -49.4819686,-28.5776289992062,0.0 -49.4819669,-28.5776274992062,0.0 -49.4819639,-28.5776242992062,0.0 -49.4819626,-28.5776226992062,0.0 -49.4819602,-28.5776191992062,0.0 -49.4819581,-28.5776155992062,0.0 -49.481957,-28.5776130992062,0.0 -49.4819551,-28.5776079992062,0.0 -49.4819535,-28.5776019992062,0.0 -49.4819527,-28.5775978992062,0.0 -49.4819518,-28.5775894992062,0.0 -49.4819515,-28.5775808992062,0.0 -49.4819516,-28.5775635992062,0.0 -49.4819513,-28.5775511992062,0.0 -49.4819497,-28.5775213992062,0.0 -49.4819492,-28.5775064992062,0.0 -49.481949,-28.5774841992062,0.0 -49.4819493,-28.5774692992062,0.0 -49.4819496,-28.5774618992062,0.0 -49.4819503,-28.5774506992062,0.0 -49.4819517,-28.5774290992062,0.0 -49.4819527,-28.5774181992062,0.0 -49.4819543,-28.5774074992062,0.0 -49.4819553,-28.5774021992062,0.0 -49.4819572,-28.5773951992062,0.0 -49.4819582,-28.5773917992062,0.0 -49.4819601,-28.5773866992062,0.0 -49.4819636,-28.5773792992062,0.0 -49.4820205,-28.5772738992062,0.0 -49.482124,-28.5771189992062,0.0 -49.4821545,-28.5770386992062,0.0 -49.4821625,-28.5769797992062,0.0 -49.482155,-28.5769181992062,0.0 -49.4821355,-28.5768595992062,0.0 -49.4820899,-28.5767833992062,0.0 -49.4819936,-28.5766519992062,0.0 -49.4819466,-28.5765935992062,0.0 -49.4818932,-28.5765341992062,0.0 -49.4818377,-28.5764828992062,0.0 -49.4817781,-28.5764177992062,0.0 -49.4817142,-28.5763379992062,0.0 -49.4816752,-28.5762578992062,0.0 -49.4816473,-28.5761690992062,0.0 -49.4816527,-28.5760025992062,0.0 -49.4816601,-28.5758288992062,0.0 -49.4816645,-28.5757334992062,0.0 -49.4817003,-28.5754931992062,0.0 -49.481717,-28.5754190992062,0.0 -49.4817371,-28.5753539992062,0.0 -49.4817515,-28.5752927992062,0.0 -49.4817587,-28.5752306992062,0.0 -49.4817578,-28.5751634992062,0.0 -49.4817481,-28.5750476992062,0.0 -49.4817449,-28.5749957992062,0.0 -49.4817365,-28.5749325992062,0.0 -49.4817216,-28.5748399992062,0.0 -49.4817189,-28.5747053992062,0.0 -49.481715,-28.5745065992062,0.0 -49.4817377,-28.5743776992062,0.0 -49.4817813,-28.5743227992062,0.0 -49.4820678,-28.5740973992062,0.0 -49.48212,-28.5740652992062,0.0 -49.482497,-28.5738481992062,0.0 -49.4825749,-28.5737818992062,0.0 -49.4826407,-28.5736853992062,0.0 -49.4826539,-28.5736386992062,0.0 -49.4826224,-28.5735126992062,0.0 -49.4825723,-28.5734687992062,0.0 -49.4825163,-28.5734392992063,0.0 -49.4824438,-28.5734078992062,0.0 -49.4823871,-28.5734017992063,0.0 -49.4823273,-28.5734110992062,0.0 -49.4822739,-28.5734196992062,0.0 -49.4822142,-28.5734248992062,0.0 -49.4821292,-28.5734174992062,0.0 -49.4820781,-28.5734099992062,0.0 -49.4819524,-28.5733478992063,0.0 -49.4818266,-28.5732858992062,0.0 -49.4817565,-28.5732034992063,0.0 -49.4816127,-28.5729942992063,0.0 -49.4815627,-28.5729098992063,0.0 -49.4815411,-28.5728633992063,0.0 -49.4815413,-28.5728204992063,0.0 -49.4815538,-28.5727648992063,0.0 -49.4815846,-28.5727097992063,0.0 -49.481615,-28.5726698992063,0.0 -49.4816557,-28.5726246992063,0.0 -49.4816901,-28.5725719992063,0.0 -49.4817162,-28.5725215992063,0.0 -49.4817422,-28.5724403992063,0.0 -49.4817519,-28.5723524992063,0.0 -49.4817479,-28.5722965992063,0.0 -49.4817335,-28.5722193992063,0.0 -49.4817085,-28.5721258992063,0.0 -49.4816845,-28.5720622992063,0.0 -49.4816466,-28.5719748992063,0.0 -49.4815921,-28.5718516992063,0.0 -49.4814799,-28.5715977992063,0.0 -49.481439,-28.5715135992063,0.0 -49.481408,-28.5714425992063,0.0 -49.4813777,-28.5713747992063,0.0 -49.4813441,-28.5713028992063,0.0 -49.4813422,-28.5712987992063,0.0 -49.4813117,-28.5712382992063,0.0 -49.4812733,-28.5711695992063,0.0 -49.4812275,-28.5710990992063,0.0 -49.4811743,-28.5709660992063,0.0 -49.4811713,-28.5709069992063,0.0 -49.4811831,-28.5708416992063,0.0 -49.4812183,-28.5707615992063,0.0 -49.4812621,-28.5707054992063,0.0 -49.4812743,-28.5706898992063,0.0 -49.4814131,-28.5705026992063,0.0 -49.4814642,-28.5704430992063,0.0 -49.4815135,-28.5703818992063,0.0 -49.4815495,-28.5703372992063,0.0 -49.4815936,-28.5702645992063,0.0 -49.481637,-28.5701861992063,0.0 -49.4816719,-28.5701141992063,0.0 -49.48175,-28.5699345992063,0.0 -49.4817809,-28.5698793992063,0.0 -49.4818043,-28.5698240992063,0.0 -49.4818374,-28.5697211992063,0.0 -49.4818645,-28.5696575992063,0.0 -49.4819102,-28.5695958992063,0.0 -49.4819985,-28.5695121992063,0.0 -49.4820645,-28.5694641992063,0.0 -49.4825269,-28.5691354992063,0.0 -49.4825946,-28.5690900992063,0.0 -49.4826564,-28.5690638992063,0.0 -49.482733,-28.5690460992063,0.0 -49.4827873,-28.5690447992063,0.0 -49.4829102,-28.5690328992063,0.0 -49.4830879,-28.5689700992063,0.0 -49.4832476,-28.5689000992063,0.0 -49.4832978,-28.5688728992063,0.0 -49.483329,-28.5688388992063,0.0 -49.4833562,-28.5687998992063,0.0 -49.4833802,-28.5687542992063,0.0 -49.4834327,-28.5686778992063,0.0 -49.4834889,-28.5685998992063,0.0 -49.4835546,-28.5685084992063,0.0 -49.4837272,-28.5682791992063,0.0 -49.4837768,-28.5681809992063,0.0 -49.4837957,-28.5681127992063,0.0 -49.4838018,-28.5680521992063,0.0 -49.4838097,-28.5679718992063,0.0 -49.4838143,-28.5679259992063,0.0 -49.4838172,-28.5678640992063,0.0 -49.4838258,-28.5677960992063,0.0 -49.4838509,-28.5677189992063,0.0 -49.4838932,-28.5676358992063,0.0 -49.4839978,-28.5674740992064,0.0 -49.4840976,-28.5673162992064,0.0 -49.4841449,-28.5672426992064,0.0 -49.4842121,-28.5671763992064,0.0 -49.4842761,-28.5671259992064,0.0 -49.4843401,-28.5670845992064,0.0 -49.4844421,-28.5670408992064,0.0 -49.4845113,-28.5670175992064,0.0 -49.4845648,-28.5669879992064,0.0 -49.4846203,-28.5669493992064,0.0 -49.4847307,-28.5668524992064,0.0 -49.4849092,-28.5666633992064,0.0 -49.4849283,-28.5666305992064,0.0 -49.4849441,-28.5666035992064,0.0 -49.4849627,-28.5665500992064,0.0 -49.4849656,-28.5664922992064,0.0 -49.4848982,-28.5659331992064,0.0 -49.4848843,-28.5657980992064,0.0 -49.4848706,-28.5657301992064,0.0 -49.484853,-28.5656995992064,0.0 -49.484805,-28.5655459992064,0.0 -49.4847999,-28.5654950992064,0.0 -49.4848041,-28.5654413992064,0.0 -49.4848235,-28.5653903992064,0.0 -49.4848433,-28.5653524992064,0.0 -49.4848598,-28.5653071992064,0.0 -49.4848978,-28.5650460992064,0.0 -49.4849063,-28.5649301992064,0.0 -49.4849258,-28.5648689992064,0.0 -49.4849479,-28.5648410992064,0.0 -49.4849818,-28.5648175992064,0.0 -49.4850192,-28.5647990992064,0.0 -49.4850333,-28.5647944992064,0.0 -49.4850796,-28.5647795992064,0.0 -49.4851125,-28.5647568992064,0.0 -49.4851547,-28.5647059992064,0.0 -49.4852072,-28.5646748992064,0.0 -49.4852762,-28.5646741992064,0.0 -49.4853535,-28.5646745992064,0.0 -49.4854373,-28.5646718992064,0.0 -49.4854912,-28.5646642992064,0.0 -49.4855204,-28.5646601992064,0.0 -49.4855639,-28.5646522992064,0.0 -49.4857439,-28.5646066992064,0.0 -49.4858464,-28.5645670992064,0.0 -49.4860066,-28.5644778992064,0.0 -49.4862184,-28.5643306992064,0.0 -49.4864439,-28.5641602992064,0.0 -49.4867391,-28.5639397992064,0.0 -49.486804,-28.5638720992064,0.0 -49.4870334,-28.5636330992064,0.0 -49.4871007,-28.5635755992064,0.0 -49.4871535,-28.5635078992064,0.0 -49.4872507,-28.5633487992064,0.0 -49.4872586,-28.5633328992064,0.0 -49.4874075,-28.5630320992064,0.0 -49.4874632,-28.5629587992064,0.0 -49.4875238,-28.5629059992064,0.0 -49.4875952,-28.5628606992064,0.0 -49.4876626,-28.5627990992064,0.0 -49.4878355,-28.5625778992064,0.0 -49.4880432,-28.5623606992064,0.0 -49.4880651,-28.5623480992064,0.0 -49.4881163,-28.5623187992064,0.0 -49.4881868,-28.5623018992064,0.0 -49.4882823,-28.5622775992064,0.0 -49.4883923,-28.5622340992065,0.0 -49.4884541,-28.5621999992064,0.0 -49.4885485,-28.5621260992065,0.0 -49.4886468,-28.5620296992065,0.0 -49.4886816,-28.5619955992065,0.0 -49.4888038,-28.5618313992064,0.0 -49.4888823,-28.5617124992064,0.0 -49.489176,-28.5609510992065,0.0 -49.4892224,-28.5608563992065,0.0 -49.4892504,-28.5608258992065,0.0 -49.4893237,-28.5607843992065,0.0 -49.4894199,-28.5607526992065,0.0 -49.4896157,-28.5607279992065,0.0 -49.4897358,-28.5607120992065,0.0 -49.4898302,-28.5606950992065,0.0 -49.4898995,-28.5606846992065,0.0 -49.4899851,-28.5606259992065,0.0 -49.4900414,-28.5605640992065,0.0 -49.490094,-28.5604777992065,0.0 -49.4901271,-28.5603949992065,0.0 -49.490152,-28.5601698992065,0.0 -49.4901574,-28.5600619992065,0.0 -49.4900457,-28.5593794992065,0.0 -49.490035,-28.5593142992065,0.0 -49.4899895,-28.5592431992065,0.0 -49.4899618,-28.5591628992065,0.0 -49.4899369,-28.5589153992065,0.0 -49.4899415,-28.5588602992065,0.0 -49.4899638,-28.5587423992065,0.0 -49.4899669,-28.5586677992065,0.0 -49.4899678,-28.5586465992065,0.0 -49.4899605,-28.5583402992065,0.0 -49.4899663,-28.5582202992065,0.0 -49.4899685,-28.5581537992065,0.0 -49.4900051,-28.5580206992065,0.0 -49.4900078,-28.5580092992065,0.0 -49.4900363,-28.5578850992065,0.0 -49.4900348,-28.5576793992065,0.0 -49.4900294,-28.5568982992065,0.0 -49.4900307,-28.5567196992065,0.0 -49.4900562,-28.5566171992065,0.0 -49.4901013,-28.5565038992066,0.0 -49.4901765,-28.5564002992065,0.0 -49.4903282,-28.5561767992065,0.0 -49.4904818,-28.5559281992066,0.0 -49.4904851,-28.5558543992066,0.0 -49.4904557,-28.5558000992066,0.0 -49.4904169,-28.5557819992066,0.0 -49.4903859,-28.5557673992066,0.0 -49.4902916,-28.5557543992066,0.0 -49.4901607,-28.5557372992066,0.0 -49.4900248,-28.5557304992066,0.0 -49.4898405,-28.5557403992066,0.0 -49.4893987,-28.5558628992066,0.0 -49.4893099,-28.5559044992066,0.0 -49.4891907,-28.5559500992066,0.0 -49.4891043,-28.5559494992066,0.0 -49.4889983,-28.5558996992066,0.0 -49.4889046,-28.5558404992066,0.0 -49.48882,-28.5557586992066,0.0 -49.4887656,-28.5556784992066,0.0 -49.488673,-28.5554746992066,0.0 -49.4886037,-28.5552910992066,0.0 -49.4885844,-28.5551792992066,0.0 -49.488541,-28.5551018992066,0.0 -49.4884488,-28.5549963992066,0.0 -49.4883628,-28.5548998992066,0.0 -49.4881983,-28.5547283992066,0.0 -49.4878921,-28.5544232992066,0.0 -49.487861,-28.5543607992066,0.0 -49.4878601,-28.5543054992066,0.0 -49.487869,-28.5542594992066,0.0 -49.4879021,-28.5541762992066,0.0 -49.4879703,-28.5540046992066,0.0 -49.4880095,-28.5539057992066,0.0 -49.4880106,-28.5538709992066,0.0 -49.4880121,-28.5538270992066,0.0 -49.4880038,-28.5537415992066,0.0 -49.4879808,-28.5536589992066,0.0 -49.4879334,-28.5535903992066,0.0 -49.48788,-28.5535386992066,0.0 -49.4878257,-28.5534844992066,0.0 -49.4877601,-28.5534356992066,0.0 -49.4876148,-28.5532695992066,0.0 -49.4875341,-28.5531513992066,0.0 -49.487489,-28.5530421992066,0.0 -49.487486,-28.5529665992066,0.0 -49.4875066,-28.5528712992066,0.0 -49.4875612,-28.5526948992066,0.0 -49.4876072,-28.5526383992066,0.0 -49.4876748,-28.5525970992066,0.0 -49.4877686,-28.5525686992066,0.0 -49.4878547,-28.5525505992066,0.0 -49.4879718,-28.5525085992066,0.0 -49.4882922,-28.5523937992066,0.0 -49.4884302,-28.5523364992066,0.0 -49.4885035,-28.5522879992066,0.0 -49.4885484,-28.5522379992066,0.0 -49.4886108,-28.5521688992066,0.0</coordinates>
</LinearRing>
</outerBoundaryIs>
</Polygon>
</MultiGeometry>
</Placemark>
</Folder>
</Document></kml>
