<?xml version='1.0' encoding='UTF-8'?>
<kml xmlns:xsd="http://www.w3.org/2001/XMLSchema" xmlns:gx="http://www.google.com/kml/ext/2.2" xmlns:atom="http://www.w3.org/2005/Atom" xmlns="http://www.opengis.net/kml/2.2">
<Document>
<name>uniao_do_oeste_4218855_localidades_2022</name>
<visibility>1</visibility>
<Schema name="Localidades" id="kml_schema_ft_Localidades">
<SimpleField type="xsd:string" name="CD_UF">
<displayName>CD_UF</displayName>
</SimpleField>
<SimpleField type="xsd:string" name="NM_UF">
<displayName>NM_UF</displayName>
</SimpleField>
<SimpleField type="xsd:string" name="SIGLA_UF">
<displayName>SIGLA_UF</displayName>
</SimpleField>
<SimpleField type="xsd:string" name="CD_MUN">
<displayName>CD_MUN</displayName>
</SimpleField>
<SimpleField type="xsd:string" name="NM_MUN">
<displayName>NM_MUN</displayName>
</SimpleField>
<SimpleField type="xsd:string" name="CD_RGINT">
<displayName>CD_RGINT</displayName>
</SimpleField>
<SimpleField type="xsd:string" name="NM_RGINT">
<displayName>NM_RGINT</displayName>
</SimpleField>
<SimpleField type="xsd:string" name="CD_RGI">
<displayName>CD_RGI</displayName>
</SimpleField>
<SimpleField type="xsd:string" name="NM_RGI">
<displayName>NM_RGI</displayName>
</SimpleField>
<SimpleField type="xsd:string" name="CT_LOCALIDADE">
<displayName>CT_LOCALIDADE</displayName>
</SimpleField>
<SimpleField type="xsd:string" name="SCT_LOCALIDADE">
<displayName>SCT_LOCALIDADE</displayName>
</SimpleField>
<SimpleField type="xsd:string" name="CD_LOCALIDADE">
<displayName>CD_LOCALIDADE</displayName>
</SimpleField>
<SimpleField type="xsd:string" name="NM_LOCALIDADE">
<displayName>NM_LOCALIDADE</displayName>
</SimpleField>
</Schema>
<Schema name="01. Cidade" id="kml_schema_ft_01._Cidade">
<SimpleField type="xsd:string" name="CD_UF">
<displayName>CD_UF</displayName>
</SimpleField>
<SimpleField type="xsd:string" name="NM_UF">
<displayName>NM_UF</displayName>
</SimpleField>
<SimpleField type="xsd:string" name="SIGLA_UF">
<displayName>SIGLA_UF</displayName>
</SimpleField>
<SimpleField type="xsd:string" name="CD_MUN">
<displayName>CD_MUN</displayName>
</SimpleField>
<SimpleField type="xsd:string" name="NM_MUN">
<displayName>NM_MUN</displayName>
</SimpleField>
<SimpleField type="xsd:string" name="CD_RGINT">
<displayName>CD_RGINT</displayName>
</SimpleField>
<SimpleField type="xsd:string" name="NM_RGINT">
<displayName>NM_RGINT</displayName>
</SimpleField>
<SimpleField type="xsd:string" name="CD_RGI">
<displayName>CD_RGI</displayName>
</SimpleField>
<SimpleField type="xsd:string" name="NM_RGI">
<displayName>NM_RGI</displayName>
</SimpleField>
<SimpleField type="xsd:string" name="CT_LOCALIDADE">
<displayName>CT_LOCALIDADE</displayName>
</SimpleField>
<SimpleField type="xsd:string" name="SCT_LOCALIDADE">
<displayName>SCT_LOCALIDADE</displayName>
</SimpleField>
<SimpleField type="xsd:string" name="CD_LOCALIDADE">
<displayName>CD_LOCALIDADE</displayName>
</SimpleField>
<SimpleField type="xsd:string" name="NM_LOCALIDADE">
<displayName>NM_LOCALIDADE</displayName>
</SimpleField>
<SimpleField type="xsd:string" name="LAT_LOCALIDADE">
<displayName>LAT_LOCALIDADE</displayName>
</SimpleField>
<SimpleField type="xsd:string" name="LONG_LOCALIDADE">
<displayName>LONG_LOCALIDADE</displayName>
</SimpleField>
</Schema>
<Schema name="Município" id="kml_schema_ft_Município">
<SimpleField type="xsd:string" name="CD_UF">
<displayName>CD_UF</displayName>
</SimpleField>
<SimpleField type="xsd:string" name="NM_UF">
<displayName>NM_UF</displayName>
</SimpleField>
<SimpleField type="xsd:string" name="CD_MUN">
<displayName>CD_MUN</displayName>
</SimpleField>
<SimpleField type="xsd:string" name="NM_MUN">
<displayName>NM_MUN</displayName>
</SimpleField>
<SimpleField type="xsd:string" name="CD_RGINT">
<displayName>CD_RGINT</displayName>
</SimpleField>
<SimpleField type="xsd:string" name="NM_RGINT">
<displayName>NM_RGINT</displayName>
</SimpleField>
<SimpleField type="xsd:string" name="CD_RGI">
<displayName>CD_RGI</displayName>
</SimpleField>
<SimpleField type="xsd:string" name="NM_RGI">
<displayName>NM_RGI</displayName>
</SimpleField>
</Schema>
<Folder id="01. Cidade">
<name>01. Cidade</name>
<Folder id="01.03. Sede Municipal">
<name>01.03. Sede Municipal</name>
<Placemark id="01.03. Sede Municipal">
<name>União do Oeste [4218855]</name>
<visibility>1</visibility>
<snippet> </snippet>
<description>&lt;center&gt;&lt;table&gt;&lt;tr&gt;&lt;th colspan='2' align='center'&gt;&lt;em&gt;Atributos&lt;/em&gt;&lt;/th&gt;&lt;/tr&gt;&lt;tr bgcolor="#E3E3F3"&gt;
&lt;th&gt;CD_UF&lt;/th&gt;
&lt;td&gt;42&lt;/td&gt;
&lt;/tr&gt;&lt;tr bgcolor=""&gt;
&lt;th&gt;NM_UF&lt;/th&gt;
&lt;td&gt;Santa Catarina&lt;/td&gt;
&lt;/tr&gt;&lt;tr bgcolor="#E3E3F3"&gt;
&lt;th&gt;SIGLA_UF&lt;/th&gt;
&lt;td&gt;SC&lt;/td&gt;
&lt;/tr&gt;&lt;tr bgcolor=""&gt;
&lt;th&gt;CD_MUN&lt;/th&gt;
&lt;td&gt;4218855&lt;/td&gt;
&lt;/tr&gt;&lt;tr bgcolor="#E3E3F3"&gt;
&lt;th&gt;NM_MUN&lt;/th&gt;
&lt;td&gt;União do Oeste&lt;/td&gt;
&lt;/tr&gt;&lt;tr bgcolor=""&gt;
&lt;th&gt;CD_RGINT&lt;/th&gt;
&lt;td&gt;4204&lt;/td&gt;
&lt;/tr&gt;&lt;tr bgcolor="#E3E3F3"&gt;
&lt;th&gt;NM_RGINT&lt;/th&gt;
&lt;td&gt;Chapecó&lt;/td&gt;
&lt;/tr&gt;&lt;tr bgcolor=""&gt;
&lt;th&gt;CD_RGI&lt;/th&gt;
&lt;td&gt;420007&lt;/td&gt;
&lt;/tr&gt;&lt;tr bgcolor="#E3E3F3"&gt;
&lt;th&gt;NM_RGI&lt;/th&gt;
&lt;td&gt;Chapecó&lt;/td&gt;
&lt;/tr&gt;&lt;tr bgcolor=""&gt;
&lt;th&gt;CT_LOCALIDADE&lt;/th&gt;
&lt;td&gt;Cidade&lt;/td&gt;
&lt;/tr&gt;&lt;tr bgcolor="#E3E3F3"&gt;
&lt;th&gt;SCT_LOCALIDADE&lt;/th&gt;
&lt;td&gt;Sede Municipal&lt;/td&gt;
&lt;/tr&gt;&lt;tr bgcolor=""&gt;
&lt;th&gt;CD_LOCALIDADE&lt;/th&gt;
&lt;td&gt;4218855&lt;/td&gt;
&lt;/tr&gt;&lt;tr bgcolor="#E3E3F3"&gt;
&lt;th&gt;NM_LOCALIDADE&lt;/th&gt;
&lt;td&gt;União do Oeste&lt;/td&gt;
&lt;/tr&gt;&lt;tr bgcolor=""&gt;
&lt;th&gt;LAT_LOCALIDADE&lt;/th&gt;
&lt;td&gt;-26.7625&lt;/td&gt;
&lt;/tr&gt;&lt;tr bgcolor="#E3E3F3"&gt;
&lt;th&gt;LONG_LOCALIDADE&lt;/th&gt;
&lt;td&gt;-52.855&lt;/td&gt;
&lt;/tr&gt;&lt;/table&gt;&lt;/center&gt;</description>
<Style>
<IconStyle>
<color>ff00aaff</color>
<scale>1.0</scale>
<Icon>
<href>http://maps.google.com/mapfiles/kml/shapes/placemark_circle.png</href>
</Icon>
</IconStyle>
<LabelStyle>
<scale>1.0</scale>
</LabelStyle>
<LineStyle>
<color>ffffffff</color>
<width>3</width>
<gx:labelVisibility>1</gx:labelVisibility>
</LineStyle>
<PolyStyle>
<color>00ffffff</color>
</PolyStyle>
</Style>
<ExtendedData>
<SchemaData schemaUrl="#kml_schema_ft_01._Cidade">
<SimpleData name="CD_UF">42</SimpleData>
<SimpleData name="NM_UF">Santa Catarina</SimpleData>
<SimpleData name="SIGLA_UF">SC</SimpleData>
<SimpleData name="CD_MUN">4218855</SimpleData>
<SimpleData name="NM_MUN">União do Oeste</SimpleData>
<SimpleData name="CD_RGINT">4204</SimpleData>
<SimpleData name="NM_RGINT">Chapecó</SimpleData>
<SimpleData name="CD_RGI">420007</SimpleData>
<SimpleData name="NM_RGI">Chapecó</SimpleData>
<SimpleData name="CT_LOCALIDADE">Cidade</SimpleData>
<SimpleData name="SCT_LOCALIDADE">Sede Municipal</SimpleData>
<SimpleData name="CD_LOCALIDADE">4218855</SimpleData>
<SimpleData name="NM_LOCALIDADE">União do Oeste</SimpleData>
<SimpleData name="LAT_LOCALIDADE">-26.7625</SimpleData>
<SimpleData name="LONG_LOCALIDADE">-52.855</SimpleData>
</SchemaData>
</ExtendedData>
<Point>
<extrude>0</extrude>
<coordinates>-52.855,-26.76249999924,0.0</coordinates>
</Point>
</Placemark>
</Folder>
</Folder>
<Folder id="12. Outras Localidades">
<name>12. Outras Localidades</name>
<Placemark id="12. Outras Localidades">
<name>Adolfo Konder [421885500005]</name>
<visibility>1</visibility>
<snippet> </snippet>
<description>&lt;center&gt;&lt;table&gt;&lt;tr&gt;&lt;th colspan='2' align='center'&gt;&lt;em&gt;Attributes&lt;/em&gt;&lt;/th&gt;&lt;/tr&gt;&lt;tr bgcolor="#E3E3F3"&gt;
&lt;th&gt;CD_UF&lt;/th&gt;
&lt;td&gt;42&lt;/td&gt;
&lt;/tr&gt;&lt;tr bgcolor=""&gt;
&lt;th&gt;NM_UF&lt;/th&gt;
&lt;td&gt;Santa Catarina&lt;/td&gt;
&lt;/tr&gt;&lt;tr bgcolor="#E3E3F3"&gt;
&lt;th&gt;SIGLA_UF&lt;/th&gt;
&lt;td&gt;SC&lt;/td&gt;
&lt;/tr&gt;&lt;tr bgcolor=""&gt;
&lt;th&gt;CD_MUN&lt;/th&gt;
&lt;td&gt;4218855&lt;/td&gt;
&lt;/tr&gt;&lt;tr bgcolor="#E3E3F3"&gt;
&lt;th&gt;NM_MUN&lt;/th&gt;
&lt;td&gt;União do Oeste&lt;/td&gt;
&lt;/tr&gt;&lt;tr bgcolor=""&gt;
&lt;th&gt;CD_RGINT&lt;/th&gt;
&lt;td&gt;4204&lt;/td&gt;
&lt;/tr&gt;&lt;tr bgcolor="#E3E3F3"&gt;
&lt;th&gt;NM_RGINT&lt;/th&gt;
&lt;td&gt;Chapecó&lt;/td&gt;
&lt;/tr&gt;&lt;tr bgcolor=""&gt;
&lt;th&gt;CD_RGI&lt;/th&gt;
&lt;td&gt;420007&lt;/td&gt;
&lt;/tr&gt;&lt;tr bgcolor="#E3E3F3"&gt;
&lt;th&gt;NM_RGI&lt;/th&gt;
&lt;td&gt;Chapecó&lt;/td&gt;
&lt;/tr&gt;&lt;tr bgcolor=""&gt;
&lt;th&gt;CT_LOCALIDADE&lt;/th&gt;
&lt;td&gt;Outras Localidades&lt;/td&gt;
&lt;/tr&gt;&lt;tr bgcolor="#E3E3F3"&gt;
&lt;th&gt;SCT_LOCALIDADE&lt;/th&gt;
&lt;td&gt;&lt;/td&gt;
&lt;/tr&gt;&lt;tr bgcolor=""&gt;
&lt;th&gt;CD_LOCALIDADE&lt;/th&gt;
&lt;td&gt;421885500005&lt;/td&gt;
&lt;/tr&gt;&lt;tr bgcolor="#E3E3F3"&gt;
&lt;th&gt;NM_LOCALIDADE&lt;/th&gt;
&lt;td&gt;Adolfo Konder&lt;/td&gt;
&lt;/tr&gt;&lt;/table&gt;&lt;/center&gt;</description>
<Style>
<IconStyle>
<color>ff0069d3</color>
<scale>0.6</scale>
<Icon>
<href>http://maps.google.com/mapfiles/kml/shapes/placemark_circle.png</href>
</Icon>
</IconStyle>
<LabelStyle>
<scale>0.6</scale>
</LabelStyle>
<LineStyle>
<width>1.0</width>
<gx:labelVisibility>1</gx:labelVisibility>
</LineStyle>
</Style>
<ExtendedData>
<SchemaData schemaUrl="#kml_schema_ft_Localidades">
<SimpleData name="CD_UF">42</SimpleData>
<SimpleData name="NM_UF">Santa Catarina</SimpleData>
<SimpleData name="SIGLA_UF">SC</SimpleData>
<SimpleData name="CD_MUN">4218855</SimpleData>
<SimpleData name="NM_MUN">União do Oeste</SimpleData>
<SimpleData name="CD_RGINT">4204</SimpleData>
<SimpleData name="NM_RGINT">Chapecó</SimpleData>
<SimpleData name="CD_RGI">420007</SimpleData>
<SimpleData name="NM_RGI">Chapecó</SimpleData>
<SimpleData name="CT_LOCALIDADE">Outras Localidades</SimpleData>
<SimpleData name="CD_LOCALIDADE">421885500005</SimpleData>
<SimpleData name="NM_LOCALIDADE">Adolfo Konder</SimpleData>
</SchemaData>
</ExtendedData>
<Point>
<extrude>0</extrude>
<coordinates>-52.8250025,-26.7698488992399,0.0</coordinates>
</Point>
</Placemark>
</Folder>
<Folder id="13. Referência">
<name>13. Referência</name>
<Placemark id="13. Referência">
<name>União do Oeste [4218855]</name>
<visibility>1</visibility>
<snippet> </snippet>
<description>&lt;center&gt;&lt;table&gt;&lt;tr&gt;&lt;th colspan='2' align='center'&gt;&lt;em&gt;Attributes&lt;/em&gt;&lt;/th&gt;&lt;/tr&gt;&lt;tr bgcolor="#E3E3F3"&gt;
&lt;th&gt;CD_UF&lt;/th&gt;
&lt;td&gt;42&lt;/td&gt;
&lt;/tr&gt;&lt;tr bgcolor=""&gt;
&lt;th&gt;NM_UF&lt;/th&gt;
&lt;td&gt;Santa Catarina&lt;/td&gt;
&lt;/tr&gt;&lt;tr bgcolor="#E3E3F3"&gt;
&lt;th&gt;CD_MUN&lt;/th&gt;
&lt;td&gt;4218855&lt;/td&gt;
&lt;/tr&gt;&lt;tr bgcolor=""&gt;
&lt;th&gt;NM_MUN&lt;/th&gt;
&lt;td&gt;União do Oeste&lt;/td&gt;
&lt;/tr&gt;&lt;tr bgcolor="#E3E3F3"&gt;
&lt;th&gt;CD_RGINT&lt;/th&gt;
&lt;td&gt;4204&lt;/td&gt;
&lt;/tr&gt;&lt;tr bgcolor=""&gt;
&lt;th&gt;NM_RGINT&lt;/th&gt;
&lt;td&gt;Chapecó&lt;/td&gt;
&lt;/tr&gt;&lt;tr bgcolor="#E3E3F3"&gt;
&lt;th&gt;CD_RGI&lt;/th&gt;
&lt;td&gt;420007&lt;/td&gt;
&lt;/tr&gt;&lt;tr bgcolor=""&gt;
&lt;th&gt;NM_RGI&lt;/th&gt;
&lt;td&gt;Chapecó&lt;/td&gt;
&lt;/tr&gt;&lt;/table&gt;&lt;/center&gt;</description>
<Style>
<IconStyle>
<scale>0.7</scale>
</IconStyle>
<LabelStyle>
<scale>0.7</scale>
</LabelStyle>
<LineStyle>
<color>ffffffff</color>
<width>3</width>
<gx:labelVisibility>1</gx:labelVisibility>
</LineStyle>
<PolyStyle>
<color>00ffffff</color>
</PolyStyle>
</Style>
<ExtendedData>
<SchemaData schemaUrl="#kml_schema_ft_Município">
<SimpleData name="CD_UF">42</SimpleData>
<SimpleData name="NM_UF">Santa Catarina</SimpleData>
<SimpleData name="CD_MUN">4218855</SimpleData>
<SimpleData name="NM_MUN">União do Oeste</SimpleData>
<SimpleData name="CD_RGINT">4204</SimpleData>
<SimpleData name="NM_RGINT">Chapecó</SimpleData>
<SimpleData name="CD_RGI">420007</SimpleData>
<SimpleData name="NM_RGI">Chapecó</SimpleData>
</SchemaData>
</ExtendedData>
<MultiGeometry>
<Polygon>
<extrude>0</extrude>
<tessellate>1</tessellate>
<outerBoundaryIs>
<LinearRing>
<coordinates>-52.8592507,-26.7470217992404,0.0 -52.859233,-26.7469575992403,0.0 -52.8592009,-26.7469008992403,0.0 -52.8591653,-26.7468351992403,0.0 -52.8591241,-26.7467712992403,0.0 -52.8590802,-26.7467048992403,0.0 -52.8590217,-26.7466346992404,0.0 -52.858959,-26.7465769992404,0.0 -52.8588949,-26.7465397992404,0.0 -52.8588166,-26.7464988992404,0.0 -52.8587419,-26.7464518992404,0.0 -52.8586645,-26.7463955992404,0.0 -52.8585965,-26.7463501992404,0.0 -52.8585378,-26.7463055992404,0.0 -52.8584827,-26.7462625992404,0.0 -52.8584104,-26.7462160992404,0.0 -52.858347,-26.7461810992404,0.0 -52.8582877,-26.7461370992404,0.0 -52.8582195,-26.7460832992404,0.0 -52.8581394,-26.7460284992404,0.0 -52.8580781,-26.7459822992404,0.0 -52.8580228,-26.7459390992404,0.0 -52.8579428,-26.7458794992404,0.0 -52.857878,-26.7458383992404,0.0 -52.8578183,-26.7458042992404,0.0 -52.8577497,-26.7457673992404,0.0 -52.857676,-26.7457261992404,0.0 -52.8575851,-26.7456739992404,0.0 -52.857522,-26.7456358992404,0.0 -52.8574667,-26.7455975992404,0.0 -52.8573911,-26.7455519992404,0.0 -52.8573269,-26.7455086992404,0.0 -52.8572429,-26.7454590992404,0.0 -52.8571726,-26.7454175992404,0.0 -52.8570928,-26.7453678992404,0.0 -52.8570288,-26.7453182992404,0.0 -52.8569564,-26.7452689992404,0.0 -52.8568888,-26.7452259992404,0.0 -52.8568224,-26.7451801992404,0.0 -52.8567579,-26.7451393992404,0.0 -52.8566867,-26.7451008992404,0.0 -52.8566186,-26.7450606992404,0.0 -52.8565365,-26.7450137992404,0.0 -52.8564687,-26.7449743992404,0.0 -52.8563843,-26.7449245992404,0.0 -52.8562998,-26.7448788992404,0.0 -52.8562185,-26.7448375992404,0.0 -52.8561556,-26.7448115992404,0.0 -52.8560872,-26.7447867992404,0.0 -52.8559939,-26.7447588992404,0.0 -52.855899,-26.7447404992404,0.0 -52.855865,-26.7447408992404,0.0 -52.8557867,-26.7447377992404,0.0 -52.8557439,-26.7447301992404,0.0 -52.8556451,-26.7447379992404,0.0 -52.8555793,-26.7447428992404,0.0 -52.8555043,-26.7447626992404,0.0 -52.8554334,-26.7447863992404,0.0 -52.8553589,-26.7448232992404,0.0 -52.8552073,-26.7448352992404,0.0 -52.8551397,-26.7448505992404,0.0 -52.8550542,-26.7448630992404,0.0 -52.8549815,-26.7448620992404,0.0 -52.8549007,-26.7448568992404,0.0 -52.8548112,-26.7448381992404,0.0 -52.8547365,-26.7448167992404,0.0 -52.8546703,-26.7447952992404,0.0 -52.8545963,-26.7447654992404,0.0 -52.8545194,-26.7447417992404,0.0 -52.8544333,-26.7447259992404,0.0 -52.8543505,-26.7447110992404,0.0 -52.8542757,-26.7446991992404,0.0 -52.854189,-26.7446973992404,0.0 -52.8541052,-26.7446905992404,0.0 -52.8540278,-26.7446860992404,0.0 -52.8539241,-26.7446839992404,0.0 -52.8538258,-26.7446934992404,0.0 -52.8537549,-26.7446923992404,0.0 -52.8536578,-26.7447023992404,0.0 -52.8535852,-26.7447095992404,0.0 -52.8535141,-26.7447291992404,0.0 -52.8534394,-26.7447521992404,0.0 -52.8533784,-26.7447912992404,0.0 -52.8533112,-26.7448360992404,0.0 -52.8532393,-26.7448609992404,0.0 -52.853188,-26.7448571992404,0.0 -52.853113,-26.7448371992404,0.0 -52.8530272,-26.7448227992404,0.0 -52.8529704,-26.7448312992404,0.0 -52.8528956,-26.7448477992404,0.0 -52.8528277,-26.7448599992404,0.0 -52.852789,-26.7448793992404,0.0 -52.8527218,-26.7448986992404,0.0 -52.8526344,-26.7449191992404,0.0 -52.8525539,-26.7449108992404,0.0 -52.8524657,-26.7448848992404,0.0 -52.8523749,-26.7448607992404,0.0 -52.8522797,-26.7448302992404,0.0 -52.8521809,-26.7448168992404,0.0 -52.8520809,-26.7448029992404,0.0 -52.8519863,-26.7448050992404,0.0 -52.8518926,-26.7448013992404,0.0 -52.8518163,-26.7448042992404,0.0 -52.8517314,-26.7448050992404,0.0 -52.8516558,-26.7447946992404,0.0 -52.8515705,-26.7447780992404,0.0 -52.8514975,-26.7447479992404,0.0 -52.8514279,-26.7447129992404,0.0 -52.8513648,-26.7446829992404,0.0 -52.8512983,-26.7446478992404,0.0 -52.8512359,-26.7446194992404,0.0 -52.8511707,-26.7445892992404,0.0 -52.8511063,-26.7445555992404,0.0 -52.8510392,-26.7445225992404,0.0 -52.8509779,-26.7444871992404,0.0 -52.8509196,-26.7444532992404,0.0 -52.850883,-26.7444315992404,0.0 -52.8508465,-26.7444098992404,0.0 -52.8507885,-26.7443746992404,0.0 -52.8507243,-26.7443234992404,0.0 -52.8506647,-26.7442713992404,0.0 -52.8506012,-26.7442218992404,0.0 -52.8505195,-26.7441549992404,0.0 -52.8504549,-26.7440942992404,0.0 -52.8504042,-26.7440488992404,0.0 -52.8503474,-26.7440013992404,0.0 -52.8502521,-26.7439109992404,0.0 -52.8501719,-26.7438298992404,0.0 -52.8500925,-26.7437457992404,0.0 -52.8500218,-26.7436702992404,0.0 -52.8499605,-26.7436108992404,0.0 -52.8498892,-26.7435475992404,0.0 -52.8498412,-26.7435145992404,0.0 -52.8497932,-26.7434816992404,0.0 -52.8497394,-26.7434447992404,0.0 -52.8496343,-26.7433650992404,0.0 -52.849543,-26.7432887992404,0.0 -52.8494703,-26.7432189992404,0.0 -52.8494121,-26.7431622992404,0.0 -52.8493592,-26.7431111992404,0.0 -52.8493131,-26.7430659992404,0.0 -52.8492568,-26.7429997992404,0.0 -52.8491969,-26.7429329992404,0.0 -52.8491523,-26.7428768992404,0.0 -52.8491081,-26.7428226992404,0.0 -52.8490746,-26.7427707992404,0.0 -52.8490355,-26.7427155992404,0.0 -52.8489962,-26.7426452992404,0.0 -52.84897,-26.7425991992404,0.0 -52.8489406,-26.7425245992404,0.0 -52.8489213,-26.7424449992404,0.0 -52.8489111,-26.7423918992404,0.0 -52.8489074,-26.7423187992404,0.0 -52.8489086,-26.7422316992404,0.0 -52.8489147,-26.7421505992404,0.0 -52.8489196,-26.7420832992405,0.0 -52.848923,-26.7420119992404,0.0 -52.8489259,-26.7419493992404,0.0 -52.8489071,-26.7418915992404,0.0 -52.848861,-26.7418409992404,0.0 -52.8488059,-26.7417948992404,0.0 -52.8487367,-26.7417427992405,0.0 -52.8486686,-26.7417024992404,0.0 -52.8485977,-26.7416709992405,0.0 -52.848533,-26.7416480992405,0.0 -52.8484676,-26.7416272992404,0.0 -52.8483868,-26.7416081992405,0.0 -52.8483153,-26.7415887992405,0.0 -52.8482488,-26.7415698992405,0.0 -52.8481834,-26.7415455992405,0.0 -52.8481157,-26.7415194992404,0.0 -52.8480529,-26.7414893992404,0.0 -52.8479905,-26.7414520992405,0.0 -52.8479279,-26.7414179992405,0.0 -52.8478693,-26.7413751992405,0.0 -52.8477958,-26.7413186992405,0.0 -52.8477332,-26.7412640992405,0.0 -52.8476764,-26.7412203992405,0.0 -52.8476072,-26.7411671992405,0.0 -52.8475274,-26.7411122992405,0.0 -52.8474476,-26.7410717992405,0.0 -52.847362,-26.7410264992405,0.0 -52.8472988,-26.7410047992405,0.0 -52.8472324,-26.7409796992405,0.0 -52.847136,-26.7409500992405,0.0 -52.8470483,-26.7409303992405,0.0 -52.846973,-26.7409032992405,0.0 -52.8469081,-26.7408814992405,0.0 -52.8468363,-26.7408582992405,0.0 -52.8465725,-26.7407787992405,0.0 -52.8464832,-26.7407352992405,0.0 -52.8463959,-26.7406841992405,0.0 -52.8463323,-26.7406362992405,0.0 -52.8462701,-26.7405849992405,0.0 -52.846219,-26.7405373992405,0.0 -52.8461439,-26.7404775992405,0.0 -52.8460782,-26.7404197992405,0.0 -52.8460163,-26.7403673992405,0.0 -52.8459478,-26.7403238992405,0.0 -52.8458842,-26.7402860992405,0.0 -52.8458222,-26.7402488992405,0.0 -52.8457604,-26.7402013992405,0.0 -52.8457047,-26.7401443992405,0.0 -52.8456534,-26.7400900992405,0.0 -52.8456025,-26.7400338992405,0.0 -52.8455431,-26.7399819992405,0.0 -52.8454876,-26.7399368992405,0.0 -52.8454274,-26.7398999992405,0.0 -52.8453657,-26.7398575992405,0.0 -52.8450406,-26.7397537992405,0.0 -52.8447993,-26.7397082992405,0.0 -52.8445295,-26.7397775992405,0.0 -52.8442914,-26.7401093992405,0.0 -52.8441464,-26.7405348992405,0.0 -52.8440597,-26.7410018992405,0.0 -52.8439221,-26.7414423992405,0.0 -52.8437382,-26.7420161992404,0.0 -52.8436752,-26.7424604992404,0.0 -52.8433805,-26.7426326992404,0.0 -52.8430494,-26.7426389992404,0.0 -52.8424087,-26.7426199992404,0.0 -52.8419138,-26.7426767992404,0.0 -52.8412153,-26.7427349992404,0.0 -52.8406325,-26.7427011992404,0.0 -52.8399963,-26.7427235992404,0.0 -52.8393902,-26.7428003992404,0.0 -52.8389449,-26.7428432992404,0.0 -52.8382417,-26.7429394992404,0.0 -52.8378394,-26.7429869992404,0.0 -52.8362662,-26.7430825992404,0.0 -52.8342383,-26.7430930992404,0.0 -52.8320927,-26.7429120992404,0.0 -52.8320059,-26.7429048992404,0.0 -52.8319264,-26.7428983992404,0.0 -52.8318462,-26.7428873992404,0.0 -52.8317618,-26.7428725992404,0.0 -52.8316889,-26.7428599992404,0.0 -52.8316166,-26.7428425992404,0.0 -52.8315357,-26.7428237992404,0.0 -52.8314466,-26.7427969992404,0.0 -52.8313759,-26.7427745992404,0.0 -52.831305,-26.7427527992404,0.0 -52.8312243,-26.7427371992404,0.0 -52.831137,-26.7427284992404,0.0 -52.8310492,-26.7427241992404,0.0 -52.8309589,-26.7427296992404,0.0 -52.8308655,-26.7427411992404,0.0 -52.8307858,-26.7427414992404,0.0 -52.8307079,-26.7427360992404,0.0 -52.8306257,-26.7427230992404,0.0 -52.8305414,-26.7426903992404,0.0 -52.8304644,-26.7426454992404,0.0 -52.8304052,-26.7425962992404,0.0 -52.8303461,-26.7425381992404,0.0 -52.830282,-26.7424764992404,0.0 -52.8302115,-26.7424314992404,0.0 -52.8301396,-26.7424044992404,0.0 -52.8300543,-26.7423904992404,0.0 -52.8299757,-26.7423763992404,0.0 -52.8299061,-26.7423612992404,0.0 -52.8298079,-26.7423393992404,0.0 -52.8297318,-26.7423173992404,0.0 -52.8296611,-26.7422982992404,0.0 -52.8295939,-26.7422734992404,0.0 -52.8295306,-26.7422356992404,0.0 -52.829459,-26.7421825992404,0.0 -52.8293864,-26.7421148992404,0.0 -52.8293378,-26.7420556992404,0.0 -52.8292732,-26.7419705992404,0.0 -52.8292329,-26.7419104992405,0.0 -52.8291871,-26.7418504992404,0.0 -52.8291401,-26.7417753992405,0.0 -52.8290999,-26.7417167992405,0.0 -52.8290576,-26.7416373992405,0.0 -52.8290175,-26.7415678992405,0.0 -52.8289955,-26.7415360992405,0.0 -52.8289619,-26.7414940992405,0.0 -52.8289274,-26.7414638992405,0.0 -52.8288785,-26.7414405992404,0.0 -52.828807,-26.7414351992405,0.0 -52.8287356,-26.7414313992405,0.0 -52.8286636,-26.7414366992405,0.0 -52.8285703,-26.7414381992405,0.0 -52.8284991,-26.7414346992405,0.0 -52.8284066,-26.7414357992405,0.0 -52.8283277,-26.7414378992405,0.0 -52.8282352,-26.7414356992405,0.0 -52.8281562,-26.7414398992405,0.0 -52.8280689,-26.7414427992405,0.0 -52.827995,-26.7414404992405,0.0 -52.8279371,-26.7414301992405,0.0 -52.8278937,-26.7414228992405,0.0 -52.8278176,-26.7414055992405,0.0 -52.8277469,-26.7413858992405,0.0 -52.8277091,-26.7413958992405,0.0 -52.8277027,-26.7413974992405,0.0 -52.827661,-26.7414170992405,0.0 -52.8276143,-26.7414389992405,0.0 -52.8275687,-26.7414437992405,0.0 -52.8275201,-26.7414380992405,0.0 -52.8274454,-26.7414086992405,0.0 -52.8273778,-26.7413743992405,0.0 -52.8273087,-26.7413235992405,0.0 -52.8272652,-26.7412990992405,0.0 -52.8272188,-26.7412832992405,0.0 -52.8271542,-26.7412624992405,0.0 -52.8270897,-26.7412305992405,0.0 -52.82706,-26.7411907992405,0.0 -52.8270201,-26.7411309992405,0.0 -52.8269698,-26.7410681992405,0.0 -52.8269407,-26.7410442992405,0.0 -52.8268917,-26.7410234992405,0.0 -52.8268128,-26.7410149992405,0.0 -52.8267258,-26.7410199992405,0.0 -52.8266579,-26.7410385992405,0.0 -52.826604,-26.7410585992405,0.0 -52.8265162,-26.7410703992405,0.0 -52.8264367,-26.7410583992405,0.0 -52.8263482,-26.7410325992405,0.0 -52.8262707,-26.7409922992405,0.0 -52.8262039,-26.7409410992405,0.0 -52.8261605,-26.7408886992405,0.0 -52.8261163,-26.7408394992405,0.0 -52.826057,-26.7407876992405,0.0 -52.8259947,-26.7407501992405,0.0 -52.8259582,-26.7407290992405,0.0 -52.8259051,-26.7407033992405,0.0 -52.825845,-26.7406841992405,0.0 -52.8257848,-26.7406777992405,0.0 -52.8257256,-26.7406803992405,0.0 -52.8256713,-26.7406929992405,0.0 -52.8256169,-26.7407209992405,0.0 -52.8255858,-26.7407487992405,0.0 -52.825567,-26.7407792992405,0.0 -52.8255523,-26.7408150992405,0.0 -52.8255366,-26.7408508992405,0.0 -52.825516,-26.7408748992405,0.0 -52.8254483,-26.7409095992405,0.0 -52.825431,-26.7409210992405,0.0 -52.8253675,-26.7409593992405,0.0 -52.8253186,-26.7409835992405,0.0 -52.8252646,-26.7410082992405,0.0 -52.825214,-26.7410288992405,0.0 -52.8251709,-26.7410432992405,0.0 -52.8251562,-26.7410323992405,0.0 -52.8251464,-26.7410163992405,0.0 -52.8251249,-26.7410032992405,0.0 -52.8250804,-26.7410063992405,0.0 -52.824997,-26.7410097992405,0.0 -52.8249406,-26.7409939992405,0.0 -52.8249152,-26.7409808992405,0.0 -52.8248931,-26.7409520992405,0.0 -52.8248964,-26.7409223992405,0.0 -52.8248918,-26.7409041992405,0.0 -52.8248556,-26.7408962992405,0.0 -52.8247855,-26.7408704992405,0.0 -52.8247119,-26.7408335992405,0.0 -52.8246415,-26.7407971992405,0.0 -52.8246115,-26.7407810992405,0.0 -52.8245843,-26.7407577992405,0.0 -52.8245708,-26.7407352992405,0.0 -52.8245547,-26.7407149992405,0.0 -52.8245277,-26.7407136992405,0.0 -52.8245085,-26.7407278992405,0.0 -52.8244755,-26.7407626992405,0.0 -52.8244537,-26.7407758992405,0.0 -52.8244246,-26.7407679992405,0.0 -52.8243996,-26.7407461992405,0.0 -52.8244032,-26.7407025992405,0.0 -52.8244294,-26.7406715992405,0.0 -52.8244476,-26.7406357992405,0.0 -52.8244381,-26.7405719992405,0.0 -52.824404,-26.7405076992405,0.0 -52.8243496,-26.7404530992405,0.0 -52.8242845,-26.7404072992405,0.0 -52.8242149,-26.7403557992405,0.0 -52.8241431,-26.7403078992405,0.0 -52.8240801,-26.7402806992405,0.0 -52.8240351,-26.7403767992405,0.0 -52.823999,-26.7404342992405,0.0 -52.8239627,-26.7405065992405,0.0 -52.8239426,-26.7405502992405,0.0 -52.8239158,-26.7405881992405,0.0 -52.8238775,-26.7406189992405,0.0 -52.8238027,-26.7406604992405,0.0 -52.8237269,-26.7406981992405,0.0 -52.8236603,-26.7407218992405,0.0 -52.8235706,-26.7407521992405,0.0 -52.823501,-26.7407767992405,0.0 -52.8234349,-26.7408038992405,0.0 -52.8233565,-26.7408602992405,0.0 -52.8233099,-26.7409181992405,0.0 -52.8233003,-26.7409334992405,0.0 -52.8232651,-26.7408008992405,0.0 -52.8232472,-26.7407376992405,0.0 -52.8232293,-26.7406722992405,0.0 -52.8232176,-26.7406090992405,0.0 -52.8231989,-26.7405001992405,0.0 -52.8231765,-26.7404005992405,0.0 -52.8231609,-26.7403270992405,0.0 -52.8231543,-26.7402555992405,0.0 -52.8231488,-26.7401670992405,0.0 -52.8231571,-26.7400958992405,0.0 -52.8231474,-26.7400428992405,0.0 -52.8231072,-26.7400011992405,0.0 -52.8230835,-26.7399709992405,0.0 -52.823069,-26.7399362992405,0.0 -52.8230637,-26.7398942992405,0.0 -52.823064,-26.7398487992405,0.0 -52.8230757,-26.7397812992405,0.0 -52.823089,-26.7397359992405,0.0 -52.8231158,-26.7396711992405,0.0 -52.8231364,-26.7396088992405,0.0 -52.8231621,-26.7395441992405,0.0 -52.8231877,-26.7394824992405,0.0 -52.8232172,-26.7394041992405,0.0 -52.8232338,-26.7393350992405,0.0 -52.8232313,-26.7392660992405,0.0 -52.8232183,-26.7391941992405,0.0 -52.8232038,-26.7391518992405,0.0 -52.823191,-26.7391087992405,0.0 -52.8231923,-26.7390765992405,0.0 -52.8231037,-26.7390485992405,0.0 -52.8230304,-26.7390119992405,0.0 -52.8229513,-26.7389819992405,0.0 -52.8228725,-26.7389576992405,0.0 -52.8227882,-26.7389390992405,0.0 -52.8227066,-26.7389362992405,0.0 -52.8226821,-26.7389373992405,0.0 -52.8226054,-26.7389579992405,0.0 -52.8225372,-26.7389840992405,0.0 -52.8224628,-26.7390173992405,0.0 -52.8223906,-26.7390474992405,0.0 -52.8223149,-26.7390810992405,0.0 -52.8222467,-26.7391103992405,0.0 -52.8221795,-26.7391311992405,0.0 -52.8221106,-26.7391604992405,0.0 -52.8220416,-26.7391983992405,0.0 -52.8219808,-26.7392513992405,0.0 -52.8219304,-26.7393003992405,0.0 -52.821875,-26.7393519992405,0.0 -52.8218102,-26.7393982992405,0.0 -52.8217399,-26.7394363992405,0.0 -52.8216941,-26.7394539992405,0.0 -52.8216332,-26.7394632992405,0.0 -52.8215583,-26.7394695992405,0.0 -52.8214809,-26.7394807992405,0.0 -52.8213995,-26.7394937992405,0.0 -52.8213175,-26.7394973992405,0.0 -52.8212322,-26.7394905992405,0.0 -52.8211376,-26.7394818992405,0.0 -52.8210642,-26.7394670992405,0.0 -52.8209815,-26.7394424992405,0.0 -52.8209002,-26.7394147992405,0.0 -52.8208104,-26.7393943992405,0.0 -52.8207173,-26.7393720992405,0.0 -52.8206462,-26.7393596992405,0.0 -52.8205623,-26.7393364992405,0.0 -52.8204861,-26.7392982992405,0.0 -52.8204695,-26.7392877992405,0.0 -52.8204102,-26.7392366992405,0.0 -52.8203568,-26.7391906992405,0.0 -52.8202957,-26.7391511992405,0.0 -52.8201941,-26.7391064992405,0.0 -52.8201398,-26.7390303992405,0.0 -52.8201165,-26.7389655992405,0.0 -52.820096,-26.7388985992405,0.0 -52.8200742,-26.7388374992405,0.0 -52.8200404,-26.7387633992405,0.0 -52.820011,-26.7387040992405,0.0 -52.8199731,-26.7386294992405,0.0 -52.8199321,-26.7385614992405,0.0 -52.8199039,-26.7385283992405,0.0 -52.8198643,-26.7384983992405,0.0 -52.8198239,-26.7384709992405,0.0 -52.8197995,-26.7384534992405,0.0 -52.8197448,-26.7383997992405,0.0 -52.8197042,-26.7383294992405,0.0 -52.8196859,-26.7382768992405,0.0 -52.8196669,-26.7382363992405,0.0 -52.8196443,-26.7381991992405,0.0 -52.8196164,-26.7381638992405,0.0 -52.8195721,-26.7381081992405,0.0 -52.819531,-26.7380479992405,0.0 -52.8194868,-26.7379838992405,0.0 -52.8194375,-26.7379148992405,0.0 -52.8193979,-26.7378504992405,0.0 -52.8193656,-26.7377861992405,0.0 -52.8193357,-26.7377197992405,0.0 -52.8193032,-26.7376498992405,0.0 -52.8192815,-26.7376004992405,0.0 -52.8192712,-26.7375750992405,0.0 -52.8192553,-26.7375358992405,0.0 -52.8192223,-26.7374786992405,0.0 -52.8191837,-26.7374190992405,0.0 -52.8191437,-26.7373604992405,0.0 -52.8190996,-26.7372985992405,0.0 -52.8190625,-26.7372457992405,0.0 -52.8190289,-26.7371926992405,0.0 -52.818993,-26.7371304992405,0.0 -52.8189578,-26.7370669992405,0.0 -52.8189218,-26.7370068992405,0.0 -52.8188908,-26.7369526992405,0.0 -52.8188613,-26.7368896992405,0.0 -52.81883,-26.7368249992405,0.0 -52.8188074,-26.7367603992405,0.0 -52.8187867,-26.7366942992406,0.0 -52.8187646,-26.7366258992405,0.0 -52.8187479,-26.7365500992406,0.0 -52.8187283,-26.7364829992406,0.0 -52.8186951,-26.7364247992406,0.0 -52.8186543,-26.7363714992406,0.0 -52.8186085,-26.7363180992405,0.0 -52.8185628,-26.7362624992406,0.0 -52.8185253,-26.7362172992406,0.0 -52.8184885,-26.7361668992406,0.0 -52.8184527,-26.7361034992406,0.0 -52.8184282,-26.7360435992406,0.0 -52.818413,-26.7359814992406,0.0 -52.8183982,-26.7359069992406,0.0 -52.8183908,-26.7358421992406,0.0 -52.8183831,-26.7357745992406,0.0 -52.8183633,-26.7357114992406,0.0 -52.8183422,-26.7356373992406,0.0 -52.8183256,-26.7355686992406,0.0 -52.818307,-26.7355011992406,0.0 -52.8182885,-26.7354335992406,0.0 -52.8182691,-26.7353663992406,0.0 -52.8182509,-26.7352925992406,0.0 -52.8182337,-26.7352280992406,0.0 -52.8182176,-26.7351658992406,0.0 -52.8181867,-26.7350882992406,0.0 -52.818164,-26.7350253992406,0.0 -52.8181395,-26.7349620992406,0.0 -52.8181245,-26.7349038992406,0.0 -52.8181059,-26.7348466992406,0.0 -52.8180873,-26.7347897992406,0.0 -52.8180704,-26.7347335992406,0.0 -52.8180529,-26.7346758992406,0.0 -52.8178868,-26.7343660992406,0.0 -52.8176502,-26.7342188992406,0.0 -52.8172101,-26.7339673992406,0.0 -52.8168011,-26.7346548992406,0.0 -52.81656,-26.7352151992406,0.0 -52.8162137,-26.7354785992406,0.0 -52.8158088,-26.7356372992406,0.0 -52.815219,-26.7358487992406,0.0 -52.8148732,-26.7361820992406,0.0 -52.8146603,-26.7368061992406,0.0 -52.8142944,-26.7374815992405,0.0 -52.8139316,-26.7379210992405,0.0 -52.8137095,-26.7384278992405,0.0 -52.8137313,-26.7391844992405,0.0 -52.8137421,-26.7399521992405,0.0 -52.813895,-26.7405200992405,0.0 -52.8139656,-26.7410928992405,0.0 -52.8137097,-26.7414065992405,0.0 -52.8122679,-26.7423852992404,0.0 -52.8118087,-26.7427817992404,0.0 -52.811228,-26.7434200992404,0.0 -52.8107054,-26.7439984992404,0.0 -52.8102731,-26.7449650992404,0.0 -52.8100158,-26.7457059992404,0.0 -52.8098087,-26.7467385992403,0.0 -52.8096123,-26.7473300992403,0.0 -52.8091549,-26.7476216992403,0.0 -52.8080933,-26.7480103992403,0.0 -52.8067307,-26.7482829992403,0.0 -52.8058479,-26.7485932992403,0.0 -52.8049314,-26.7490945992403,0.0 -52.8040538,-26.7494140992403,0.0 -52.8035439,-26.7499212992403,0.0 -52.8029109,-26.7503186992403,0.0 -52.8028764,-26.7513109992403,0.0 -52.8032363,-26.7528753992402,0.0 -52.803388,-26.7546341992402,0.0 -52.8032364,-26.7560569992402,0.0 -52.8025684,-26.7572467992401,0.0 -52.8016991,-26.7584226992401,0.0 -52.8012685,-26.7589937992401,0.0 -52.800933,-26.7596541992401,0.0 -52.8010466,-26.7603228992401,0.0 -52.8010507,-26.7609360992401,0.0 -52.8012965,-26.7613601992401,0.0 -52.8023302,-26.76221759924,0.0 -52.8037386,-26.76331589924,0.0 -52.8042956,-26.76415269924,0.0 -52.8041276,-26.76462199924,0.0 -52.803661,-26.76527439924,0.0 -52.8027821,-26.76611419924,0.0 -52.8018862,-26.76686819924,0.0 -52.8014115,-26.7672573992399,0.0 -52.8013315,-26.7678209992399,0.0 -52.8018153,-26.7688954992399,0.0 -52.8017861,-26.7700819992399,0.0 -52.8016036,-26.7711135992399,0.0 -52.8015378,-26.7716779992399,0.0 -52.8015022,-26.7719832992398,0.0 -52.8016051,-26.7725941992399,0.0 -52.8018347,-26.7733049992398,0.0 -52.8020076,-26.7738521992398,0.0 -52.802453,-26.7747641992398,0.0 -52.8024839,-26.7755056992398,0.0 -52.802282,-26.7760109992398,0.0 -52.801116,-26.7767665992398,0.0 -52.8004621,-26.7772385992398,0.0 -52.7999644,-26.7776920992397,0.0 -52.7991992,-26.7784495992397,0.0 -52.7985677,-26.7791778992397,0.0 -52.7982829,-26.7801214992397,0.0 -52.7980678,-26.7812201992397,0.0 -52.7968822,-26.7829585992396,0.0 -52.7963302,-26.7842512992396,0.0 -52.7956924,-26.7853957992396,0.0 -52.7949457,-26.7864816992396,0.0 -52.7939535,-26.7873984992396,0.0 -52.7933475,-26.7881242992395,0.0 -52.793051,-26.7883114992395,0.0 -52.7916632,-26.7891877992395,0.0 -52.7917995,-26.7907098992395,0.0 -52.7919238,-26.7915815992395,0.0 -52.7920743,-26.7930439992394,0.0 -52.792313,-26.7939836992394,0.0 -52.7928436,-26.7946846992394,0.0 -52.7936425,-26.7952007992394,0.0 -52.7944429,-26.7957273992394,0.0 -52.7950532,-26.7959819992394,0.0 -52.7954596,-26.7959494992394,0.0 -52.7961322,-26.7956558992394,0.0 -52.7972056,-26.7952097992394,0.0 -52.7984208,-26.7949891992394,0.0 -52.7988485,-26.7949618992394,0.0 -52.7992763,-26.7949345992394,0.0 -52.8004344,-26.7951245992394,0.0 -52.8019697,-26.7951771992394,0.0 -52.8033787,-26.7951010992394,0.0 -52.8043871,-26.7954604992394,0.0 -52.8052266,-26.7961574992394,0.0 -52.8054872,-26.7967216992394,0.0 -52.8054229,-26.7973921992394,0.0 -52.8048969,-26.7994413992393,0.0 -52.804459,-26.8009080992393,0.0 -52.8043221,-26.8013310992393,0.0 -52.804274,-26.8017382992393,0.0 -52.8042669,-26.8023728992393,0.0 -52.8042979,-26.8029432992393,0.0 -52.804329,-26.8035136992393,0.0 -52.8044193,-26.8043393992392,0.0 -52.8046411,-26.8051250992392,0.0 -52.8050594,-26.8058694992392,0.0 -52.805315,-26.8066198992392,0.0 -52.8056209,-26.8070431992392,0.0 -52.8062987,-26.8076757992392,0.0 -52.8065537,-26.8082730992392,0.0 -52.806651,-26.8092463992391,0.0 -52.8067574,-26.8101380992391,0.0 -52.8065963,-26.8112651992391,0.0 -52.8064632,-26.8119463992391,0.0 -52.8060882,-26.8122223992391,0.0 -52.8055491,-26.8125998992391,0.0 -52.8046949,-26.8131164992391,0.0 -52.8035885,-26.813971699239,0.0 -52.8031302,-26.814591999239,0.0 -52.8025265,-26.815883899239,0.0 -52.8020992,-26.817168599239,0.0 -52.8017759,-26.817885199239,0.0 -52.8016891,-26.8186296992389,0.0 -52.801813,-26.8196125992389,0.0 -52.8020385,-26.8204247992389,0.0 -52.8022013,-26.8208217992389,0.0 -52.8025457,-26.8212396992389,0.0 -52.8029211,-26.8215697992389,0.0 -52.8033988,-26.8219106992389,0.0 -52.8037232,-26.8222230992389,0.0 -52.8040498,-26.8227976992389,0.0 -52.8041158,-26.8231811992389,0.0 -52.804065,-26.8237479992388,0.0 -52.8039232,-26.8245191992388,0.0 -52.8039906,-26.8253228992388,0.0 -52.8041049,-26.8257798992388,0.0 -52.8045286,-26.8262986992388,0.0 -52.8050816,-26.8269162992388,0.0 -52.805237,-26.8270897992388,0.0 -52.80591,-26.8278938992388,0.0 -52.8059069,-26.8284069992388,0.0 -52.8056999,-26.8289173992388,0.0 -52.8054828,-26.8293599992387,0.0 -52.8052387,-26.8299800992387,0.0 -52.8047987,-26.8306709992387,0.0 -52.818551,-26.8329648992387,0.0 -52.8340979,-26.8355581992386,0.0 -52.8338897,-26.8352413992386,0.0 -52.8338191,-26.8350208992386,0.0 -52.8338825,-26.8346645992386,0.0 -52.8340803,-26.8340000992387,0.0 -52.8342866,-26.8332279992387,0.0 -52.8344564,-26.8327962992387,0.0 -52.8347504,-26.8321363992387,0.0 -52.8349424,-26.8314964992387,0.0 -52.835125,-26.8308869992387,0.0 -52.8354989,-26.8306665992387,0.0 -52.8361987,-26.8302963992387,0.0 -52.8366221,-26.8302773992387,0.0 -52.8370623,-26.8299417992387,0.0 -52.8378881,-26.8293897992387,0.0 -52.8385436,-26.8289989992388,0.0 -52.8391535,-26.8285953992388,0.0 -52.8396799,-26.8280649992388,0.0 -52.8406604,-26.8269128992388,0.0 -52.8412592,-26.8263835992388,0.0 -52.8416811,-26.8259476992388,0.0 -52.8418613,-26.8256073992388,0.0 -52.8420311,-26.8242685992388,0.0 -52.842534,-26.8239352992389,0.0 -52.8432121,-26.8237974992389,0.0 -52.8442118,-26.8237976992388,0.0 -52.8453085,-26.8239440992388,0.0 -52.8465319,-26.8239457992388,0.0 -52.8467753,-26.8238438992389,0.0 -52.8470841,-26.8233047992389,0.0 -52.8474711,-26.8225688992389,0.0 -52.8481013,-26.8217029992389,0.0 -52.8486781,-26.8208947992389,0.0 -52.8493368,-26.8199526992389,0.0 -52.8502571,-26.8187657992389,0.0 -52.850955,-26.818154699239,0.0 -52.8515784,-26.817158899239,0.0 -52.8520323,-26.816218599239,0.0 -52.8521521,-26.814607999239,0.0 -52.852213,-26.8130853992391,0.0 -52.8520833,-26.8116037992391,0.0 -52.8522757,-26.8109088992391,0.0 -52.8527221,-26.8104585992391,0.0 -52.8537121,-26.8099346992391,0.0 -52.8548679,-26.8091563992391,0.0 -52.856199,-26.8084607992391,0.0 -52.8571056,-26.8083486992391,0.0 -52.8586394,-26.8082410992392,0.0 -52.8608828,-26.8083871992391,0.0 -52.8617627,-26.8084329992392,0.0 -52.8624471,-26.8082073992392,0.0 -52.8630214,-26.8075276992392,0.0 -52.8639072,-26.8068880992392,0.0 -52.8642458,-26.8058961992392,0.0 -52.8646594,-26.8049083992392,0.0 -52.8647648,-26.8040817992392,0.0 -52.8649985,-26.8033393992392,0.0 -52.8655589,-26.8023634992393,0.0 -52.8661499,-26.8017895992393,0.0 -52.8668263,-26.8012766992393,0.0 -52.8679312,-26.8007169992393,0.0 -52.8680458,-26.8006588992393,0.0 -52.8681983,-26.8005823992393,0.0 -52.8691051,-26.8001270992393,0.0 -52.8704648,-26.7988943992393,0.0 -52.8719383,-26.7977714992394,0.0 -52.8734162,-26.7977309992394,0.0 -52.8744003,-26.7975029992394,0.0 -52.8749123,-26.7973843992394,0.0 -52.874937,-26.7973790992394,0.0 -52.8760619,-26.7971402992394,0.0 -52.8771701,-26.7973330992394,0.0 -52.8779825,-26.7976724992394,0.0 -52.8794441,-26.7988105992393,0.0 -52.8806446,-26.7998368992393,0.0 -52.8816479,-26.8010199992393,0.0 -52.882192,-26.8022991992393,0.0 -52.8821833,-26.8037151992392,0.0 -52.8825283,-26.8046647992392,0.0 -52.8831799,-26.8052072992392,0.0 -52.883836,-26.8054594992392,0.0 -52.8844101,-26.8059503992392,0.0 -52.8851018,-26.8061231992392,0.0 -52.8868354,-26.8063515992392,0.0 -52.8879399,-26.8065002992392,0.0 -52.8891069,-26.8066173992392,0.0 -52.889975,-26.8066674992392,0.0 -52.8913554,-26.8071405992392,0.0 -52.8921342,-26.8074918992392,0.0 -52.8922626,-26.8080385992392,0.0 -52.8919616,-26.8104195992391,0.0 -52.8920169,-26.8113771992391,0.0 -52.8922136,-26.8120518992391,0.0 -52.8925728,-26.8126256992391,0.0 -52.8931404,-26.813491099239,0.0 -52.8935726,-26.814047499239,0.0 -52.8940693,-26.814452999239,0.0 -52.8940994,-26.814847099239,0.0 -52.8938347,-26.816483099239,0.0 -52.8937509,-26.817518299239,0.0 -52.8939185,-26.8182050992389,0.0 -52.8944351,-26.8198428992389,0.0 -52.8948394,-26.8215185992389,0.0 -52.8951896,-26.8225351992389,0.0 -52.895782,-26.8227538992389,0.0 -52.8964962,-26.8227614992389,0.0 -52.8970092,-26.8229301992389,0.0 -52.8974469,-26.8233074992389,0.0 -52.8980242,-26.8238094992388,0.0 -52.8985625,-26.8243178992388,0.0 -52.8993939,-26.8249125992388,0.0 -52.9005081,-26.8258497992388,0.0 -52.9009356,-26.8264690992388,0.0 -52.9017179,-26.8269278992388,0.0 -52.9022318,-26.8270114992388,0.0 -52.90306,-26.8267819992388,0.0 -52.9040875,-26.8266273992388,0.0 -52.9051748,-26.8267110992388,0.0 -52.9062165,-26.8274188992388,0.0 -52.906492,-26.8277346992388,0.0 -52.9066918,-26.8282487992388,0.0 -52.9069006,-26.8287392992388,0.0 -52.9072233,-26.8293388992387,0.0 -52.9074661,-26.8302158992387,0.0 -52.9074722,-26.8309477992387,0.0 -52.9074176,-26.8319393992387,0.0 -52.9074591,-26.8328504992387,0.0 -52.907615,-26.8334422992387,0.0 -52.9076516,-26.8336385992387,0.0 -52.9078551,-26.8341581992387,0.0 -52.9079415,-26.8343185992386,0.0 -52.9082411,-26.8347994992386,0.0 -52.908453,-26.8352663992386,0.0 -52.9084702,-26.8352584992386,0.0 -52.9085064,-26.8352330992386,0.0 -52.9085403,-26.8352146992386,0.0 -52.9085662,-26.8352030992386,0.0 -52.90859,-26.8351984992386,0.0 -52.9086734,-26.8351933992386,0.0 -52.908787,-26.8352061992386,0.0 -52.9088803,-26.8352227992386,0.0 -52.9089007,-26.8352321992386,0.0 -52.9089366,-26.8352487992386,0.0 -52.9089685,-26.8352722992386,0.0 -52.9089905,-26.8352885992386,0.0 -52.909065,-26.8353551992386,0.0 -52.909102,-26.8353822992386,0.0 -52.9091443,-26.8353957992386,0.0 -52.9092331,-26.8354125992386,0.0 -52.9093476,-26.8354144992386,0.0 -52.9096261,-26.8353914992386,0.0 -52.9096922,-26.8353917992386,0.0 -52.9097676,-26.8354063992386,0.0 -52.9098674,-26.8354479992386,0.0 -52.9099503,-26.8354763992386,0.0 -52.9100811,-26.8355012992386,0.0 -52.9101323,-26.8355166992386,0.0 -52.9101802,-26.8355408992386,0.0 -52.9102165,-26.8355731992386,0.0 -52.910285,-26.8356392992386,0.0 -52.9103229,-26.8356757992386,0.0 -52.9103898,-26.8357300992386,0.0 -52.9104396,-26.8357596992386,0.0 -52.9104976,-26.8357790992386,0.0 -52.9105754,-26.8357884992386,0.0 -52.9107132,-26.8357875992386,0.0 -52.9107754,-26.8357965992386,0.0 -52.9108432,-26.8358144992386,0.0 -52.9109049,-26.8358409992386,0.0 -52.9109693,-26.8358831992386,0.0 -52.9110643,-26.8359719992386,0.0 -52.9111608,-26.8360520992386,0.0 -52.9111891,-26.8360668992386,0.0 -52.9112144,-26.8360711992386,0.0 -52.9112569,-26.8360689992386,0.0 -52.9113297,-26.8360520992386,0.0 -52.9113662,-26.8360548992386,0.0 -52.9114225,-26.8360689992386,0.0 -52.9114683,-26.8360913992386,0.0 -52.9115145,-26.8361156992386,0.0 -52.9115695,-26.8361558992386,0.0 -52.9116152,-26.8361976992386,0.0 -52.9116627,-26.8362289992386,0.0 -52.91173,-26.8362679992386,0.0 -52.9117996,-26.8362965992386,0.0 -52.9118519,-26.8363157992386,0.0 -52.9119028,-26.8363191992386,0.0 -52.9119927,-26.8363256992386,0.0 -52.912085,-26.8363075992386,0.0 -52.9121458,-26.8362936992386,0.0 -52.9122307,-26.8362753992386,0.0 -52.9123511,-26.8362422992386,0.0 -52.9124593,-26.8362228992386,0.0 -52.9125757,-26.8362126992386,0.0 -52.9126245,-26.8362141992386,0.0 -52.9126502,-26.8362186992386,0.0 -52.9126616,-26.8362206992386,0.0 -52.9127529,-26.8362357992386,0.0 -52.9128765,-26.8362432992386,0.0 -52.9129507,-26.8362525992386,0.0 -52.9130209,-26.8362689992386,0.0 -52.9131008,-26.8362908992386,0.0 -52.9131609,-26.8363191992386,0.0 -52.9132051,-26.8363505992386,0.0 -52.913257,-26.8363909992386,0.0 -52.9132928,-26.8364378992386,0.0 -52.9133743,-26.8365319992386,0.0 -52.9134033,-26.8365469992386,0.0 -52.9134364,-26.8365603992386,0.0 -52.9134911,-26.8365726992386,0.0 -52.9135444,-26.8365673992386,0.0 -52.9136499,-26.8365303992386,0.0 -52.9137201,-26.8364903992386,0.0 -52.9137862,-26.8364537992386,0.0 -52.9138806,-26.8363986992386,0.0 -52.9139507,-26.8363655992386,0.0 -52.9140064,-26.8363497992386,0.0 -52.9140091,-26.8363495992386,0.0 -52.9141033,-26.8363440992386,0.0 -52.9141426,-26.8363470992386,0.0 -52.9141876,-26.8363559992386,0.0 -52.914217,-26.8363653992386,0.0 -52.9142577,-26.8363860992386,0.0 -52.9143334,-26.8364272992386,0.0 -52.914536,-26.8365766992386,0.0 -52.9146092,-26.8366336992386,0.0 -52.9147954,-26.8368055992386,0.0 -52.9149457,-26.8369834992386,0.0 -52.9150177,-26.8370864992386,0.0 -52.9150363,-26.8371295992386,0.0 -52.9150388,-26.8371737992386,0.0 -52.9150248,-26.8372403992386,0.0 -52.915005,-26.8373086992386,0.0 -52.914967,-26.8373832992386,0.0 -52.9148602,-26.8375140992386,0.0 -52.9147307,-26.8376705992386,0.0 -52.9146423,-26.8377825992386,0.0 -52.9146123,-26.8378521992386,0.0 -52.9146,-26.8379023992386,0.0 -52.9145986,-26.8379081992386,0.0 -52.9145947,-26.8379679992386,0.0 -52.9146057,-26.8379948992386,0.0 -52.9146249,-26.8380113992386,0.0 -52.9146541,-26.8380246992386,0.0 -52.9146993,-26.8380332992386,0.0 -52.9147826,-26.8380328992386,0.0 -52.9148998,-26.8380247992386,0.0 -52.9149471,-26.8380298992386,0.0 -52.9150117,-26.8380514992386,0.0 -52.9150553,-26.8380828992386,0.0 -52.9150584,-26.8380851992386,0.0 -52.915098,-26.8380847992386,0.0 -52.9152133,-26.8380818992386,0.0 -52.9152726,-26.8380855992386,0.0 -52.9152886,-26.8380927992386,0.0 -52.9152941,-26.8380951992386,0.0 -52.9153033,-26.8381149992386,0.0 -52.915315,-26.8381315992386,0.0 -52.9153343,-26.8381463992386,0.0 -52.9153674,-26.8381633992386,0.0 -52.9153692,-26.8381646992386,0.0 -52.9153829,-26.8381744992386,0.0 -52.9154116,-26.8382054992386,0.0 -52.9154448,-26.8382207992386,0.0 -52.9155355,-26.8382471992386,0.0 -52.9155961,-26.8382739992386,0.0 -52.915711,-26.8383481992386,0.0 -52.9157648,-26.8383784992386,0.0 -52.9158028,-26.8384081992386,0.0 -52.9158322,-26.8384239992386,0.0 -52.9158842,-26.8384471992386,0.0 -52.9159267,-26.8384647992386,0.0 -52.9159664,-26.8384686992386,0.0 -52.9159995,-26.8384753992386,0.0 -52.9160611,-26.8384748992386,0.0 -52.9160983,-26.8384781992386,0.0 -52.916147,-26.8384872992386,0.0 -52.9161719,-26.8385041992386,0.0 -52.9161941,-26.8385366992386,0.0 -52.916214,-26.8385779992386,0.0 -52.9162299,-26.8386371992386,0.0 -52.91624,-26.8386943992386,0.0 -52.9162519,-26.8387423992386,0.0 -52.9163236,-26.8388630992386,0.0 -52.9163545,-26.8389259992386,0.0 -52.9163979,-26.8389864992386,0.0 -52.9164463,-26.8390225992385,0.0 -52.9164889,-26.8390418992386,0.0 -52.9165554,-26.8390681992386,0.0 -52.916617,-26.8390731992386,0.0 -52.9166903,-26.8390621992386,0.0 -52.9168167,-26.8390258992386,0.0 -52.9168926,-26.8390008992386,0.0 -52.9169789,-26.8389838992386,0.0 -52.9170485,-26.8389709992386,0.0 -52.9171066,-26.8389687992386,0.0 -52.9171988,-26.8389796992386,0.0 -52.9173148,-26.8390097992385,0.0 -52.9174271,-26.8390620992385,0.0 -52.9175302,-26.8391198992386,0.0 -52.9176406,-26.8391939992385,0.0 -52.9178045,-26.8393125992385,0.0 -52.9178792,-26.8393686992385,0.0 -52.9179227,-26.8394064992385,0.0 -52.9179392,-26.8394214992385,0.0 -52.9179989,-26.8394575992385,0.0 -52.9180623,-26.8394989992385,0.0 -52.918118,-26.8395365992385,0.0 -52.9181575,-26.8395823992385,0.0 -52.9181813,-26.8396274992385,0.0 -52.9181873,-26.8396717992385,0.0 -52.9181819,-26.8397067992385,0.0 -52.9181673,-26.8397255992385,0.0 -52.9181372,-26.8397366992385,0.0 -52.9180973,-26.8397455992385,0.0 -52.9180729,-26.8397621992385,0.0 -52.9180576,-26.8397967992385,0.0 -52.9180491,-26.8398598992385,0.0 -52.91805,-26.8399355992385,0.0 -52.9180464,-26.8399741992385,0.0 -52.9180264,-26.8400279992385,0.0 -52.9179926,-26.8400794992385,0.0 -52.9179845,-26.8401319992385,0.0 -52.917995,-26.8402099992385,0.0 -52.9180118,-26.8402335992385,0.0 -52.9180739,-26.8402591992385,0.0 -52.9181163,-26.8402838992385,0.0 -52.9181349,-26.8403110992385,0.0 -52.9181351,-26.8403533992385,0.0 -52.9181179,-26.8403878992385,0.0 -52.9180587,-26.8404329992385,0.0 -52.9180213,-26.8404807992385,0.0 -52.9180163,-26.8405070992385,0.0 -52.9180192,-26.8405318992385,0.0 -52.9180376,-26.8405643992385,0.0 -52.9180776,-26.8405977992385,0.0 -52.9181526,-26.8406467992385,0.0 -52.9181791,-26.8406743992385,0.0 -52.9182376,-26.8406927992385,0.0 -52.9182648,-26.8407027992385,0.0 -52.9182906,-26.8407277992385,0.0 -52.9183259,-26.8407820992385,0.0 -52.9184084,-26.8408402992385,0.0 -52.918474,-26.8408783992385,0.0 -52.9185457,-26.8409113992385,0.0 -52.9185983,-26.8409294992385,0.0 -52.9186483,-26.8409633992385,0.0 -52.9186975,-26.8410148992385,0.0 -52.9187097,-26.8410523992385,0.0 -52.9187042,-26.8410891992385,0.0 -52.9186891,-26.8411477992385,0.0 -52.9186969,-26.8412079992385,0.0 -52.9187123,-26.8412594992385,0.0 -52.9187708,-26.8414054992385,0.0 -52.9188232,-26.8415003992385,0.0 -52.9188798,-26.8416444992385,0.0 -52.9189173,-26.8417533992385,0.0 -52.9189461,-26.8418909992385,0.0 -52.9189475,-26.8419764992385,0.0 -52.9189611,-26.8420224992385,0.0 -52.918993,-26.8420655992385,0.0 -52.9190463,-26.8421223992385,0.0 -52.9190868,-26.8421567992385,0.0 -52.9191905,-26.8422357992385,0.0 -52.919268,-26.8422791992385,0.0 -52.9194121,-26.8423360992385,0.0 -52.9195539,-26.8424001992385,0.0 -52.9196538,-26.8424552992385,0.0 -52.9196879,-26.8424823992385,0.0 -52.9197083,-26.8425159992385,0.0 -52.9197231,-26.8425641992385,0.0 -52.9197298,-26.8426262992385,0.0 -52.91972,-26.8426825992385,0.0 -52.9196945,-26.8427415992385,0.0 -52.9196422,-26.8428484992385,0.0 -52.9196093,-26.8429202992385,0.0 -52.9195852,-26.8429919992385,0.0 -52.9195594,-26.8431167992385,0.0 -52.9195553,-26.8432170992385,0.0 -52.9195773,-26.8433308992385,0.0 -52.9196023,-26.8434265992385,0.0 -52.9196091,-26.8434745992385,0.0 -52.9196015,-26.8435397992385,0.0 -52.9195839,-26.8435904992385,0.0 -52.9195598,-26.8436239992385,0.0 -52.9195171,-26.8436658992385,0.0 -52.9194673,-26.8437256992385,0.0 -52.9194543,-26.8437656992385,0.0 -52.9194402,-26.8438396992385,0.0 -52.9194327,-26.8439030992385,0.0 -52.9194091,-26.8439881992385,0.0 -52.9193807,-26.8440269992385,0.0 -52.9192874,-26.8441066992385,0.0 -52.919236,-26.8441608992384,0.0 -52.9192038,-26.8442183992384,0.0 -52.9191788,-26.8443064992384,0.0 -52.9191497,-26.8445417992384,0.0 -52.9191522,-26.8445709992384,0.0 -52.9191762,-26.8446484992385,0.0 -52.9192,-26.8447294992384,0.0 -52.9192079,-26.8448062992384,0.0 -52.9191992,-26.8448549992384,0.0 -52.9191768,-26.8449322992384,0.0 -52.9191563,-26.8449749992384,0.0 -52.9191192,-26.8450242992384,0.0 -52.9190683,-26.8450693992384,0.0 -52.9189698,-26.8451360992384,0.0 -52.9188619,-26.8451948992384,0.0 -52.9187975,-26.8452129992384,0.0 -52.9187305,-26.8452191992384,0.0 -52.9186353,-26.8452241992384,0.0 -52.9185851,-26.8452391992384,0.0 -52.9185514,-26.8452650992384,0.0 -52.9185439,-26.8452919992384,0.0 -52.9185562,-26.8453252992384,0.0 -52.9185928,-26.8453577992384,0.0 -52.9186405,-26.8454089992384,0.0 -52.9187314,-26.8454820992384,0.0 -52.918863,-26.8455723992384,0.0 -52.9189049,-26.8456196992384,0.0 -52.9189466,-26.8456779992384,0.0 -52.9189717,-26.8457373992384,0.0 -52.9189834,-26.8458179992384,0.0 -52.9189905,-26.8458728992384,0.0 -52.9190154,-26.8459357992384,0.0 -52.9190541,-26.8460047992384,0.0 -52.9190655,-26.8460544992384,0.0 -52.9190684,-26.8461491992384,0.0 -52.9190647,-26.8462465992384,0.0 -52.9190611,-26.8463127992384,0.0 -52.9190313,-26.8464256992384,0.0 -52.9197126,-26.8461828992384,0.0 -52.9202073,-26.8460066992384,0.0 -52.921129,-26.8456616992384,0.0 -52.9214691,-26.8454450992384,0.0 -52.9220776,-26.8449987992384,0.0 -52.9223506,-26.8447283992384,0.0 -52.9224765,-26.8445224992384,0.0 -52.9225856,-26.8436878992385,0.0 -52.9226347,-26.8426823992385,0.0 -52.9224833,-26.8416889992385,0.0 -52.9222649,-26.8407043992385,0.0 -52.9220213,-26.8397978992385,0.0 -52.921933,-26.8392029992385,0.0 -52.9219536,-26.8386854992386,0.0 -52.9221332,-26.8383148992386,0.0 -52.92248,-26.8379945992386,0.0 -52.923181,-26.8377921992386,0.0 -52.9239621,-26.8377025992386,0.0 -52.9244615,-26.8377011992386,0.0 -52.9250545,-26.8377627992386,0.0 -52.9252382,-26.8377753992386,0.0 -52.9254356,-26.8377888992386,0.0 -52.9256489,-26.8377904992386,0.0 -52.9258517,-26.8377592992386,0.0 -52.9260687,-26.8376831992386,0.0 -52.9266427,-26.8374325992386,0.0 -52.9273099,-26.8370490992386,0.0 -52.928055,-26.8365230992386,0.0 -52.9284381,-26.8362915992386,0.0 -52.9288771,-26.8359608992386,0.0 -52.9291657,-26.8356290992386,0.0 -52.9295523,-26.8350728992386,0.0 -52.9297992,-26.8347013992386,0.0 -52.9299206,-26.8343527992386,0.0 -52.9299328,-26.8340777992386,0.0 -52.9298571,-26.8337057992387,0.0 -52.9297607,-26.8333347992387,0.0 -52.9294522,-26.8327932992387,0.0 -52.9291655,-26.8322447992387,0.0 -52.9288216,-26.8319639992387,0.0 -52.9279141,-26.8311660992387,0.0 -52.9270477,-26.8303675992387,0.0 -52.9263439,-26.8297626992387,0.0 -52.9254914,-26.8290299992387,0.0 -52.924302,-26.8280672992388,0.0 -52.9235007,-26.8274704992388,0.0 -52.9227744,-26.8270567992388,0.0 -52.9215649,-26.8264675992388,0.0 -52.9204657,-26.8259692992388,0.0 -52.9193581,-26.8256410992388,0.0 -52.9181197,-26.8255193992388,0.0 -52.9164322,-26.8254106992388,0.0 -52.9154661,-26.8252607992388,0.0 -52.9146909,-26.8251083992388,0.0 -52.914398,-26.8249901992388,0.0 -52.9140947,-26.8247905992388,0.0 -52.9132088,-26.8240042992388,0.0 -52.911255,-26.8222441992389,0.0 -52.9097057,-26.8208149992389,0.0 -52.9079003,-26.8192424992389,0.0 -52.9067498,-26.818272299239,0.0 -52.9062649,-26.817906499239,0.0 -52.9060067,-26.817651999239,0.0 -52.9059206,-26.817500699239,0.0 -52.9056868,-26.817089799239,0.0 -52.9050155,-26.815612799239,0.0 -52.9043916,-26.814430999239,0.0 -52.9041122,-26.813708099239,0.0 -52.9039848,-26.8133128992391,0.0 -52.9039461,-26.8128080992391,0.0 -52.9040271,-26.8122295992391,0.0 -52.9042704,-26.8117300992391,0.0 -52.9046346,-26.8112379992391,0.0 -52.9048828,-26.8110274992391,0.0 -52.9052407,-26.8108770992391,0.0 -52.905502,-26.8108734992391,0.0 -52.9059761,-26.8109114992391,0.0 -52.9064836,-26.8111189992391,0.0 -52.9073205,-26.8114505992391,0.0 -52.9081606,-26.8116949992391,0.0 -52.9085038,-26.8118188992391,0.0 -52.9087086,-26.8119094992391,0.0 -52.9089902,-26.8121412992391,0.0 -52.9096666,-26.8127965992391,0.0 -52.9099151,-26.8131265992391,0.0 -52.9100504,-26.8135025992391,0.0 -52.9105005,-26.814632099239,0.0 -52.9108713,-26.815793499239,0.0 -52.9115222,-26.817328499239,0.0 -52.9120928,-26.818248799239,0.0 -52.9126058,-26.8190679992389,0.0 -52.9129634,-26.8194656992389,0.0 -52.9134263,-26.8198619992389,0.0 -52.9141411,-26.8202170992389,0.0 -52.9146939,-26.8204370992389,0.0 -52.9150951,-26.8205070992389,0.0 -52.9155079,-26.8204322992389,0.0 -52.916072,-26.8201730992389,0.0 -52.9165843,-26.8197509992389,0.0 -52.9170884,-26.8187863992389,0.0 -52.9176688,-26.817407399239,0.0 -52.9182603,-26.815522699239,0.0 -52.9184136,-26.814933499239,0.0 -52.9188365,-26.8133080992391,0.0 -52.9191451,-26.8115450992391,0.0 -52.9192835,-26.8109249992391,0.0 -52.9193283,-26.8106788992391,0.0 -52.9192981,-26.8103372992391,0.0 -52.9191362,-26.8097299992391,0.0 -52.9185652,-26.8084165992391,0.0 -52.9182176,-26.8075887992392,0.0 -52.9176268,-26.8064540992392,0.0 -52.9171781,-26.8054262992392,0.0 -52.9169722,-26.8048569992392,0.0 -52.9168883,-26.8044256992392,0.0 -52.9168116,-26.8037617992392,0.0 -52.9167616,-26.8033878992392,0.0 -52.9167754,-26.8032361992393,0.0 -52.9168471,-26.8029613992393,0.0 -52.9172625,-26.8023591992393,0.0 -52.9175515,-26.8019609992393,0.0 -52.917794,-26.8017816992393,0.0 -52.9183247,-26.8015544992393,0.0 -52.9192631,-26.8012386992393,0.0 -52.91949,-26.8011083992393,0.0 -52.9197177,-26.8010221992393,0.0 -52.920191,-26.8009473992393,0.0 -52.9210993,-26.8008891992393,0.0 -52.9222054,-26.8008106992393,0.0 -52.9232849,-26.8007812992393,0.0 -52.9243166,-26.8007754992393,0.0 -52.9253024,-26.8007947992393,0.0 -52.9260399,-26.8008828992393,0.0 -52.9269865,-26.8011098992393,0.0 -52.9278707,-26.8013297992393,0.0 -52.9287461,-26.8016613992393,0.0 -52.9297567,-26.8020673992393,0.0 -52.9305319,-26.8024628992393,0.0 -52.9308456,-26.8026657992393,0.0 -52.9309755,-26.8027948992393,0.0 -52.9311834,-26.8028574992393,0.0 -52.9317801,-26.8028929992393,0.0 -52.9320648,-26.8028236992393,0.0 -52.9324386,-26.8026276992393,0.0 -52.9327759,-26.8024322992393,0.0 -52.9330524,-26.8022905992393,0.0 -52.9336032,-26.8021308992393,0.0 -52.93403,-26.8020350992393,0.0 -52.9345895,-26.8021002992393,0.0 -52.9350143,-26.8021402992393,0.0 -52.9352789,-26.8021081992393,0.0 -52.9355745,-26.8019988992393,0.0 -52.9360534,-26.8017879992393,0.0 -52.9366513,-26.8014963992393,0.0 -52.9374999,-26.8010326992393,0.0 -52.9383449,-26.8005653992393,0.0 -52.939919,-26.7996231992393,0.0 -52.9409434,-26.7989013992393,0.0 -52.9418433,-26.7981774992393,0.0 -52.9424877,-26.7976182992394,0.0 -52.9431994,-26.7967935992394,0.0 -52.9436832,-26.7961050992394,0.0 -52.9438196,-26.7956885992394,0.0 -52.9438383,-26.7953781992394,0.0 -52.9437663,-26.7949001992394,0.0 -52.9435952,-26.7945932992394,0.0 -52.9435607,-26.7945312992394,0.0 -52.94305,-26.7940450992394,0.0 -52.9422979,-26.7935801992394,0.0 -52.9414549,-26.7932485992395,0.0 -52.9408072,-26.7931430992395,0.0 -52.93997,-26.7931474992394,0.0 -52.9381838,-26.7932503992394,0.0 -52.9375,-26.7933238992394,0.0 -52.9374468,-26.7933368992394,0.0 -52.937,-26.7934458992394,0.0 -52.936561,-26.7936351992394,0.0 -52.9359859,-26.7939452992394,0.0 -52.9356082,-26.7941634992394,0.0 -52.9352294,-26.7943172992394,0.0 -52.9348827,-26.7944062992394,0.0 -52.9346084,-26.7945239992394,0.0 -52.9343514,-26.7947418992394,0.0 -52.9339676,-26.7952524992394,0.0 -52.9330837,-26.7960651992394,0.0 -52.9322278,-26.7966870992394,0.0 -52.9310907,-26.7975211992394,0.0 -52.9306533,-26.7977965992394,0.0 -52.9301181,-26.7980416992394,0.0 -52.9297569,-26.7981178992394,0.0 -52.9294206,-26.7980987992394,0.0 -52.9289195,-26.7979397992394,0.0 -52.9286511,-26.7977532992394,0.0 -52.9283713,-26.7974162992394,0.0 -52.9280318,-26.7966838992394,0.0 -52.9276332,-26.7956391992394,0.0 -52.9272873,-26.7947557992394,0.0 -52.9271555,-26.7943014992394,0.0 -52.9270263,-26.7935302992394,0.0 -52.9269106,-26.7925530992395,0.0 -52.9266807,-26.7916685992395,0.0 -52.9265198,-26.7908943992395,0.0 -52.926364,-26.7900699992395,0.0 -52.9261687,-26.7894406992395,0.0 -52.926109,-26.7888438992395,0.0 -52.9261831,-26.7881915992395,0.0 -52.9262652,-26.7875927992396,0.0 -52.9263106,-26.7874507992396,0.0 -52.9263797,-26.7872351992396,0.0 -52.9267023,-26.7865474992396,0.0 -52.9270395,-26.7859388992396,0.0 -52.9274566,-26.7853644992396,0.0 -52.9278762,-26.7850090992396,0.0 -52.9282482,-26.7847814992396,0.0 -52.9286076,-26.7846430992396,0.0 -52.9290035,-26.7845676992396,0.0 -52.9294772,-26.7844785992396,0.0 -52.9299982,-26.7842552992396,0.0 -52.9309201,-26.7837125992396,0.0 -52.931524,-26.7833546992396,0.0 -52.9321267,-26.7830668992396,0.0 -52.9325284,-26.7829037992396,0.0 -52.9328796,-26.7828302992396,0.0 -52.933205,-26.7827363992397,0.0 -52.9333416,-26.7827186992397,0.0 -52.9334298,-26.7827212992396,0.0 -52.9334996,-26.7827369992396,0.0 -52.9335751,-26.7827507992397,0.0 -52.9336341,-26.7827541992396,0.0 -52.9336893,-26.7827481992396,0.0 -52.9337597,-26.7827386992397,0.0 -52.9338234,-26.7827398992397,0.0 -52.9338979,-26.7827495992397,0.0 -52.9339617,-26.7827529992396,0.0 -52.934024,-26.7827424992396,0.0 -52.9340851,-26.7827177992397,0.0 -52.9341647,-26.7826970992397,0.0 -52.9342781,-26.7826781992396,0.0 -52.934364,-26.7826754992396,0.0 -52.9344603,-26.7826771992397,0.0 -52.9345269,-26.7826956992397,0.0 -52.9346105,-26.7827161992397,0.0 -52.9347126,-26.7827120992396,0.0 -52.9350498,-26.7826670992396,0.0 -52.9353805,-26.7826051992396,0.0 -52.9356121,-26.7825290992397,0.0 -52.9358856,-26.7823589992397,0.0 -52.9360319,-26.7822424992397,0.0 -52.9362425,-26.7821564992397,0.0 -52.9365176,-26.7820779992397,0.0 -52.936779,-26.7820419992397,0.0 -52.9372425,-26.7820220992397,0.0 -52.9374999,-26.7819173992397,0.0 -52.9376174,-26.7819019992397,0.0 -52.9378505,-26.7818499992397,0.0 -52.9382006,-26.7817155992397,0.0 -52.9388034,-26.7814073992397,0.0 -52.9390936,-26.7811239992397,0.0 -52.9398006,-26.7804477992397,0.0 -52.9402179,-26.7801601992397,0.0 -52.9404958,-26.7800294992397,0.0 -52.9407095,-26.7799511992397,0.0 -52.9408129,-26.7799303992397,0.0 -52.9409336,-26.7799171992397,0.0 -52.9410613,-26.7799308992397,0.0 -52.9411867,-26.7799349992397,0.0 -52.9413635,-26.7799189992397,0.0 -52.9415635,-26.7798620992397,0.0 -52.9417751,-26.7797370992397,0.0 -52.9419965,-26.7795481992397,0.0 -52.9421516,-26.7793229992397,0.0 -52.9423122,-26.7789628992397,0.0 -52.9423968,-26.7784537992397,0.0 -52.9423724,-26.7780159992397,0.0 -52.942208,-26.7774483992398,0.0 -52.9420657,-26.7772075992398,0.0 -52.9418746,-26.7770218992398,0.0 -52.9417502,-26.7768689992398,0.0 -52.9415841,-26.7765292992398,0.0 -52.9413362,-26.7762735992398,0.0 -52.941096,-26.7761231992398,0.0 -52.9407685,-26.7760434992398,0.0 -52.9401665,-26.7760665992398,0.0 -52.9389054,-26.7761031992398,0.0 -52.9380882,-26.7762531992398,0.0 -52.9374999,-26.7764041992398,0.0 -52.9366774,-26.7765391992398,0.0 -52.9357792,-26.7766771992398,0.0 -52.9350246,-26.7768243992398,0.0 -52.934348,-26.7768992992398,0.0 -52.9339504,-26.7769243992398,0.0 -52.9335559,-26.7769465992397,0.0 -52.9333952,-26.7769732992398,0.0 -52.9332157,-26.7769902992398,0.0 -52.9331028,-26.7769791992398,0.0 -52.9328459,-26.7769294992398,0.0 -52.9324199,-26.7769491992398,0.0 -52.9319575,-26.7770083992398,0.0 -52.9313827,-26.7771133992398,0.0 -52.9310154,-26.7771969992398,0.0 -52.9305628,-26.7772994992398,0.0 -52.9299505,-26.7774689992397,0.0 -52.9294928,-26.7776035992398,0.0 -52.9290062,-26.7777143992398,0.0 -52.9286446,-26.7778254992397,0.0 -52.9281418,-26.7779811992397,0.0 -52.9278973,-26.7780398992397,0.0 -52.9275836,-26.7781221992397,0.0 -52.9272891,-26.7781954992397,0.0 -52.9270036,-26.7782253992397,0.0 -52.9265547,-26.7782823992397,0.0 -52.9263009,-26.7783654992397,0.0 -52.926125,-26.7784606992397,0.0 -52.9258637,-26.7786104992397,0.0 -52.9255994,-26.7787883992397,0.0 -52.9251219,-26.7791387992397,0.0 -52.9246451,-26.7794751992397,0.0 -52.9240174,-26.7799639992397,0.0 -52.9237993,-26.7801738992397,0.0 -52.9237465,-26.7802204992397,0.0 -52.9235417,-26.7803542992397,0.0 -52.9230905,-26.7806494992397,0.0 -52.9223111,-26.7812067992397,0.0 -52.921685,-26.7815366992397,0.0 -52.9209913,-26.7817850992397,0.0 -52.9204797,-26.7819092992397,0.0 -52.9197964,-26.7820283992397,0.0 -52.9191837,-26.7821930992397,0.0 -52.9187206,-26.7823696992397,0.0 -52.9185858,-26.7824235992397,0.0 -52.9185192,-26.7824939992397,0.0 -52.918482,-26.7825900992397,0.0 -52.9183963,-26.7826824992396,0.0 -52.9182333,-26.7827889992396,0.0 -52.9180354,-26.7828307992396,0.0 -52.9178856,-26.7828588992396,0.0 -52.9177351,-26.7828608992396,0.0 -52.9176557,-26.7829455992396,0.0 -52.9176097,-26.7830244992396,0.0 -52.9175706,-26.7831263992396,0.0 -52.9175157,-26.7832365992396,0.0 -52.9174427,-26.7832961992396,0.0 -52.9173348,-26.7833577992396,0.0 -52.9171952,-26.7834216992396,0.0 -52.9171129,-26.7834415992396,0.0 -52.9169842,-26.7834432992396,0.0 -52.9168685,-26.7834559992396,0.0 -52.91678,-26.7834759992396,0.0 -52.9166308,-26.7834790992396,0.0 -52.9164137,-26.7834496992396,0.0 -52.9162552,-26.7834153992396,0.0 -52.9161276,-26.7833805992396,0.0 -52.9158813,-26.7832874992396,0.0 -52.915788,-26.7832455992396,0.0 -52.9156967,-26.7831779992396,0.0 -52.9155728,-26.7830723992396,0.0 -52.9154412,-26.7829663992396,0.0 -52.9153388,-26.7828969992396,0.0 -52.9151972,-26.7828347992396,0.0 -52.9150931,-26.7828062992396,0.0 -52.9150116,-26.7828018992397,0.0 -52.9149323,-26.7828118992397,0.0 -52.9148229,-26.7828387992396,0.0 -52.914679,-26.7828650992396,0.0 -52.9145571,-26.7828799992396,0.0 -52.9142691,-26.7829192992396,0.0 -52.9141656,-26.7829350992396,0.0 -52.9139755,-26.7829641992396,0.0 -52.9139,-26.7829718992396,0.0 -52.9137835,-26.7830003992396,0.0 -52.9136567,-26.7830200992396,0.0 -52.9135652,-26.7830191992396,0.0 -52.9134838,-26.7830251992396,0.0 -52.9133527,-26.7830289992396,0.0 -52.9132371,-26.7830215992396,0.0 -52.9131349,-26.7829923992396,0.0 -52.9130811,-26.7829810992397,0.0 -52.9130268,-26.7829593992396,0.0 -52.9129487,-26.7829348992396,0.0 -52.912847,-26.7829235992397,0.0 -52.9127656,-26.7829223992396,0.0 -52.9126164,-26.7829123992396,0.0 -52.9124888,-26.7828910992396,0.0 -52.9123769,-26.7828657992396,0.0 -52.9122383,-26.7828091992396,0.0 -52.9121625,-26.7827693992396,0.0 -52.9121198,-26.7827312992396,0.0 -52.9120705,-26.7826720992397,0.0 -52.9120287,-26.7825983992397,0.0 -52.9119847,-26.7825192992397,0.0 -52.9119591,-26.7824557992397,0.0 -52.9119161,-26.7823427992397,0.0 -52.9118339,-26.7821721992397,0.0 -52.9117809,-26.7820558992397,0.0 -52.9117332,-26.7819145992397,0.0 -52.9116801,-26.7817929992397,0.0 -52.9116689,-26.7817764992397,0.0 -52.9115766,-26.7816407992397,0.0 -52.9115285,-26.7815565992397,0.0 -52.9114723,-26.7814618992397,0.0 -52.9114306,-26.7813935992397,0.0 -52.9114067,-26.7813193992397,0.0 -52.9113931,-26.7812412992397,0.0 -52.9113986,-26.7811589992397,0.0 -52.9114182,-26.7810852992397,0.0 -52.9114321,-26.7810205992397,0.0 -52.911452,-26.7809361992397,0.0 -52.9114806,-26.7808605992397,0.0 -52.9114919,-26.7807745992397,0.0 -52.9114939,-26.7807102992397,0.0 -52.9114925,-26.7806409992397,0.0 -52.9114999,-26.7805568992397,0.0 -52.9114927,-26.7804465992397,0.0 -52.9114896,-26.7802736992397,0.0 -52.9114725,-26.7801635992397,0.0 -52.9114462,-26.7800576992397,0.0 -52.9114066,-26.7799894992397,0.0 -52.9113514,-26.7799287992397,0.0 -52.9113173,-26.7799120992397,0.0 -52.9112595,-26.7798978992397,0.0 -52.9112001,-26.7798944992397,0.0 -52.9111198,-26.7798973992397,0.0 -52.9110251,-26.7798955992397,0.0 -52.9109037,-26.7798733992397,0.0 -52.9107386,-26.7798410992397,0.0 -52.9106354,-26.7798247992397,0.0 -52.9105222,-26.7797906992397,0.0 -52.9104385,-26.7797527992397,0.0 -52.9103788,-26.7797232992397,0.0 -52.9103129,-26.7796761992397,0.0 -52.9102489,-26.7796235992397,0.0 -52.9101531,-26.7795643992397,0.0 -52.9100668,-26.7795000992397,0.0 -52.9099751,-26.7794426992397,0.0 -52.909919,-26.7794035992397,0.0 -52.9098672,-26.7793704992397,0.0 -52.9098273,-26.7793443992397,0.0 -52.9097596,-26.7793268992397,0.0 -52.9097179,-26.7793214992397,0.0 -52.90968,-26.7793017992397,0.0 -52.9096638,-26.7792734992397,0.0 -52.9096576,-26.7792486992397,0.0 -52.9096606,-26.7791780992397,0.0 -52.9096646,-26.7790404992397,0.0 -52.909657,-26.7788949992397,0.0 -52.9096442,-26.7788128992397,0.0 -52.9096033,-26.7786992992397,0.0 -52.9095547,-26.7785951992397,0.0 -52.9095283,-26.7785262992397,0.0 -52.909502,-26.7784769992397,0.0 -52.909448,-26.7784203992397,0.0 -52.9094161,-26.7783977992397,0.0 -52.9093645,-26.7783753992397,0.0 -52.9092872,-26.7783533992397,0.0 -52.909218,-26.7783489992397,0.0 -52.9091542,-26.7783538992397,0.0 -52.9090482,-26.7783618992397,0.0 -52.9089812,-26.7783752992397,0.0 -52.9089063,-26.7783921992397,0.0 -52.9088531,-26.7784071992397,0.0 -52.9087762,-26.7784259992397,0.0 -52.9087073,-26.7784499992397,0.0 -52.9086483,-26.7784791992397,0.0 -52.9085796,-26.7785173992397,0.0 -52.9085206,-26.7785518992397,0.0 -52.9084322,-26.7785992992397,0.0 -52.9083692,-26.7786214992397,0.0 -52.9082803,-26.7786368992397,0.0 -52.9082151,-26.7786412992397,0.0 -52.9081281,-26.7786371992397,0.0 -52.9080844,-26.7786253992397,0.0 -52.9080109,-26.7785925992397,0.0 -52.9079612,-26.7785772992397,0.0 -52.9078639,-26.7785412992397,0.0 -52.9077171,-26.7785041992397,0.0 -52.9076219,-26.7784805992397,0.0 -52.9075326,-26.7784604992397,0.0 -52.9074731,-26.7784541992397,0.0 -52.907378,-26.7784430992397,0.0 -52.9073027,-26.7784315992397,0.0 -52.9071878,-26.7784260992397,0.0 -52.907077,-26.7784275992397,0.0 -52.906972,-26.7784236992397,0.0 -52.9068749,-26.7784195992397,0.0 -52.906739,-26.7784280992397,0.0 -52.9066388,-26.7784485992397,0.0 -52.9065565,-26.7784669992397,0.0 -52.9064853,-26.7784750992397,0.0 -52.9064082,-26.7784778992397,0.0 -52.9063349,-26.7784717992397,0.0 -52.9062217,-26.7784430992397,0.0 -52.9061441,-26.7784139992397,0.0 -52.9060428,-26.7783850992397,0.0 -52.9059177,-26.7783529992397,0.0 -52.9058025,-26.7783207992397,0.0 -52.9056872,-26.7782796992397,0.0 -52.9056579,-26.7782734992397,0.0 -52.9055621,-26.7782529992397,0.0 -52.9054845,-26.7782460992397,0.0 -52.9054053,-26.7782471992397,0.0 -52.9053281,-26.7782552992397,0.0 -52.9052163,-26.7782705992397,0.0 -52.9051412,-26.7782840992397,0.0 -52.9050621,-26.7782939992397,0.0 -52.9049572,-26.7782971992397,0.0 -52.9048897,-26.7782855992397,0.0 -52.9048211,-26.7782630992397,0.0 -52.9047615,-26.7782407992397,0.0 -52.9046958,-26.7782078992397,0.0 -52.9046084,-26.7781877992397,0.0 -52.904521,-26.7781657992397,0.0 -52.9044417,-26.7781597992397,0.0 -52.9043665,-26.7781456992398,0.0 -52.9043577,-26.7780915992397,0.0 -52.9043344,-26.7779715992397,0.0 -52.9043155,-26.7778740992397,0.0 -52.9043016,-26.7776389992397,0.0 -52.9042885,-26.7775237992398,0.0 -52.9042895,-26.7774278992397,0.0 -52.9042842,-26.7773089992398,0.0 -52.9042768,-26.7772428992398,0.0 -52.9042582,-26.7771685992398,0.0 -52.9042316,-26.7770872992398,0.0 -52.9041862,-26.7769990992398,0.0 -52.9041237,-26.7768986992398,0.0 -52.9040405,-26.7767861992398,0.0 -52.9039542,-26.7766789992398,0.0 -52.9038758,-26.7765770992398,0.0 -52.9037857,-26.7764823992398,0.0 -52.9037438,-26.7764509992398,0.0 -52.9037243,-26.7764373992398,0.0 -52.9036691,-26.7763987992398,0.0 -52.9035437,-26.7763382992398,0.0 -52.9034621,-26.7763001992398,0.0 -52.9034341,-26.7762774992398,0.0 -52.903377,-26.7761896992398,0.0 -52.9033345,-26.7761293992398,0.0 -52.9032617,-26.7760262992398,0.0 -52.9031627,-26.7759053992398,0.0 -52.9030907,-26.7758370992398,0.0 -52.9029544,-26.7757326992398,0.0 -52.9028743,-26.7756555992398,0.0 -52.90277,-26.7755273992398,0.0 -52.902682,-26.7754415992398,0.0 -52.90263,-26.7753960992398,0.0 -52.9025112,-26.7753196992398,0.0 -52.9024124,-26.7752607992398,0.0 -52.9023529,-26.7752050992398,0.0 -52.902311,-26.7751437992398,0.0 -52.902281,-26.7750840992398,0.0 -52.9022686,-26.7750223992398,0.0 -52.9022621,-26.7749659992398,0.0 -52.9022727,-26.7748456992398,0.0 -52.9022686,-26.7746267992398,0.0 -52.9022575,-26.7744961992398,0.0 -52.902235,-26.7744045992398,0.0 -52.9021782,-26.7742268992398,0.0 -52.9021434,-26.7740859992398,0.0 -52.9021329,-26.7740544992398,0.0 -52.9021212,-26.7740190992398,0.0 -52.9020809,-26.7739259992398,0.0 -52.9020409,-26.7738557992398,0.0 -52.9019626,-26.7737580992398,0.0 -52.9019068,-26.7736792992398,0.0 -52.9018647,-26.7735914992398,0.0 -52.9018423,-26.7735122992398,0.0 -52.9018175,-26.7733907992398,0.0 -52.9018066,-26.7732743992398,0.0 -52.9018015,-26.7731560992398,0.0 -52.9018142,-26.7730500992398,0.0 -52.9018287,-26.7729483992398,0.0 -52.9018254,-26.7728805992398,0.0 -52.901807,-26.7728013992398,0.0 -52.9017929,-26.7727644992398,0.0 -52.9017902,-26.7727596992398,0.0 -52.9017689,-26.7727223992398,0.0 -52.9017173,-26.7726797992398,0.0 -52.901624,-26.7726307992398,0.0 -52.901557,-26.7726050992398,0.0 -52.9014958,-26.7725934992398,0.0 -52.9013603,-26.7725835992398,0.0 -52.9013092,-26.7725717992399,0.0 -52.9012776,-26.7725509992398,0.0 -52.9012436,-26.7725092992398,0.0 -52.9011958,-26.7724332992399,0.0 -52.9010544,-26.7722339992399,0.0 -52.9008856,-26.7720152992399,0.0 -52.9007868,-26.7719034992399,0.0 -52.9006723,-26.7717805992399,0.0 -52.9005382,-26.7716514992399,0.0 -52.9004475,-26.7715571992399,0.0 -52.9003866,-26.7715115992399,0.0 -52.9002864,-26.7714511992399,0.0 -52.9001336,-26.7713726992399,0.0 -52.8999926,-26.7713156992399,0.0 -52.8998811,-26.7712811992399,0.0 -52.8997294,-26.7712473992399,0.0 -52.8996022,-26.7712134992399,0.0 -52.8995395,-26.7711860992399,0.0 -52.8994924,-26.7711584992399,0.0 -52.8994354,-26.7711187992399,0.0 -52.8993702,-26.7710492992399,0.0 -52.899315,-26.7709937992399,0.0 -52.8992539,-26.7709347992399,0.0 -52.8992047,-26.7708896992399,0.0 -52.8991555,-26.7708516992399,0.0 -52.899075,-26.7708138992399,0.0 -52.8989594,-26.7707712992399,0.0 -52.8989523,-26.7707686992399,0.0 -52.8988349,-26.7707399992399,0.0 -52.8987786,-26.7707347992399,0.0 -52.8987166,-26.7707332992399,0.0 -52.8986449,-26.7707439992399,0.0 -52.8985612,-26.7707674992399,0.0 -52.8984911,-26.7707926992399,0.0 -52.8984,-26.7708070992399,0.0 -52.8983517,-26.7708071992399,0.0 -52.8982975,-26.7707967992399,0.0 -52.8982388,-26.7707762992399,0.0 -52.8982014,-26.7707486992399,0.0 -52.8981521,-26.7706930992399,0.0 -52.8980812,-26.7706342992399,0.0 -52.8979712,-26.7705686992399,0.0 -52.8978433,-26.7704735992399,0.0 -52.8977882,-26.7704285992399,0.0 -52.8977553,-26.7703918992399,0.0 -52.8977294,-26.7703342992399,0.0 -52.8977093,-26.7702767992399,0.0 -52.8976814,-26.7702227992399,0.0 -52.8976485,-26.7701842992399,0.0 -52.8975954,-26.7701427992399,0.0 -52.8975344,-26.7700995992399,0.0 -52.8974657,-26.7700598992399,0.0 -52.8974027,-26.7700148992399,0.0 -52.897364,-26.7699677992399,0.0 -52.8973382,-26.7699312992399,0.0 -52.8973142,-26.7698754992399,0.0 -52.8972786,-26.7698267992399,0.0 -52.8972184,-26.7697487992399,0.0 -52.8972141,-26.7697431992399,0.0 -52.897182,-26.7697056992399,0.0 -52.8970995,-26.7696094992399,0.0 -52.8970657,-26.7695449992399,0.0 -52.8970459,-26.7695206992399,0.0 -52.8970164,-26.7694981992399,0.0 -52.8969702,-26.7694791992399,0.0 -52.8967888,-26.7694175992399,0.0 -52.896726,-26.7693918992399,0.0 -52.8966828,-26.7693624992399,0.0 -52.8966493,-26.7693330992399,0.0 -52.8966215,-26.7692912992399,0.0 -52.8966075,-26.7692581992399,0.0 -52.896603,-26.7691969992399,0.0 -52.8966078,-26.7690867992399,0.0 -52.8966125,-26.7690272992399,0.0 -52.8966148,-26.7689974992399,0.0 -52.8966027,-26.7689643992399,0.0 -52.896587,-26.7689504992399,0.0 -52.8965536,-26.7689349992399,0.0 -52.8964065,-26.7688801992399,0.0 -52.8961849,-26.7688083992399,0.0 -52.8960387,-26.7687465992399,0.0 -52.8959593,-26.7687104992399,0.0 -52.895861,-26.7686605992399,0.0 -52.8957883,-26.7686190992399,0.0 -52.8957549,-26.7685983992399,0.0 -52.8956519,-26.7685554992399,0.0 -52.8956087,-26.7685382992399,0.0 -52.895589,-26.7685209992399,0.0 -52.895579,-26.7684965992399,0.0 -52.8955671,-26.7684721992399,0.0 -52.8955668,-26.7684476992399,0.0 -52.8955782,-26.7684125992399,0.0 -52.8956061,-26.7683425992399,0.0 -52.8956342,-26.7682216992399,0.0 -52.8956281,-26.7681920992399,0.0 -52.8956142,-26.7681763992399,0.0 -52.8955488,-26.7681595992399,0.0 -52.8954774,-26.7681357992399,0.0 -52.8954087,-26.7681065992399,0.0 -52.895389,-26.7680892992399,0.0 -52.895383,-26.7680752992399,0.0 -52.895386,-26.7680597992399,0.0 -52.8954053,-26.7680403992399,0.0 -52.8954404,-26.7680243992399,0.0 -52.8954578,-26.7680085992399,0.0 -52.8954722,-26.7679614992399,0.0 -52.8954813,-26.7678880992399,0.0 -52.8954939,-26.7677830992399,0.0 -52.8954935,-26.7677411992399,0.0 -52.8954894,-26.7677167992399,0.0 -52.8954812,-26.7676783992399,0.0 -52.8954435,-26.7676209992399,0.0 -52.8954199,-26.7676001992399,0.0 -52.8953866,-26.7675881992399,0.0 -52.8953709,-26.7675847992399,0.0 -52.8953417,-26.76759549924,0.0 -52.8953086,-26.7676131992399,0.0 -52.8952834,-26.7676237992399,0.0 -52.8952658,-26.76762389924,0.0 -52.8952325,-26.7676188992399,0.0 -52.8952011,-26.7676033992399,0.0 -52.8951728,-26.7675776992399,0.0 -52.8951233,-26.7675185992399,0.0 -52.8951095,-26.76749599924,0.0 -52.8951014,-26.7674698992399,0.0 -52.8951012,-26.7674540992399,0.0 -52.8951185,-26.7674172992399,0.0 -52.8951357,-26.76738399924,0.0 -52.8951433,-26.76735949924,0.0 -52.8951431,-26.7673349992399,0.0 -52.8951429,-26.7673192992399,0.0 -52.8951369,-26.76730359924,0.0 -52.8951192,-26.7672862992399,0.0 -52.8950935,-26.76726369924,0.0 -52.8950778,-26.76725159924,0.0 -52.8950523,-26.7672464992399,0.0 -52.8950321,-26.76724699924,0.0 -52.8950027,-26.7672349992399,0.0 -52.8949971,-26.7672306992399,0.0 -52.8949692,-26.76720899924,0.0 -52.8949514,-26.7671811992399,0.0 -52.8949334,-26.7671410992399,0.0 -52.8949253,-26.76711149924,0.0 -52.8949007,-26.76706309924,0.0 -52.8948887,-26.76702649924,0.0 -52.8948628,-26.76697429924,0.0 -52.8948487,-26.76693249924,0.0 -52.8948522,-26.76689229924,0.0 -52.89485,-26.76686079924,0.0 -52.8948392,-26.76682289924,0.0 -52.8948289,-26.76676889924,0.0 -52.8948219,-26.76671699924,0.0 -52.8948138,-26.76668739924,0.0 -52.894794,-26.76665429924,0.0 -52.8947664,-26.76662829924,0.0 -52.8947205,-26.76659599924,0.0 -52.894642,-26.76655279924,0.0 -52.8946163,-26.76652679924,0.0 -52.8945977,-26.76647679924,0.0 -52.8945854,-26.76641749924,0.0 -52.894575,-26.76634599924,0.0 -52.894565,-26.76631989924,0.0 -52.8945432,-26.76629209924,0.0 -52.8945118,-26.76627309924,0.0 -52.8944686,-26.76625239924,0.0 -52.8944073,-26.76623239924,0.0 -52.8943485,-26.76620999924,0.0 -52.8943073,-26.76619279924,0.0 -52.8942778,-26.76617209924,0.0 -52.8942556,-26.76614659924,0.0 -52.8942298,-26.76610139924,0.0 -52.8941663,-26.76599879924,0.0 -52.8941424,-26.76595179924,0.0 -52.8941227,-26.76592919924,0.0 -52.894107,-26.76592059924,0.0 -52.8940758,-26.76591199924,0.0 -52.8940368,-26.76590809924,0.0 -52.893975,-26.76590719924,0.0 -52.8939093,-26.76590459924,0.0 -52.8938489,-26.76589749924,0.0 -52.893808,-26.76588069924,0.0 -52.8937729,-26.76586039924,0.0 -52.8937552,-26.76584499924,0.0 -52.8937431,-26.76582079924,0.0 -52.8937328,-26.76578629924,0.0 -52.8937104,-26.76574559924,0.0 -52.8936805,-26.76569919924,0.0 -52.8936547,-26.76566139924,0.0 -52.8936251,-26.76562879924,0.0 -52.8935899,-26.76560839924,0.0 -52.893555,-26.76560019924,0.0 -52.8935298,-26.76559709924,0.0 -52.8935068,-26.76560259924,0.0 -52.8934876,-26.76561159924,0.0 -52.8934746,-26.76563429924,0.0 -52.8934578,-26.76566749924,0.0 -52.8934428,-26.76569029924,0.0 -52.8934296,-26.76570259924,0.0 -52.8933932,-26.76572049924,0.0 -52.8933778,-26.76573529924,0.0 -52.8933531,-26.76575649924,0.0 -52.893334,-26.76576549924,0.0 -52.8932897,-26.76577299924,0.0 -52.8932588,-26.76577339924,0.0 -52.8932298,-26.76576859924,0.0 -52.8932007,-26.76576209924,0.0 -52.8931751,-26.76574159924,0.0 -52.8931611,-26.76571749924,0.0 -52.893151,-26.76569509924,0.0 -52.8931488,-26.76568119924,0.0 -52.8931523,-26.76565859924,0.0 -52.8931654,-26.76563929924,0.0 -52.8931842,-26.76561479924,0.0 -52.8931897,-26.76559909924,0.0 -52.8931818,-26.76559049924,0.0 -52.8931585,-26.76558559924,0.0 -52.8931295,-26.76558079924,0.0 -52.8931196,-26.76557219924,0.0 -52.8931116,-26.76555669924,0.0 -52.8931074,-26.76553939924,0.0 -52.893107,-26.76551859924,0.0 -52.8931029,-26.76550999924,0.0 -52.8930913,-26.76550489924,0.0 -52.8930777,-26.76550339924,0.0 -52.8930528,-26.76551589924,0.0 -52.8930221,-26.76552499924,0.0 -52.893001,-26.76553219924,0.0 -52.8929663,-26.76553609924,0.0 -52.8929335,-26.76553829924,0.0 -52.8929141,-26.76553509924,0.0 -52.8928985,-26.76552659924,0.0 -52.8928924,-26.76551109924,0.0 -52.8928874,-26.76545729924,0.0 -52.8928907,-26.76542949924,0.0 -52.8929002,-26.76541899924,0.0 -52.8929134,-26.76540319924,0.0 -52.892915,-26.76538399924,0.0 -52.8929106,-26.76535979924,0.0 -52.8929006,-26.76534259924,0.0 -52.8928653,-26.76531699924,0.0 -52.8927991,-26.76529179924,0.0 -52.8927408,-26.76527349924,0.0 -52.8927232,-26.76526329924,0.0 -52.8927112,-26.76524439924,0.0 -52.892705,-26.76522359924,0.0 -52.8927064,-26.76519579924,0.0 -52.8927118,-26.76517669924,0.0 -52.892742,-26.76514589924,0.0 -52.8927971,-26.76509829924,0.0 -52.8928366,-26.76504829924,0.0 -52.8928516,-26.76502729924,0.0 -52.8928551,-26.76500809924,0.0 -52.8928528,-26.76499249924,0.0 -52.892839,-26.76497889924,0.0 -52.8928273,-26.76496859924,0.0 -52.8928059,-26.76496369924,0.0 -52.8927847,-26.76496389924,0.0 -52.8927502,-26.76497829924,0.0 -52.8927273,-26.76499249924,0.0 -52.8926966,-26.76500769924,0.0 -52.892664,-26.76502029924,0.0 -52.8926235,-26.76502599924,0.0 -52.8926022,-26.76502279924,0.0 -52.8925885,-26.76501429924,0.0 -52.8925785,-26.76499879924,0.0 -52.8925744,-26.76498499924,0.0 -52.8925761,-26.76497279924,0.0 -52.8925778,-26.76496239924,0.0 -52.8925871,-26.76494319924,0.0 -52.8925965,-26.76492919924,0.0 -52.8926117,-26.76491679924,0.0 -52.8926345,-26.76490179924,0.0 -52.8926572,-26.76487899924,0.0 -52.8926816,-26.76484049924,0.0 -52.8926981,-26.76479689924,0.0 -52.8926997,-26.76477949924,0.0 -52.8926897,-26.76476399924,0.0 -52.8926799,-26.76475719924,0.0 -52.8926372,-26.76474739924,0.0 -52.892612,-26.76473899924,0.0 -52.8925903,-26.76471669924,0.0 -52.8925353,-26.76467059924,0.0 -52.8924648,-26.76462639924,0.0 -52.8924435,-26.76461969924,0.0 -52.8924261,-26.76462339924,0.0 -52.8923957,-26.76464639924,0.0 -52.8923843,-26.76465869924,0.0 -52.8923655,-26.76468589924,0.0 -52.8923464,-26.76469829924,0.0 -52.8923119,-26.76470749924,0.0 -52.8922829,-26.76471129924,0.0 -52.8922578,-26.76470739924,0.0 -52.892244,-26.76469719924,0.0 -52.8922172,-26.76461249924,0.0 -52.8922064,-26.76455539924,0.0 -52.8922076,-26.76451719924,0.0 -52.8921956,-26.76449479924,0.0 -52.8921818,-26.76447939924,0.0 -52.8921662,-26.76447259924,0.0 -52.892108,-26.76446119924,0.0 -52.8920865,-26.76445109924,0.0 -52.8920707,-26.76443219924,0.0 -52.892045,-26.76440129924,0.0 -52.8920059,-26.76437929924,0.0 -52.891967,-26.76436589924,0.0 -52.8917942,-26.76432989924,0.0 -52.8917436,-26.76431149924,0.0 -52.8917122,-26.76428749924,0.0 -52.8916648,-26.76423019924,0.0 -52.8915751,-26.76409429924,0.0 -52.8915626,-26.76404929924,0.0 -52.891564,-26.76402319924,0.0 -52.8915922,-26.76397949924,0.0 -52.8916888,-26.76388279924,0.0 -52.8917189,-26.76383909924,0.0 -52.8917522,-26.76376409924,0.0 -52.8917535,-26.76373279924,0.0 -52.8917511,-26.76370849924,0.0 -52.8917411,-26.76369299924,0.0 -52.8916881,-26.76365379924,0.0 -52.8916507,-26.76361779924,0.0 -52.8916025,-26.76352809924,0.0 -52.8915747,-26.76349199924,0.0 -52.8915335,-26.76345779924,0.0 -52.8914435,-26.76340509924,0.0 -52.8913188,-26.76334889924,0.0 -52.8912312,-26.76331689924,0.0 -52.8911501,-26.76329969924,0.0 -52.891005,-26.76327109924,0.0 -52.8909097,-26.76323929924,0.0 -52.8908434,-26.76320709924,0.0 -52.8908061,-26.76318149924,0.0 -52.8907647,-26.76314039924,0.0 -52.8906998,-26.76306789924,0.0 -52.8905522,-26.76292009924,0.0 -52.8904931,-26.76286359924,0.0 -52.8903892,-26.76279189924,0.0 -52.8902933,-26.76273409924,0.0 -52.8901939,-26.76269359924,0.0 -52.890109,-26.76267079924,0.0 -52.8900505,-26.76265509924,0.0 -52.8899396,-26.76262339924,0.0 -52.8898232,-26.76257759924,0.0 -52.8897481,-26.76253979924,0.0 -52.8896585,-26.76247989924,0.0 -52.8895008,-26.76236689924,0.0 -52.8893719,-26.7622692992401,0.0 -52.8892427,-26.76215619924,0.0 -52.8891859,-26.7621186992401,0.0 -52.8891001,-26.76208159924,0.0 -52.888981,-26.76204799924,0.0 -52.8888721,-26.7620127992401,0.0 -52.888791,-26.76198069924,0.0 -52.8886991,-26.7619244992401,0.0 -52.8886637,-26.7618971992401,0.0 -52.8885933,-26.7618181992401,0.0 -52.8884867,-26.7617067992401,0.0 -52.8883694,-26.7615970992401,0.0 -52.8882466,-26.7615048992401,0.0 -52.8882398,-26.7614997992401,0.0 -52.8881003,-26.7613851992401,0.0 -52.8880469,-26.7613268992401,0.0 -52.8879753,-26.7612288992401,0.0 -52.887865,-26.7610342992401,0.0 -52.8877795,-26.7609190992401,0.0 -52.8876333,-26.7607666992401,0.0 -52.8874278,-26.7605939992401,0.0 -52.8873274,-26.7605048992401,0.0 -52.8872607,-26.7604587992401,0.0 -52.8871964,-26.7604386992401,0.0 -52.8870916,-26.7604223992401,0.0 -52.8869802,-26.7604080992401,0.0 -52.8869131,-26.7603795992401,0.0 -52.8868639,-26.7603560992401,0.0 -52.8868525,-26.7603506992401,0.0 -52.8868113,-26.7603199992401,0.0 -52.8867794,-26.7602769992401,0.0 -52.8867572,-26.7602303992401,0.0 -52.8867276,-26.7601443992401,0.0 -52.8866987,-26.7600493992401,0.0 -52.8866724,-26.7600055992401,0.0 -52.8866312,-26.7599751992401,0.0 -52.8866273,-26.7599717992401,0.0 -52.886607,-26.7599630992401,0.0 -52.8865022,-26.7594020992401,0.0 -52.8864145,-26.7590775992401,0.0 -52.8863831,-26.7589585992401,0.0 -52.8862425,-26.7585245992401,0.0 -52.8860316,-26.7581042992401,0.0 -52.8858564,-26.7576565992401,0.0 -52.8856187,-26.7571981992402,0.0 -52.8853375,-26.7570161992402,0.0 -52.8849331,-26.7563388992402,0.0 -52.8844733,-26.7557199992402,0.0 -52.8843395,-26.7550983992402,0.0 -52.8842483,-26.7547175992402,0.0 -52.8837581,-26.7543400992402,0.0 -52.883118,-26.7541208992402,0.0 -52.8826288,-26.7540459992402,0.0 -52.8820635,-26.7542302992402,0.0 -52.8817253,-26.7543973992402,0.0 -52.8813857,-26.7544814992402,0.0 -52.8809347,-26.7544731992402,0.0 -52.8806781,-26.7544530992402,0.0 -52.8801227,-26.7544946992402,0.0 -52.8796397,-26.7544921992402,0.0 -52.8792842,-26.7544757992402,0.0 -52.8790429,-26.7544077992402,0.0 -52.8788869,-26.7542482992402,0.0 -52.8785903,-26.7538271992402,0.0 -52.8785184,-26.7534076992402,0.0 -52.8783729,-26.7530300992402,0.0 -52.8782184,-26.7526201992402,0.0 -52.8780468,-26.7522273992402,0.0 -52.8778098,-26.7518585992402,0.0 -52.8776094,-26.7514754992403,0.0 -52.8773549,-26.7510837992403,0.0 -52.8770456,-26.7506695992403,0.0 -52.8769202,-26.7503015992403,0.0 -52.876745,-26.7498108992403,0.0 -52.8765995,-26.7491710992403,0.0 -52.8763048,-26.7487194992403,0.0 -52.8759519,-26.7482313992403,0.0 -52.8758114,-26.7478408992403,0.0 -52.875701,-26.7474569992403,0.0 -52.8757251,-26.7465988992403,0.0 -52.8758536,-26.7453046992404,0.0 -52.8761135,-26.7447423992404,0.0 -52.8762394,-26.7440793992404,0.0 -52.8760257,-26.7435099992404,0.0 -52.8757143,-26.7430199992404,0.0 -52.8754092,-26.7426508992404,0.0 -52.8751875,-26.7422715992404,0.0 -52.8750044,-26.7418552992404,0.0 -52.8749387,-26.7412430992405,0.0 -52.8747035,-26.7405386992405,0.0 -52.8738142,-26.7402113992405,0.0 -52.8730367,-26.7401553992405,0.0 -52.8722771,-26.7400569992405,0.0 -52.8715587,-26.7399479992405,0.0 -52.8708803,-26.7398588992405,0.0 -52.8701185,-26.7394285992405,0.0 -52.8694734,-26.7393313992405,0.0 -52.8616571,-26.7454473992404,0.0 -52.8592507,-26.7470217992404,0.0</coordinates>
</LinearRing>
</outerBoundaryIs>
</Polygon>
</MultiGeometry>
</Placemark>
</Folder>
</Document></kml>
